{"type":"FeatureCollection","features":[{"type":"Feature","properties":{"code":"1110022001","desa":"Lipat Kajang","kecamatan":"Simpang Kanan","kecCode":"111002"},"geometry":{"type":"Polygon","coordinates":[[[97.98318470241213,2.4482137140706173],[98.00095478803307,2.4440421934759544],[97.98311425401965,2.440075873890367],[97.98318470241213,2.4482137140706173]]]}},{"type":"Feature","properties":{"code":"1110022002","desa":"Kain Golong","kecamatan":"Simpang Kanan","kecCode":"111002"},"geometry":{"type":"Polygon","coordinates":[[[98.00232488358661,2.4373921826939156],[97.99854648363338,2.41508634207633],[97.97566579633951,2.4172538395059626],[97.95828748507944,2.429989561667894],[97.96441022695045,2.4351422848818287],[97.98061790059569,2.4278098892163467],[98.00232488358661,2.4373921826939156]]]}},{"type":"Feature","properties":{"code":"1110022003","desa":"Kuta Kerangan","kecamatan":"Simpang Kanan","kecCode":"111002"},"geometry":{"type":"Polygon","coordinates":[[[97.98672158043668,2.410577706116485],[97.98912639636615,2.419409551320267],[97.99096578064632,2.414815265727489],[97.98672158043668,2.410577706116485]]]}},{"type":"Feature","properties":{"code":"1110022003","desa":"Kuta Kerangan","kecamatan":"Simpang Kanan","kecCode":"111002"},"geometry":{"type":"Polygon","coordinates":[[[97.99808216995626,2.437768366407361],[98.00465234343095,2.446607826170955],[98.01425234007348,2.447950961846627],[98.0104868876598,2.4377712963986133],[97.99808216995626,2.437768366407361]]]}},{"type":"Feature","properties":{"code":"1110022004","desa":"Siatas","kecamatan":"Simpang Kanan","kecCode":"111002"},"geometry":{"type":"Polygon","coordinates":[[[98.03887409056686,2.442633769717801],[98.03659584432278,2.4265366335615313],[98.05315430842465,2.420163110348981],[98.02874683759654,2.408278918460118],[98.02706998509177,2.4326074611614374],[98.0198060323226,2.4310501717258175],[98.01914718629365,2.448003176484583],[98.03887409056686,2.442633769717801]]]}},{"type":"Feature","properties":{"code":"1110022005","desa":"Pangi","kecamatan":"Simpang Kanan","kecCode":"111002"},"geometry":{"type":"Polygon","coordinates":[[[97.99096578064632,2.414815265727489],[98.00820392986753,2.4227075271376],[98.00894094856596,2.43032845948938],[98.02697990539838,2.4328184484085025],[98.02465456975267,2.4149677925449793],[98.00280981422164,2.4055913394944315],[97.99096578064632,2.414815265727489]]]}},{"type":"Feature","properties":{"code":"1110022006","desa":"Sukarejo","kecamatan":"Simpang Kanan","kecCode":"111002"},"geometry":{"type":"Polygon","coordinates":[[[98.00321121942233,2.4328703734647723],[98.00577685301941,2.440385082393184],[98.01972890556459,2.436179952335057],[98.0198060323226,2.4310501717258175],[98.00321121942233,2.4328703734647723]]]}},{"type":"Feature","properties":{"code":"1110022007","desa":"Ujung Limus","kecamatan":"Simpang Kanan","kecCode":"111002"},"geometry":{"type":"Polygon","coordinates":[[[97.99442332407722,2.447180242854015],[97.9803416774265,2.450438436261327],[97.97048495131952,2.4725196631042943],[97.97188614542932,2.4764053890454902],[97.99567219641476,2.467129994611773],[97.99442332407722,2.447180242854015]]]}},{"type":"Feature","properties":{"code":"1110022008","desa":"Silatong","kecamatan":"Simpang Kanan","kecCode":"111002"},"geometry":{"type":"Polygon","coordinates":[[[98.00095478803307,2.4440421934759544],[97.996303662584,2.451247229851446],[98.01157261758232,2.4544168175542396],[98.01104085924833,2.447959146576578],[98.00095478803307,2.4440421934759544]]]}},{"type":"Feature","properties":{"code":"1110022009","desa":"Pertabas","kecamatan":"Simpang Kanan","kecCode":"111002"},"geometry":{"type":"Polygon","coordinates":[[[98.05315430842465,2.420163110348981],[98.03659584432278,2.4265366335615313],[98.03624446840759,2.4374235717312485],[98.05744319864476,2.4473600407132197],[98.06468437068719,2.4405666483195034],[98.0511321756095,2.4313690155650476],[98.07711908797557,2.417508858459647],[98.07493292061787,2.4116101449113803],[98.05982120398545,2.4238406944981628],[98.05315430842465,2.420163110348981]]]}},{"type":"Feature","properties":{"code":"1110022010","desa":"Lae Riman","kecamatan":"Simpang Kanan","kecCode":"111002"},"geometry":{"type":"Polygon","coordinates":[[[98.0143808459993,2.447074165120855],[98.01157261758232,2.4544168175542396],[98.02688491001066,2.4609689488229036],[98.0341678222872,2.450958460240669],[98.0143808459993,2.447074165120855]]]}},{"type":"Feature","properties":{"code":"1110022011","desa":"Pakiraman","kecamatan":"Simpang Kanan","kecCode":"111002"},"geometry":{"type":"Polygon","coordinates":[[[98.03887409056686,2.442633769717801],[98.03393532055867,2.451658328843994],[98.03922485224517,2.448439217274741],[98.04999387042085,2.4554264243610557],[98.05744319864476,2.4473600407132197],[98.03887409056686,2.442633769717801]]]}},{"type":"Feature","properties":{"code":"1110022012","desa":"Kuta Batu","kecamatan":"Simpang Kanan","kecCode":"111002"},"geometry":{"type":"Polygon","coordinates":[[[98.0712592907837,2.462617621069511],[98.06954727658557,2.4550851046652244],[98.05671507783865,2.4587885011557917],[98.04382476490103,2.47529733165578],[98.05893508938293,2.478873442600644],[98.06106758070435,2.4693965883376454],[98.0712592907837,2.462617621069511]]]}},{"type":"Feature","properties":{"code":"1110022013","desa":"Lae Nipe","kecamatan":"Simpang Kanan","kecCode":"111002"},"geometry":{"type":"Polygon","coordinates":[[[98.05786127637685,2.458707346334441],[98.03922485224517,2.448439217274741],[98.03477207137405,2.4515890306844983],[98.04635047939115,2.455392835582003],[98.04983328837562,2.465019940478409],[98.05786127637685,2.458707346334441]]]}},{"type":"Feature","properties":{"code":"1110022014","desa":"Kuta Tinggi","kecamatan":"Simpang Kanan","kecCode":"111002"},"geometry":{"type":"Polygon","coordinates":[[[98.065208309416,2.4434247378455427],[98.05298805165732,2.4496479007074443],[98.05857431195498,2.4594019682928883],[98.06954727658557,2.4550851046652244],[98.07131881690991,2.4635571491052963],[98.08310037188471,2.463008017668641],[98.10013282726823,2.4557055856149947],[98.09677104994404,2.4420829925217697],[98.065208309416,2.4434247378455427]]]}},{"type":"Feature","properties":{"code":"1110022015","desa":"Tuhtuhan","kecamatan":"Simpang Kanan","kecCode":"111002"},"geometry":{"type":"Polygon","coordinates":[[[98.07619717855697,2.4221997357366973],[98.05547523469437,2.4272251104524254],[98.05199301836318,2.4346614191829348],[98.07464078574372,2.443580678489536],[98.07619717855697,2.4221997357366973]]]}},{"type":"Feature","properties":{"code":"1110022016","desa":"Lae Gecih","kecamatan":"Simpang Kanan","kecCode":"111002"},"geometry":{"type":"Polygon","coordinates":[[[98.04488369502656,2.411998196078599],[98.05942380076783,2.4239403294881687],[98.07493292061787,2.4116101449113803],[98.07464078574372,2.443580678489536],[98.09773477963643,2.441694787570463],[98.11771966702905,2.454760780357515],[98.14823063423643,2.4219739384542365],[98.1126574686673,2.419918911138818],[98.09004020718987,2.3990879029171976],[98.0450511442949,2.403253835124642],[98.04488369502656,2.411998196078599]]]}},{"type":"Feature","properties":{"code":"1110022017","desa":"Guha","kecamatan":"Simpang Kanan","kecCode":"111002"},"geometry":{"type":"Polygon","coordinates":[[[98.09667682527532,2.4432886218567824],[98.09744917024307,2.4592481770286296],[98.07714793732748,2.4618209980047223],[98.07874457210437,2.48265303415141],[98.09473556759241,2.484560052843238],[98.11771966702905,2.454760780357515],[98.09667682527532,2.4432886218567824]]]}},{"type":"Feature","properties":{"code":"1110022018","desa":"Lae Gambir","kecamatan":"Simpang Kanan","kecCode":"111002"},"geometry":{"type":"Polygon","coordinates":[[[98.07779758598986,2.46280402265049],[98.06106758070435,2.4693965883376454],[98.05926322861518,2.482576366947036],[98.0807988655752,2.4792688673093015],[98.07779758598986,2.46280402265049]]]}},{"type":"Feature","properties":{"code":"1110022019","desa":"Cibubukan","kecamatan":"Simpang Kanan","kecCode":"111002"},"geometry":{"type":"Polygon","coordinates":[[[97.95997387939109,2.4539554032918702],[97.96681785595932,2.4520206423135735],[97.96798286291884,2.4408287188573166],[97.95997387939109,2.4539554032918702]]]}},{"type":"Feature","properties":{"code":"1110022020","desa":"Serasah","kecamatan":"Simpang Kanan","kecCode":"111002"},"geometry":{"type":"Polygon","coordinates":[[[97.96281075571186,2.469797515997878],[97.96155465372435,2.4446042841433053],[97.92595729099621,2.45342023382997],[97.93189720159467,2.4704607138454038],[97.94745884095282,2.4704227300795267],[97.95245655342727,2.4780727554995003],[97.96281075571186,2.469797515997878]]]}},{"type":"Feature","properties":{"code":"1110022021","desa":"Tugan","kecamatan":"Simpang Kanan","kecCode":"111002"},"geometry":{"type":"Polygon","coordinates":[[[97.9837557557236,2.434189099741467],[97.97528788502791,2.429427528557145],[97.96308708230305,2.437128064399757],[97.96962165791325,2.441003796175111],[97.9837557557236,2.434189099741467]]]}},{"type":"Feature","properties":{"code":"1110022022","desa":"Tanjung Mas","kecamatan":"Simpang Kanan","kecCode":"111002"},"geometry":{"type":"Polygon","coordinates":[[[97.98318470241213,2.4482137140706173],[97.9794750205558,2.4352588621999205],[97.97011756927047,2.4388484926530243],[97.96281075571186,2.469797515997878],[97.95245655342727,2.4780727554995003],[97.96090739006405,2.4891977271274346],[97.9679228682458,2.4864352130517116],[97.98318470241213,2.4482137140706173]]]}},{"type":"Feature","properties":{"code":"1110022023","desa":"Lipat Kajang Atas","kecamatan":"Simpang Kanan","kecCode":"111002"},"geometry":{"type":"Polygon","coordinates":[[[97.98311425401965,2.440075873890367],[97.99604215142419,2.4425599272839857],[97.99804566197776,2.4378489915280843],[97.98252182202451,2.4297547324941298],[97.98311425401965,2.440075873890367]]]}},{"type":"Feature","properties":{"code":"1110022024","desa":"Sidodadi","kecamatan":"Simpang Kanan","kecCode":"111002"},"geometry":{"type":"Polygon","coordinates":[[[98.00820392986753,2.4227075271376],[97.9961596514468,2.4224302292788775],[98.00262059326582,2.4329954214971443],[98.00894094856596,2.43032845948938],[98.00820392986753,2.4227075271376]]]}},{"type":"Feature","properties":{"code":"1110022025","desa":"Pandan Sari","kecamatan":"Simpang Kanan","kecCode":"111002"},"geometry":{"type":"Polygon","coordinates":[[[98.0104868876598,2.4377712963986133],[98.0143808459993,2.447074165120855],[98.01914718629365,2.448003176484583],[98.01965924857551,2.436565800163265],[98.0104868876598,2.4377712963986133]]]}},{"type":"Feature","properties":{"code":"1110042001","desa":"Pasar","kecamatan":"Singkil","kecCode":"111004"},"geometry":{"type":"Polygon","coordinates":[[[97.79991137341119,2.3042255717897517],[97.79303509859095,2.2833812688904174],[97.78529476324279,2.2313998098704646],[97.78031216837195,2.239225886573903],[97.78132914872128,2.264296716201398],[97.79312951571463,2.306228984315019],[97.79991137341119,2.3042255717897517]]]}},{"type":"Feature","properties":{"code":"1110042002","desa":"Ujung","kecamatan":"Singkil","kecCode":"111004"},"geometry":{"type":"Polygon","coordinates":[[[97.78896986077054,2.2889125877995924],[97.78031216837195,2.239225886573903],[97.77786799361307,2.2395367669164],[97.77364313062606,2.2668782794871007],[97.78119528193679,2.2695339621977433],[97.77836028699771,2.286842540906648],[97.78896986077054,2.2889125877995924]]]}},{"type":"Feature","properties":{"code":"1110042003","desa":"Pulo Sarok","kecamatan":"Singkil","kecCode":"111004"},"geometry":{"type":"Polygon","coordinates":[[[97.78604429330953,2.2313998107697897],[97.78861252055144,2.260818681721547],[97.79812103006155,2.2995504416417205],[97.8063756885872,2.2929357283506238],[97.80252963443513,2.286385813011497],[97.81168844256763,2.2868729209046665],[97.83345466570034,2.2644502673467017],[97.80019611585811,2.2707127395751288],[97.7953317638499,2.2451504349465843],[97.78604429330953,2.2313998107697897]]]}},{"type":"Feature","properties":{"code":"1110042004","desa":"Kilangan","kecamatan":"Singkil","kecCode":"111004"},"geometry":{"type":"Polygon","coordinates":[[[97.77982863258539,2.2868203501351982],[97.78119528193679,2.2695339621977433],[97.77651480441476,2.2714664020258524],[97.77189835862241,2.2547342302918865],[97.75194591607124,2.279407176464308],[97.76570245420498,2.2837738661304887],[97.746879105986,2.304908654547065],[97.74639951372666,2.3143805688340393],[97.75804407677276,2.3158808052791495],[97.76419444761574,2.300260299014977],[97.77982863258539,2.2868203501351982]]]}},{"type":"Feature","properties":{"code":"1110042005","desa":"Kuta Simboling","kecamatan":"Singkil","kecCode":"111004"},"geometry":{"type":"Polygon","coordinates":[[[97.79312951571463,2.306228984315019],[97.79166198581203,2.298642871014847],[97.78588702166877,2.2909869037741406],[97.78628515063923,2.3053959890693916],[97.79312951571463,2.306228984315019]]]}},{"type":"Feature","properties":{"code":"1110042007","desa":"Teluk Ambun","kecamatan":"Singkil","kecCode":"111004"},"geometry":{"type":"Polygon","coordinates":[[[97.79812103006155,2.2995504416417205],[97.80733052758181,2.2989124742741405],[97.8063756885872,2.2929357283506238],[97.80274802040486,2.2949756668407835],[97.79812103006155,2.2995504416417205]]]}},{"type":"Feature","properties":{"code":"1110042008","desa":"Rantau Gedang","kecamatan":"Singkil","kecCode":"111004"},"geometry":{"type":"Polygon","coordinates":[[[97.7910865492049,2.3068242087044473],[97.77852467587313,2.301037184658889],[97.78250625695824,2.3179639651868067],[97.73812326697526,2.336914179846597],[97.74999999990011,2.374999998110718],[97.7910865492049,2.3068242087044473]]]}},{"type":"Feature","properties":{"code":"1110042009","desa":"Teluk Rumbia","kecamatan":"Singkil","kecCode":"111004"},"geometry":{"type":"Polygon","coordinates":[[[97.79991137341119,2.3042255717897517],[97.7910865492049,2.3068242087044473],[97.74999999990011,2.374999998110718],[97.76343952431465,2.4399163890181974],[97.78777075871356,2.419675103133732],[97.79356344489713,2.409972915638468],[97.79137433855492,2.387320446627048],[97.80165361202461,2.38384643391536],[97.80646012233684,2.3726629667843318],[97.77685962786961,2.360099413532714],[97.77823971579032,2.354531474229884],[97.79889343708254,2.348868356977075],[97.80518314438666,2.3380338789602133],[97.79991137341119,2.3042255717897517]]]}},{"type":"Feature","properties":{"code":"1110042010","desa":"Pea Bumbung","kecamatan":"Singkil","kecCode":"111004"},"geometry":{"type":"Polygon","coordinates":[[[97.83557445499719,2.3794161837642993],[97.87427847357274,2.352577711476087],[97.86484739569083,2.343910293818415],[97.86219998404209,2.327662075155915],[97.86881092288581,2.320213210990328],[97.85698043579849,2.3075639442539773],[97.85975178841437,2.2995268128543334],[97.82884338201654,2.303285336886854],[97.83557445499719,2.3794161837642993]]]}},{"type":"Feature","properties":{"code":"1110042011","desa":"Pemuka","kecamatan":"Singkil","kecCode":"111004"},"geometry":{"type":"Polygon","coordinates":[[[97.86721372962997,2.2902150165622137],[97.84198216594427,2.2588359131337805],[97.83918091986361,2.260975133180426],[97.85578788170544,2.2915032720094257],[97.86721372962997,2.2902150165622137]]]}},{"type":"Feature","properties":{"code":"1110042012","desa":"Takal Pasir","kecamatan":"Singkil","kecCode":"111004"},"geometry":{"type":"Polygon","coordinates":[[[97.79890586841117,2.301246554025553],[97.80518314438666,2.3380338789602133],[97.79889343708254,2.348868356977075],[97.77676444991948,2.357767541616973],[97.77923908831332,2.3637161936191085],[97.79908379388206,2.3658101193108996],[97.80646012233684,2.3726629667843318],[97.80165361202461,2.38384643391536],[97.79137433855492,2.387320446627048],[97.79356344489713,2.409972915638468],[97.7877657324027,2.419639022333297],[97.82901257956695,2.3849868947777164],[97.8171505577521,2.298932062407582],[97.79890586841117,2.301246554025553]]]}},{"type":"Feature","properties":{"code":"1110042014","desa":"Selok Aceh","kecamatan":"Singkil","kecCode":"111004"},"geometry":{"type":"Polygon","coordinates":[[[97.83345466570034,2.2644502673467017],[97.81130142921761,2.292885870835776],[97.82293013092084,2.3192001157133775],[97.82901257956695,2.3849868947777164],[97.83557445499719,2.3794161837642993],[97.82884338201654,2.303285336886854],[97.83718491505188,2.3033741323482606],[97.84467985059467,2.2791590076466646],[97.83345466570034,2.2644502673467017]]]}},{"type":"Feature","properties":{"code":"1110042016","desa":"Suka Makmur","kecamatan":"Singkil","kecCode":"111004"},"geometry":{"type":"Polygon","coordinates":[[[97.77972839055286,2.2892429285717775],[97.77099800955055,2.2981764790049772],[97.7856652155773,2.302165387761746],[97.78575176543171,2.2906853736829667],[97.77972839055286,2.2892429285717775]]]}},{"type":"Feature","properties":{"code":"1110042017","desa":"Ujung Bawang","kecamatan":"Singkil","kecCode":"111004"},"geometry":{"type":"Polygon","coordinates":[[[97.83733923241971,2.300750104874277],[97.86253494912864,2.2994946881715337],[97.86338615384794,2.2946643800046758],[97.84837112602668,2.28219036055796],[97.83918091986361,2.260975133180426],[97.83729342455193,2.271801826665669],[97.84467985059467,2.2791590076466646],[97.83733923241971,2.300750104874277]]]}},{"type":"Feature","properties":{"code":"1110042019","desa":"Siti Ambia","kecamatan":"Singkil","kecCode":"111004"},"geometry":{"type":"Polygon","coordinates":[[[97.80974045255988,2.2859777753111823],[97.80252963443513,2.286385813011497],[97.80733052758181,2.2989124742741405],[97.81132894757292,2.2983218400244216],[97.80974045255988,2.2859777753111823]]]}},{"type":"Feature","properties":{"code":"1110042019","desa":"Siti Ambia","kecamatan":"Singkil","kecCode":"111004"},"geometry":{"type":"Polygon","coordinates":[[[97.7891501883306,2.300118306855908],[97.78896986077054,2.2889125877995924],[97.77982863258539,2.2868203501351982],[97.7891501883306,2.300118306855908]]]}},{"type":"Feature","properties":{"code":"1110042020","desa":"Suka Damai","kecamatan":"Singkil","kecCode":"111004"},"geometry":{"type":"Polygon","coordinates":[[[97.84198216594427,2.2588359131337805],[97.85484581128519,2.280492177035485],[97.86999321031846,2.2895259838902393],[97.86733438357497,2.27101348006163],[97.85692847656797,2.2578239680896983],[97.86718147904206,2.2482688107555417],[97.84198216594427,2.2588359131337805]]]}},{"type":"Feature","properties":{"code":"1110062001","desa":"Tanjung Betik","kecamatan":"Gunung Meriah","kecCode":"111006"},"geometry":{"type":"Polygon","coordinates":[[[97.95819128280151,2.430679135731705],[97.96863113022253,2.4255559525489514],[97.9767392073486,2.414291762271136],[97.95818379234822,2.419591257540857],[97.95819128280151,2.430679135731705]]]}},{"type":"Feature","properties":{"code":"1110062002","desa":"Penjahitan","kecamatan":"Gunung Meriah","kecCode":"111006"},"geometry":{"type":"Polygon","coordinates":[[[97.96441022695045,2.4351422848818287],[97.95518603540728,2.4286259466305458],[97.95818379234822,2.419591257540857],[97.9483893748698,2.420309901290482],[97.94614409327532,2.4482140018536707],[97.96241932579129,2.444788080388325],[97.96441022695045,2.4351422848818287]]]}},{"type":"Feature","properties":{"code":"1110062003","desa":"Bukit Harapan","kecamatan":"Gunung Meriah","kecCode":"111006"},"geometry":{"type":"Polygon","coordinates":[[[97.93366244756396,2.449350279069844],[97.9478929167248,2.445795663720481],[97.94808442105925,2.418477916634132],[97.93682233158539,2.4133769125316302],[97.93828880568388,2.390021951594608],[97.91848199304961,2.3830048033794924],[97.9170701869396,2.39781352850578],[97.90595064360734,2.4006867122530964],[97.9076355027763,2.4275974774432068],[97.90264856597861,2.4330433418723043],[97.9245443760222,2.4352040260382046],[97.93366244756396,2.449350279069844]]]}},{"type":"Feature","properties":{"code":"1110062004","desa":"Cingkam","kecamatan":"Gunung Meriah","kecCode":"111006"},"geometry":{"type":"Polygon","coordinates":[[[97.93682233158539,2.4133769125316302],[97.96469038825086,2.419383560013853],[97.95500286509018,2.4101418433920956],[97.95822180489246,2.3952211086043587],[97.9382228853779,2.3875102971080358],[97.93682233158539,2.4133769125316302]]]}},{"type":"Feature","properties":{"code":"1110062005","desa":"Labuhan Kera","kecamatan":"Gunung Meriah","kecCode":"111006"},"geometry":{"type":"Polygon","coordinates":[[[97.96664004829967,2.396078572604194],[97.96984008255384,2.3923625604240573],[97.96430663404395,2.3927859207734206],[97.96664004829967,2.396078572604194]]]}},{"type":"Feature","properties":{"code":"1110062006","desa":"Tanah Bara","kecamatan":"Gunung Meriah","kecCode":"111006"},"geometry":{"type":"Polygon","coordinates":[[[97.93229089600811,2.3866492241288895],[97.95077614590247,2.395308447164094],[97.95940994421363,2.376023777333645],[97.94641897285737,2.3672683628124864],[97.93229089600811,2.3866492241288895]]]}},{"type":"Feature","properties":{"code":"1110062007","desa":"Rimo","kecamatan":"Gunung Meriah","kecCode":"111006"},"geometry":{"type":"Polygon","coordinates":[[[97.95416469244668,2.3937048957031357],[97.95943020593933,2.3989539677843887],[97.96664004829967,2.396078572604194],[97.96127461473172,2.389000947679517],[97.95416469244668,2.3937048957031357]]]}},{"type":"Feature","properties":{"code":"1110062008","desa":"Blok Vi Baru","kecamatan":"Gunung Meriah","kecCode":"111006"},"geometry":{"type":"Polygon","coordinates":[[[97.97234455685587,2.3865892546369607],[97.96926589060843,2.376685799767291],[97.96200584359485,2.379816170733652],[97.96437188435503,2.388512651781898],[97.97234455685587,2.3865892546369607]]]}},{"type":"Feature","properties":{"code":"1110062009","desa":"Blok 15","kecamatan":"Gunung Meriah","kecCode":"111006"},"geometry":{"type":"Polygon","coordinates":[[[97.97234358289012,2.3892828797446843],[97.99354924690027,2.413989352642995],[98.00980029934442,2.394590732414137],[97.99987929689212,2.3876395683568266],[97.97234358289012,2.3892828797446843]]]}},{"type":"Feature","properties":{"code":"1110062010","desa":"Blok 18","kecamatan":"Gunung Meriah","kecCode":"111006"},"geometry":{"type":"Polygon","coordinates":[[[97.99360189591083,2.387441760674346],[98.01569909833476,2.3954138836806655],[98.03056737838187,2.383402649063032],[98.03766785238952,2.393474794265365],[98.07089042035665,2.378951635364617],[98.05697822576457,2.3571186043190897],[98.04326820416433,2.3524303413712486],[98.03130887030817,2.3364413064227327],[98.0035732442099,2.3549631919790377],[97.99657776964841,2.3511309433238723],[97.99360189591083,2.387441760674346]]]}},{"type":"Feature","properties":{"code":"1110062011","desa":"Blok 31","kecamatan":"Gunung Meriah","kecCode":"111006"},"geometry":{"type":"Polygon","coordinates":[[[97.99198141291191,2.3882185437955],[97.99627296782324,2.351574041094138],[97.96837924540591,2.351820089310394],[97.96682405858347,2.3669291987916434],[97.99198141291191,2.3882185437955]]]}},{"type":"Feature","properties":{"code":"1110062012","desa":"Sidorejo","kecamatan":"Gunung Meriah","kecCode":"111006"},"geometry":{"type":"Polygon","coordinates":[[[97.96262364366629,2.3791747220904123],[97.97262409042945,2.3797953352405408],[97.97234358289012,2.3892828797446843],[97.99198141291191,2.3882185437955],[97.96353802396072,2.3636374525781747],[97.96262364366629,2.3791747220904123]]]}},{"type":"Feature","properties":{"code":"1110062013","desa":"Suka Makmur","kecamatan":"Gunung Meriah","kecCode":"111006"},"geometry":{"type":"Polygon","coordinates":[[[97.94641897285737,2.3672683628124864],[97.95940994421363,2.376023777333645],[97.96437097334183,2.370699384333151],[97.95582880155803,2.352902717469964],[97.94901404935894,2.355653622197403],[97.94641897285737,2.3672683628124864]]]}},{"type":"Feature","properties":{"code":"1110062014","desa":"Gunung Lagan","kecamatan":"Gunung Meriah","kecCode":"111006"},"geometry":{"type":"Polygon","coordinates":[[[97.9242807640461,2.3845279446577505],[97.93229089600811,2.3866492241288895],[97.94903148901204,2.354636052793261],[97.94160851991732,2.336165351251891],[97.9153328478327,2.3224820880948327],[97.91530857872799,2.3399431954198815],[97.92848050357242,2.36071992595878],[97.9242807640461,2.3845279446577505]]]}},{"type":"Feature","properties":{"code":"1110062015","desa":"Perangusan","kecamatan":"Gunung Meriah","kecCode":"111006"},"geometry":{"type":"Polygon","coordinates":[[[97.90757358715136,2.3982611921340835],[97.9170701869396,2.39781352850578],[97.91848199304961,2.3830048033794924],[97.9242807640461,2.3845279446577505],[97.92848050357242,2.36071992595878],[97.92388112601321,2.3529932881931535],[97.91191537459491,2.3555732947523307],[97.90633901043701,2.3649557426836423],[97.90231388327912,2.3871115539010592],[97.90757358715136,2.3982611921340835]]]}},{"type":"Feature","properties":{"code":"1110062016","desa":"Seping Baru","kecamatan":"Gunung Meriah","kecCode":"111006"},"geometry":{"type":"Polygon","coordinates":[[[97.92389150958552,2.3530142181150797],[97.9192384919629,2.3429645577626017],[97.91530857872799,2.3399431954198815],[97.91361297535859,2.355450122705707],[97.92389150958552,2.3530142181150797]]]}},{"type":"Feature","properties":{"code":"1110062017","desa":"Sebatang","kecamatan":"Gunung Meriah","kecCode":"111006"},"geometry":{"type":"Polygon","coordinates":[[[97.91176574359423,2.3557436047639517],[97.91548218385576,2.3496512473942675],[97.91556358329278,2.343084332170545],[97.90612535939789,2.3455863252402533],[97.91176574359423,2.3557436047639517]]]}},{"type":"Feature","properties":{"code":"1110062018","desa":"Tanah Merah","kecamatan":"Gunung Meriah","kecCode":"111006"},"geometry":{"type":"Polygon","coordinates":[[[97.90471458391096,2.3439006782671385],[97.86786584872999,2.357487176170776],[97.88102689987159,2.388863614907929],[97.9029435481063,2.390649949977348],[97.91176574359423,2.3557436047639517],[97.90471458391096,2.3439006782671385]]]}},{"type":"Feature","properties":{"code":"1110062019","desa":"Pertampakan","kecamatan":"Gunung Meriah","kecCode":"111006"},"geometry":{"type":"Polygon","coordinates":[[[97.91530857872799,2.3399431954198815],[97.91581952405187,2.32540040881556],[97.89769172679183,2.3294887511142144],[97.90553998887947,2.345317741812203],[97.91530857872799,2.3399431954198815]]]}},{"type":"Feature","properties":{"code":"1110062020","desa":"Pandan Sari","kecamatan":"Gunung Meriah","kecCode":"111006"},"geometry":{"type":"Polygon","coordinates":[[[97.96837924540591,2.351820089310394],[98.0035732442099,2.3549631919790377],[98.01946031584094,2.3453525320855295],[97.9864172192793,2.3266338451882103],[97.93930135777151,2.3350472358444234],[97.94901404935894,2.355653622197403],[97.95582880155803,2.352902717469964],[97.96814492165089,2.366707589651956],[97.96837924540591,2.351820089310394]]]}},{"type":"Feature","properties":{"code":"1110062021","desa":"Sanggaberu Silulusan","kecamatan":"Gunung Meriah","kecCode":"111006"},"geometry":{"type":"Polygon","coordinates":[[[98.02465335027193,2.4150605135471928],[98.02874683759654,2.408278918460118],[98.04488369502656,2.411998196078599],[98.03056737838187,2.383402649063032],[98.00980029934442,2.394590732414137],[98.00259135540676,2.4062675577265584],[98.02465335027193,2.4150605135471928]]]}},{"type":"Feature","properties":{"code":"1110062022","desa":"Tulaan","kecamatan":"Gunung Meriah","kecCode":"111006"},"geometry":{"type":"Polygon","coordinates":[[[97.96526774041392,2.3886543597551806],[97.97231462202222,2.392526302686753],[97.97234455685587,2.3865892546369607],[97.96526774041392,2.3886543597551806]]]}},{"type":"Feature","properties":{"code":"1110062022","desa":"Tulaan","kecamatan":"Gunung Meriah","kecCode":"111006"},"geometry":{"type":"Polygon","coordinates":[[[97.96664004829967,2.396078572604194],[97.96848474757309,2.3976833030763713],[97.96804224425422,2.3945340256626415],[97.96664004829967,2.396078572604194]]]}},{"type":"Feature","properties":{"code":"1110062023","desa":"Tunas Harapan","kecamatan":"Gunung Meriah","kecCode":"111006"},"geometry":{"type":"Polygon","coordinates":[[[97.97257377066302,2.392293038333348],[97.97053727657412,2.4007175491066515],[97.97675284826539,2.3994482594620172],[97.97257377066302,2.392293038333348]]]}},{"type":"Feature","properties":{"code":"1110062024","desa":"Lae Butar","kecamatan":"Gunung Meriah","kecCode":"111006"},"geometry":{"type":"Polygon","coordinates":[[[97.95940994421363,2.376023777333645],[97.95493084378347,2.3827490361898516],[97.95504479058468,2.3915430505124777],[97.9651662222434,2.3903096519114024],[97.95940994421363,2.376023777333645]]]}},{"type":"Feature","properties":{"code":"1110062025","desa":"Sianjo-Anjo Meriah","kecamatan":"Gunung Meriah","kecCode":"111006"},"geometry":{"type":"Polygon","coordinates":[[[97.97316959220296,2.4125336596187457],[97.9783338564224,2.4175827143833284],[97.98479621467361,2.4157334582470735],[97.98672158043668,2.410577706116485],[97.99062421993187,2.4108993981086226],[97.97675284826539,2.3994482594620172],[97.95943020593933,2.3989539677843887],[97.95736363042727,2.4139682986146127],[97.9642795086924,2.4184799580951486],[97.97316959220296,2.4125336596187457]]]}},{"type":"Feature","properties":{"code":"1110092001","desa":"Lentong","kecamatan":"Kota Baharu","kecCode":"111009"},"geometry":{"type":"Polygon","coordinates":[[[97.78484232241532,2.49060276493812],[97.7911955560301,2.500189440812026],[97.84912372637892,2.4995395978968538],[97.8498138175537,2.4948184125675517],[97.84595419263195,2.482729394686945],[97.78484232241532,2.49060276493812]]]}},{"type":"Feature","properties":{"code":"1110092002","desa":"Lapahan Buaya","kecamatan":"Kota Baharu","kecCode":"111009"},"geometry":{"type":"Polygon","coordinates":[[[97.75386944002268,2.4479101784911936],[97.78484232241532,2.49060276493812],[97.85354592760253,2.4791006698051676],[97.85199665022526,2.4453627858459965],[97.85665956039047,2.4395377150819404],[97.7633510418172,2.440101815734022],[97.75386944002268,2.4479101784911936]]]}},{"type":"Feature","properties":{"code":"1110092003","desa":"Butar","kecamatan":"Kota Baharu","kecCode":"111009"},"geometry":{"type":"Polygon","coordinates":[[[97.85459917940864,2.459533438384008],[97.85205575097216,2.482416988194945],[97.86644843444775,2.4904697920798555],[97.87499861379507,2.483428063594656],[97.874198778351,2.4744005394035837],[97.85459917940864,2.459533438384008]]]}},{"type":"Feature","properties":{"code":"1110092004","desa":"Samar Dua","kecamatan":"Kota Baharu","kecCode":"111009"},"geometry":{"type":"Polygon","coordinates":[[[97.87445903855382,2.48392297220722],[97.86021240677724,2.4896350809277603],[97.86501296357743,2.508010385983952],[97.87972987423437,2.5007859701177666],[97.87445903855382,2.48392297220722]]]}},{"type":"Feature","properties":{"code":"1110092005","desa":"Ladang Bisik","kecamatan":"Kota Baharu","kecCode":"111009"},"geometry":{"type":"Polygon","coordinates":[[[97.85037896142,2.367102794926017],[97.7633510418172,2.440101815734022],[97.86876182080147,2.439464551636321],[97.8686271041576,2.4102818597405777],[97.83393252856341,2.3904392037486066],[97.85737769242662,2.3851055576235742],[97.85634706486518,2.379484975605482],[97.84500154258717,2.3798093637651196],[97.85500227443549,2.3733642976852747],[97.85037896142,2.367102794926017]]]}},{"type":"Feature","properties":{"code":"1110092006","desa":"Muara Pea","kecamatan":"Kota Baharu","kecCode":"111009"},"geometry":{"type":"Polygon","coordinates":[[[97.86786584872999,2.357487176170776],[97.85037896142,2.367102794926017],[97.85500227443549,2.3733642976852747],[97.84515321055228,2.378211267591692],[97.85634706486518,2.379484975605482],[97.85737769242662,2.3851055576235742],[97.83648972022444,2.3869359711643234],[97.83549449177741,2.3930002067336664],[97.8686271041576,2.4102818597405777],[97.87612724317779,2.40293311799766],[97.88266217581882,2.4046946308791823],[97.88260253278071,2.411222424694661],[97.90864742084186,2.4116122322378066],[97.90552179199716,2.3925629734424922],[97.90043131715163,2.3868143603407592],[97.89128853493798,2.3933360855310974],[97.88102689987159,2.388863614907929],[97.86786584872999,2.357487176170776]]]}},{"type":"Feature","properties":{"code":"1110092008","desa":"Sumber Mukti","kecamatan":"Kota Baharu","kecCode":"111009"},"geometry":{"type":"Polygon","coordinates":[[[97.8929449926174,2.5010858679394454],[97.86750076444876,2.5033442049896086],[97.86510194429934,2.5274402756403456],[97.85525666656196,2.5274388861877797],[97.8551356223112,2.554082948432263],[97.87660026588964,2.550603864443585],[97.882015167566,2.5307874407762467],[97.88990610158537,2.527729583944978],[97.8967564732327,2.5135600303784256],[97.8929449926174,2.5010858679394454]]]}},{"type":"Feature","properties":{"code":"1110092010","desa":"Danau Bungara","kecamatan":"Kota Baharu","kecCode":"111009"},"geometry":{"type":"Polygon","coordinates":[[[97.84595419263195,2.482729394686945],[97.84912372637892,2.4995395978968538],[97.86174253399082,2.498959071127562],[97.8602138915579,2.484131230011833],[97.84595419263195,2.482729394686945]]]}},{"type":"Feature","properties":{"code":"1110102001","desa":"Gosong Telaga Utara","kecamatan":"Singkil Utara","kecCode":"111010"},"geometry":{"type":"Polygon","coordinates":[[[97.92318621357293,2.28166440465037],[97.92560027093585,2.2781417026431607],[97.91981485127445,2.2808498185270105],[97.92318621357293,2.28166440465037]]]}},{"type":"Feature","properties":{"code":"1110102002","desa":"Gosong Telaga Selatan","kecamatan":"Singkil Utara","kecCode":"111010"},"geometry":{"type":"Polygon","coordinates":[[[97.86605582641532,2.247602542622536],[97.85692847656797,2.2578239680896983],[97.86799616139382,2.2730029638869977],[97.89958226540925,2.281570512730887],[97.95061034958802,2.275950090792159],[97.97742286477346,2.2633870393622724],[97.9756518577471,2.25955957959708],[97.95147187762512,2.269990080352574],[97.91711467370327,2.272657792394971],[97.88667917580341,2.2448533672913564],[97.86605582641532,2.247602542622536]]]}},{"type":"Feature","properties":{"code":"1110102003","desa":"Kampung Baru","kecamatan":"Singkil Utara","kecCode":"111010"},"geometry":{"type":"Polygon","coordinates":[[[97.989128322714,2.2572211902943975],[97.95061034958802,2.275950090792159],[97.9508628900104,2.2893292868704673],[97.95955440501181,2.28094423834856],[97.96976026142697,2.2830188052339935],[97.989128322714,2.2572211902943975]]]}},{"type":"Feature","properties":{"code":"1110102004","desa":"Ketapang Indah","kecamatan":"Singkil Utara","kecCode":"111010"},"geometry":{"type":"Polygon","coordinates":[[[97.91581952405187,2.32540040881556],[97.93921672707033,2.3350509374539916],[97.95840226375356,2.3308984267287496],[97.95319708128034,2.3238413648026146],[97.95061034958802,2.275950090792159],[97.92704154692991,2.2838340910299126],[97.8960960767726,2.278681809383098],[97.89255925990199,2.283071270782836],[97.8983218727563,2.326863021223616],[97.91581952405187,2.32540040881556]]]}},{"type":"Feature","properties":{"code":"1110102005","desa":"Gosong Telaga Timur","kecamatan":"Singkil Utara","kecCode":"111010"},"geometry":{"type":"Polygon","coordinates":[[[97.92660664108364,2.278800648496078],[97.92704154692991,2.2838340910299126],[97.95061034958802,2.275950090792159],[97.94925498403035,2.272816016417604],[97.92660664108364,2.278800648496078]]]}},{"type":"Feature","properties":{"code":"1110102006","desa":"Gosong Telaga Barat","kecamatan":"Singkil Utara","kecCode":"111010"},"geometry":{"type":"Polygon","coordinates":[[[97.86999321031846,2.2895259838902393],[97.85698043579849,2.3075639442539773],[97.86881092288581,2.320213210990328],[97.8619806582808,2.3312181186286374],[97.86484739569083,2.343910293818415],[97.87407600290527,2.3506419441564153],[97.87027185266389,2.3558688245668935],[97.90467689602202,2.3438661308107656],[97.89848518424391,2.339166638028588],[97.89329784701806,2.3061958191165957],[97.89479978857945,2.276496465806739],[97.86863699130419,2.269915244167908],[97.86999321031846,2.2895259838902393]]]}},{"type":"Feature","properties":{"code":"1110102007","desa":"Telaga Bakti","kecamatan":"Singkil Utara","kecCode":"111010"},"geometry":{"type":"Polygon","coordinates":[[[98.03873183310763,2.1887120222061593],[98.03602237813033,2.18997472611539],[98.03861134193993,2.191149661589031],[98.03873183310763,2.1887120222061593]]]}},{"type":"Feature","properties":{"code":"1110102007","desa":"Telaga Bakti","kecamatan":"Singkil Utara","kecCode":"111010"},"geometry":{"type":"Polygon","coordinates":[[[98.02083385939515,2.345430539279719],[98.03141975401849,2.336271283294927],[98.0213718410377,2.31564140035482],[98.03088188209324,2.272108075499622],[98.0828305995526,2.2260819828201797],[98.08299608739956,2.2034367812303333],[97.9756518577471,2.25955957959708],[97.97742286477346,2.2633870393622724],[97.98940321578584,2.257999718100344],[97.97399197994599,2.270801434312537],[97.96976026142697,2.2830188052339935],[97.95955440501181,2.28094423834856],[97.9508628900104,2.2893292868704673],[97.95319708128034,2.3238413648026146],[97.9591553974037,2.3290265121735425],[97.95426563684968,2.334485077727892],[97.9864172192793,2.3266338451882103],[98.02083385939515,2.345430539279719]]]}},{"type":"Feature","properties":{"code":"1110112001","desa":"Lae Balno","kecamatan":"Danau Paris","kecCode":"111011"},"geometry":{"type":"Polygon","coordinates":[[[98.08299608739956,2.2034367812303333],[98.0828305995526,2.2260819828201797],[98.10082297330165,2.2290892536857485],[98.08355019298712,2.2522657918269724],[98.09550178907635,2.25364774494014],[98.10644862840155,2.266766471273841],[98.13821175137127,2.2667223082661665],[98.14054216099197,2.2550400060825164],[98.15363848342933,2.2493431984272405],[98.1466846465792,2.269784924309713],[98.14896438479859,2.298144242806246],[98.18895567766248,2.3001011684757224],[98.17851217629595,2.2391274350916506],[98.16308900735184,2.2308439362164196],[98.12730743918699,2.169515822282624],[98.08299608739956,2.2034367812303333]]]}},{"type":"Feature","properties":{"code":"1110112002","desa":"Napagaluh","kecamatan":"Danau Paris","kecCode":"111011"},"geometry":{"type":"Polygon","coordinates":[[[98.18895567766248,2.3001011684757224],[98.13961730359574,2.297773645681289],[98.11992711684303,2.2960478098045614],[98.13335656885062,2.3183836518055614],[98.19218180394715,2.3186570448079347],[98.19713573922304,2.3115475497086386],[98.18895567766248,2.3001011684757224]]]}},{"type":"Feature","properties":{"code":"1110112003","desa":"Sikoran","kecamatan":"Danau Paris","kecCode":"111011"},"geometry":{"type":"Polygon","coordinates":[[[98.14896438479859,2.298144242806246],[98.1466846465792,2.269784924309713],[98.15363848342933,2.2493431984272405],[98.14054216099197,2.2550400060825164],[98.13821175137127,2.2667223082661665],[98.10642630902696,2.2667665027500923],[98.10333386156849,2.275117914828915],[98.11648495991301,2.2949721208139238],[98.14896438479859,2.298144242806246]]]}},{"type":"Feature","properties":{"code":"1110112004","desa":"Situbuh-Tubuh","kecamatan":"Danau Paris","kecCode":"111011"},"geometry":{"type":"Polygon","coordinates":[[[98.0448511692461,2.4033667935707967],[98.09004020718987,2.3990879029171976],[98.1126574686673,2.419918911138818],[98.14823063423643,2.4219739384542365],[98.15504283056224,2.4041994173964523],[98.14635658289006,2.3963031746876435],[98.1432514190178,2.3799648250704597],[98.12177848818675,2.3572025272536377],[98.08820533840571,2.359773633222582],[98.06315040606641,2.346303937467564],[98.04607200611827,2.344423291394613],[98.0420322415947,2.351324078128977],[98.05697822576457,2.3571186043190897],[98.07089042035665,2.378951635364617],[98.04088085756557,2.3895755074469855],[98.03766785238952,2.393474794265365],[98.0448511692461,2.4033667935707967]]]}},{"type":"Feature","properties":{"code":"1110112005","desa":"Biskang","kecamatan":"Danau Paris","kecCode":"111011"},"geometry":{"type":"Polygon","coordinates":[[[98.03715655183343,2.3421058706848203],[98.03840827861922,2.3474216436834814],[98.06315040606641,2.346303937467564],[98.08820533840571,2.359773633222582],[98.12177848818675,2.3572025272536377],[98.1432514190178,2.3799648250704597],[98.14635658289006,2.3963031746876435],[98.15504283056224,2.4041994173964523],[98.19218180394715,2.3186570448079347],[98.13335656885062,2.3183836518055614],[98.10824702158281,2.278178238500583],[98.09980728527806,2.2753208261639797],[98.09078913740882,2.303130906204605],[98.07188348233689,2.323260905482514],[98.03715655183343,2.3421058706848203]]]}},{"type":"Feature","properties":{"code":"1110112006","desa":"Sintuban Makmur","kecamatan":"Danau Paris","kecCode":"111011"},"geometry":{"type":"Polygon","coordinates":[[[98.0213718410377,2.31564140035482],[98.03715655183343,2.3421058706848203],[98.05151198808784,2.3358486657855906],[98.09170123792182,2.3021229505530525],[98.09234822459096,2.2879121118094585],[98.10644862840155,2.266766471273841],[98.09550178907635,2.25364774494014],[98.08253891164152,2.249663912856345],[98.10082297330165,2.2290892536857485],[98.0828305995526,2.2260819828201797],[98.03088188209324,2.272108075499622],[98.0213718410377,2.31564140035482]]]}},{"type":"Feature","properties":{"code":"1110122001","desa":"Suro","kecamatan":"Suro Makmur","kecCode":"111012"},"geometry":{"type":"Polygon","coordinates":[[[98.02312590483672,2.581606113264374],[98.0766000001899,2.574786108132683],[98.08120281675667,2.534826661205483],[98.06530479587968,2.535220852044289],[98.05966071367106,2.539898872613411],[98.06287774601121,2.544277082595003],[98.04451942373248,2.5364551508667614],[98.0124103999201,2.543699767304755],[98.00483950403992,2.5580054053838346],[97.99906740963331,2.555242435351832],[97.97758842906279,2.577952741562619],[98.02312590483672,2.581606113264374]]]}},{"type":"Feature","properties":{"code":"1110122002","desa":"Pangkalan Sulampi","kecamatan":"Suro Makmur","kecCode":"111012"},"geometry":{"type":"Polygon","coordinates":[[[98.00950457077936,2.5454864809886795],[98.04451942373248,2.5364551508667614],[98.06287774601121,2.544277082595003],[98.06049828466813,2.5381237943580692],[98.07870292719838,2.5333003974810904],[98.05705451975034,2.51678275812161],[98.05138581770137,2.52022906002313],[98.04126671079014,2.5084961574845264],[98.03396839582484,2.5237399107644496],[98.0110859953225,2.538423032976687],[98.00950457077936,2.5454864809886795]]]}},{"type":"Feature","properties":{"code":"1110122003","desa":"Bulu Sema","kecamatan":"Suro Makmur","kecCode":"111012"},"geometry":{"type":"Polygon","coordinates":[[[98.03241538985843,2.5204601264334885],[98.04169619102646,2.5033528969371743],[98.02418764264564,2.502561627536467],[98.02378789309681,2.4983214275158776],[98.01730624168975,2.492896256487017],[98.01143112724479,2.504086144777463],[98.0221100738209,2.507638563083072],[98.02212543873804,2.5209371897987105],[98.03241538985843,2.5204601264334885]]]}},{"type":"Feature","properties":{"code":"1110122004","desa":"Lae Bangun","kecamatan":"Suro Makmur","kecCode":"111012"},"geometry":{"type":"Polygon","coordinates":[[[98.00807445357322,2.541129387988028],[98.03422355687171,2.5233592960912157],[98.0290012360183,2.5169582338390346],[98.02212543873804,2.5209371897987105],[98.02234107278235,2.5080458453528798],[98.0114427815592,2.502031310816271],[97.99207565736577,2.5175017310230694],[97.98787300943188,2.526343994872774],[97.99446622083944,2.5332528053584706],[97.9822105972413,2.545351132121567],[97.98859542673762,2.549976256366616],[98.00331764069658,2.538817234607391],[98.00807445357322,2.541129387988028]]]}},{"type":"Feature","properties":{"code":"1110122005","desa":"Alur Linci","kecamatan":"Suro Makmur","kecCode":"111012"},"geometry":{"type":"Polygon","coordinates":[[[97.99748976134343,2.4597632430455008],[97.98783344825512,2.4725975506886626],[97.9721996940607,2.474924287475513],[97.96575941686363,2.488435047174569],[97.96607991005986,2.5005495365534687],[97.97513738798011,2.5027158909448204],[97.98823319780386,2.528086139055479],[97.9924091403696,2.517055247305339],[98.0189139426244,2.495222624551925],[98.01044621492093,2.4895080804672034],[98.00946044644252,2.4790416472993666],[98.00203782358676,2.4788972764334942],[98.0048038234378,2.4598894341162234],[97.99748976134343,2.4597632430455008]]]}},{"type":"Feature","properties":{"code":"1110122006","desa":"Siompin","kecamatan":"Suro Makmur","kecCode":"111012"},"geometry":{"type":"Polygon","coordinates":[[[98.05893508938293,2.478873442600644],[98.0284432336684,2.4855310103858352],[98.02135592033947,2.4819635590130162],[98.01396038686242,2.4890891834532036],[98.02418764264564,2.502561627536467],[98.04170460868077,2.5034296145035646],[98.05014766528255,2.498633875376716],[98.05893508938293,2.478873442600644]]]}},{"type":"Feature","properties":{"code":"1110122007","desa":"Ketangkuhan","kecamatan":"Suro Makmur","kecCode":"111012"},"geometry":{"type":"Polygon","coordinates":[[[98.07877316065293,2.534612586585856],[98.08244965842505,2.5109399958943017],[98.07461227543621,2.50976385802711],[98.07085132772664,2.5003732604393867],[98.05173576998989,2.496912334662109],[98.04170460868077,2.5034296145035646],[98.04884213835406,2.5184587409801056],[98.05705451975034,2.51678275812161],[98.07877316065293,2.534612586585856]]]}},{"type":"Feature","properties":{"code":"1110122008","desa":"Keras","kecamatan":"Suro Makmur","kecCode":"111012"},"geometry":{"type":"Polygon","coordinates":[[[98.09473556759241,2.484560052843238],[98.05840130937298,2.4809990729918594],[98.04981918700592,2.4966370611773225],[98.06424875707454,2.4964947299738336],[98.08244965842505,2.5109399958943017],[98.09473556759241,2.484560052843238]]]}},{"type":"Feature","properties":{"code":"1110122009","desa":"Mandumpang","kecamatan":"Suro Makmur","kecCode":"111012"},"geometry":{"type":"Polygon","coordinates":[[[97.99443530844279,2.448240297130925],[97.99748976134343,2.4597632430455008],[98.0048038234378,2.4598894341162234],[98.00593189703947,2.4744041672687436],[98.02865738203262,2.473468635820182],[98.02204445658644,2.4793147525186705],[98.02526665373313,2.484603020651924],[98.03579387029095,2.483924392236693],[98.0381387104332,2.4721637860825507],[98.04751317239503,2.4729812374459734],[98.04983328837562,2.465019940478409],[98.04297065717013,2.452863690181036],[98.03153419005088,2.4498381576819943],[98.02743474022117,2.46106296484883],[97.99443530844279,2.448240297130925]]]}},{"type":"Feature","properties":{"code":"1110122010","desa":"Sirimo Mungkur","kecamatan":"Suro Makmur","kecCode":"111012"},"geometry":{"type":"Polygon","coordinates":[[[98.04820456309015,2.4778892821111014],[98.03945217208012,2.4716117516343554],[98.03417928684466,2.4799303465524507],[98.0393644468118,2.4844114326807203],[98.04820456309015,2.4778892821111014]]]}},{"type":"Feature","properties":{"code":"1110122011","desa":"Bulu Ara","kecamatan":"Suro Makmur","kecCode":"111012"},"geometry":{"type":"Polygon","coordinates":[[[98.02865738203262,2.473468635820182],[98.00203782358676,2.4788972764334942],[98.00946044644252,2.4790416472993666],[98.01280188469929,2.4924880326270475],[98.02865738203262,2.473468635820182]]]}},{"type":"Feature","properties":{"code":"1110132001","desa":"Singkohor","kecamatan":"Singkohor","kecCode":"111013"},"geometry":{"type":"Polygon","coordinates":[[[97.89653321293746,2.511669957611878],[97.88990610158537,2.527729583944978],[97.882015167566,2.5307874407762467],[97.87660026588964,2.550603864443585],[97.8551356223112,2.554082948432263],[97.85503111119687,2.564563607975616],[97.8963914411122,2.5643985032400365],[97.90950385961548,2.5510306233309263],[97.90293901642251,2.540079858476974],[97.90880012482597,2.5331020331182597],[97.96280098008123,2.5516147581802153],[97.97509390396056,2.5707522728438734],[97.97083005626217,2.5168690094010024],[97.9124915729278,2.5192592895856287],[97.89653321293746,2.511669957611878]]]}},{"type":"Feature","properties":{"code":"1110132002","desa":"Lae Sipola","kecamatan":"Singkohor","kecCode":"111013"},"geometry":{"type":"Polygon","coordinates":[[[97.97924484357473,2.5741700068813382],[98.01015164468271,2.5487904543847346],[98.00618988285684,2.538334265394214],[97.99780012187817,2.547535276901607],[97.9822105972413,2.545351132121567],[97.99446622083944,2.5332528053584706],[97.9805964193893,2.514259041028528],[97.97912804592265,2.5194741376221796],[97.97083005626217,2.5168690094010024],[97.97924484357473,2.5741700068813382]]]}},{"type":"Feature","properties":{"code":"1110132003","desa":"Lae Pinang","kecamatan":"Singkohor","kecCode":"111013"},"geometry":{"type":"Polygon","coordinates":[[[97.96635762880156,2.489231061398327],[97.94745884095282,2.4704227300795267],[97.93066879602816,2.4688800249494944],[97.92595729099621,2.45342023382997],[97.93447717038514,2.4514001964374055],[97.92498426591118,2.4379582573578764],[97.91935265909801,2.4418434535984335],[97.91922178885454,2.4618190293886992],[97.9300459570553,2.4829557810253284],[97.92904515730822,2.4950279249264447],[97.91110516457172,2.5057261439623333],[97.8975965794187,2.504672351664748],[97.89653321293746,2.511669957611878],[97.90630357984638,2.518770511651431],[97.97912804592265,2.5194741376221796],[97.97513738798011,2.5027158909448204],[97.96788112171645,2.50256354129377],[97.96635762880156,2.489231061398327]]]}},{"type":"Feature","properties":{"code":"1110132004","desa":"Mukti Jaya","kecamatan":"Singkohor","kecCode":"111013"},"geometry":{"type":"Polygon","coordinates":[[[97.97758842906279,2.577952741562619],[97.97872422694155,2.5705112869113695],[97.96280098008123,2.5516147581802153],[97.94346426376482,2.5481462601112614],[97.92226772337682,2.5353000157666443],[97.90368843137604,2.5356769531119974],[97.90950385961548,2.5510306233309263],[97.8963914411122,2.5643985032400365],[97.97758842906279,2.577952741562619]]]}},{"type":"Feature","properties":{"code":"1110132006","desa":"Sri Kayu","kecamatan":"Singkohor","kecCode":"111013"},"geometry":{"type":"Polygon","coordinates":[[[97.86876182080147,2.439464551636321],[97.85199665022526,2.4453627858459965],[97.85538926440307,2.461710448842339],[97.86382504279158,2.4615390299666142],[97.87210621872708,2.471612069094993],[97.8828028828468,2.4634032706068028],[97.87764715589155,2.4449340628392817],[97.88235031161763,2.4448945358367355],[97.88266217581882,2.4046946308791823],[97.87187844923112,2.404135295734605],[97.86857216457376,2.410375244442429],[97.86876182080147,2.439464551636321]]]}},{"type":"Feature","properties":{"code":"1110132007","desa":"Pea Jambu","kecamatan":"Singkohor","kecCode":"111013"},"geometry":{"type":"Polygon","coordinates":[[[97.92498426591118,2.4379582573578764],[97.90264856597861,2.4330433418723043],[97.90864742084186,2.4116122322378066],[97.88260253278071,2.411222424694661],[97.88235031161763,2.4448945358367355],[97.87764715589155,2.4449340628392817],[97.8828028828468,2.4634032706068028],[97.8716429365723,2.4695412550804],[97.87986666561419,2.50328574006345],[97.88903892940311,2.5003626223589213],[97.90597211671985,2.5067100346552094],[97.92904515730822,2.4950279249264447],[97.9300459570553,2.4829557810253284],[97.91922178885454,2.4618190293886992],[97.91935265909801,2.4418434535984335],[97.92498426591118,2.4379582573578764]]]}},{"type":"Feature","properties":{"code":"1110142001","desa":"Kuala Baru Laut","kecamatan":"Kuala Baru","kecCode":"111014"},"geometry":{"type":"Polygon","coordinates":[[[97.7319664740736,2.325774431458183],[97.73106355383999,2.318526364321562],[97.70680062744708,2.3539265893230783],[97.71631539443996,2.3407099744826665],[97.7319664740736,2.325774431458183]]]}},{"type":"Feature","properties":{"code":"1110142002","desa":"Kuala Baru Sungai","kecamatan":"Kuala Baru","kecCode":"111014"},"geometry":{"type":"Polygon","coordinates":[[[97.75366709975691,2.3927101474951313],[97.7374407768704,2.333864172298168],[97.7319664740736,2.325774431458183],[97.70686637688185,2.3545072195143413],[97.75366709975691,2.3927101474951313]]]}},{"type":"Feature","properties":{"code":"1110142003","desa":"Suka Jaya","kecamatan":"Kuala Baru","kecCode":"111014"},"geometry":{"type":"Polygon","coordinates":[[[97.6650442127203,2.3948587987320544],[97.71787329002035,2.4132875019339206],[97.75386944002268,2.4479101784911936],[97.7633510418172,2.440101815734022],[97.75366709975691,2.3927101474951313],[97.70546325912215,2.3522198802276133],[97.6650442127203,2.3948587987320544]]]}},{"type":"Feature","properties":{"code":"1110142004","desa":"Kayu Menang","kecamatan":"Kuala Baru","kecCode":"111014"},"geometry":{"type":"Polygon","coordinates":[[[97.77099800955055,2.2981764790049772],[97.76419444761574,2.300260299014977],[97.75804407677276,2.3158808052791495],[97.74782694555715,2.3159191271901762],[97.746879105986,2.304908654547065],[97.76570245420498,2.2837738661304887],[97.75777496993896,2.2785034198622647],[97.74786950237569,2.285450291455421],[97.73106355383999,2.318526364321562],[97.73812326697526,2.336914179846597],[97.78250625695824,2.3179639651868067],[97.77099800955055,2.2981764790049772]]]}},{"type":"Feature","properties":{"code":"1110012002","desa":"Pulau Baguk","kecamatan":"Pulau Banyak","kecCode":"111001"},"geometry":{"type":"Polygon","coordinates":[[[97.38187122937381,1.9832939375557348],[97.38813396960705,1.9821042082344904],[97.38382714600607,1.9771787239162963],[97.38187122937381,1.9832939375557348]]]}},{"type":"Feature","properties":{"code":"1110012002","desa":"Pulau Baguk","kecamatan":"Pulau Banyak","kecCode":"111001"},"geometry":{"type":"Polygon","coordinates":[[[97.38798577662237,2.043393729561208],[97.39129798601327,2.0363374374548404],[97.38455935333154,2.0413878439003224],[97.38798577662237,2.043393729561208]]]}},{"type":"Feature","properties":{"code":"1110012002","desa":"Pulau Baguk","kecamatan":"Pulau Banyak","kecCode":"111001"},"geometry":{"type":"Polygon","coordinates":[[[97.42189570272454,2.2551641844705217],[97.42226586817532,2.2552303179157245],[97.42190011569784,2.2551072313046903],[97.42189570272454,2.2551641844705217]]]}},{"type":"Feature","properties":{"code":"1110012002","desa":"Pulau Baguk","kecamatan":"Pulau Banyak","kecCode":"111001"},"geometry":{"type":"Polygon","coordinates":[[[97.4187754886979,2.263540874693396],[97.40828153176734,2.2777078175279186],[97.407497758215,2.286185976458471],[97.4187754886979,2.263540874693396]]]}},{"type":"Feature","properties":{"code":"1110012002","desa":"Pulau Baguk","kecamatan":"Pulau Banyak","kecCode":"111001"},"geometry":{"type":"Polygon","coordinates":[[[97.40645154720117,2.2908279854749125],[97.40082086489103,2.2920466378924504],[97.4011298305773,2.29717472327963],[97.40645154720117,2.2908279854749125]]]}},{"type":"Feature","properties":{"code":"1110012002","desa":"Pulau Baguk","kecamatan":"Pulau Banyak","kecCode":"111001"},"geometry":{"type":"Polygon","coordinates":[[[97.40722113125024,2.299082122384731],[97.41292190941861,2.296545093526676],[97.41016912330645,2.2945752347069326],[97.40722113125024,2.299082122384731]]]}},{"type":"Feature","properties":{"code":"1110012002","desa":"Pulau Baguk","kecamatan":"Pulau Banyak","kecCode":"111001"},"geometry":{"type":"Polygon","coordinates":[[[97.44059180496787,2.190295999922795],[97.43815602987695,2.1806980465505297],[97.44209641661638,2.1588450775353114],[97.43076542378532,2.1644748812015853],[97.42872305262682,2.1803284377805086],[97.44059180496787,2.190295999922795]]]}},{"type":"Feature","properties":{"code":"1110012002","desa":"Pulau Baguk","kecamatan":"Pulau Banyak","kecCode":"111001"},"geometry":{"type":"Polygon","coordinates":[[[97.46102648738251,2.184521023195339],[97.46425085459332,2.179077015866324],[97.4633157269393,2.177149651811755],[97.46102648738251,2.184521023195339]]]}},{"type":"Feature","properties":{"code":"1110012002","desa":"Pulau Baguk","kecamatan":"Pulau Banyak","kecCode":"111001"},"geometry":{"type":"Polygon","coordinates":[[[97.43354295924024,2.2441904203546623],[97.43629837497008,2.2428198508599455],[97.43315272721662,2.2430387611342106],[97.43354295924024,2.2441904203546623]]]}},{"type":"Feature","properties":{"code":"1110012002","desa":"Pulau Baguk","kecamatan":"Pulau Banyak","kecCode":"111001"},"geometry":{"type":"Polygon","coordinates":[[[97.42293214889962,2.2459586178969895],[97.4313125119629,2.246659111529119],[97.4245288664141,2.239403797655422],[97.42293214889962,2.2459586178969895]]]}},{"type":"Feature","properties":{"code":"1110012002","desa":"Pulau Baguk","kecamatan":"Pulau Banyak","kecCode":"111001"},"geometry":{"type":"Polygon","coordinates":[[[97.42606946893089,2.2926047247780192],[97.4230423644136,2.2855889570222505],[97.42013058715689,2.3020979736818594],[97.42606946893089,2.2926047247780192]]]}},{"type":"Feature","properties":{"code":"1110162001","desa":"Haloban","kecamatan":"Pulau Banyak Barat","kecCode":"111016"},"geometry":{"type":"Polygon","coordinates":[[[97.11357128258868,2.1145452757896717],[97.14748395162314,2.0945246754412494],[97.16249765744101,2.071495063139888],[97.15145687943152,2.054289100673698],[97.13569473442453,2.0451121145547564],[97.12911790416801,2.049487944030941],[97.12061894480853,2.040868583445399],[97.1276505280495,2.010525947774775],[97.11463390173321,2.00417997799113],[97.07643953435706,2.0765858068771355],[97.08092223027677,2.089989805358101],[97.0970564526932,2.090048033762539],[97.09304111285712,2.1067012854903595],[97.09840042384054,2.113958630932523],[97.11357128258868,2.1145452757896717]]]}},{"type":"Feature","properties":{"code":"1110162001","desa":"Haloban","kecamatan":"Pulau Banyak Barat","kecCode":"111016"},"geometry":{"type":"Polygon","coordinates":[[[97.08800828995065,2.1067765254705946],[97.0876132987148,2.105996062323654],[97.0871564431154,2.1066052046210686],[97.08800828995065,2.1067765254705946]]]}},{"type":"Feature","properties":{"code":"1110162001","desa":"Haloban","kecamatan":"Pulau Banyak Barat","kecCode":"111016"},"geometry":{"type":"Polygon","coordinates":[[[97.23090628409777,2.2313533787726074],[97.33489268534919,2.113772545912923],[97.34892031422116,2.1134870498344203],[97.34643615560418,2.104730632569258],[97.355601839953,2.103883544947202],[97.35765769374761,2.095564948230479],[97.350717600337,2.0934004329527345],[97.35817007169152,2.0919013728208373],[97.35725255186384,2.083976577536557],[97.34118807007343,2.086571441795225],[97.34803189555562,2.0767139296915995],[97.34543947295337,2.0723505926980237],[97.34107417723156,2.0760574596722283],[97.33981306332225,2.061388082698282],[97.34260045264881,2.0654173035656465],[97.34991015662848,2.06580753558884],[97.34377327201895,2.055391084941651],[97.3463073978682,2.0416913390102374],[97.33916901473827,2.034023525000262],[97.32830082562265,2.0402041751103943],[97.33857962155234,2.046123996646372],[97.33961754261554,2.060493085492881],[97.33090752586168,2.061312809443081],[97.32597490271962,2.0544789979194364],[97.31197796231316,2.0589940244617173],[97.31259769322901,2.065439470055434],[97.30688698564592,2.063315801085619],[97.30532467169631,2.074973731641799],[97.28554318127281,2.100438326728739],[97.2654195239919,2.107043789593245],[97.25788972083397,2.1281790492544936],[97.26298605116538,2.1284886165867962],[97.26136769955974,2.135300458572219],[97.23109415067454,2.150220443325287],[97.23427787032749,2.167611924238254],[97.21796428532355,2.1595512027220245],[97.20980273360931,2.181109119462797],[97.19456585473044,2.185148254456375],[97.17380743796296,2.178666602157135],[97.1700240953358,2.188117821245205],[97.14909970868467,2.2007507374074504],[97.12398687799207,2.200293880909226],[97.1127177513232,2.2155371836286983],[97.12028227101007,2.2264508028847763],[97.16157305815015,2.2241260688880615],[97.16884700868258,2.236446917602743],[97.17934195037076,2.2331357972943784],[97.17856862514203,2.21668182453988],[97.18748565503898,2.2282460052694826],[97.19494974923163,2.2021151564386514],[97.20084386095549,2.2119255413691805],[97.20751230065223,2.204941823652482],[97.21389442858509,2.2094116484701054],[97.22003436279566,2.2044961205462745],[97.23022576800484,2.2145578183243186],[97.22508873795493,2.220568256448894],[97.23090628409777,2.2313533787726074]]]}},{"type":"Feature","properties":{"code":"1110162001","desa":"Haloban","kecamatan":"Pulau Banyak Barat","kecCode":"111016"},"geometry":{"type":"Polygon","coordinates":[[[97.21150454409951,2.209332986569461],[97.21146290369012,2.210582203346032],[97.21240279055638,2.209921903114085],[97.21150454409951,2.209332986569461]]]}},{"type":"Feature","properties":{"code":"1110162001","desa":"Haloban","kecamatan":"Pulau Banyak Barat","kecCode":"111016"},"geometry":{"type":"Polygon","coordinates":[[[97.20809426723666,2.213098345449536],[97.21113521771616,2.2142476241645075],[97.21058344497003,2.2126287887253997],[97.20809426723666,2.213098345449536]]]}},{"type":"Feature","properties":{"code":"1110162001","desa":"Haloban","kecamatan":"Pulau Banyak Barat","kecCode":"111016"},"geometry":{"type":"Polygon","coordinates":[[[97.20725687520466,2.2155866841127176],[97.20747287527303,2.2161476848017045],[97.20754287490381,2.2155446848738656],[97.20725687520466,2.2155866841127176]]]}},{"type":"Feature","properties":{"code":"1110162001","desa":"Haloban","kecamatan":"Pulau Banyak Barat","kecCode":"111016"},"geometry":{"type":"Polygon","coordinates":[[[97.22516850871978,2.221204890121897],[97.22642431213234,2.227615606596256],[97.22755217709135,2.2286149809168485],[97.22516850871978,2.221204890121897]]]}},{"type":"Feature","properties":{"code":"1110162001","desa":"Haloban","kecamatan":"Pulau Banyak Barat","kecCode":"111016"},"geometry":{"type":"Polygon","coordinates":[[[97.21750134311253,2.241730963418988],[97.22596984423296,2.229466031851125],[97.22304905576935,2.22336271444369],[97.21302914587845,2.2336895755280746],[97.21750134311253,2.241730963418988]]]}},{"type":"Feature","properties":{"code":"1110162001","desa":"Haloban","kecamatan":"Pulau Banyak Barat","kecCode":"111016"},"geometry":{"type":"Polygon","coordinates":[[[97.21004078415491,2.241240506450497],[97.20813546967622,2.242931330820641],[97.21036706898506,2.241402862857896],[97.21004078415491,2.241240506450497]]]}},{"type":"Feature","properties":{"code":"1110162001","desa":"Haloban","kecamatan":"Pulau Banyak Barat","kecCode":"111016"},"geometry":{"type":"Polygon","coordinates":[[[97.21097241074824,2.2418585277544794],[97.21099041067895,2.242920527264984],[97.21152241093057,2.242616527635415],[97.21097241074824,2.2418585277544794]]]}},{"type":"Feature","properties":{"code":"1110162001","desa":"Haloban","kecamatan":"Pulau Banyak Barat","kecCode":"111016"},"geometry":{"type":"Polygon","coordinates":[[[97.18579952512806,2.255961588146857],[97.18507759705352,2.2555118704670183],[97.18427809795594,2.256796779536921],[97.18579952512806,2.255961588146857]]]}},{"type":"Feature","properties":{"code":"1110162001","desa":"Haloban","kecamatan":"Pulau Banyak Barat","kecCode":"111016"},"geometry":{"type":"Polygon","coordinates":[[[97.20938899420678,2.248760118482701],[97.20271816681003,2.2621304724266604],[97.20410873902715,2.2654479662303126],[97.21147602569805,2.2551601285280634],[97.20938899420678,2.248760118482701]]]}},{"type":"Feature","properties":{"code":"1110162001","desa":"Haloban","kecamatan":"Pulau Banyak Barat","kecCode":"111016"},"geometry":{"type":"Polygon","coordinates":[[[97.23139953526038,2.2768795041528986],[97.2306758103404,2.279444896728845],[97.23272095590742,2.278863118103332],[97.23139953526038,2.2768795041528986]]]}},{"type":"Feature","properties":{"code":"1110162001","desa":"Haloban","kecamatan":"Pulau Banyak Barat","kecCode":"111016"},"geometry":{"type":"Polygon","coordinates":[[[97.23172693255196,2.302589959497846],[97.2320973821885,2.3032366583831716],[97.23206157658056,2.3024505798693515],[97.23172693255196,2.302589959497846]]]}},{"type":"Feature","properties":{"code":"1110162001","desa":"Haloban","kecamatan":"Pulau Banyak Barat","kecCode":"111016"},"geometry":{"type":"Polygon","coordinates":[[[97.22634909013846,2.325551533589977],[97.22702444142487,2.3180943021321263],[97.21890732611229,2.3199621796306156],[97.22634909013846,2.325551533589977]]]}},{"type":"Feature","properties":{"code":"1110162001","desa":"Haloban","kecamatan":"Pulau Banyak Barat","kecCode":"111016"},"geometry":{"type":"Polygon","coordinates":[[[97.35284780917908,2.057701874050712],[97.3531213325835,2.0584815475929625],[97.35325007323233,2.0576539680647037],[97.35284780917908,2.057701874050712]]]}},{"type":"Feature","properties":{"code":"1110162001","desa":"Haloban","kecamatan":"Pulau Banyak Barat","kecCode":"111016"},"geometry":{"type":"Polygon","coordinates":[[[97.34938103420738,2.061431545134061],[97.34960946200714,2.0619133847986606],[97.34972367590699,2.0617706174240205],[97.34938103420738,2.061431545134061]]]}},{"type":"Feature","properties":{"code":"1110162001","desa":"Haloban","kecamatan":"Pulau Banyak Barat","kecCode":"111016"},"geometry":{"type":"Polygon","coordinates":[[[97.35136847927195,2.0636777557256996],[97.35157073320282,2.064082263587075],[97.35166591115296,2.0638800096563763],[97.35136847927195,2.0636777557256996]]]}},{"type":"Feature","properties":{"code":"1110162001","desa":"Haloban","kecamatan":"Pulau Banyak Barat","kecCode":"111016"},"geometry":{"type":"Polygon","coordinates":[[[97.34863071093861,2.066802979872099],[97.3487942994174,2.0670617454013827],[97.34885378507418,2.0668386703667525],[97.34863071093861,2.066802979872099]]]}},{"type":"Feature","properties":{"code":"1110162001","desa":"Haloban","kecamatan":"Pulau Banyak Barat","kecCode":"111016"},"geometry":{"type":"Polygon","coordinates":[[[97.34844630225514,2.067685362287078],[97.34747964616878,2.0671589063564917],[97.3474171846554,2.0672868025418407],[97.34844630225514,2.067685362287078]]]}},{"type":"Feature","properties":{"code":"1110162001","desa":"Haloban","kecamatan":"Pulau Banyak Barat","kecCode":"111016"},"geometry":{"type":"Polygon","coordinates":[[[97.35693475573446,2.0730288415993035],[97.35860260422685,2.06572775403226],[97.35487636765032,2.0636147923906747],[97.35112818581717,2.0726241628668465],[97.35693475573446,2.0730288415993035]]]}},{"type":"Feature","properties":{"code":"1110162001","desa":"Haloban","kecamatan":"Pulau Banyak Barat","kecCode":"111016"},"geometry":{"type":"Polygon","coordinates":[[[97.34964795299072,2.070089233925814],[97.34903048297048,2.07058178181807],[97.3497193366781,2.070339076381832],[97.34964795299072,2.070089233925814]]]}},{"type":"Feature","properties":{"code":"1110162001","desa":"Haloban","kecamatan":"Pulau Banyak Barat","kecCode":"111016"},"geometry":{"type":"Polygon","coordinates":[[[97.34799363210048,2.0725555445947843],[97.34795199169109,2.0733883563787456],[97.34844573028629,2.07313851302337],[97.34799363210048,2.0725555445947843]]]}},{"type":"Feature","properties":{"code":"1110162001","desa":"Haloban","kecamatan":"Pulau Banyak Barat","kecCode":"111016"},"geometry":{"type":"Polygon","coordinates":[[[97.35028726034885,2.113904010608144],[97.35074525988591,2.1126830109600316],[97.34985826035053,2.1138070106316658],[97.35028726034885,2.113904010608144]]]}},{"type":"Feature","properties":{"code":"1110162001","desa":"Haloban","kecamatan":"Pulau Banyak Barat","kecCode":"111016"},"geometry":{"type":"Polygon","coordinates":[[[97.34713355556919,2.1154602019715156],[97.34196774721379,2.1141907585428177],[97.34109210521655,2.1146761685160107],[97.34244363876297,2.1165702198832714],[97.34713355556919,2.1154602019715156]]]}},{"type":"Feature","properties":{"code":"1110162001","desa":"Haloban","kecamatan":"Pulau Banyak Barat","kecCode":"111016"},"geometry":{"type":"Polygon","coordinates":[[[97.25785550073083,2.249897942532779],[97.25794172323201,2.251397258072125],[97.25832710970843,2.251379446099693],[97.25785550073083,2.249897942532779]]]}},{"type":"Feature","properties":{"code":"1110162001","desa":"Haloban","kecamatan":"Pulau Banyak Barat","kecCode":"111016"},"geometry":{"type":"Polygon","coordinates":[[[97.24980723661474,2.2550645117089267],[97.24344545134659,2.253502295787086],[97.2450706234106,2.2652342288564755],[97.24980723661474,2.2550645117089267]]]}},{"type":"Feature","properties":{"code":"1110162001","desa":"Haloban","kecamatan":"Pulau Banyak Barat","kecCode":"111016"},"geometry":{"type":"Polygon","coordinates":[[[97.24413215657381,2.266372887477429],[97.2442287491575,2.267015454877235],[97.2445198749923,2.266593763669697],[97.24413215657381,2.266372887477429]]]}},{"type":"Feature","properties":{"code":"1110162001","desa":"Haloban","kecamatan":"Pulau Banyak Barat","kecCode":"111016"},"geometry":{"type":"Polygon","coordinates":[[[97.24359439796312,2.2671295563617444],[97.24362480943745,2.2674670512408133],[97.2439276777202,2.2671634257292683],[97.24359439796312,2.2671295563617444]]]}},{"type":"Feature","properties":{"code":"1110162001","desa":"Haloban","kecamatan":"Pulau Banyak Barat","kecCode":"111016"},"geometry":{"type":"Polygon","coordinates":[[[97.24344177581735,2.305701977999273],[97.24660883822736,2.299579863861738],[97.2421140356343,2.3007622178429146],[97.24344177581735,2.305701977999273]]]}},{"type":"Feature","properties":{"code":"1110012001","desa":"Pulau Balai","kecamatan":"Pulau Banyak","kecCode":"111001"},"geometry":{"type":"Polygon","coordinates":[[[97.31199344234352,2.2431839530811213],[97.31588148224468,2.238843816797623],[97.30935699972582,2.2423773151659687],[97.31199344234352,2.2431839530811213]]]}},{"type":"Feature","properties":{"code":"1110012001","desa":"Pulau Balai","kecamatan":"Pulau Banyak","kecCode":"111001"},"geometry":{"type":"Polygon","coordinates":[[[97.3002309970629,2.253279509434861],[97.29735293718835,2.257346439774934],[97.30059641679127,2.253259007590208],[97.3002309970629,2.253279509434861]]]}},{"type":"Feature","properties":{"code":"1110012001","desa":"Pulau Balai","kecamatan":"Pulau Banyak","kecCode":"111001"},"geometry":{"type":"Polygon","coordinates":[[[97.2934390255906,2.2585646488267157],[97.28940901061742,2.2636125488616776],[97.29015071208573,2.264664502045614],[97.2934390255906,2.2585646488267157]]]}},{"type":"Feature","properties":{"code":"1110012001","desa":"Pulau Balai","kecamatan":"Pulau Banyak","kecCode":"111001"},"geometry":{"type":"Polygon","coordinates":[[[97.28348966661484,2.268275922172573],[97.28299635879499,2.2689140298344292],[97.28302681613474,2.2689958825296985],[97.28348966661484,2.268275922172573]]]}},{"type":"Feature","properties":{"code":"1110012001","desa":"Pulau Balai","kecamatan":"Pulau Banyak","kecCode":"111001"},"geometry":{"type":"Polygon","coordinates":[[[97.25920833829423,2.282451384284925],[97.28067702522456,2.2781683540519633],[97.28236369832608,2.2740559081238123],[97.25920833829423,2.282451384284925]]]}},{"type":"Feature","properties":{"code":"1110012001","desa":"Pulau Balai","kecamatan":"Pulau Banyak","kecCode":"111001"},"geometry":{"type":"Polygon","coordinates":[[[97.25497729426677,2.2785568872557764],[97.24988630770702,2.2841087268953557],[97.24730212469335,2.2934689094114833],[97.2575127942801,2.285499630061484],[97.25497729426677,2.2785568872557764]]]}},{"type":"Feature","properties":{"code":"1110012001","desa":"Pulau Balai","kecamatan":"Pulau Banyak","kecCode":"111001"},"geometry":{"type":"Polygon","coordinates":[[[97.31199520681336,2.2925159823765977],[97.30662952323398,2.2996067751746705],[97.3109958342904,2.310183480513702],[97.31570716575315,2.3062930610106958],[97.31199520681336,2.2925159823765977]]]}},{"type":"Feature","properties":{"code":"1110012001","desa":"Pulau Balai","kecamatan":"Pulau Banyak","kecCode":"111001"},"geometry":{"type":"Polygon","coordinates":[[[97.34386927914397,2.2471058614461716],[97.34254272966331,2.2477899568400836],[97.34347666841359,2.2483729243693893],[97.34386927914397,2.2471058614461716]]]}},{"type":"Feature","properties":{"code":"1110012001","desa":"Pulau Balai","kecamatan":"Pulau Banyak","kecCode":"111001"},"geometry":{"type":"Polygon","coordinates":[[[97.329840000016,2.2631085319154356],[97.3258520238519,2.267857935272487],[97.32659441599957,2.2692760941918078],[97.329840000016,2.2631085319154356]]]}},{"type":"Feature","properties":{"code":"1110012001","desa":"Pulau Balai","kecamatan":"Pulau Banyak","kecCode":"111001"},"geometry":{"type":"Polygon","coordinates":[[[97.3410135458385,2.2799887005817547],[97.34031341822975,2.2818972526177093],[97.34043239134182,2.2820626253512915],[97.3410135458385,2.2799887005817547]]]}},{"type":"Feature","properties":{"code":"1110012001","desa":"Pulau Balai","kecamatan":"Pulau Banyak","kecCode":"111001"},"geometry":{"type":"Polygon","coordinates":[[[97.41095508670793,2.3009003555076846],[97.40242090270253,2.309596346425401],[97.40400484175012,2.3140771276834693],[97.41095508670793,2.3009003555076846]]]}},{"type":"Feature","properties":{"code":"1110012001","desa":"Pulau Balai","kecamatan":"Pulau Banyak","kecCode":"111001"},"geometry":{"type":"Polygon","coordinates":[[[97.41196984303387,2.337785600425304],[97.42044336327064,2.3104475268620766],[97.41982584198905,2.3029316542108873],[97.40113776799365,2.3337846893165346],[97.41196984303387,2.337785600425304]]]}},{"type":"Feature","properties":{"code":"1110012001","desa":"Pulau Balai","kecamatan":"Pulau Banyak","kecCode":"111001"},"geometry":{"type":"Polygon","coordinates":[[[97.53345327774662,2.351343446827822],[97.53405718239308,2.35267595881227],[97.5349142120213,2.352026495410912],[97.53345327774662,2.351343446827822]]]}},{"type":"Feature","properties":{"code":"1110012001","desa":"Pulau Balai","kecamatan":"Pulau Banyak","kecCode":"111001"},"geometry":{"type":"Polygon","coordinates":[[[97.56153062463869,2.382299171920536],[97.56098665980657,2.382834809929196],[97.56210652439665,2.384133281674857],[97.56153062463869,2.382299171920536]]]}},{"type":"Feature","properties":{"code":"1110012004","desa":"Teluk Nibung","kecamatan":"Pulau Banyak","kecCode":"111001"},"geometry":{"type":"Polygon","coordinates":[[[97.41080119921604,2.340305104194615],[97.40113776799365,2.3337846893165346],[97.38692933312228,2.345688694169384],[97.38986213832708,2.3346137086593712],[97.38387143761678,2.3340655385979514],[97.37850761383537,2.3611003140028157],[97.38893341204736,2.3604850257385994],[97.41080119921604,2.340305104194615]]]}},{"type":"Feature","properties":{"code":"1110162002","desa":"Asantola","kecamatan":"Pulau Banyak Barat","kecCode":"111016"},"geometry":{"type":"Polygon","coordinates":[[[97.30596601332093,2.1842725171319706],[97.30502201295559,2.1843355173391674],[97.30515901297814,2.184804517382994],[97.30596601332093,2.1842725171319706]]]}},{"type":"Feature","properties":{"code":"1110162002","desa":"Asantola","kecamatan":"Pulau Banyak Barat","kecCode":"111016"},"geometry":{"type":"Polygon","coordinates":[[[97.32045333695197,2.184942473384659],[97.31874488406918,2.1865700241537582],[97.32112434541226,2.1866652030030354],[97.32045333695197,2.184942473384659]]]}},{"type":"Feature","properties":{"code":"1110162002","desa":"Asantola","kecamatan":"Pulau Banyak Barat","kecCode":"111016"},"geometry":{"type":"Polygon","coordinates":[[[97.31591808375263,2.19253715722388],[97.31841532930407,2.187420919505329],[97.31231320079365,2.1906930757867342],[97.3134077530654,2.1824125509694725],[97.3073877173693,2.183328643572059],[97.30567450527428,2.191716243470631],[97.31591808375263,2.19253715722388]]]}},{"type":"Feature","properties":{"code":"1110162002","desa":"Asantola","kecamatan":"Pulau Banyak Barat","kecCode":"111016"},"geometry":{"type":"Polygon","coordinates":[[[97.30221180603007,2.2172772755584975],[97.27283476521228,2.1936488074052325],[97.26216737132717,2.2055442857857246],[97.28136745814173,2.2246696596016284],[97.29635528596769,2.230700007817017],[97.30221180603007,2.2172772755584975]]]}},{"type":"Feature","properties":{"code":"1110162002","desa":"Asantola","kecamatan":"Pulau Banyak Barat","kecCode":"111016"},"geometry":{"type":"Polygon","coordinates":[[[97.30283362966833,2.2160588974341504],[97.30240342817574,2.216942438176009],[97.30318341108561,2.216797720171813],[97.30283362966833,2.2160588974341504]]]}},{"type":"Feature","properties":{"code":"1110162003","desa":"Ujung Sialit","kecamatan":"Pulau Banyak Barat","kecCode":"111016"},"geometry":{"type":"Polygon","coordinates":[[[97.3345918468363,2.118958153736733],[97.23493473335132,2.224133151948495],[97.2341671709782,2.2345053964205808],[97.25642693935185,2.2356465893310826],[97.2810533690178,2.224155696153554],[97.26216737132717,2.2055442857857246],[97.29831138336374,2.1652391907260045],[97.30765484299667,2.1798413631622218],[97.31227099740867,2.1746636567819193],[97.31451720800283,2.179127525389605],[97.31593536692371,2.1694002881781227],[97.31929516573939,2.1775285271961407],[97.33046495059703,2.1724506194825106],[97.322798327281,2.163035092687755],[97.3327522566114,2.163354386187978],[97.33355175570902,2.151980562257711],[97.3387706510448,2.162605259018333],[97.3441045696702,2.1373443055159695],[97.33608102701784,2.1318144372132815],[97.34399006978595,2.130333633318886],[97.34312394711253,2.1242231779924214],[97.3345918468363,2.118958153736733]]]}},{"type":"Feature","properties":{"code":"1110162003","desa":"Ujung Sialit","kecamatan":"Pulau Banyak Barat","kecCode":"111016"},"geometry":{"type":"Polygon","coordinates":[[[97.32161113674465,2.182950894138929],[97.32161644724128,2.1832164243686565],[97.32179527293357,2.183027655772086],[97.32161113674465,2.182950894138929]]]}},{"type":"Feature","properties":{"code":"1110162003","desa":"Ujung Sialit","kecamatan":"Pulau Banyak Barat","kecCode":"111016"},"geometry":{"type":"Polygon","coordinates":[[[97.27256374641983,2.237169430235796],[97.27297474558809,2.23709043019001],[97.27262174639652,2.2368064305834343],[97.27256374641983,2.237169430235796]]]}},{"type":"Feature","properties":{"code":"1110162003","desa":"Ujung Sialit","kecamatan":"Pulau Banyak Barat","kecCode":"111016"},"geometry":{"type":"Polygon","coordinates":[[[97.26726517564742,2.2409263921458624],[97.26751317629208,2.241346392628086],[97.2676471761763,2.241155392813451],[97.26726517564742,2.2409263921458624]]]}},{"type":"Feature","properties":{"code":"1110162003","desa":"Ujung Sialit","kecamatan":"Pulau Banyak Barat","kecCode":"111016"},"geometry":{"type":"Polygon","coordinates":[[[97.27554214815164,2.2445667164833885],[97.27718635526617,2.2434793021319077],[97.27399549769409,2.244621443827141],[97.27554214815164,2.2445667164833885]]]}},{"type":"Feature","properties":{"code":"1110162003","desa":"Ujung Sialit","kecamatan":"Pulau Banyak Barat","kecCode":"111016"},"geometry":{"type":"Polygon","coordinates":[[[97.28663569837886,2.2598963541192214],[97.28677708709294,2.2605476341510746],[97.28714828316679,2.260338241401989],[97.28663569837886,2.2598963541192214]]]}},{"type":"Feature","properties":{"code":"1110162003","desa":"Ujung Sialit","kecamatan":"Pulau Banyak Barat","kecCode":"111016"},"geometry":{"type":"Polygon","coordinates":[[[97.3502335105681,2.1255599977293502],[97.3500735112836,2.125100997247416],[97.34993651126103,2.1254769974991565],[97.3502335105681,2.1255599977293502]]]}},{"type":"Feature","properties":{"code":"1110162003","desa":"Ujung Sialit","kecamatan":"Pulau Banyak Barat","kecCode":"111016"},"geometry":{"type":"Polygon","coordinates":[[[97.34886959515576,2.130994369722033],[97.35319200490717,2.1310789599536175],[97.35271730316106,2.1282807140143762],[97.34886959515576,2.130994369722033]]]}},{"type":"Feature","properties":{"code":"1110162003","desa":"Ujung Sialit","kecamatan":"Pulau Banyak Barat","kecCode":"111016"},"geometry":{"type":"Polygon","coordinates":[[[97.33143699991768,2.168950997676213],[97.33120500001081,2.1677489980050617],[97.33092699978128,2.16890599739975],[97.33143699991768,2.168950997676213]]]}},{"type":"Feature","properties":{"code":"1110162003","desa":"Ujung Sialit","kecamatan":"Pulau Banyak Barat","kecCode":"111016"},"geometry":{"type":"Polygon","coordinates":[[[97.32289027126905,2.1819240464291796],[97.32313787531274,2.1824768884685493],[97.32316574890022,2.1820075565749804],[97.32289027126905,2.1819240464291796]]]}},{"type":"Feature","properties":{"code":"1110162003","desa":"Ujung Sialit","kecamatan":"Pulau Banyak Barat","kecCode":"111016"},"geometry":{"type":"Polygon","coordinates":[[[97.32805757969362,2.190655326743881],[97.32710581188375,2.183372046652626],[97.32426473482968,2.191138607122425],[97.32805757969362,2.190655326743881]]]}},{"type":"Feature","properties":{"code":"1110162003","desa":"Ujung Sialit","kecamatan":"Pulau Banyak Barat","kecCode":"111016"},"geometry":{"type":"Polygon","coordinates":[[[97.31569053998645,2.2064871008435225],[97.3200949220431,2.201500939266953],[97.32350231118276,2.2028104367008643],[97.32920825775496,2.1938565247172703],[97.31907115900684,2.198102672853836],[97.31569053998645,2.2064871008435225]]]}},{"type":"Feature","properties":{"code":"1110162004","desa":"Suka Makmur","kecamatan":"Pulau Banyak Barat","kecCode":"111016"},"geometry":{"type":"Polygon","coordinates":[[[97.27283476521228,2.1936488074052325],[97.30143889718744,2.213735643721545],[97.30533841783377,2.210310213286024],[97.30492926857094,2.205361291735989],[97.29137476943013,2.2046864764462617],[97.30765484299667,2.1798413631622218],[97.29831138336374,2.1652391907260045],[97.27283476521228,2.1936488074052325]]]}}]}