{"type":"FeatureCollection","features":[{"type":"Feature","properties":{"code":"1117012001","desa":"Blang Rakal","kecamatan":"Pintu Rime Gayo","kecCode":"111701"},"geometry":{"type":"Polygon","coordinates":[[[96.68345614108807,4.9132012007241626],[96.68284493574527,4.9330163590466976],[96.70773387661716,4.928083717923263],[96.701444381553,4.917207703817722],[96.71234612077687,4.91176302109738],[96.74453635696737,4.910282937559908],[96.75252351844567,4.923486257723403],[96.75096269737064,4.946138566657],[96.7609710599665,4.922149543206983],[96.75605872732847,4.9206352260765405],[96.75867101055877,4.913573128845847],[96.76787259764234,4.905887090973386],[96.75583435457185,4.903192974835593],[96.77436021605119,4.893817520931183],[96.75407068421474,4.8916591327343255],[96.69683555481708,4.903925114711215],[96.68345614108807,4.9132012007241626]]]}},{"type":"Feature","properties":{"code":"1117012002","desa":"Negeri Antara","kecamatan":"Pintu Rime Gayo","kecCode":"111701"},"geometry":{"type":"Polygon","coordinates":[[[96.68126863643845,4.924776718308353],[96.67162900037812,4.938247995072499],[96.67582999985468,4.949447994441452],[96.6608341203984,4.951213144181515],[96.65448727466803,4.9643719892726015],[96.66655361525721,4.960384705590525],[96.68059426271508,4.96485108690435],[96.68200166934162,4.972032468412514],[96.69810036314128,4.973060712769439],[96.70825028262448,4.964951582545588],[96.74367395029263,4.966114296232707],[96.7525631335818,4.93440380252098],[96.74453635696737,4.910282937559908],[96.71092320264376,4.912324573070858],[96.701444381553,4.917207703817722],[96.70791488406473,4.927908733235705],[96.69570644069972,4.932416486061585],[96.68284493574527,4.9330163590466976],[96.68126863643845,4.924776718308353]]]}},{"type":"Feature","properties":{"code":"1117012003","desa":"Alur Cincin","kecamatan":"Pintu Rime Gayo","kecCode":"111701"},"geometry":{"type":"Polygon","coordinates":[[[96.68708965216575,4.902654724296292],[96.68345614108807,4.9132012007241626],[96.69683555481708,4.903925114711215],[96.75502689197752,4.891509104233503],[96.74047934884292,4.878166090578101],[96.68708965216575,4.902654724296292]]]}},{"type":"Feature","properties":{"code":"1117012004","desa":"Pantan Sinaku","kecamatan":"Pintu Rime Gayo","kecCode":"111701"},"geometry":{"type":"Polygon","coordinates":[[[96.78261538269379,4.944323690703108],[96.83190627255647,4.904903484466181],[96.82303308640786,4.880550140259778],[96.81089448978895,4.900129206760358],[96.80291053799101,4.899716060910765],[96.78261538269379,4.944323690703108]]]}},{"type":"Feature","properties":{"code":"1117012005","desa":"Bintang Berangun","kecamatan":"Pintu Rime Gayo","kecCode":"111701"},"geometry":{"type":"Polygon","coordinates":[[[96.75502689197752,4.891509104233503],[96.78980200365959,4.885811526758176],[96.80078540222462,4.8667893069781325],[96.7912774404016,4.8770050235497],[96.75502689197752,4.891509104233503]]]}},{"type":"Feature","properties":{"code":"1117012006","desa":"Taman Firdaus","kecamatan":"Pintu Rime Gayo","kecCode":"111701"},"geometry":{"type":"Polygon","coordinates":[[[96.74931525089818,4.8844693542563],[96.7547937076635,4.889724336682367],[96.7912774404016,4.8770050235497],[96.81087862934532,4.8564203953928455],[96.79945642457437,4.863774892797389],[96.78673496384754,4.8599733146210236],[96.779228956751,4.876732682754071],[96.76119147300811,4.8767355866649345],[96.74931525089818,4.8844693542563]]]}},{"type":"Feature","properties":{"code":"1117012007","desa":"Uning Mas","kecamatan":"Pintu Rime Gayo","kecCode":"111701"},"geometry":{"type":"Polygon","coordinates":[[[96.80078540222462,4.8667893069781325],[96.79009604689507,4.885603672749131],[96.82385228785284,4.871301354966156],[96.83158347979382,4.86006159926754],[96.81473933884944,4.856532413148157],[96.80078540222462,4.8667893069781325]]]}},{"type":"Feature","properties":{"code":"1117012008","desa":"Perdamaian","kecamatan":"Pintu Rime Gayo","kecCode":"111701"},"geometry":{"type":"Polygon","coordinates":[[[96.77112516759246,4.892353234884731],[96.75449702401852,4.906721043997073],[96.76692782655799,4.905076881850315],[96.77516112258779,4.923504422230079],[96.78076096444698,4.9050162657458936],[96.78719010084257,4.89897470208486],[96.794897987752,4.904596663663353],[96.7991339582656,4.88860308264086],[96.79606883041224,4.8826262359929],[96.77112516759246,4.892353234884731]]]}},{"type":"Feature","properties":{"code":"1117012009","desa":"Ulu Naron","kecamatan":"Pintu Rime Gayo","kecCode":"111701"},"geometry":{"type":"Polygon","coordinates":[[[96.76787259764234,4.905887090973386],[96.75867101055877,4.913573128845847],[96.75605872732847,4.9206352260765405],[96.7609710599665,4.922149543206983],[96.74471510261992,4.962270038930027],[96.76166524305658,4.947895506486061],[96.76149585844716,4.938858431494367],[96.77516112258779,4.923504422230079],[96.76787259764234,4.905887090973386]]]}},{"type":"Feature","properties":{"code":"1117012010","desa":"Pantan Lah","kecamatan":"Pintu Rime Gayo","kecCode":"111701"},"geometry":{"type":"Polygon","coordinates":[[[96.6587524443699,4.95385338553287],[96.61645717296021,4.955615146627412],[96.59843275456802,4.938542514948393],[96.58647596399457,4.939791731725011],[96.57314242108595,4.947682937331589],[96.6295872019878,4.968664632359184],[96.6586444375908,4.9622752019378735],[96.6587524443699,4.95385338553287]]]}},{"type":"Feature","properties":{"code":"1117012011","desa":"Pancar Jelobok","kecamatan":"Pintu Rime Gayo","kecCode":"111701"},"geometry":{"type":"Polygon","coordinates":[[[96.74660758557167,4.965691086969482],[96.7689798933075,4.951356358519221],[96.77870857214292,4.951526097461339],[96.80291053799101,4.899716060910765],[96.80974465259366,4.90107546352372],[96.81738281326629,4.892507963242602],[96.82569322076556,4.869863097098299],[96.79764107557526,4.88490682856586],[96.794897987752,4.904596663663353],[96.78818169782716,4.899027342102143],[96.78214281234095,4.903171124907146],[96.76166524305658,4.947895506486061],[96.74660758557167,4.965691086969482]]]}},{"type":"Feature","properties":{"code":"1117012012","desa":"Alur Gading","kecamatan":"Pintu Rime Gayo","kecCode":"111701"},"geometry":{"type":"Polygon","coordinates":[[[96.68878223741041,4.881961853738106],[96.69038487606122,4.890033948980794],[96.70257100185029,4.8870760032312655],[96.74936648977172,4.855488370400846],[96.72433636972771,4.853571245127708],[96.72680662122866,4.8596520498068365],[96.69902810106606,4.8687087201265715],[96.68878223741041,4.881961853738106]]]}},{"type":"Feature","properties":{"code":"1117012013","desa":"Rime Raya","kecamatan":"Pintu Rime Gayo","kecCode":"111701"},"geometry":{"type":"Polygon","coordinates":[[[96.7079112292199,4.819713704569608],[96.69348881415749,4.832939752399788],[96.6929390253158,4.843922106840542],[96.75399640381106,4.8337332826961426],[96.7079112292199,4.819713704569608]]]}},{"type":"Feature","properties":{"code":"1117012014","desa":"Singah Mulo","kecamatan":"Pintu Rime Gayo","kecCode":"111701"},"geometry":{"type":"Polygon","coordinates":[[[96.7286566229049,4.85446929013558],[96.74930647171634,4.857468423935469],[96.75645089559242,4.848895665318374],[96.73080448543874,4.846956493165309],[96.73918524240509,4.850108137594888],[96.7286566229049,4.85446929013558]]]}},{"type":"Feature","properties":{"code":"1117012015","desa":"Simpang Lancang","kecamatan":"Pintu Rime Gayo","kecCode":"111701"},"geometry":{"type":"Polygon","coordinates":[[[96.69038487606122,4.890033948980794],[96.68708965216575,4.902654724296292],[96.73208448061435,4.883965197015716],[96.73968446056944,4.86885474574495],[96.76478944737516,4.857120888125666],[96.75376932589374,4.853856788870264],[96.69038487606122,4.890033948980794]]]}},{"type":"Feature","properties":{"code":"1117012016","desa":"Wih Porak","kecamatan":"Pintu Rime Gayo","kecCode":"111701"},"geometry":{"type":"Polygon","coordinates":[[[96.74383656300704,4.8798526989266575],[96.74931525089818,4.8844693542563],[96.76119147300811,4.8767355866649345],[96.77378300777963,4.879519219520428],[96.78401403891682,4.872812586522655],[96.78673496384754,4.8599733146210236],[96.79204894000662,4.864703115455793],[96.80766831673945,4.857577588141917],[96.77241561738691,4.860351656707433],[96.74383656300704,4.8798526989266575]]]}},{"type":"Feature","properties":{"code":"1117012017","desa":"Bener Meriah","kecamatan":"Pintu Rime Gayo","kecCode":"111701"},"geometry":{"type":"Polygon","coordinates":[[[96.7347957216453,4.879655421844218],[96.75774852467475,4.8745793190695075],[96.76591164120934,4.861801989772349],[96.75459613920053,4.860089794812265],[96.73968446056944,4.86885474574495],[96.7347957216453,4.879655421844218]]]}},{"type":"Feature","properties":{"code":"1117012018","desa":"Musara 58","kecamatan":"Pintu Rime Gayo","kecCode":"111701"},"geometry":{"type":"Polygon","coordinates":[[[96.73080448543874,4.846956493165309],[96.75647494166526,4.847560289892521],[96.76641882376975,4.843776083020789],[96.75056507561783,4.841790716291574],[96.73080448543874,4.846956493165309]]]}},{"type":"Feature","properties":{"code":"1117012019","desa":"Musara Pakat","kecamatan":"Pintu Rime Gayo","kecCode":"111701"},"geometry":{"type":"Polygon","coordinates":[[[96.69130876758561,4.845846527414137],[96.68878223741041,4.881961853738106],[96.69902810106606,4.8687087201265715],[96.73918524240509,4.850108137594888],[96.69130876758561,4.845846527414137]]]}},{"type":"Feature","properties":{"code":"1117012020","desa":"Rata Ara","kecamatan":"Pintu Rime Gayo","kecCode":"111701"},"geometry":{"type":"Polygon","coordinates":[[[96.78608324494587,4.855830390668498],[96.83158347979382,4.86006159926754],[96.83763676702324,4.8445190030697605],[96.82322263561622,4.833684002546037],[96.80809680502357,4.834812805496768],[96.76281462789278,4.844973604967646],[96.75376932589374,4.853856788870264],[96.76458875736533,4.8568415506045675],[96.7577223094371,4.862552871519408],[96.76518823824665,4.865426191064458],[96.78608324494587,4.855830390668498]]]}},{"type":"Feature","properties":{"code":"1117012021","desa":"Gemasih","kecamatan":"Pintu Rime Gayo","kecCode":"111701"},"geometry":{"type":"Polygon","coordinates":[[[96.73452385389281,4.824839148648313],[96.7779847258145,4.838429585583349],[96.81043065275249,4.832713182599671],[96.77984030238808,4.8330498770822246],[96.76125418723102,4.820908071694745],[96.73452385389281,4.824839148648313]]]}},{"type":"Feature","properties":{"code":"1117012022","desa":"Pulo Intan","kecamatan":"Pintu Rime Gayo","kecCode":"111701"},"geometry":{"type":"Polygon","coordinates":[[[96.75268591082617,4.832538111577157],[96.76710985473608,4.842572531119631],[96.82322263561622,4.833684002546037],[96.7779847258145,4.838429585583349],[96.75268591082617,4.832538111577157]]]}},{"type":"Feature","properties":{"code":"1117012023","desa":"Blang Ara","kecamatan":"Pintu Rime Gayo","kecCode":"111701"},"geometry":{"type":"Polygon","coordinates":[[[96.6929390253158,4.843922106840542],[96.71805170941889,4.850862068943001],[96.7324152197866,4.8443574551528],[96.77442743228022,4.842308107955321],[96.75115368369558,4.836109153943177],[96.7123231736756,4.83712372230975],[96.6929390253158,4.843922106840542]]]}},{"type":"Feature","properties":{"code":"1117022001","desa":"Bener Pepanyi","kecamatan":"Permata","kecCode":"111702"},"geometry":{"type":"Polygon","coordinates":[[[96.92668037759738,4.790272659931548],[96.9333165442232,4.781647271189783],[96.90626810089219,4.7832381449079415],[96.88735008194078,4.794752115589278],[96.86094084344522,4.777252013659235],[96.85620371133228,4.793965467804551],[96.88979716780511,4.807069044159948],[96.92668037759738,4.790272659931548]]]}},{"type":"Feature","properties":{"code":"1117022002","desa":"Bintang Bener","kecamatan":"Permata","kecCode":"111702"},"geometry":{"type":"Polygon","coordinates":[[[96.92668037759738,4.790272659931548],[96.88979716780511,4.807069044159948],[96.85169804762687,4.791794529568524],[96.83394432067394,4.800374980087065],[96.85515613964418,4.81191607252258],[96.88955928093611,4.81501620288616],[96.90603035072017,4.8118103221426445],[96.90390265458387,4.803149480327202],[96.92239182372373,4.798518428650273],[96.92668037759738,4.790272659931548]]]}},{"type":"Feature","properties":{"code":"1117022003","desa":"Bintang Permata","kecamatan":"Permata","kecCode":"111702"},"geometry":{"type":"Polygon","coordinates":[[[96.902667006777,4.809361134565224],[96.9109451663864,4.815716727994568],[96.92397598940045,4.806390949941956],[96.90939955284715,4.809246228187472],[96.902667006777,4.809361134565224]]]}},{"type":"Feature","properties":{"code":"1117022004","desa":"Buntul Peteri","kecamatan":"Permata","kecCode":"111702"},"geometry":{"type":"Polygon","coordinates":[[[96.93023969460627,4.8224717166393765],[96.91906759129637,4.8250252201781],[96.90124024044478,4.828957342143909],[96.93239941560063,4.8404304521281],[96.9252071837646,4.8345048056827835],[96.93023969460627,4.8224717166393765]]]}},{"type":"Feature","properties":{"code":"1117022005","desa":"Darul Aman","kecamatan":"Permata","kecCode":"111702"},"geometry":{"type":"Polygon","coordinates":[[[96.95052894225694,4.798264250562693],[96.94512718956821,4.786967694583118],[96.93067276043962,4.795402731022202],[96.94413646762393,4.802915748326247],[96.95052894225694,4.798264250562693]]]}},{"type":"Feature","properties":{"code":"1117022006","desa":"GLP. Wih Tenang Uken","kecamatan":"Permata","kecCode":"111702"},"geometry":{"type":"Polygon","coordinates":[[[96.92009349561839,4.8103273940495],[96.90808029596893,4.815889951809591],[96.90810951584155,4.8245839318437636],[96.90124024044478,4.828957342143909],[96.92377892365846,4.823561850540814],[96.92009349561839,4.8103273940495]]]}},{"type":"Feature","properties":{"code":"1117022007","desa":"Pantan Tengah Jaya","kecamatan":"Permata","kecCode":"111702"},"geometry":{"type":"Polygon","coordinates":[[[96.95058416962375,4.768747359801337],[96.9537272552087,4.80473382856463],[96.95444585309372,4.764088754695628],[96.95058416962375,4.768747359801337]]]}},{"type":"Feature","properties":{"code":"1117022008","desa":"Penosan Jaya","kecamatan":"Permata","kecCode":"111702"},"geometry":{"type":"Polygon","coordinates":[[[96.95231914441302,4.860772692309335],[97.00103502124925,4.864680849141272],[97.01052391384758,4.903715953987249],[97.0199150699246,4.911817166579783],[97.01617549100614,4.896067282046429],[97.03507064829182,4.896475782897689],[97.03213707506602,4.859899786949905],[97.02591145255154,4.848410796737034],[97.00625011065414,4.835506401328818],[97.00336507024184,4.845200542590451],[96.99324226441905,4.839597697001408],[96.99038505622542,4.843523020991896],[96.98056242341715,4.8412720790667265],[96.9800757795736,4.830606661003126],[96.96615159522001,4.83032092750368],[96.94407218228542,4.852273861561646],[96.95267002929847,4.855215251691639],[96.95231914441302,4.860772692309335]]]}},{"type":"Feature","properties":{"code":"1117022009","desa":"Ramung Jaya","kecamatan":"Permata","kecCode":"111702"},"geometry":{"type":"Polygon","coordinates":[[[96.95052894225694,4.798264250562693],[96.94155437103745,4.801731734196591],[96.94362326859901,4.808176835350424],[96.9533475182734,4.808159205940334],[96.95052894225694,4.798264250562693]]]}},{"type":"Feature","properties":{"code":"1117022010","desa":"Seni Antara","kecamatan":"Permata","kecCode":"111702"},"geometry":{"type":"Polygon","coordinates":[[[96.86341255004919,4.856745425668469],[96.89833100557149,4.8760138906162505],[96.91272917760948,4.87407671585745],[96.88979736835394,4.840656947284458],[96.85826536125745,4.835481433450901],[96.86341255004919,4.856745425668469]]]}},{"type":"Feature","properties":{"code":"1117022011","desa":"Temas Mumanang","kecamatan":"Permata","kecCode":"111702"},"geometry":{"type":"Polygon","coordinates":[[[96.96890663593257,4.831301095902676],[96.9800757795736,4.830606661003126],[96.98071479824937,4.8413753455192206],[97.00336507024184,4.845200542590451],[97.00625011065414,4.835506401328818],[97.03141507864301,4.858816791866869],[97.03294605661529,4.844365379978662],[97.00801589531737,4.813876032504726],[96.9604995684004,4.821290636997456],[96.96890663593257,4.831301095902676]]]}},{"type":"Feature","properties":{"code":"1117022012","desa":"Wih Tenang Toa","kecamatan":"Permata","kecCode":"111702"},"geometry":{"type":"Polygon","coordinates":[[[96.9761794659097,4.801553610875046],[96.98992742541044,4.807472520498884],[96.99348425939108,4.792365124225164],[96.97888300334796,4.779652045192972],[96.96660379143191,4.778110382377082],[96.95687817209006,4.787714614816525],[96.95906192836536,4.804984887803325],[96.96634584428533,4.804565344176758],[96.96718928875475,4.810212287123014],[96.9761794659097,4.801553610875046]]]}},{"type":"Feature","properties":{"code":"1117022013","desa":"Wih Tenang Uken","kecamatan":"Permata","kecCode":"111702"},"geometry":{"type":"Polygon","coordinates":[[[96.91815918609761,4.816158566713959],[96.93024612925552,4.822568381168728],[96.92524125458026,4.834661615071825],[96.94471366600294,4.845530868074225],[96.94128570487146,4.801304317904789],[96.91815918609761,4.816158566713959]]]}},{"type":"Feature","properties":{"code":"1117022014","desa":"Ayu Ara","kecamatan":"Permata","kecCode":"111702"},"geometry":{"type":"Polygon","coordinates":[[[96.95599699386622,4.774873805973541],[96.9533475182734,4.808159205940334],[96.95790614395344,4.8087424693466545],[96.95687817209006,4.787714614816525],[96.965877352358,4.778433703041481],[96.95599699386622,4.774873805973541]]]}},{"type":"Feature","properties":{"code":"1117022015","desa":"Ceding Ayu","kecamatan":"Permata","kecCode":"111702"},"geometry":{"type":"Polygon","coordinates":[[[96.93134290555071,4.796638108131875],[96.91815918609761,4.816158566713959],[96.9300568579377,4.811926650348508],[96.93770798233759,4.800797095774693],[96.93134290555071,4.796638108131875]]]}},{"type":"Feature","properties":{"code":"1117022016","desa":"Uning Sejuk","kecamatan":"Permata","kecCode":"111702"},"geometry":{"type":"Polygon","coordinates":[[[96.9604995684004,4.821290636997456],[96.97009930963549,4.821192930153891],[96.97644350866106,4.801664392961825],[96.97022759163013,4.80190629980011],[96.9604995684004,4.821290636997456]]]}},{"type":"Feature","properties":{"code":"1117022017","desa":"Suku Sara Tangke","kecamatan":"Permata","kecCode":"111702"},"geometry":{"type":"Polygon","coordinates":[[[96.97009930963549,4.821192930153891],[96.98302481844068,4.814734733072441],[96.97785923041918,4.805999272708215],[96.97297580738768,4.807160926993966],[96.97009930963549,4.821192930153891]]]}},{"type":"Feature","properties":{"code":"1117022018","desa":"Rikit Musara","kecamatan":"Permata","kecCode":"111702"},"geometry":{"type":"Polygon","coordinates":[[[96.83253837274776,4.903764782677664],[96.84438483898919,4.898127935520716],[96.84618979542279,4.882127784051407],[96.88740700093238,4.872362223129567],[96.86588719024171,4.857411674915729],[96.83531633178335,4.854325342850372],[96.8230605939713,4.879445529971378],[96.83253837274776,4.903764782677664]]]}},{"type":"Feature","properties":{"code":"1117022019","desa":"Jungke","kecamatan":"Permata","kecCode":"111702"},"geometry":{"type":"Polygon","coordinates":[[[96.95117749734368,4.77018728321357],[96.92668037759738,4.790272659931548],[96.93067276043962,4.795402731022202],[96.94431549566364,4.7870379406280605],[96.95046149400281,4.790715092203538],[96.95117749734368,4.77018728321357]]]}},{"type":"Feature","properties":{"code":"1117022020","desa":"Burni Pase","kecamatan":"Permata","kecCode":"111702"},"geometry":{"type":"Polygon","coordinates":[[[96.91272917760948,4.87407671585745],[96.95347285678695,4.856492460766306],[96.9442998492587,4.85272163490726],[96.94680979503607,4.846493987125941],[96.94142266802173,4.842966808293357],[96.9154362637726,4.831925323428119],[96.88690372862425,4.831506990289029],[96.91272917760948,4.87407671585745]]]}},{"type":"Feature","properties":{"code":"1117022021","desa":"Bale Musara","kecamatan":"Permata","kecCode":"111702"},"geometry":{"type":"Polygon","coordinates":[[[96.92794778586169,4.793276838928113],[96.90390265458387,4.803149480327202],[96.902667006777,4.809361134565224],[96.92476161105958,4.805999429190267],[96.9313240746464,4.797249981670363],[96.92794778586169,4.793276838928113]]]}},{"type":"Feature","properties":{"code":"1117022022","desa":"Pemango","kecamatan":"Permata","kecCode":"111702"},"geometry":{"type":"Polygon","coordinates":[[[96.9533475182734,4.808159205940334],[96.94362326859901,4.808176835350424],[96.94520078199054,4.817826871160891],[96.95715969766195,4.817864887302431],[96.9533475182734,4.808159205940334]]]}},{"type":"Feature","properties":{"code":"1117022023","desa":"Jelobok","kecamatan":"Permata","kecCode":"111702"},"geometry":{"type":"Polygon","coordinates":[[[96.94680979503607,4.846493987125941],[96.96890663593257,4.831301095902676],[96.95831764584273,4.816885306160686],[96.94393007231501,4.820137823047463],[96.94680979503607,4.846493987125941]]]}},{"type":"Feature","properties":{"code":"1117022024","desa":"Kepies","kecamatan":"Permata","kecCode":"111702"},"geometry":{"type":"Polygon","coordinates":[[[96.9011424535614,4.828377962010215],[96.9073957293295,4.820043725183225],[96.87971217757502,4.819837140117622],[96.8572946240477,4.828482203327767],[96.85826536125745,4.835481433450901],[96.87580198827116,4.839145803861461],[96.88668458362666,4.839045084289064],[96.88690372862425,4.831506990289029],[96.9011424535614,4.828377962010215]]]}},{"type":"Feature","properties":{"code":"1117022025","desa":"Timur Jaya","kecamatan":"Permata","kecCode":"111702"},"geometry":{"type":"Polygon","coordinates":[[[96.98148277431062,4.815023995511666],[97.00801589531737,4.813876032504726],[97.01479080395251,4.828438552933665],[97.0313518527059,4.843571924325984],[97.03546832130604,4.840150259351666],[97.03463741338594,4.815970177631256],[97.01593458691173,4.792129124134102],[97.00305886277636,4.795876402144702],[96.99421196740843,4.790853907957161],[96.9893409784035,4.807683257734422],[96.98015162569703,4.799951039674979],[96.9761794659097,4.801553610875046],[96.98148277431062,4.815023995511666]]]}},{"type":"Feature","properties":{"code":"1117022026","desa":"Bale Purnama","kecamatan":"Permata","kecCode":"111702"},"geometry":{"type":"Polygon","coordinates":[[[96.90603035072017,4.8118103221426445],[96.85515613964418,4.81191607252258],[96.85284019022265,4.815065658404073],[96.8572946240477,4.828482203327767],[96.87971217757502,4.819837140117622],[96.90419530476959,4.821289090163545],[96.90603035072017,4.8118103221426445]]]}},{"type":"Feature","properties":{"code":"1117022027","desa":"Tawar Bengi","kecamatan":"Permata","kecCode":"111702"},"geometry":{"type":"Polygon","coordinates":[[[96.96718928875475,4.810212287123014],[96.96506847962665,4.80408937078977],[96.9533475182734,4.808159205940334],[96.95981612231623,4.818844561973671],[96.96718928875475,4.810212287123014]]]}},{"type":"Feature","properties":{"code":"1117032001","desa":"Blang Panu","kecamatan":"Syiah Utama","kecCode":"111703"},"geometry":{"type":"Polygon","coordinates":[[[97.24898127856322,4.867718626809438],[97.28017653272086,4.826403371857027],[97.27998617592135,4.807558040629444],[97.25009158785655,4.751170738155784],[97.25277561989901,4.739606556526065],[97.25875164906938,4.740385798393787],[97.2511480673295,4.734181386396199],[97.25551675889135,4.724044882110455],[97.26331187284471,4.729184519289624],[97.27156384329679,4.720304368800251],[97.25977123565404,4.69320706802855],[97.25446027941841,4.694063674075219],[97.25828644956005,4.704828354809488],[97.25226165555101,4.709082831567764],[97.24860680356119,4.697432991311915],[97.235643500747,4.700916520649694],[97.22737016869837,4.692487748888028],[97.21151576583998,4.689438001243466],[97.21074482021731,4.67790237398806],[97.22125252058743,4.673762112028825],[97.21282922658757,4.66945052922002],[97.16887820256704,4.693028607461263],[97.13295786091663,4.692628857912848],[97.13172845170673,4.697764241298756],[97.1471235654003,4.706306504804553],[97.16963326526302,4.707329674287189],[97.18424315659642,4.718298987658892],[97.17867521638817,4.727555092534675],[97.16280314544888,4.725651845599341],[97.16029043605481,4.73433212176417],[97.17245424067073,4.750407758728594],[97.18319036884049,4.747381084989699],[97.18384709966398,4.756575322803995],[97.19188883560133,4.749520957944277],[97.1905571797701,4.767425664862458],[97.19992273844366,4.792381453215556],[97.21776869536903,4.811055461794908],[97.22359361685199,4.809456463601301],[97.2255923636967,4.821306179081039],[97.23627138491655,4.824275747668724],[97.22844771658889,4.828730097852238],[97.24526574841559,4.8429783106223345],[97.23395854894795,4.862880123120456],[97.23642032793582,4.8747894105917995],[97.24898127856322,4.867718626809438]]]}},{"type":"Feature","properties":{"code":"1117032003","desa":"Gerpa","kecamatan":"Syiah Utama","kecCode":"111703"},"geometry":{"type":"Polygon","coordinates":[[[97.21853993507,4.670678331340125],[97.2210240918884,4.676674571867931],[97.21074482021731,4.67790237398806],[97.21151576583998,4.689438001243466],[97.22737016869837,4.692487748888028],[97.235643500747,4.700916520649694],[97.24860680356119,4.697432991311915],[97.24912076790916,4.707712261173654],[97.25668745406283,4.708197671146842],[97.25446027941841,4.694063674075219],[97.26068131539046,4.6918016012411785],[97.261503657268,4.6863954652623585],[97.24279538360014,4.679505815731805],[97.23598822257844,4.684896722591079],[97.22712520596355,4.67939921549254],[97.22802368984144,4.669942285708841],[97.21853993507,4.670678331340125]]]}},{"type":"Feature","properties":{"code":"1117032004","desa":"Goneng","kecamatan":"Syiah Utama","kecCode":"111703"},"geometry":{"type":"Polygon","coordinates":[[[97.2563479186216,4.646855640200545],[97.26142800090155,4.617073995324504],[97.26522799987235,4.616395994636088],[97.26925200017972,4.623293995271106],[97.27094799925084,4.625224996184065],[97.27307724581829,4.626574342577856],[97.26570944293648,4.616432494520522],[97.25832625984906,4.611746716399274],[97.23320819060558,4.611568638043807],[97.24238339158028,4.623294622098526],[97.23933961992758,4.632892137501577],[97.2444107269735,4.641069868010925],[97.2563479186216,4.646855640200545]]]}},{"type":"Feature","properties":{"code":"1117032007","desa":"Kerlang","kecamatan":"Syiah Utama","kecCode":"111703"},"geometry":{"type":"Polygon","coordinates":[[[97.21785464987227,4.670392794792122],[97.22802368984144,4.669942285708841],[97.22712520596355,4.67939921549254],[97.23598822257844,4.684896722591079],[97.24279538360014,4.679505815731805],[97.261503657268,4.6863954652623585],[97.23263032672826,4.672720227654445],[97.23461003942184,4.645156551060647],[97.22900593207815,4.648080434088413],[97.23040695801478,4.657385078072916],[97.22518356427014,4.653577940287684],[97.21679942675217,4.659614715958054],[97.21785464987227,4.670392794792122]]]}},{"type":"Feature","properties":{"code":"1117032008","desa":"Kutelah Lane","kecamatan":"Syiah Utama","kecCode":"111703"},"geometry":{"type":"Polygon","coordinates":[[[97.21410104602647,4.596695939642989],[97.16725857932005,4.577600159816508],[97.14845337492335,4.579029612422178],[97.14087464864615,4.586278147206697],[97.1555511635554,4.618029675184276],[97.1552656288058,4.63139272753336],[97.19175704265346,4.663886647657922],[97.20346399077062,4.663030041611284],[97.2077470210083,4.654064232495813],[97.21410104602647,4.596695939642989]]]}},{"type":"Feature","properties":{"code":"1117032009","desa":"Pasir Putih","kecamatan":"Syiah Utama","kecCode":"111703"},"geometry":{"type":"Polygon","coordinates":[[[97.31861356416469,4.737149861408228],[97.32871600124251,4.71073899426778],[97.31496521157533,4.691265428135825],[97.29933594859521,4.70295522257214],[97.3051132797541,4.729730820559846],[97.27389741673242,4.735507201129386],[97.26940499374551,4.732507176101311],[97.27660809658647,4.730649291869303],[97.27534412732967,4.72487767141134],[97.26956509555278,4.72173204614425],[97.26216973204752,4.729184519289624],[97.25551675889135,4.724044882110455],[97.2511480673295,4.734181386396199],[97.25875164906938,4.740385798393787],[97.25277561989901,4.739606556526065],[97.25170685298893,4.757955255140588],[97.2733009413854,4.756731571016139],[97.29542992764908,4.7415981987245415],[97.31861356416469,4.737149861408228]]]}},{"type":"Feature","properties":{"code":"1117032010","desa":"Payung","kecamatan":"Syiah Utama","kecCode":"111703"},"geometry":{"type":"Polygon","coordinates":[[[97.23512758127292,4.603925969977096],[97.21410104602647,4.596695939642989],[97.2077470210083,4.654064232495813],[97.20346399077062,4.663030041611284],[97.19389478781424,4.665303711203052],[97.19517398529126,4.670340554073866],[97.21615692859945,4.6634438889320355],[97.22304313283439,4.644843019516757],[97.24238339158028,4.623294622098526],[97.23495947370083,4.619297127514002],[97.23512758127292,4.603925969977096]]]}},{"type":"Feature","properties":{"code":"1117032012","desa":"Rusip","kecamatan":"Syiah Utama","kecCode":"111703"},"geometry":{"type":"Polygon","coordinates":[[[97.0251091322807,4.632872902801692],[97.01955775398721,4.644409966274351],[97.04379081659293,4.686853403645077],[97.04844474792685,4.692701335175814],[97.06579780622383,4.6937580062032564],[97.07445716866344,4.703702921618497],[97.07583427443227,4.720109934474813],[97.10577201826408,4.743062967706908],[97.10624885590005,4.76122855625916],[97.1202602394186,4.785852426429183],[97.1158604439044,4.801815719184388],[97.12742378108271,4.857210995698009],[97.14426909923957,4.909375008103435],[97.24237523742732,4.873660345039026],[97.23642032793582,4.8747894105917995],[97.23395854894795,4.862880123120456],[97.24526574841559,4.8429783106223345],[97.22844771658889,4.828730097852238],[97.23655691966616,4.825103798441776],[97.22519261324857,4.820849322582796],[97.22359361685199,4.809456463601301],[97.21776869536903,4.811055461794908],[97.19992273844366,4.792381453215556],[97.1905571797701,4.767425664862458],[97.19188883560133,4.749520957944277],[97.18384709966398,4.756575322803995],[97.18249544830633,4.746980821928423],[97.17245424067073,4.750407758728594],[97.15817747441098,4.721397370639697],[97.1497256287348,4.718856105974706],[97.14524272327309,4.725194990000423],[97.14461270860966,4.7169411192893875],[97.12545512555369,4.7193986237970735],[97.12576699155345,4.713349360140766],[97.0964314445556,4.716187082720705],[97.0936400847222,4.696369074446737],[97.07081629483622,4.672312721453397],[97.07355743382855,4.657350672709421],[97.05282756963669,4.651925500780854],[97.0251091322807,4.632872902801692]]]}},{"type":"Feature","properties":{"code":"1117032014","desa":"Tembolon","kecamatan":"Syiah Utama","kecCode":"111703"},"geometry":{"type":"Polygon","coordinates":[[[97.01607805485838,4.642864548788945],[96.96793398406616,4.64994381677545],[96.97883150187238,4.676829139247216],[96.97951837707149,4.711864043448299],[97.04570579518634,4.715623850813564],[97.06071930764999,4.7382304562007205],[97.10564231893795,4.74607276386897],[97.07583427443227,4.720109934474813],[97.07445716866344,4.703702921618497],[97.06579780622383,4.6937580062032564],[97.04844474792685,4.692701335175814],[97.02484206061268,4.6485825885387975],[97.01607805485838,4.642864548788945]]]}},{"type":"Feature","properties":{"code":"1117032015","desa":"Uning","kecamatan":"Syiah Utama","kecCode":"111703"},"geometry":{"type":"Polygon","coordinates":[[[97.25451395635406,4.647250177278405],[97.24619246740849,4.643628264760879],[97.23956610968825,4.626073832987527],[97.21679942675217,4.659614715958054],[97.22518356427014,4.653577940287684],[97.23040695801478,4.657385078072916],[97.22900593207815,4.648080434088413],[97.23461003942184,4.645156551060647],[97.23263032672826,4.672720227654445],[97.24580302229167,4.676116196299952],[97.24603145099074,4.65506272368214],[97.25451395635406,4.647250177278405]]]}},{"type":"Feature","properties":{"code":"1117032016","desa":"Wihni Durin","kecamatan":"Syiah Utama","kecCode":"111703"},"geometry":{"type":"Polygon","coordinates":[[[97.08195074443137,4.593712797587741],[97.04383323491588,4.607450683767914],[97.02597611200802,4.63518289151426],[97.07355743382855,4.657350672709421],[97.07081629483622,4.672312721453397],[97.0936400847222,4.696369074446737],[97.09707291568257,4.716571825282053],[97.12576699155345,4.713349360140766],[97.12545512555369,4.7193986237970735],[97.14461270860966,4.7169411192893875],[97.14524272327309,4.725194990000423],[97.1497256287348,4.718856105974706],[97.16496952142631,4.72731714541132],[97.18019807258302,4.7267698701753424],[97.18424315659642,4.718298987658892],[97.16963326526302,4.707329674287189],[97.14897954397082,4.706925166425872],[97.13172845170673,4.697764241298756],[97.12846859005344,4.667664059252264],[97.1337271985514,4.652435509010682],[97.11864869658011,4.6105780492002735],[97.10472156964477,4.6101286912492165],[97.08195074443137,4.593712797587741]]]}},{"type":"Feature","properties":{"code":"1117032017","desa":"Rata Mulie","kecamatan":"Syiah Utama","kecCode":"111703"},"geometry":{"type":"Polygon","coordinates":[[[97.14845337492335,4.579029612422178],[97.08195074443137,4.593712797587741],[97.10472156964477,4.6101286912492165],[97.11864869658011,4.6105780492002735],[97.1337271985514,4.652435509010682],[97.1297534982254,4.694551969073564],[97.16887820256704,4.693028607461263],[97.19326292144672,4.676524665674891],[97.21785464987227,4.670392794792122],[97.21615692859945,4.6634438889320355],[97.19517398529126,4.670340554073866],[97.19649692759116,4.662972933762071],[97.16657282557547,4.645840814627851],[97.15423770190847,4.6297366223899346],[97.1555511635554,4.618029675184276],[97.14207389639324,4.591132247837883],[97.14845337492335,4.579029612422178]]]}},{"type":"Feature","properties":{"code":"1117032018","desa":"Tempen Baru","kecamatan":"Syiah Utama","kecCode":"111703"},"geometry":{"type":"Polygon","coordinates":[[[97.27307724581829,4.626574342577856],[97.3037940012922,4.622181996152775],[97.31248656400379,4.604618850848166],[97.23512758127292,4.603925969977096],[97.23320819060558,4.611568638043807],[97.25832625984906,4.611746716399274],[97.27307724581829,4.626574342577856]]]}},{"type":"Feature","properties":{"code":"1117032019","desa":"Geruti Jaya","kecamatan":"Syiah Utama","kecCode":"111703"},"geometry":{"type":"Polygon","coordinates":[[[97.31828975516811,4.692091197328881],[97.29928699939558,4.660850995087774],[97.25942300107072,4.6617909961669355],[97.2563479186216,4.646855640200545],[97.24603145099074,4.65506272368214],[97.24580302229167,4.676116196299952],[97.26224985624593,4.68718735159806],[97.25891462960652,4.692978639329785],[97.26965075777632,4.7061703708293265],[97.2651678523146,4.714251020423212],[97.27812734829854,4.727223842547844],[97.26974002178463,4.731730520683849],[97.27239189676868,4.735237865868029],[97.3051132797541,4.729730820559846],[97.29933594859521,4.70295522257214],[97.30507140102442,4.694885867563825],[97.31828975516811,4.692091197328881]]]}},{"type":"Feature","properties":{"code":"1117042001","desa":"Bahgie Bertona","kecamatan":"Bandar","kecCode":"111704"},"geometry":{"type":"Polygon","coordinates":[[[96.92282167987668,4.76098673485648],[96.9177972188666,4.754834529402965],[96.9142760825752,4.75929309560818],[96.91874008158953,4.761619821603374],[96.92282167987668,4.76098673485648]]]}},{"type":"Feature","properties":{"code":"1117042003","desa":"Bathin Baru","kecamatan":"Bandar","kecCode":"111704"},"geometry":{"type":"Polygon","coordinates":[[[96.91458857630181,4.759950017986579],[96.90508553466974,4.755225515957311],[96.89450395589292,4.759864171402082],[96.88409432659192,4.776410302184288],[96.87703895628289,4.777315134375581],[96.8899936678735,4.777818674681256],[96.91458857630181,4.759950017986579]]]}},{"type":"Feature","properties":{"code":"1117042004","desa":"Blang Pulo","kecamatan":"Bandar","kecCode":"111704"},"geometry":{"type":"Polygon","coordinates":[[[96.98492818588714,4.746226620783729],[96.98906995781238,4.738120566241396],[96.9888814895891,4.722756158116332],[96.97641204408065,4.7343253372786425],[96.97804673366988,4.740750594891574],[96.96500490655126,4.741321664390222],[96.98492818588714,4.746226620783729]]]}},{"type":"Feature","properties":{"code":"1117042009","desa":"Bukit Wih Ilang","kecamatan":"Bandar","kecCode":"111704"},"geometry":{"type":"Polygon","coordinates":[[[96.91170932842282,4.724600960809963],[96.90538905226299,4.7248297771165175],[96.90074770424319,4.730592591412964],[96.91054434304702,4.7325376568234025],[96.91170932842282,4.724600960809963]]]}},{"type":"Feature","properties":{"code":"1117042010","desa":"Hakim Wih Ilang","kecamatan":"Bandar","kecCode":"111704"},"geometry":{"type":"Polygon","coordinates":[[[96.91170932842282,4.724600960809963],[96.90559753399906,4.744793566393274],[96.90777246432782,4.745658312203777],[96.9170784698955,4.737203362976008],[96.92839534157183,4.737896503751071],[96.92445911329747,4.723186450440059],[96.91170932842282,4.724600960809963]]]}},{"type":"Feature","properties":{"code":"1117042011","desa":"Janarata","kecamatan":"Bandar","kecCode":"111704"},"geometry":{"type":"Polygon","coordinates":[[[96.91249238971209,4.757633674664351],[96.91621554521127,4.756398097005882],[96.91300349781322,4.7554264865554075],[96.91249238971209,4.757633674664351]]]}},{"type":"Feature","properties":{"code":"1117042012","desa":"Keramat Jaya","kecamatan":"Bandar","kecCode":"111704"},"geometry":{"type":"Polygon","coordinates":[[[96.92973942243646,4.743758247069854],[96.91410437141968,4.745124323551666],[96.91406661608153,4.748605472383978],[96.93027273569827,4.755122619126186],[96.92973942243646,4.743758247069854]]]}},{"type":"Feature","properties":{"code":"1117042013","desa":"Lewa Jadi","kecamatan":"Bandar","kecCode":"111704"},"geometry":{"type":"Polygon","coordinates":[[[96.90538905226299,4.7248297771165175],[96.91486655494758,4.727351307957872],[96.93012219458363,4.718408968449822],[96.90392968640593,4.717563592237496],[96.90538905226299,4.7248297771165175]]]}},{"type":"Feature","properties":{"code":"1117042014","desa":"Muyang Kute Mangku","kecamatan":"Bandar","kecCode":"111704"},"geometry":{"type":"Polygon","coordinates":[[[96.96793398406616,4.64994381677545],[96.96976901472829,4.680404445298968],[96.96100942464528,4.691325218662662],[96.96799552287513,4.707438928425813],[96.95683000440124,4.715139671112987],[96.96687165000668,4.736879509013644],[96.98172680175053,4.719414334953234],[96.98908701525363,4.7229699332617106],[96.9906762063419,4.716229256427943],[96.97951837707149,4.711864043448299],[96.97883150187238,4.676829139247216],[96.96793398406616,4.64994381677545]]]}},{"type":"Feature","properties":{"code":"1117042016","desa":"Pakat Jeroh","kecamatan":"Bandar","kecCode":"111704"},"geometry":{"type":"Polygon","coordinates":[[[96.94553497276087,4.759400275910177],[96.94975149723388,4.754485094225003],[96.94716389140052,4.750104714179038],[96.94118826962301,4.7519489808766515],[96.94553497276087,4.759400275910177]]]}},{"type":"Feature","properties":{"code":"1117042017","desa":"Paya Baning","kecamatan":"Bandar","kecCode":"111704"},"geometry":{"type":"Polygon","coordinates":[[[96.96070264071436,4.724059296444223],[96.95688949185659,4.716930586429628],[96.94350066222584,4.728935720047188],[96.94534716374068,4.741282156273442],[96.96070264071436,4.724059296444223]]]}},{"type":"Feature","properties":{"code":"1117042018","desa":"Blang Jorong","kecamatan":"Bandar","kecCode":"111704"},"geometry":{"type":"Polygon","coordinates":[[[96.96489032842594,4.742219471977032],[96.96070264071436,4.724059296444223],[96.94490460196585,4.7447158757604235],[96.95145014840568,4.747186581416424],[96.96489032842594,4.742219471977032]]]}},{"type":"Feature","properties":{"code":"1117042019","desa":"Pondok Baru","kecamatan":"Bandar","kecCode":"111704"},"geometry":{"type":"Polygon","coordinates":[[[96.91488087125526,4.752566859188456],[96.92316649973424,4.756051902984586],[96.92335207843574,4.752636285951028],[96.91488087125526,4.752566859188456]]]}},{"type":"Feature","properties":{"code":"1117042020","desa":"Pondok Gajah","kecamatan":"Bandar","kecCode":"111704"},"geometry":{"type":"Polygon","coordinates":[[[96.89241108690219,4.762881569533385],[96.90508553466974,4.755225515957311],[96.89796031491665,4.7514298328369495],[96.9031499607022,4.746079581629387],[96.89670797029663,4.744351473165714],[96.89241108690219,4.762881569533385]]]}},{"type":"Feature","properties":{"code":"1117042021","desa":"Pondok Ulung","kecamatan":"Bandar","kecCode":"111704"},"geometry":{"type":"Polygon","coordinates":[[[96.92316649973424,4.756051902984586],[96.92362749221508,4.761487641947121],[96.93671189323935,4.762499440401846],[96.9332446029561,4.753338635783906],[96.92316649973424,4.756051902984586]]]}},{"type":"Feature","properties":{"code":"1117042022","desa":"Puja Mulia","kecamatan":"Bandar","kecCode":"111704"},"geometry":{"type":"Polygon","coordinates":[[[96.91048095882921,4.754249172374926],[96.91449275623573,4.753281558511605],[96.91070465259769,4.753129271813125],[96.91048095882921,4.754249172374926]]]}},{"type":"Feature","properties":{"code":"1117042023","desa":"Purwosari","kecamatan":"Bandar","kecCode":"111704"},"geometry":{"type":"Polygon","coordinates":[[[96.91261776959448,4.741151509961299],[96.90627904474216,4.747748995839744],[96.91048095882921,4.754249172374926],[96.9123878210412,4.753169045229887],[96.91261776959448,4.741151509961299]]]}},{"type":"Feature","properties":{"code":"1117042024","desa":"Selamat Rejo","kecamatan":"Bandar","kecCode":"111704"},"geometry":{"type":"Polygon","coordinates":[[[96.96670033005626,4.74419708475162],[96.95602762927172,4.743556728784591],[96.94762300699624,4.7526474195579],[96.95940709356256,4.752211752885687],[96.96670033005626,4.74419708475162]]]}},{"type":"Feature","properties":{"code":"1117042025","desa":"Sidodadi","kecamatan":"Bandar","kecCode":"111704"},"geometry":{"type":"Polygon","coordinates":[[[96.93482790978025,4.753232776585935],[96.95132800158608,4.747314706029539],[96.94547284579528,4.740016088899619],[96.93507297144053,4.744514758572813],[96.93482790978025,4.753232776585935]]]}},{"type":"Feature","properties":{"code":"1117042026","desa":"Simpang Utama","kecamatan":"Bandar","kecCode":"111704"},"geometry":{"type":"Polygon","coordinates":[[[96.90491166064469,4.750741594266301],[96.91009036707686,4.7565056847007945],[96.90935401297736,4.750386150717812],[96.90491166064469,4.750741594266301]]]}},{"type":"Feature","properties":{"code":"1117042027","desa":"Suku Wih Ilang","kecamatan":"Bandar","kecCode":"111704"},"geometry":{"type":"Polygon","coordinates":[[[96.90282135022517,4.7320981140732234],[96.89717131540397,4.736812256811789],[96.89995349855519,4.745535693240196],[96.90135138585781,4.744143972590252],[96.90282135022517,4.7320981140732234]]]}},{"type":"Feature","properties":{"code":"1117042028","desa":"Tanjung Pura","kecamatan":"Bandar","kecCode":"111704"},"geometry":{"type":"Polygon","coordinates":[[[96.94547284579528,4.740016088899619],[96.93920242355306,4.728431978293429],[96.92973942243646,4.743758247069854],[96.93520680764811,4.744526397598774],[96.94547284579528,4.740016088899619]]]}},{"type":"Feature","properties":{"code":"1117042029","desa":"Wonosari","kecamatan":"Bandar","kecCode":"111704"},"geometry":{"type":"Polygon","coordinates":[[[96.93002343373455,4.720764934102674],[96.94134393957118,4.728974493417875],[96.95327081689474,4.722296162084848],[96.94769681885316,4.7188744800234215],[96.93002343373455,4.720764934102674]]]}},{"type":"Feature","properties":{"code":"1117042030","desa":"Mutiara","kecamatan":"Bandar","kecCode":"111704"},"geometry":{"type":"Polygon","coordinates":[[[96.91048095882921,4.754249172374926],[96.91213546857703,4.758198083783979],[96.91370277556267,4.755023324079872],[96.91048095882921,4.754249172374926]]]}},{"type":"Feature","properties":{"code":"1117042032","desa":"Tansaran Bidin","kecamatan":"Bandar","kecCode":"111704"},"geometry":{"type":"Polygon","coordinates":[[[96.96564654405283,4.650034519698985],[96.93103780155336,4.653369444162696],[96.93885220236729,4.678970819839073],[96.93002343373455,4.720764934102674],[96.9532257707528,4.720077019287938],[96.96799552287513,4.707438928425813],[96.96100942464528,4.691325218662662],[96.96976901472829,4.680404445298968],[96.96564654405283,4.650034519698985]]]}},{"type":"Feature","properties":{"code":"1117042033","desa":"Jadi Sepakat","kecamatan":"Bandar","kecCode":"111704"},"geometry":{"type":"Polygon","coordinates":[[[96.92973942243646,4.743758247069854],[96.92965208477597,4.751222880847899],[96.93069141957339,4.755230223908225],[96.93507297144053,4.744514758572813],[96.92973942243646,4.743758247069854]]]}},{"type":"Feature","properties":{"code":"1117042034","desa":"Selisih Mara","kecamatan":"Bandar","kecCode":"111704"},"geometry":{"type":"Polygon","coordinates":[[[96.95529562789095,4.752644843000324],[96.94661725558194,4.755371422865218],[96.94553497276087,4.759400275910177],[96.95529562789095,4.752644843000324]]]}},{"type":"Feature","properties":{"code":"1117042035","desa":"Kala Nempan","kecamatan":"Bandar","kecCode":"111704"},"geometry":{"type":"Polygon","coordinates":[[[96.93697414544049,4.761809233215272],[96.94118826962301,4.7519489808766515],[96.9332446029561,4.753338635783906],[96.93697414544049,4.761809233215272]]]}},{"type":"Feature","properties":{"code":"1117042036","desa":"Gunung Antara","kecamatan":"Bandar","kecCode":"111704"},"geometry":{"type":"Polygon","coordinates":[[[96.90392968640593,4.717563592237496],[96.93012219458363,4.718408968449822],[96.93307299162528,4.704377326817415],[96.91903402769827,4.703964904022735],[96.90392968640593,4.717563592237496]]]}},{"type":"Feature","properties":{"code":"1117042037","desa":"Gele Semayang","kecamatan":"Bandar","kecCode":"111704"},"geometry":{"type":"Polygon","coordinates":[[[96.9104191960891,4.7325806902825915],[96.90282135022517,4.7320981140732234],[96.89970590800128,4.745824980860453],[96.90559753399906,4.744793566393274],[96.9104191960891,4.7325806902825915]]]}},{"type":"Feature","properties":{"code":"1117042042","desa":"Tawar Sedenge","kecamatan":"Bandar","kecCode":"111704"},"geometry":{"type":"Polygon","coordinates":[[[96.91416974044124,4.73909559951155],[96.9123878210412,4.753169045229887],[96.91449275623573,4.753281558511605],[96.91927909925106,4.7514171550940905],[96.91416974044124,4.73909559951155]]]}},{"type":"Feature","properties":{"code":"1117042043","desa":"Beranun Teleden","kecamatan":"Bandar","kecCode":"111704"},"geometry":{"type":"Polygon","coordinates":[[[96.92839534157183,4.737896503751071],[96.9170784698955,4.737203362976008],[96.91410437141968,4.745124323551666],[96.92973942243646,4.743758247069854],[96.92839534157183,4.737896503751071]]]}},{"type":"Feature","properties":{"code":"1117042044","desa":"Remang Ketike Jaya","kecamatan":"Bandar","kecCode":"111704"},"geometry":{"type":"Polygon","coordinates":[[[96.92294925770216,4.72266193974298],[96.92996804089245,4.737586493952334],[96.92973942243646,4.743758247069854],[96.93920242355306,4.728431978293429],[96.92294925770216,4.72266193974298]]]}},{"type":"Feature","properties":{"code":"1117042045","desa":"Makmur Sentosa","kecamatan":"Bandar","kecCode":"111704"},"geometry":{"type":"Polygon","coordinates":[[[96.90777246432782,4.745658312203777],[96.90095177660328,4.747152433259068],[96.8984158584052,4.752277306268272],[96.90487528936319,4.752476856836828],[96.90777246432782,4.745658312203777]]]}},{"type":"Feature","properties":{"code":"1117042047","desa":"Sinar Jaya Paya Ringkel","kecamatan":"Bandar","kecCode":"111704"},"geometry":{"type":"Polygon","coordinates":[[[96.9677270095939,4.739182529779039],[96.97804673366988,4.740750594891574],[96.9854988560874,4.719510081274744],[96.98172680175053,4.719414334953234],[96.9677270095939,4.739182529779039]]]}},{"type":"Feature","properties":{"code":"1117052001","desa":"Bale Atu","kecamatan":"Bukit","kecCode":"111705"},"geometry":{"type":"Polygon","coordinates":[[[96.85639459873181,4.792565632571754],[96.86036928201678,4.75080826460681],[96.85575197827124,4.742395157236527],[96.86274721181445,4.713839662425918],[96.85310142259266,4.706428282902012],[96.85415017958718,4.714749577585407],[96.84427628542225,4.719573744282361],[96.85116999989566,4.737891994550386],[96.84436675991809,4.731276086059816],[96.84226961644968,4.761407071685152],[96.83294196060308,4.776019153751932],[96.81523176533373,4.7860464128922535],[96.8311023712775,4.7999019564764005],[96.85639459873181,4.792565632571754]]]}},{"type":"Feature","properties":{"code":"1117052002","desa":"Bale Redelong","kecamatan":"Bukit","kecCode":"111705"},"geometry":{"type":"Polygon","coordinates":[[[96.8587180323114,4.7334349769776844],[96.8600153430337,4.7495327885258005],[96.87919383532726,4.724823880261884],[96.86582162606724,4.73435121796848],[96.8587180323114,4.7334349769776844]]]}},{"type":"Feature","properties":{"code":"1117052003","desa":"Batin Wih Pongas","kecamatan":"Bukit","kecCode":"111705"},"geometry":{"type":"Polygon","coordinates":[[[96.89476006662385,4.703546628440213],[96.89242154421895,4.694481036845878],[96.8711482565868,4.71307864981603],[96.88142066103471,4.712805514019706],[96.89476006662385,4.703546628440213]]]}},{"type":"Feature","properties":{"code":"1117052004","desa":"Blang Ara","kecamatan":"Bukit","kecCode":"111705"},"geometry":{"type":"Polygon","coordinates":[[[96.89656226663533,4.744623482111522],[96.89763130244273,4.726483220266688],[96.89004312159284,4.74243922761402],[96.89656226663533,4.744623482111522]]]}},{"type":"Feature","properties":{"code":"1117052005","desa":"Blang Sentang","kecamatan":"Bukit","kecCode":"111705"},"geometry":{"type":"Polygon","coordinates":[[[96.87646376788865,4.714060347062545],[96.87155091993905,4.713817088543235],[96.872379311556,4.723727835116643],[96.87532733688715,4.7206809590074],[96.87646376788865,4.714060347062545]]]}},{"type":"Feature","properties":{"code":"1117052006","desa":"Blang Tampu","kecamatan":"Bukit","kecCode":"111705"},"geometry":{"type":"Polygon","coordinates":[[[96.8472578635596,4.715045266579963],[96.85153086905443,4.71051604154094],[96.84413661890987,4.677674181810967],[96.83936156688286,4.694746621934239],[96.84693254639996,4.699879399984189],[96.8472578635596,4.715045266579963]]]}},{"type":"Feature","properties":{"code":"1117052007","desa":"Bujang","kecamatan":"Bukit","kecCode":"111705"},"geometry":{"type":"Polygon","coordinates":[[[96.8798049534359,4.7285025849665265],[96.87279154459416,4.733156529785412],[96.87270150806818,4.7363171152747485],[96.87954417342489,4.736974050243645],[96.8798049534359,4.7285025849665265]]]}},{"type":"Feature","properties":{"code":"1117052009","desa":"Delung Tue","kecamatan":"Bukit","kecCode":"111705"},"geometry":{"type":"Polygon","coordinates":[[[96.9013320486352,4.711763330171127],[96.88828218157751,4.7075025860375135],[96.88775767357781,4.7183041587606995],[96.89398597067607,4.718079587254111],[96.9013320486352,4.711763330171127]]]}},{"type":"Feature","properties":{"code":"1117052010","desa":"Hakim Tungul Naru","kecamatan":"Bukit","kecCode":"111705"},"geometry":{"type":"Polygon","coordinates":[[[96.86474626892522,4.720761400666341],[96.85980317587592,4.7353891237421415],[96.87299922143698,4.726785485104044],[96.86536012457015,4.728431649141587],[96.86474626892522,4.720761400666341]]]}},{"type":"Feature","properties":{"code":"1117052011","desa":"Isaq Busur","kecamatan":"Bukit","kecCode":"111705"},"geometry":{"type":"Polygon","coordinates":[[[96.88245617281414,4.73382512896121],[96.89027999942248,4.731235996081722],[96.8874987893377,4.722537695704507],[96.88245617281414,4.73382512896121]]]}},{"type":"Feature","properties":{"code":"1117052012","desa":"Kenawat Redelong","kecamatan":"Bukit","kecCode":"111705"},"geometry":{"type":"Polygon","coordinates":[[[96.90280545740596,4.728280309429152],[96.90374887141336,4.715045262982664],[96.88786199943178,4.726420995275093],[96.88926709659926,4.741766116539493],[96.89763130244273,4.726483220266688],[96.90280545740596,4.728280309429152]]]}},{"type":"Feature","properties":{"code":"1117052013","desa":"Kute Lintang","kecamatan":"Bukit","kecCode":"111705"},"geometry":{"type":"Polygon","coordinates":[[[96.85704605772945,4.7088022367944085],[96.85927697265424,4.713407223420488],[96.85895130206097,4.695747980159318],[96.85704605772945,4.7088022367944085]]]}},{"type":"Feature","properties":{"code":"1117052014","desa":"Panji Mulia I","kecamatan":"Bukit","kecCode":"111705"},"geometry":{"type":"Polygon","coordinates":[[[96.86034559297478,4.777407297798127],[96.87224894942955,4.764305833050874],[96.87058227725036,4.747026880706957],[96.88738743258398,4.741907350570046],[96.88482979036257,4.737005070558937],[96.87266625374468,4.7335666512149235],[96.86029388465509,4.743721249860184],[96.86034559297478,4.777407297798127]]]}},{"type":"Feature","properties":{"code":"1117052015","desa":"Panji Mulia Ii","kecamatan":"Bukit","kecCode":"111705"},"geometry":{"type":"Polygon","coordinates":[[[96.89115785105406,4.742367598411754],[96.87791672787478,4.741475525801616],[96.87047615904754,4.750000008811286],[96.87339975609392,4.751733154377698],[96.89115785105406,4.742367598411754]]]}},{"type":"Feature","properties":{"code":"1117052016","desa":"Pasar Simpang Tiga","kecamatan":"Bukit","kecCode":"111705"},"geometry":{"type":"Polygon","coordinates":[[[96.87007249744784,4.725076612239581],[96.8749865855625,4.725154664399928],[96.87452909684042,4.722286434118269],[96.87007249744784,4.725076612239581]]]}},{"type":"Feature","properties":{"code":"1117052017","desa":"Reje Guru","kecamatan":"Bukit","kecCode":"111705"},"geometry":{"type":"Polygon","coordinates":[[[96.87344698938709,4.724668774188718],[96.8854453682092,4.717365387954044],[96.89476006662385,4.703546628440213],[96.87646376788865,4.714060347062545],[96.87344698938709,4.724668774188718]]]}},{"type":"Feature","properties":{"code":"1117052018","desa":"Rembele","kecamatan":"Bukit","kecCode":"111705"},"geometry":{"type":"Polygon","coordinates":[[[96.82828530342407,4.704465544014767],[96.849763000662,4.719589995031692],[96.84841732979599,4.7081789598523525],[96.84034619771892,4.694359050105656],[96.82828530342407,4.704465544014767]]]}},{"type":"Feature","properties":{"code":"1117052019","desa":"Sedie Jadi","kecamatan":"Bukit","kecCode":"111705"},"geometry":{"type":"Polygon","coordinates":[[[96.87732861442406,4.776451980365124],[96.89392993391937,4.76467982871388],[96.88332939113853,4.752214426570192],[96.87416648929212,4.764574045958315],[96.87732861442406,4.776451980365124]]]}},{"type":"Feature","properties":{"code":"1117052020","desa":"Tingkem Asli","kecamatan":"Bukit","kecCode":"111705"},"geometry":{"type":"Polygon","coordinates":[[[96.8711482565868,4.71307864981603],[96.88232923890331,4.699142615110233],[96.90072859544836,4.693898375985328],[96.91018330841304,4.68390505546035],[96.87349807177867,4.691246318441664],[96.86601301528852,4.7098077795649145],[96.8711482565868,4.71307864981603]]]}},{"type":"Feature","properties":{"code":"1117052021","desa":"Tingkem Benyer","kecamatan":"Bukit","kecCode":"111705"},"geometry":{"type":"Polygon","coordinates":[[[96.86274721181445,4.713839662425918],[96.85978892342011,4.724669254426711],[96.85966804644323,4.728525886400677],[96.87123201494558,4.71374109043445],[96.86274721181445,4.713839662425918]]]}},{"type":"Feature","properties":{"code":"1117052022","desa":"Tingkem Bersatu","kecamatan":"Bukit","kecCode":"111705"},"geometry":{"type":"Polygon","coordinates":[[[96.93103780155336,4.653369444162696],[96.87907694774299,4.661878600926032],[96.88510721592536,4.665601096319025],[96.8847697875957,4.675367221115665],[96.86850730027173,4.693097614240457],[96.8636666364062,4.712069344282052],[96.873844764924,4.691016366291356],[96.9364413546848,4.675289677971702],[96.93103780155336,4.653369444162696]]]}},{"type":"Feature","properties":{"code":"1117052023","desa":"Ujung Gele","kecamatan":"Bukit","kecCode":"111705"},"geometry":{"type":"Polygon","coordinates":[[[96.87676050009706,4.722724673750912],[96.88477878980937,4.726225241644138],[96.88733786105348,4.714285986064367],[96.88500937058602,4.717784897406417],[96.87676050009706,4.722724673750912]]]}},{"type":"Feature","properties":{"code":"1117052024","desa":"Uning Bersah","kecamatan":"Bukit","kecCode":"111705"},"geometry":{"type":"Polygon","coordinates":[[[96.85144980686317,4.671556173977522],[96.84648397985183,4.687846236297116],[96.85074856679294,4.697279450958454],[96.85323727597954,4.684141536688762],[96.85144980686317,4.671556173977522]]]}},{"type":"Feature","properties":{"code":"1117052025","desa":"Uning Teritit","kecamatan":"Bukit","kecCode":"111705"},"geometry":{"type":"Polygon","coordinates":[[[96.87888564395733,4.66227894132897],[96.87673592702144,4.668430092777121],[96.85144980686317,4.671556173977522],[96.85020679990394,4.702242642951049],[96.88381919070314,4.67821691547064],[96.88510721592536,4.665601096319025],[96.87888564395733,4.66227894132897]]]}},{"type":"Feature","properties":{"code":"1117052026","desa":"Waq Pondok Sayur","kecamatan":"Bukit","kecCode":"111705"},"geometry":{"type":"Polygon","coordinates":[[[96.86094084344522,4.777252013659235],[96.87673031255395,4.775719015811258],[96.87868308965294,4.754278178208831],[96.89604281372493,4.754971408016868],[96.8914629055887,4.742533447786045],[96.87164322905181,4.751044226027087],[96.87224894942955,4.764305833050874],[96.86094084344522,4.777252013659235]]]}},{"type":"Feature","properties":{"code":"1117052027","desa":"Babussalam","kecamatan":"Bukit","kecCode":"111705"},"geometry":{"type":"Polygon","coordinates":[[[96.86987919806658,4.7247292068315],[96.86536012457015,4.728431649141587],[96.87044607942308,4.7261648791484845],[96.86987919806658,4.7247292068315]]]}},{"type":"Feature","properties":{"code":"1117052028","desa":"Paya Gajah","kecamatan":"Bukit","kecCode":"111705"},"geometry":{"type":"Polygon","coordinates":[[[96.872379311556,4.723727835116643],[96.86671053756133,4.720298978263938],[96.86343088272912,4.725501601261213],[96.86573322540805,4.726356759399354],[96.872379311556,4.723727835116643]]]}},{"type":"Feature","properties":{"code":"1117052029","desa":"Kute Tanyung","kecamatan":"Bukit","kecCode":"111705"},"geometry":{"type":"Polygon","coordinates":[[[96.86060461481115,4.713374954846201],[96.86961890189087,4.699572580080703],[96.86817552058386,4.693913587118413],[96.86175682441795,4.696090782837136],[96.86060461481115,4.713374954846201]]]}},{"type":"Feature","properties":{"code":"1117052030","desa":"Meluem","kecamatan":"Bukit","kecCode":"111705"},"geometry":{"type":"Polygon","coordinates":[[[96.88967541308988,4.7413920669172125],[96.88425033738321,4.734601439938409],[96.88758162769,4.743030108278041],[96.88967541308988,4.7413920669172125]]]}},{"type":"Feature","properties":{"code":"1117052031","desa":"Delung Asli","kecamatan":"Bukit","kecCode":"111705"},"geometry":{"type":"Polygon","coordinates":[[[96.9013320486352,4.711763330171127],[96.88613964123152,4.719019901297431],[96.88786199943178,4.726420995275093],[96.90007098238999,4.722528875153874],[96.9013320486352,4.711763330171127]]]}},{"type":"Feature","properties":{"code":"1117052032","desa":"Pilar Jaya","kecamatan":"Bukit","kecCode":"111705"},"geometry":{"type":"Polygon","coordinates":[[[96.93307299162528,4.704377326817415],[96.9364413546848,4.675289677971702],[96.90563570482395,4.686937456082025],[96.89499527441244,4.695620047101782],[96.89303835323743,4.706491892849594],[96.90374887141336,4.715045262982664],[96.91903402769827,4.703964904022735],[96.93307299162528,4.704377326817415]]]}},{"type":"Feature","properties":{"code":"1117052033","desa":"Serule Kayu","kecamatan":"Bukit","kecCode":"111705"},"geometry":{"type":"Polygon","coordinates":[[[96.85927697265424,4.713407223420488],[96.86421970597472,4.702479784281795],[96.86246611431976,4.693419915972908],[96.85895130206097,4.695747980159318],[96.85927697265424,4.713407223420488]]]}},{"type":"Feature","properties":{"code":"1117052034","desa":"Uring","kecamatan":"Bukit","kecCode":"111705"},"geometry":{"type":"Polygon","coordinates":[[[96.87155091993905,4.713817088543235],[96.86623250382706,4.718314571111298],[96.86735903958805,4.7226566211523915],[96.87206258741854,4.719378123751073],[96.87155091993905,4.713817088543235]]]}},{"type":"Feature","properties":{"code":"1117052035","desa":"Mupakat Jadi","kecamatan":"Bukit","kecCode":"111705"},"geometry":{"type":"Polygon","coordinates":[[[96.89329407096466,4.750724704099005],[96.89656226663533,4.744623482111522],[96.8919771855987,4.742402217813913],[96.89009199974605,4.747228996142079],[96.89329407096466,4.750724704099005]]]}},{"type":"Feature","properties":{"code":"1117052036","desa":"Kute Kering","kecamatan":"Bukit","kecCode":"111705"},"geometry":{"type":"Polygon","coordinates":[[[96.85020679990394,4.702242642951049],[96.85704605772945,4.7088022367944085],[96.85793192142108,4.696345335942029],[96.85020679990394,4.702242642951049]]]}},{"type":"Feature","properties":{"code":"1117052037","desa":"Blang Panas","kecamatan":"Bukit","kecCode":"111705"},"geometry":{"type":"Polygon","coordinates":[[[96.8489370390132,4.671043331084653],[96.84257341463142,4.670582907875186],[96.85142426881504,4.715267349662338],[96.85311463723076,4.715130291184036],[96.84648397985183,4.687846236297116],[96.8489370390132,4.671043331084653]]]}},{"type":"Feature","properties":{"code":"1117052038","desa":"Mutiara Baru","kecamatan":"Bukit","kecCode":"111705"},"geometry":{"type":"Polygon","coordinates":[[[96.83418527513038,4.670404845707538],[96.82309820991452,4.6713755226617275],[96.8386623916561,4.680686032024551],[96.83418527513038,4.670404845707538]]]}},{"type":"Feature","properties":{"code":"1117052039","desa":"Bukit Bersatu","kecamatan":"Bukit","kecCode":"111705"},"geometry":{"type":"Polygon","coordinates":[[[96.84257341463142,4.670582907875186],[96.83418527513038,4.670404845707538],[96.83946383778594,4.684637990336697],[96.84413661890987,4.677674181810967],[96.84257341463142,4.670582907875186]]]}},{"type":"Feature","properties":{"code":"1117052040","desa":"Godang","kecamatan":"Bukit","kecCode":"111705"},"geometry":{"type":"Polygon","coordinates":[[[96.88309499543777,4.726434780083367],[96.87967894222946,4.7367441466566955],[96.88353060455381,4.737994928253703],[96.88309499543777,4.726434780083367]]]}},{"type":"Feature","properties":{"code":"1117052041","desa":"Karang Rejo","kecamatan":"Bukit","kecCode":"111705"},"geometry":{"type":"Polygon","coordinates":[[[96.8190780506116,4.709250948132895],[96.85116999989566,4.737891994550386],[96.8383859886225,4.710480753942517],[96.82828530342407,4.704465544014767],[96.8190780506116,4.709250948132895]]]}},{"type":"Feature","properties":{"code":"1117062001","desa":"Blang Paku","kecamatan":"Wih Pesam","kecCode":"111706"},"geometry":{"type":"Polygon","coordinates":[[[96.74948000579768,4.71948866841687],[96.7395004188093,4.722949198492663],[96.74936400674358,4.726358964536994],[96.74948000579768,4.71948866841687]]]}},{"type":"Feature","properties":{"code":"1117062004","desa":"Pante Raya","kecamatan":"Wih Pesam","kecCode":"111706"},"geometry":{"type":"Polygon","coordinates":[[[96.8188406044104,4.725365528439846],[96.80348136557261,4.720119046405727],[96.80200959266864,4.744789709201087],[96.7959581445528,4.7487990442596555],[96.81770896859409,4.768194194005935],[96.82430420257697,4.745338363097736],[96.80728309663766,4.7270070106067985],[96.8188406044104,4.725365528439846]]]}},{"type":"Feature","properties":{"code":"1117062005","desa":"Simpang Balek","kecamatan":"Wih Pesam","kecCode":"111706"},"geometry":{"type":"Polygon","coordinates":[[[96.8011202926674,4.736856791239491],[96.8026603196181,4.724452664403304],[96.79450058723239,4.72254016973944],[96.79337091733402,4.728995483594394],[96.8011202926674,4.736856791239491]]]}},{"type":"Feature","properties":{"code":"1117062006","desa":"Simpang Teritit","kecamatan":"Wih Pesam","kecCode":"111706"},"geometry":{"type":"Polygon","coordinates":[[[96.83410518870356,4.688661685769678],[96.83856916073823,4.680597083678364],[96.8305513143917,4.679690674975495],[96.83410518870356,4.688661685769678]]]}},{"type":"Feature","properties":{"code":"1117062007","desa":"Suka Jadi","kecamatan":"Wih Pesam","kecCode":"111706"},"geometry":{"type":"Polygon","coordinates":[[[96.79944384395826,4.689908140728317],[96.79192243777031,4.706075933920667],[96.78749970414809,4.712530889845428],[96.79894139363044,4.709823988046194],[96.79944384395826,4.689908140728317]]]}},{"type":"Feature","properties":{"code":"1117062008","desa":"Suka Makmur","kecamatan":"Wih Pesam","kecCode":"111706"},"geometry":{"type":"Polygon","coordinates":[[[96.7395004188093,4.722949198492663],[96.71913519463355,4.743060229271311],[96.75769261742037,4.7327112178842095],[96.75767662657512,4.727206248211294],[96.7395004188093,4.722949198492663]]]}},{"type":"Feature","properties":{"code":"1117062009","desa":"Suka Ramai Atas","kecamatan":"Wih Pesam","kecCode":"111706"},"geometry":{"type":"Polygon","coordinates":[[[96.83037077369231,4.701460687828738],[96.82413360568141,4.687846967445972],[96.81591203141515,4.687586215314218],[96.81884794467697,4.704937822986782],[96.83037077369231,4.701460687828738]]]}},{"type":"Feature","properties":{"code":"1117062010","desa":"Suka Ramai Bawah","kecamatan":"Wih Pesam","kecCode":"111706"},"geometry":{"type":"Polygon","coordinates":[[[96.81026662810245,4.675925874574213],[96.80456375721167,4.676364993743726],[96.80806310832583,4.6825302294744],[96.80306083269136,4.688833327677273],[96.81303311628534,4.691400351623604],[96.80998978530039,4.709034537973948],[96.82071520344397,4.7010334172270944],[96.81026662810245,4.675925874574213]]]}},{"type":"Feature","properties":{"code":"1117062011","desa":"Syura Jadi","kecamatan":"Wih Pesam","kecCode":"111706"},"geometry":{"type":"Polygon","coordinates":[[[96.8035178213904,4.689262356453446],[96.7984784406276,4.708311790617787],[96.80937112457781,4.710231406113622],[96.81311639800344,4.691673991040268],[96.8035178213904,4.689262356453446]]]}},{"type":"Feature","properties":{"code":"1117062012","desa":"Jamur Uluh","kecamatan":"Wih Pesam","kecCode":"111706"},"geometry":{"type":"Polygon","coordinates":[[[96.83028697396475,4.70226348473939],[96.83598444262799,4.696353233788236],[96.824191272909,4.683810491747378],[96.82545956520681,4.695597696251013],[96.83028697396475,4.70226348473939]]]}},{"type":"Feature","properties":{"code":"1117062013","desa":"Gegerung","kecamatan":"Wih Pesam","kecCode":"111706"},"geometry":{"type":"Polygon","coordinates":[[[96.83936156688286,4.694746621934239],[96.84116043940281,4.687446437286033],[96.82848728036372,4.684450040123144],[96.83203453656466,4.6942593080962896],[96.83936156688286,4.694746621934239]]]}},{"type":"Feature","properties":{"code":"1117062014","desa":"Merie Satu","kecamatan":"Wih Pesam","kecCode":"111706"},"geometry":{"type":"Polygon","coordinates":[[[96.82309820991452,4.6713755226617275],[96.82175054165424,4.683697535999181],[96.83162103098584,4.68386469298769],[96.83345671095849,4.677516232081538],[96.82309820991452,4.6713755226617275]]]}},{"type":"Feature","properties":{"code":"1117062015","desa":"Blang Benara","kecamatan":"Wih Pesam","kecCode":"111706"},"geometry":{"type":"Polygon","coordinates":[[[96.75715711071217,4.71373479967676],[96.74684478625794,4.712551565259275],[96.74221966740377,4.719727892577479],[96.7610281246483,4.727229846421822],[96.75715711071217,4.71373479967676]]]}},{"type":"Feature","properties":{"code":"1117062016","desa":"Bukit Pepanyi","kecamatan":"Wih Pesam","kecCode":"111706"},"geometry":{"type":"Polygon","coordinates":[[[96.82183333324178,4.6868174946150924],[96.81026662810245,4.675925874574213],[96.81025068042463,4.680297442163414],[96.81573560061751,4.687943114865111],[96.8229930692748,4.689553706219166],[96.82452393842908,4.682620361328425],[96.82183333324178,4.6868174946150924]]]}},{"type":"Feature","properties":{"code":"1117062017","desa":"Wih Pesam","kecamatan":"Wih Pesam","kecCode":"111706"},"geometry":{"type":"Polygon","coordinates":[[[96.82212359662672,4.777923157916442],[96.83294196060308,4.776019153751932],[96.8428049945549,4.760038881796502],[96.84436675991809,4.731276086059816],[96.8388750075756,4.724946061255607],[96.80728309663766,4.7270070106067985],[96.82430420257697,4.745338363097736],[96.81728935212196,4.7678356118235055],[96.82212359662672,4.777923157916442]]]}},{"type":"Feature","properties":{"code":"1117062018","desa":"Cinta Damai","kecamatan":"Wih Pesam","kecCode":"111706"},"geometry":{"type":"Polygon","coordinates":[[[96.78749970414809,4.712530889845428],[96.79066578989432,4.72364735568616],[96.8026603196181,4.724452664403304],[96.79916119333443,4.712122523892558],[96.78749970414809,4.712530889845428]]]}},{"type":"Feature","properties":{"code":"1117062019","desa":"Bener Ayu","kecamatan":"Wih Pesam","kecCode":"111706"},"geometry":{"type":"Polygon","coordinates":[[[96.77803489089756,4.715812147266135],[96.7667033719631,4.714115136459481],[96.76626638958226,4.730589194673623],[96.77804662974825,4.732983197152382],[96.77803489089756,4.715812147266135]]]}},{"type":"Feature","properties":{"code":"1117062020","desa":"Bener Mulie","kecamatan":"Wih Pesam","kecCode":"111706"},"geometry":{"type":"Polygon","coordinates":[[[96.79601695301999,4.735253042826884],[96.793242427596,4.7283149567102685],[96.78330647031743,4.732835843235288],[96.79601695301999,4.735253042826884]]]}},{"type":"Feature","properties":{"code":"1117062021","desa":"Blang Kucak","kecamatan":"Wih Pesam","kecCode":"111706"},"geometry":{"type":"Polygon","coordinates":[[[96.76228754693278,4.730275335776474],[96.76488870285141,4.714133078833595],[96.7640178902135,4.716073501943622],[96.7609159153373,4.7152669917322],[96.76051524218474,4.715534332297214],[96.76228754693278,4.730275335776474]]]}},{"type":"Feature","properties":{"code":"1117062022","desa":"Wonosobo","kecamatan":"Wih Pesam","kecCode":"111706"},"geometry":{"type":"Polygon","coordinates":[[[96.83868227027061,4.724924644800428],[96.81920238368309,4.710418856304089],[96.81404433377907,4.71331138626739],[96.81778633637038,4.725081258137309],[96.83052666757168,4.729390893014585],[96.83868227027061,4.724924644800428]]]}},{"type":"Feature","properties":{"code":"1117062023","desa":"Lut Kucak","kecamatan":"Wih Pesam","kecCode":"111706"},"geometry":{"type":"Polygon","coordinates":[[[96.79528654164062,4.710666316456035],[96.80727215278766,4.722076259858371],[96.8171753756431,4.723573764163194],[96.80753305240847,4.712989353432219],[96.79528654164062,4.710666316456035]]]}},{"type":"Feature","properties":{"code":"1117062024","desa":"Kebun Baru","kecamatan":"Wih Pesam","kecCode":"111706"},"geometry":{"type":"Polygon","coordinates":[[[96.793242427596,4.7283149567102685],[96.7944214343018,4.722632180277177],[96.77647493137304,4.723583803295195],[96.77804662974825,4.732983197152382],[96.793242427596,4.7283149567102685]]]}},{"type":"Feature","properties":{"code":"1117062025","desa":"Simpang Antara","kecamatan":"Wih Pesam","kecCode":"111706"},"geometry":{"type":"Polygon","coordinates":[[[96.7865706729982,4.713454456713635],[96.77803489089756,4.715812147266135],[96.77701434743425,4.723672817291861],[96.7899519512216,4.724561067783348],[96.7865706729982,4.713454456713635]]]}},{"type":"Feature","properties":{"code":"1117062026","desa":"Jamur Ujung","kecamatan":"Wih Pesam","kecCode":"111706"},"geometry":{"type":"Polygon","coordinates":[[[96.81795980300255,4.7114314812358105],[96.83037077369231,4.701460687828738],[96.80998978530039,4.709034537973948],[96.81795980300255,4.7114314812358105]]]}},{"type":"Feature","properties":{"code":"1117062027","desa":"Suka Makmur Timur","kecamatan":"Wih Pesam","kecCode":"111706"},"geometry":{"type":"Polygon","coordinates":[[[96.7623594738107,4.727141295575894],[96.75529887844056,4.735264378781225],[96.77257886142536,4.73230143100252],[96.7623594738107,4.727141295575894]]]}},{"type":"Feature","properties":{"code":"1117062028","desa":"Burni Telong","kecamatan":"Wih Pesam","kecCode":"111706"},"geometry":{"type":"Polygon","coordinates":[[[96.81631508057654,4.710853681210891],[96.80179931858372,4.710398649437118],[96.81738509844358,4.72356210625153],[96.81631508057654,4.710853681210891]]]}},{"type":"Feature","properties":{"code":"1117072001","desa":"Bandar Lampahan","kecamatan":"Timang Gajah","kecCode":"111707"},"geometry":{"type":"Polygon","coordinates":[[[96.80276634159344,4.757500357365776],[96.7765620828739,4.739158270566864],[96.77505661327218,4.741125317206698],[96.78742081022226,4.758487864232687],[96.80276634159344,4.757500357365776]]]}},{"type":"Feature","properties":{"code":"1117072002","desa":"Blang Rongka","kecamatan":"Timang Gajah","kecCode":"111707"},"geometry":{"type":"Polygon","coordinates":[[[96.7402314866938,4.796232900597993],[96.75152319264127,4.78498434323456],[96.75128054296277,4.776559158868552],[96.72991817658264,4.777601672768346],[96.717317886911,4.795527976006062],[96.7402314866938,4.796232900597993]]]}},{"type":"Feature","properties":{"code":"1117072003","desa":"Cekal Baru","kecamatan":"Timang Gajah","kecCode":"111707"},"geometry":{"type":"Polygon","coordinates":[[[96.68372168031135,4.75786905692126],[96.69091042997239,4.770460579988514],[96.70466008289655,4.774847770600316],[96.71781708079368,4.771077469945418],[96.71285505701529,4.753815534573253],[96.70253610995358,4.7445700506908395],[96.68372168031135,4.75786905692126]]]}},{"type":"Feature","properties":{"code":"1117072004","desa":"Gegur Sepakat","kecamatan":"Timang Gajah","kecCode":"111707"},"geometry":{"type":"Polygon","coordinates":[[[96.71285505701529,4.753815534573253],[96.71654579105547,4.764645344210008],[96.72871779838772,4.761690253808016],[96.72093295109488,4.754521470902388],[96.71285505701529,4.753815534573253]]]}},{"type":"Feature","properties":{"code":"1117072005","desa":"Karang Jadi","kecamatan":"Timang Gajah","kecCode":"111707"},"geometry":{"type":"Polygon","coordinates":[[[96.78842506066808,4.758913622174605],[96.77514900692118,4.751683472230655],[96.76646566675718,4.754756524906675],[96.77655673640429,4.758970212913641],[96.78842506066808,4.758913622174605]]]}},{"type":"Feature","properties":{"code":"1117072006","desa":"Lampahan","kecamatan":"Timang Gajah","kecCode":"111707"},"geometry":{"type":"Polygon","coordinates":[[[96.78304825697154,4.769581899182927],[96.770366423072,4.760457250009179],[96.7629132322599,4.7541552858513825],[96.76331681292065,4.762344819063318],[96.78304825697154,4.769581899182927]]]}},{"type":"Feature","properties":{"code":"1117072010","desa":"Setie","kecamatan":"Timang Gajah","kecCode":"111707"},"geometry":{"type":"Polygon","coordinates":[[[96.75984622302485,4.789798574221539],[96.73937227441098,4.796823764174877],[96.75483857484039,4.796658120745295],[96.75984622302485,4.789798574221539]]]}},{"type":"Feature","properties":{"code":"1117072011","desa":"Simpang Layang","kecamatan":"Timang Gajah","kecCode":"111707"},"geometry":{"type":"Polygon","coordinates":[[[96.72991817658264,4.777601672768346],[96.74860634140958,4.775596993997523],[96.75000000369725,4.762784556966439],[96.73482103036633,4.76935312694313],[96.72991817658264,4.777601672768346]]]}},{"type":"Feature","properties":{"code":"1117072012","desa":"Suka Damai","kecamatan":"Timang Gajah","kecCode":"111707"},"geometry":{"type":"Polygon","coordinates":[[[96.77039564923989,4.763709587930884],[96.75142930341968,4.766670296397721],[96.75032206531114,4.769186727183799],[96.76735572488683,4.77035629370484],[96.77039564923989,4.763709587930884]]]}},{"type":"Feature","properties":{"code":"1117072014","desa":"Tunyang","kecamatan":"Timang Gajah","kecCode":"111707"},"geometry":{"type":"Polygon","coordinates":[[[96.71654579105547,4.764645344210008],[96.71781708079368,4.771077469945418],[96.73020827269369,4.772847833954659],[96.74500708191135,4.7662894766790584],[96.71654579105547,4.764645344210008]]]}},{"type":"Feature","properties":{"code":"1117072016","desa":"Datu Beru","kecamatan":"Timang Gajah","kecCode":"111707"},"geometry":{"type":"Polygon","coordinates":[[[96.72093295109488,4.754521470902388],[96.73035038806,4.7631469046102985],[96.7505283473054,4.758413207912417],[96.73992502292151,4.751155556700313],[96.72093295109488,4.754521470902388]]]}},{"type":"Feature","properties":{"code":"1117072017","desa":"Kenine","kecamatan":"Timang Gajah","kecCode":"111707"},"geometry":{"type":"Polygon","coordinates":[[[96.79857495766821,4.745539743786724],[96.79914283817152,4.737085336850094],[96.78009728006549,4.733168126543158],[96.78046923426778,4.735203309418442],[96.79857495766821,4.745539743786724]]]}},{"type":"Feature","properties":{"code":"1117072018","desa":"Rembune","kecamatan":"Timang Gajah","kecCode":"111707"},"geometry":{"type":"Polygon","coordinates":[[[96.81270741241717,4.769051477242107],[96.79466248498574,4.755428758242864],[96.78474595755995,4.761975849711233],[96.81270741241717,4.769051477242107]]]}},{"type":"Feature","properties":{"code":"1117072019","desa":"Damaran Baru","kecamatan":"Timang Gajah","kecCode":"111707"},"geometry":{"type":"Polygon","coordinates":[[[96.7746969860771,4.737571158712803],[96.79872978405234,4.7523439963937815],[96.79671493484642,4.749294032911936],[96.78710536132343,4.742398696068752],[96.7746969860771,4.737571158712803]]]}},{"type":"Feature","properties":{"code":"1117072020","desa":"Fajar Harapan","kecamatan":"Timang Gajah","kecCode":"111707"},"geometry":{"type":"Polygon","coordinates":[[[96.7746969860771,4.737571158712803],[96.79857495766821,4.745539743786724],[96.7754628523288,4.732696722611538],[96.7746969860771,4.737571158712803]]]}},{"type":"Feature","properties":{"code":"1117072021","desa":"Mude Benara","kecamatan":"Timang Gajah","kecCode":"111707"},"geometry":{"type":"Polygon","coordinates":[[[96.77937169444816,4.752631592389272],[96.77489706724589,4.741403760801773],[96.76179428857563,4.7436215878905035],[96.76765432138988,4.753709098010537],[96.77937169444816,4.752631592389272]]]}},{"type":"Feature","properties":{"code":"1117072022","desa":"Kampung Baru 76","kecamatan":"Timang Gajah","kecCode":"111707"},"geometry":{"type":"Polygon","coordinates":[[[96.75529887844056,4.735264378781225],[96.74016180002711,4.735180509805946],[96.74807243189728,4.747138872381923],[96.76664631897249,4.755093630379435],[96.75529887844056,4.735264378781225]]]}},{"type":"Feature","properties":{"code":"1117072023","desa":"Pantan Pediangan","kecamatan":"Timang Gajah","kecCode":"111707"},"geometry":{"type":"Polygon","coordinates":[[[96.81523176533373,4.7860464128922535],[96.82214164691952,4.777891153742837],[96.81728935212196,4.7678356118235055],[96.78004299788608,4.7630174678863],[96.79725098474523,4.789505809822278],[96.81523176533373,4.7860464128922535]]]}},{"type":"Feature","properties":{"code":"1117072024","desa":"Bumi Ayu","kecamatan":"Timang Gajah","kecCode":"111707"},"geometry":{"type":"Polygon","coordinates":[[[96.7754628523288,4.732696722611538],[96.76046692610781,4.736480213622888],[96.76185851995477,4.743562154394518],[96.77369047203767,4.743815002384762],[96.7754628523288,4.732696722611538]]]}},{"type":"Feature","properties":{"code":"1117072025","desa":"Kulem Para Kanis","kecamatan":"Timang Gajah","kecCode":"111707"},"geometry":{"type":"Polygon","coordinates":[[[96.71739807586054,4.741383196903874],[96.71285505701529,4.753815534573253],[96.73992502292151,4.751155556700313],[96.73221109076927,4.743246785535616],[96.71739807586054,4.741383196903874]]]}},{"type":"Feature","properties":{"code":"1117072026","desa":"Mekar Ayu","kecamatan":"Timang Gajah","kecCode":"111707"},"geometry":{"type":"Polygon","coordinates":[[[96.76828093481737,4.764163309392473],[96.75823584840572,4.759411157706941],[96.74984463142465,4.765645928118851],[96.7608744637855,4.766883459104766],[96.76828093481737,4.764163309392473]]]}},{"type":"Feature","properties":{"code":"1117072027","desa":"Lampahan Barat","kecamatan":"Timang Gajah","kecCode":"111707"},"geometry":{"type":"Polygon","coordinates":[[[96.76143205244733,4.76056640702108],[96.76238087587677,4.755464417261328],[96.74856983073316,4.747370862396029],[96.74742206737456,4.762470665693686],[96.76143205244733,4.76056640702108]]]}},{"type":"Feature","properties":{"code":"1117072028","desa":"Lampahan Timur","kecamatan":"Timang Gajah","kecCode":"111707"},"geometry":{"type":"Polygon","coordinates":[[[96.78621870442969,4.760018733385419],[96.76664631897249,4.755093630379435],[96.76591905162297,4.756111530734158],[96.78004299788608,4.7630174678863],[96.78621870442969,4.760018733385419]]]}},{"type":"Feature","properties":{"code":"1117072029","desa":"Timang Rasa","kecamatan":"Timang Gajah","kecCode":"111707"},"geometry":{"type":"Polygon","coordinates":[[[96.74016180002711,4.735180509805946],[96.73079548322505,4.743005828381491],[96.74949708572198,4.754780877648377],[96.74856983073316,4.747370862396029],[96.74016180002711,4.735180509805946]]]}},{"type":"Feature","properties":{"code":"1117072030","desa":"Gunung Tunyang","kecamatan":"Timang Gajah","kecCode":"111707"},"geometry":{"type":"Polygon","coordinates":[[[96.74500708191135,4.7662894766790584],[96.74540869035883,4.761737030245546],[96.73035038806,4.7631469046102985],[96.73146644941714,4.765284578722429],[96.74500708191135,4.7662894766790584]]]}},{"type":"Feature","properties":{"code":"1117072031","desa":"Bukit Tunyang","kecamatan":"Timang Gajah","kecCode":"111707"},"geometry":{"type":"Polygon","coordinates":[[[96.72871779838772,4.761690253808016],[96.7206816247572,4.763220124713225],[96.71654579105547,4.764645344210008],[96.72534671487902,4.7667495545488645],[96.72871779838772,4.761690253808016]]]}},{"type":"Feature","properties":{"code":"1117072032","desa":"Linung Bale","kecamatan":"Timang Gajah","kecCode":"111707"},"geometry":{"type":"Polygon","coordinates":[[[96.7505283473054,4.758413207912417],[96.73958836261289,4.758110710150698],[96.73337149859583,4.761082009033954],[96.74742206737456,4.762470665693686],[96.7505283473054,4.758413207912417]]]}},{"type":"Feature","properties":{"code":"1117072033","desa":"Pantan Kemuning","kecamatan":"Timang Gajah","kecCode":"111707"},"geometry":{"type":"Polygon","coordinates":[[[96.71752753956433,4.794436160372458],[96.72991817658264,4.777601672768346],[96.73180577801429,4.7716526403526105],[96.70466008289655,4.774847770600316],[96.71752753956433,4.794436160372458]]]}},{"type":"Feature","properties":{"code":"1117072034","desa":"Sumber Jaya","kecamatan":"Timang Gajah","kecCode":"111707"},"geometry":{"type":"Polygon","coordinates":[[[96.74704561206538,4.776383558145299],[96.75296717559472,4.781535497150738],[96.75931592698852,4.774633686987483],[96.76538355300863,4.782010017233317],[96.78436094700014,4.783484873011776],[96.7619594059019,4.768972149843123],[96.75032206531114,4.769186727183799],[96.74704561206538,4.776383558145299]]]}},{"type":"Feature","properties":{"code":"1117072035","desa":"Bukit Mulie","kecamatan":"Timang Gajah","kecCode":"111707"},"geometry":{"type":"Polygon","coordinates":[[[96.79716867609358,4.789913343003027],[96.77164650008598,4.762975688082067],[96.76572266486914,4.769169650856767],[96.79716867609358,4.789913343003027]]]}},{"type":"Feature","properties":{"code":"1117082001","desa":"Bandar Jaya","kecamatan":"Bener Kelipah","kecCode":"111708"},"geometry":{"type":"Polygon","coordinates":[[[96.86811569228541,4.77904710992402],[96.86900011526318,4.786127183703099],[96.8810223746829,4.786355109680888],[96.9064837646141,4.776022432680142],[96.9000258247321,4.771947385958315],[96.88196754506623,4.780088419631643],[96.87693591556011,4.775695444580455],[96.86811569228541,4.77904710992402]]]}},{"type":"Feature","properties":{"code":"1117082002","desa":"Jongok Meluem","kecamatan":"Bener Kelipah","kecCode":"111708"},"geometry":{"type":"Polygon","coordinates":[[[96.93621123705901,4.764017588644181],[96.91404914944877,4.75992392955336],[96.9000258247321,4.771947385958315],[96.9064837646141,4.776022432680142],[96.91658462607968,4.76522512724],[96.9224091095928,4.768996019648865],[96.93621123705901,4.764017588644181]]]}},{"type":"Feature","properties":{"code":"1117082003","desa":"Suku Bener","kecamatan":"Bener Kelipah","kecCode":"111708"},"geometry":{"type":"Polygon","coordinates":[[[96.91168161491464,4.769416865493736],[96.90101520129059,4.781616962238187],[96.912719019767,4.779867952630952],[96.91532450682057,4.772781222969423],[96.91168161491464,4.769416865493736]]]}},{"type":"Feature","properties":{"code":"1117082004","desa":"Bener Lukup Ii","kecamatan":"Bener Kelipah","kecCode":"111708"},"geometry":{"type":"Polygon","coordinates":[[[96.9224496573259,4.767260979210889],[96.91739134043807,4.76500182467683],[96.91168161491464,4.769416865493736],[96.91532450682057,4.772781222969423],[96.9224496573259,4.767260979210889]]]}},{"type":"Feature","properties":{"code":"1117082005","desa":"Gunung Musara","kecamatan":"Bener Kelipah","kecCode":"111708"},"geometry":{"type":"Polygon","coordinates":[[[96.91799755544285,4.776196746473489],[96.91921600371562,4.768415668247343],[96.9120463862318,4.779280557739188],[96.91799755544285,4.776196746473489]]]}},{"type":"Feature","properties":{"code":"1117082006","desa":"Bener Kelipah Selatan","kecamatan":"Bener Kelipah","kecCode":"111708"},"geometry":{"type":"Polygon","coordinates":[[[96.94285157204246,4.7598012665229925],[96.92622870838822,4.7661422028016585],[96.91887092575269,4.774522775398322],[96.93319908826737,4.7696527046062025],[96.94285157204246,4.7598012665229925]]]}},{"type":"Feature","properties":{"code":"1117082007","desa":"Bintang Musara","kecamatan":"Bener Kelipah","kecCode":"111708"},"geometry":{"type":"Polygon","coordinates":[[[96.95344355957268,4.764389661556644],[96.97290710997521,4.75128545657516],[96.97547506022589,4.745074492117148],[96.96661759242801,4.744212284193479],[96.93660251499415,4.765033613013215],[96.95344355957268,4.764389661556644]]]}},{"type":"Feature","properties":{"code":"1117082008","desa":"Kala Tenang","kecamatan":"Bener Kelipah","kecCode":"111708"},"geometry":{"type":"Polygon","coordinates":[[[96.95087515966094,4.769904999513444],[96.95113452323972,4.763250716951208],[96.93319908826737,4.7696527046062025],[96.93802555633442,4.775400585660149],[96.95087515966094,4.769904999513444]]]}},{"type":"Feature","properties":{"code":"1117082009","desa":"Bener Kelipah Utara","kecamatan":"Bener Kelipah","kecCode":"111708"},"geometry":{"type":"Polygon","coordinates":[[[96.92804900995388,4.782659274689932],[96.93758699294544,4.778707027695392],[96.93287308132773,4.769464361388905],[96.92292939887274,4.772396413858144],[96.92804900995388,4.782659274689932]]]}},{"type":"Feature","properties":{"code":"1117082010","desa":"Lot Bener Kelipah","kecamatan":"Bener Kelipah","kecCode":"111708"},"geometry":{"type":"Polygon","coordinates":[[[96.91692799802877,4.7770541556147075],[96.92804900995388,4.782659274689932],[96.92292939887274,4.772396413858144],[96.91692799802877,4.7770541556147075]]]}},{"type":"Feature","properties":{"code":"1117082011","desa":"Nosar Tawar Jaya","kecamatan":"Bener Kelipah","kecCode":"111708"},"geometry":{"type":"Polygon","coordinates":[[[96.90264056760815,4.786988364600952],[96.91844943958999,4.781597364212212],[96.91692799802877,4.7770541556147075],[96.8989107814075,4.7822140680094085],[96.90264056760815,4.786988364600952]]]}},{"type":"Feature","properties":{"code":"1117082012","desa":"Nosar Baru","kecamatan":"Bener Kelipah","kecCode":"111708"},"geometry":{"type":"Polygon","coordinates":[[[96.86900011526318,4.786127183703099],[96.89068888338534,4.795179498606135],[96.90264056760815,4.786988364600952],[96.89815310708029,4.782192451005415],[96.86900011526318,4.786127183703099]]]}},{"type":"Feature","properties":{"code":"1117092001","desa":"Cemparam Lama","kecamatan":"Mesidah","kecCode":"111709"},"geometry":{"type":"Polygon","coordinates":[[[96.95444585309372,4.764088754695628],[96.95550508629076,4.775125490241117],[96.97135371280365,4.777952676363886],[96.97711390558231,4.7507777002477765],[96.95444585309372,4.764088754695628]]]}},{"type":"Feature","properties":{"code":"1117092002","desa":"Cemparam Pakat Jeroh","kecamatan":"Mesidah","kecCode":"111709"},"geometry":{"type":"Polygon","coordinates":[[[96.97135371280365,4.777952676363886],[96.9860413145551,4.784962186637329],[96.98492818588714,4.746226620783729],[96.97492255093505,4.748602579264995],[96.97135371280365,4.777952676363886]]]}},{"type":"Feature","properties":{"code":"1117092003","desa":"Cemparam Jaya","kecamatan":"Mesidah","kecCode":"111709"},"geometry":{"type":"Polygon","coordinates":[[[96.9856158830666,4.785593813784551],[96.99421196740843,4.790853907957161],[97.00266147304859,4.767726406248205],[96.998353047755,4.7627967211964055],[97.00478553772246,4.756043963769569],[96.99716391198501,4.752782383515253],[97.0023347520472,4.744320845854135],[96.99414040925257,4.747689127071908],[96.98872847623822,4.738711268839614],[96.9856158830666,4.785593813784551]]]}},{"type":"Feature","properties":{"code":"1117092004","desa":"Pantan Kuli","kecamatan":"Mesidah","kecCode":"111709"},"geometry":{"type":"Polygon","coordinates":[[[96.99421196740843,4.790853907957161],[97.00473447061938,4.79474727633737],[97.0067169577215,4.7661139793778595],[96.99838437024253,4.7708217908893245],[96.99421196740843,4.790853907957161]]]}},{"type":"Feature","properties":{"code":"1117092005","desa":"Simpang Renggali","kecamatan":"Mesidah","kecCode":"111709"},"geometry":{"type":"Polygon","coordinates":[[[97.00473447061938,4.79474727633737],[97.01167985474154,4.7929054351112645],[97.01235775740463,4.764804138402841],[97.00360007658229,4.770875415664202],[97.00473447061938,4.79474727633737]]]}},{"type":"Feature","properties":{"code":"1117092006","desa":"Jamur Atu Jaya","kecamatan":"Mesidah","kecCode":"111709"},"geometry":{"type":"Polygon","coordinates":[[[97.00329617857585,4.7457648566851125],[96.99715796296965,4.752657461387903],[97.00470193584572,4.755496997900339],[97.00126841780332,4.766160752218106],[97.02355959499937,4.761464806361758],[97.01725005584545,4.74635798025827],[97.00329617857585,4.7457648566851125]]]}},{"type":"Feature","properties":{"code":"1117092007","desa":"Sosial","kecamatan":"Mesidah","kecCode":"111709"},"geometry":{"type":"Polygon","coordinates":[[[97.0153226198431,4.720530495234634],[97.01670651639267,4.715425734663691],[97.01338122006727,4.713202129430799],[97.00622864293756,4.715709804417415],[96.99546996966342,4.712808845108564],[96.98944626922997,4.714781856052252],[96.99293687893385,4.746787549527033],[97.00816812535874,4.7437155472591135],[97.02126371934526,4.752788071727148],[97.02414795126697,4.735448798256463],[97.0153226198431,4.720530495234634]]]}},{"type":"Feature","properties":{"code":"1117092008","desa":"Gunung Sayang","kecamatan":"Mesidah","kecCode":"111709"},"geometry":{"type":"Polygon","coordinates":[[[97.05761091970824,4.735011537985515],[97.04639625508315,4.715837473973601],[97.0232873414377,4.712092070150138],[97.01544240324438,4.719747543663509],[97.02414795126697,4.735448798256463],[97.01842101901485,4.755241156966335],[97.03185244503435,4.758892606817091],[97.03728582328215,4.7671480567375895],[97.04493613469491,4.761693986893826],[97.03781327296423,4.738780466275074],[97.05761091970824,4.735011537985515]]]}},{"type":"Feature","properties":{"code":"1117092009","desa":"Amor","kecamatan":"Mesidah","kecCode":"111709"},"geometry":{"type":"Polygon","coordinates":[[[97.010787713782,4.7944764437047835],[97.02228831965026,4.7967397279256625],[97.03501548117957,4.816901846491701],[97.03279376272201,4.792253852007854],[97.01648721761109,4.763621329364689],[97.010787713782,4.7944764437047835]]]}},{"type":"Feature","properties":{"code":"1117092010","desa":"Buntul Gayo","kecamatan":"Mesidah","kecCode":"111709"},"geometry":{"type":"Polygon","coordinates":[[[97.03185244503435,4.758892606817091],[97.01751684962295,4.764454680741888],[97.03279376272201,4.792253852007854],[97.04198799335126,4.774019743209637],[97.03185244503435,4.758892606817091]]]}},{"type":"Feature","properties":{"code":"1117092011","desa":"Wih Resap","kecamatan":"Mesidah","kecCode":"111709"},"geometry":{"type":"Polygon","coordinates":[[[97.0199150699246,4.911817166579783],[97.04646329684373,4.905392110415001],[97.07960551398332,4.909771601930779],[97.0864356895555,4.9033903310584135],[97.08225209285985,4.869203478552417],[97.09453011227492,4.847674115285132],[97.09687150171851,4.825459467720103],[97.0781919434035,4.810626120054589],[97.07703639461397,4.773447644886593],[97.06430179479207,4.773578148206518],[97.06243887705261,4.7582055418617015],[97.04267346021209,4.763481616986978],[97.04107218043684,4.783708186366741],[97.03283677100023,4.7919264340322405],[97.03606318596728,4.837413879574383],[97.0296386406108,4.854189079372727],[97.03677702374074,4.890951752993292],[97.03507064829182,4.896475782897689],[97.01617549100614,4.896067282046429],[97.0199150699246,4.911817166579783]]]}},{"type":"Feature","properties":{"code":"1117092012","desa":"Wer Tingkem","kecamatan":"Mesidah","kecCode":"111709"},"geometry":{"type":"Polygon","coordinates":[[[97.06845860607983,4.740433591964527],[97.05501163707743,4.734719298790383],[97.03801227134932,4.738491874730078],[97.04098362779222,4.760152964395212],[97.06243887705261,4.7582055418617015],[97.06845860607983,4.740433591964527]]]}},{"type":"Feature","properties":{"code":"1117092013","desa":"Perumpaken Benjadi","kecamatan":"Mesidah","kecCode":"111709"},"geometry":{"type":"Polygon","coordinates":[[[97.0867341916297,4.741878498520235],[97.07409756305213,4.739784145650343],[97.06462081759672,4.743535313228753],[97.06874047159556,4.747999126078835],[97.06075262843109,4.755318179402871],[97.06445398076663,4.773714064545821],[97.08656830358437,4.762324737202025],[97.08757104226986,4.7554396202545295],[97.07084439325422,4.746774233265538],[97.0867341916297,4.741878498520235]]]}},{"type":"Feature","properties":{"code":"1117092014","desa":"Hakim Peteri Pintu","kecamatan":"Mesidah","kecCode":"111709"},"geometry":{"type":"Polygon","coordinates":[[[97.08643590899003,4.903313495680835],[97.09360068991997,4.9058797623980155],[97.10127859523105,4.898504319783061],[97.11721579057631,4.908463095549665],[97.13593404671894,4.910750603009842],[97.11779924194148,4.888374320293586],[97.11869391898921,4.838862495833563],[97.11260249870638,4.807263253654903],[97.10605188458685,4.789255630120541],[97.08730601026423,4.775763446816887],[97.09157438874712,4.767286401246458],[97.08713004801335,4.758276988501564],[97.07254417397449,4.771658628938077],[97.07737715673044,4.775378921891376],[97.0781919434035,4.810626120054589],[97.09687150171851,4.825459467720103],[97.09453011227492,4.847674115285132],[97.08225209285985,4.869203478552417],[97.08643590899003,4.903313495680835]]]}},{"type":"Feature","properties":{"code":"1117092015","desa":"Simpur","kecamatan":"Mesidah","kecCode":"111709"},"geometry":{"type":"Polygon","coordinates":[[[97.13593404671894,4.910750603009842],[97.14554767078845,4.910296839280045],[97.12742378108271,4.857210995698009],[97.1158604439044,4.801815719184388],[97.1202602394186,4.785852426429183],[97.10835838303302,4.767370218960388],[97.10611534075042,4.746717448272963],[97.09315373675558,4.741962988027684],[97.07376338757034,4.7453955024231975],[97.08759552181594,4.755484940689706],[97.09157438874712,4.767336369377949],[97.08730601026423,4.775763446816887],[97.10634509235219,4.789847973082204],[97.11869391898921,4.838862495833563],[97.11779924194148,4.888374320293586],[97.13593404671894,4.910750603009842]]]}},{"type":"Feature","properties":{"code":"1117102001","desa":"Simpang Rahmat","kecamatan":"Gajah Putih","kecCode":"111710"},"geometry":{"type":"Polygon","coordinates":[[[96.70989867698239,4.806210716810904],[96.71256861395044,4.824668664168192],[96.72111372741664,4.820243426837955],[96.73326286768724,4.824457322588292],[96.7337413043178,4.810305259036003],[96.70989867698239,4.806210716810904]]]}},{"type":"Feature","properties":{"code":"1117102002","desa":"Gajah Putih","kecamatan":"Gajah Putih","kecCode":"111710"},"geometry":{"type":"Polygon","coordinates":[[[96.85684304926734,4.825966287853279],[96.85509771788543,4.821228917424885],[96.7957748789076,4.809904656930315],[96.74178617709043,4.812534996745959],[96.73946620230343,4.817496172458495],[96.75417127158698,4.820672754189101],[96.78097589971804,4.814569435881891],[96.85684304926734,4.825966287853279]]]}},{"type":"Feature","properties":{"code":"1117102003","desa":"Gayo Setie","kecamatan":"Gajah Putih","kecCode":"111710"},"geometry":{"type":"Polygon","coordinates":[[[96.85509771788543,4.821228917424885],[96.85284019022265,4.815065658404073],[96.76764869792912,4.8033373442057865],[96.75775014075644,4.8027186834837865],[96.7446176053183,4.81270928086171],[96.7957748789076,4.809904656930315],[96.85509771788543,4.821228917424885]]]}},{"type":"Feature","properties":{"code":"1117102004","desa":"Umah Besi","kecamatan":"Gajah Putih","kecCode":"111710"},"geometry":{"type":"Polygon","coordinates":[[[96.71260531258514,4.806091742799585],[96.74321372403419,4.812780664549014],[96.74796157876392,4.806523800492453],[96.73502796526843,4.807839694804159],[96.71968421005828,4.799518482858403],[96.71260531258514,4.806091742799585]]]}},{"type":"Feature","properties":{"code":"1117102005","desa":"Pante Karya","kecamatan":"Gajah Putih","kecCode":"111710"},"geometry":{"type":"Polygon","coordinates":[[[96.85515613964418,4.81191607252258],[96.81121197205493,4.807053842919391],[96.76781060287709,4.790064492059112],[96.74580619789776,4.8114275113250065],[96.75775014075644,4.8027186834837865],[96.84778894470412,4.81566295213353],[96.85515613964418,4.81191607252258]]]}},{"type":"Feature","properties":{"code":"1117102006","desa":"Meriah Jaya","kecamatan":"Gajah Putih","kecCode":"111710"},"geometry":{"type":"Polygon","coordinates":[[[96.69669285129415,4.768269607555364],[96.70151100063225,4.778988393187733],[96.6996801707034,4.801300059614895],[96.70708070531037,4.812344831502185],[96.71968421005828,4.799518482858403],[96.70354652435269,4.77308463624103],[96.69669285129415,4.768269607555364]]]}},{"type":"Feature","properties":{"code":"1117102007","desa":"Timang Gajah","kecamatan":"Gajah Putih","kecCode":"111710"},"geometry":{"type":"Polygon","coordinates":[[[96.7389659733011,4.807744516854163],[96.72562914067235,4.7950876922144925],[96.71876216843935,4.796425182845806],[96.7389659733011,4.807744516854163]]]}},{"type":"Feature","properties":{"code":"1117102008","desa":"Pantan Lues","kecamatan":"Gajah Putih","kecCode":"111710"},"geometry":{"type":"Polygon","coordinates":[[[96.84804602940078,4.809980582193969],[96.82390785156615,4.79760169483104],[96.81554603612072,4.786016459172904],[96.7903575859339,4.790210014956563],[96.75931592698852,4.774633686987483],[96.7476132479531,4.790157107840623],[96.77430653192094,4.791634935878412],[96.81121197205493,4.807053842919391],[96.84804602940078,4.809980582193969]]]}},{"type":"Feature","properties":{"code":"1117102009","desa":"Alam Jaya","kecamatan":"Gajah Putih","kecCode":"111710"},"geometry":{"type":"Polygon","coordinates":[[[96.75893881697287,4.793453758057419],[96.73265357520238,4.797015904329795],[96.73976671436242,4.806737952453742],[96.74796157876392,4.806523800492453],[96.75893881697287,4.793453758057419]]]}},{"type":"Feature","properties":{"code":"1117102010","desa":"Reronga","kecamatan":"Gajah Putih","kecCode":"111710"},"geometry":{"type":"Polygon","coordinates":[[[96.73326286768724,4.824457322588292],[96.76125418723102,4.820908071694745],[96.78552245559689,4.834377618163229],[96.82322263561622,4.833684002546037],[96.83763676702324,4.8445190030697605],[96.83723847887272,4.853604538029782],[96.86341255004919,4.856745425668469],[96.85684304926734,4.825966287853279],[96.78097589971804,4.814569435881891],[96.75417127158698,4.820672754189101],[96.73404103126865,4.810571942196671],[96.73326286768724,4.824457322588292]]]}}]}