{"type":"FeatureCollection","features":[{"type":"Feature","properties":{"code":"1171012001","desa":"Kampung Baru","kecamatan":"Baiturrahman","kecCode":"117101"},"geometry":{"type":"Polygon","coordinates":[[[95.31620050724769,5.5601813445840875],[95.32032302828519,5.546969213762236],[95.31205344820812,5.548997065364263],[95.31620050724769,5.5601813445840875]]]}},{"type":"Feature","properties":{"code":"1171012002","desa":"Neusu Jaya","kecamatan":"Baiturrahman","kecCode":"117101"},"geometry":{"type":"Polygon","coordinates":[[[95.3169496766863,5.546406034015833],[95.320548658294,5.542034176844801],[95.31414039876044,5.541706634762707],[95.3169496766863,5.546406034015833]]]}},{"type":"Feature","properties":{"code":"1171012003","desa":"Sukaramai","kecamatan":"Baiturrahman","kecCode":"117101"},"geometry":{"type":"Polygon","coordinates":[[[95.30863399196521,5.543618059233461],[95.31697686678903,5.547895600004998],[95.3144923376513,5.5425731927070965],[95.30863399196521,5.543618059233461]]]}},{"type":"Feature","properties":{"code":"1171012004","desa":"Seutui","kecamatan":"Baiturrahman","kecCode":"117101"},"geometry":{"type":"Polygon","coordinates":[[[95.3144923376513,5.5425731927070965],[95.31199544373482,5.538907147758786],[95.30789523937385,5.53559983967634],[95.30889082035515,5.542978009035936],[95.3144923376513,5.5425731927070965]]]}},{"type":"Feature","properties":{"code":"1171012005","desa":"Peuniti","kecamatan":"Baiturrahman","kecCode":"117101"},"geometry":{"type":"Polygon","coordinates":[[[95.3169496766863,5.546406034015833],[95.32099252588444,5.553787465216533],[95.32454864670272,5.552289935730592],[95.32362766268653,5.54329386532734],[95.3169496766863,5.546406034015833]]]}},{"type":"Feature","properties":{"code":"1171012006","desa":"Neusu Aceh","kecamatan":"Baiturrahman","kecCode":"117101"},"geometry":{"type":"Polygon","coordinates":[[[95.31414039876044,5.541706634762707],[95.320548658294,5.542034176844801],[95.31999396634853,5.535522556436366],[95.31579454967878,5.535693147935804],[95.31414039876044,5.541706634762707]]]}},{"type":"Feature","properties":{"code":"1171012007","desa":"Ateuk Pahlawan","kecamatan":"Baiturrahman","kecCode":"117101"},"geometry":{"type":"Polygon","coordinates":[[[95.32369150915588,5.543962959130308],[95.32454864670272,5.552289935730592],[95.3306535909905,5.553578996071167],[95.32911416838418,5.546018826412695],[95.32369150915588,5.543962959130308]]]}},{"type":"Feature","properties":{"code":"1171012008","desa":"Ateuk Jawo","kecamatan":"Baiturrahman","kecCode":"117101"},"geometry":{"type":"Polygon","coordinates":[[[95.31906043499112,5.53517988505953],[95.32422400403459,5.541101334368974],[95.32652027898773,5.541018424970368],[95.32596613562873,5.532490927432988],[95.31906043499112,5.53517988505953]]]}},{"type":"Feature","properties":{"code":"1171012009","desa":"Ateuk Deah Tanoh","kecamatan":"Baiturrahman","kecCode":"117101"},"geometry":{"type":"Polygon","coordinates":[[[95.32652027898773,5.541018424970368],[95.32516864741518,5.544399847981191],[95.32762789121425,5.5443960060773945],[95.32652027898773,5.541018424970368]]]}},{"type":"Feature","properties":{"code":"1171012010","desa":"Ateuk Munjeng","kecamatan":"Baiturrahman","kecCode":"117101"},"geometry":{"type":"Polygon","coordinates":[[[95.31954193830983,5.537606783839466],[95.32433365387509,5.5427544078978475],[95.32253671669615,5.536489254789844],[95.31954193830983,5.537606783839466]]]}},{"type":"Feature","properties":{"code":"1171022001","desa":"Mulia","kecamatan":"Kuta Alam","kecCode":"117102"},"geometry":{"type":"Polygon","coordinates":[[[95.32686913500264,5.567149164985671],[95.32457709135974,5.561874503594522],[95.318106460245,5.563312569007416],[95.31950841518123,5.569678191676421],[95.32686913500264,5.567149164985671]]]}},{"type":"Feature","properties":{"code":"1171022002","desa":"Peunayong","kecamatan":"Kuta Alam","kecCode":"117102"},"geometry":{"type":"Polygon","coordinates":[[[95.32078198200293,5.563222543273402],[95.31800378464698,5.556456833810305],[95.318106460245,5.563312569007416],[95.32078198200293,5.563222543273402]]]}},{"type":"Feature","properties":{"code":"1171022003","desa":"Laksana","kecamatan":"Kuta Alam","kecCode":"117102"},"geometry":{"type":"Polygon","coordinates":[[[95.3217971106482,5.556020540310601],[95.3256838941964,5.562026036661162],[95.32616918995619,5.557667787131931],[95.3217971106482,5.556020540310601]]]}},{"type":"Feature","properties":{"code":"1171022004","desa":"Keuramat","kecamatan":"Kuta Alam","kecCode":"117102"},"geometry":{"type":"Polygon","coordinates":[[[95.32616918995619,5.557667787131931],[95.32968980913745,5.565026667832314],[95.330160859636,5.558799018252199],[95.32616918995619,5.557667787131931]]]}},{"type":"Feature","properties":{"code":"1171022005","desa":"Kota Baru","kecamatan":"Kuta Alam","kecCode":"117102"},"geometry":{"type":"Polygon","coordinates":[[[95.34513458159576,5.573313404267737],[95.34560304744274,5.562537707737356],[95.34238770223071,5.561091831712485],[95.33911409533931,5.567269487080745],[95.34513458159576,5.573313404267737]]]}},{"type":"Feature","properties":{"code":"1171022006","desa":"Beurawe","kecamatan":"Kuta Alam","kecCode":"117102"},"geometry":{"type":"Polygon","coordinates":[[[95.3306535909905,5.553578996071167],[95.33807031069637,5.562258357625757],[95.33548325704675,5.550840367089391],[95.3306535909905,5.553578996071167]]]}},{"type":"Feature","properties":{"code":"1171022007","desa":"Kuta Alam","kecamatan":"Kuta Alam","kecCode":"117102"},"geometry":{"type":"Polygon","coordinates":[[[95.3306535909905,5.553578996071167],[95.3217971106482,5.556020540310601],[95.33009493123615,5.55874855009766],[95.3306535909905,5.553578996071167]]]}},{"type":"Feature","properties":{"code":"1171022008","desa":"Bandar Baru","kecamatan":"Kuta Alam","kecCode":"117102"},"geometry":{"type":"Polygon","coordinates":[[[95.330160859636,5.558799018252199],[95.33816258293687,5.573070536054134],[95.34246702603245,5.560140397552065],[95.33588353989353,5.564218767268937],[95.330160859636,5.558799018252199]]]}},{"type":"Feature","properties":{"code":"1171022009","desa":"Lamdingin","kecamatan":"Kuta Alam","kecCode":"117102"},"geometry":{"type":"Polygon","coordinates":[[[95.33114191476763,5.57091159297556],[95.32583273829026,5.570960748119954],[95.32773748979338,5.587389237686561],[95.33114191476763,5.57091159297556]]]}},{"type":"Feature","properties":{"code":"1171022010","desa":"Lampulo","kecamatan":"Kuta Alam","kecCode":"117102"},"geometry":{"type":"Polygon","coordinates":[[[95.32686913500264,5.567149164985671],[95.32032085642243,5.568481799278006],[95.32289009989823,5.575197601763543],[95.31664379477535,5.580192102753949],[95.3114345986279,5.589487257092501],[95.31131710130325,5.590371655787648],[95.31169519157987,5.591920056324405],[95.31560829019047,5.59603136550984],[95.31140948505974,5.590456015792783],[95.31560684857726,5.583235349199524],[95.31897715417239,5.586181888847706],[95.31529367316453,5.586053474652845],[95.31397473734432,5.588555831048948],[95.32668957096699,5.587121701968639],[95.32686913500264,5.567149164985671]]]}},{"type":"Feature","properties":{"code":"1171022011","desa":"Lambaro Skep","kecamatan":"Kuta Alam","kecCode":"117102"},"geometry":{"type":"Polygon","coordinates":[[[95.33816258293687,5.573070536054134],[95.3294876307496,5.567642938653913],[95.32935624789256,5.587140740616301],[95.33857064312075,5.590227116748558],[95.33816258293687,5.573070536054134]]]}},{"type":"Feature","properties":{"code":"1171032001","desa":"Punge Jurong","kecamatan":"Meuraxa","kecCode":"117103"},"geometry":{"type":"Polygon","coordinates":[[[95.30824148555615,5.5561966761304165],[95.31205344820812,5.548997065364263],[95.30443145644658,5.551298133701605],[95.30824148555615,5.5561966761304165]]]}},{"type":"Feature","properties":{"code":"1171032002","desa":"Ulee Lheue","kecamatan":"Meuraxa","kecCode":"117103"},"geometry":{"type":"Polygon","coordinates":[[[95.2834698270709,5.556543101277503],[95.28410699404257,5.552193785613499],[95.2828222639364,5.553695559000087],[95.2834698270709,5.556543101277503]]]}},{"type":"Feature","properties":{"code":"1171032002","desa":"Ulee Lheue","kecamatan":"Meuraxa","kecCode":"117103"},"geometry":{"type":"Polygon","coordinates":[[[95.29740517830639,5.565576078058814],[95.29799708509745,5.570082046629894],[95.29749396027808,5.565448595561638],[95.28243590079626,5.55818549715572],[95.29587352674191,5.569400729241738],[95.29740517830639,5.565576078058814]]]}},{"type":"Feature","properties":{"code":"1171032003","desa":"Lambung","kecamatan":"Meuraxa","kecCode":"117103"},"geometry":{"type":"Polygon","coordinates":[[[95.29537589857891,5.553492254661317],[95.28835398664721,5.558325810280537],[95.29771629966757,5.559439132301601],[95.29537589857891,5.553492254661317]]]}},{"type":"Feature","properties":{"code":"1171032004","desa":"Deah Glumpang","kecamatan":"Meuraxa","kecCode":"117103"},"geometry":{"type":"Polygon","coordinates":[[[95.29371442897775,5.56182289240166],[95.28926950997997,5.556851297143713],[95.28805677240216,5.558424461412294],[95.29371442897775,5.56182289240166]]]}},{"type":"Feature","properties":{"code":"1171032005","desa":"Deah Baro","kecamatan":"Meuraxa","kecCode":"117103"},"geometry":{"type":"Polygon","coordinates":[[[95.29898257388675,5.562684105675167],[95.29511250603736,5.558479506216673],[95.29371442897775,5.56182289240166],[95.29898257388675,5.562684105675167]]]}},{"type":"Feature","properties":{"code":"1171032006","desa":"Alue Deah Teungoh","kecamatan":"Meuraxa","kecCode":"117103"},"geometry":{"type":"Polygon","coordinates":[[[95.30330328841609,5.561017825602044],[95.29697460359512,5.563760530311372],[95.30287225055399,5.565720004659685],[95.30330328841609,5.561017825602044]]]}},{"type":"Feature","properties":{"code":"1171032006","desa":"Alue Deah Teungoh","kecamatan":"Meuraxa","kecCode":"117103"},"geometry":{"type":"Polygon","coordinates":[[[95.29686408770755,5.565246730138145],[95.29795281237244,5.566339642045397],[95.2977270645524,5.565832876770874],[95.29686408770755,5.565246730138145]]]}},{"type":"Feature","properties":{"code":"1171032006","desa":"Alue Deah Teungoh","kecamatan":"Meuraxa","kecCode":"117103"},"geometry":{"type":"Polygon","coordinates":[[[95.30326676155187,5.569136465257403],[95.30333148306151,5.567379470569577],[95.29892988530598,5.567050700912979],[95.30326676155187,5.569136465257403]]]}},{"type":"Feature","properties":{"code":"1171032006","desa":"Alue Deah Teungoh","kecamatan":"Meuraxa","kecCode":"117103"},"geometry":{"type":"Polygon","coordinates":[[[95.3125821794241,5.582070391703943],[95.30300353988149,5.5729774148536775],[95.29862965113756,5.570090020918528],[95.3125821794241,5.582070391703943]]]}},{"type":"Feature","properties":{"code":"1171032007","desa":"Lampaseh Aceh","kecamatan":"Meuraxa","kecCode":"117103"},"geometry":{"type":"Polygon","coordinates":[[[95.3082645729517,5.5610785307394295],[95.30386366227827,5.554888060032002],[95.30277610942994,5.562206063847506],[95.3082645729517,5.5610785307394295]]]}},{"type":"Feature","properties":{"code":"1171032008","desa":"Blang Oi","kecamatan":"Meuraxa","kecCode":"117103"},"geometry":{"type":"Polygon","coordinates":[[[95.29485537997186,5.553458618218175],[95.29771629966757,5.559439132301601],[95.30330328841609,5.561017825602044],[95.30092907911376,5.550140233186012],[95.29485537997186,5.553458618218175]]]}},{"type":"Feature","properties":{"code":"1171032009","desa":"Asoe Nanggroe","kecamatan":"Meuraxa","kecCode":"117103"},"geometry":{"type":"Polygon","coordinates":[[[95.2888855902978,5.540165193180016],[95.28295493821986,5.5465127196907495],[95.29119261664601,5.54514583471836],[95.2888855902978,5.540165193180016]]]}},{"type":"Feature","properties":{"code":"1171032010","desa":"Gampong Blang","kecamatan":"Meuraxa","kecCode":"117103"},"geometry":{"type":"Polygon","coordinates":[[[95.29055609988416,5.545281659326832],[95.27240527818111,5.547349437230395],[95.2828222639364,5.553695559000087],[95.29055609988416,5.545281659326832]]]}},{"type":"Feature","properties":{"code":"1171032011","desa":"Gampong Pie","kecamatan":"Meuraxa","kecCode":"117103"},"geometry":{"type":"Polygon","coordinates":[[[95.28804481501622,5.550636373869848],[95.28643174243102,5.555437359641967],[95.2899647326863,5.553587896661463],[95.28804481501622,5.550636373869848]]]}},{"type":"Feature","properties":{"code":"1171032012","desa":"Lamjabat","kecamatan":"Meuraxa","kecCode":"117103"},"geometry":{"type":"Polygon","coordinates":[[[95.29649681267786,5.549966040801104],[95.29698461484816,5.544870304027457],[95.29104745887321,5.543714989962086],[95.29035488467024,5.549042193344473],[95.29649681267786,5.549966040801104]]]}},{"type":"Feature","properties":{"code":"1171032013","desa":"Cot Lamkuweuh","kecamatan":"Meuraxa","kecCode":"117103"},"geometry":{"type":"Polygon","coordinates":[[[95.28873759156666,5.554508731389268],[95.29485537997186,5.553458618218175],[95.29649681267786,5.549966040801104],[95.28881212827712,5.549647265310388],[95.28873759156666,5.554508731389268]]]}},{"type":"Feature","properties":{"code":"1171032014","desa":"Surien","kecamatan":"Meuraxa","kecCode":"117103"},"geometry":{"type":"Polygon","coordinates":[[[95.2888855902978,5.540165193180016],[95.29431946137412,5.545066556782114],[95.30266842011156,5.54348930779283],[95.30005163397578,5.539753378326998],[95.2888855902978,5.540165193180016]]]}},{"type":"Feature","properties":{"code":"1171032015","desa":"Gampong Baro","kecamatan":"Meuraxa","kecCode":"117103"},"geometry":{"type":"Polygon","coordinates":[[[95.29619511171505,5.545593438991409],[95.30319178327424,5.549265507598814],[95.30218299934603,5.544270805160291],[95.29619511171505,5.545593438991409]]]}},{"type":"Feature","properties":{"code":"1171032016","desa":"Punge Ujong","kecamatan":"Meuraxa","kecCode":"117103"},"geometry":{"type":"Polygon","coordinates":[[[95.30321199193992,5.554734635691086],[95.3043058427405,5.549357081066012],[95.30097888896461,5.550530592013644],[95.30321199193992,5.554734635691086]]]}},{"type":"Feature","properties":{"code":"1171042001","desa":"Jeulingke","kecamatan":"Syiah Kuala","kecCode":"117104"},"geometry":{"type":"Polygon","coordinates":[[[95.35236199221225,5.583417481698797],[95.3396388227735,5.568194965907649],[95.33933854543754,5.578852982551089],[95.35236199221225,5.583417481698797]]]}},{"type":"Feature","properties":{"code":"1171042002","desa":"Tibang","kecamatan":"Syiah Kuala","kecCode":"117104"},"geometry":{"type":"Polygon","coordinates":[[[95.35032425615958,5.59466924514564],[95.35418751434236,5.5851346031450815],[95.33933854543754,5.578852982551089],[95.3391490636784,5.591732348028465],[95.35032425615958,5.59466924514564]]]}},{"type":"Feature","properties":{"code":"1171042003","desa":"Deah Raya","kecamatan":"Syiah Kuala","kecCode":"117104"},"geometry":{"type":"Polygon","coordinates":[[[95.33579856025541,5.589323770237256],[95.32204597823937,5.5873940175832235],[95.31648236017287,5.59448104581984],[95.32274958172786,5.590138523634575],[95.33522625059108,5.597881038032346],[95.33579856025541,5.589323770237256]]]}},{"type":"Feature","properties":{"code":"1171042004","desa":"Alue Naga","kecamatan":"Syiah Kuala","kecCode":"117104"},"geometry":{"type":"Polygon","coordinates":[[[95.37654967232959,5.611289310092943],[95.36593389323463,5.601495585102392],[95.33579856025541,5.589323770237256],[95.33522625059108,5.597881038032346],[95.34679252675375,5.605963230863147],[95.37654967232959,5.611289310092943]]]}},{"type":"Feature","properties":{"code":"1171042005","desa":"Ie Masen Kayee Adang","kecamatan":"Syiah Kuala","kecCode":"117104"},"geometry":{"type":"Polygon","coordinates":[[[95.35372017084926,5.563478995746459],[95.35326029172916,5.558255664959629],[95.34427356976948,5.55678707655649],[95.34545927462591,5.5638675055679565],[95.35372017084926,5.563478995746459]]]}},{"type":"Feature","properties":{"code":"1171042006","desa":"Pineung","kecamatan":"Syiah Kuala","kecCode":"117104"},"geometry":{"type":"Polygon","coordinates":[[[95.34545927462591,5.5638675055679565],[95.34461915584944,5.568946205584794],[95.35187312344596,5.569905590651419],[95.35314025381972,5.564114885680214],[95.34545927462591,5.5638675055679565]]]}},{"type":"Feature","properties":{"code":"1171042007","desa":"Lamgugob","kecamatan":"Syiah Kuala","kecCode":"117104"},"geometry":{"type":"Polygon","coordinates":[[[95.35763920678403,5.571190202945173],[95.35294996806664,5.563590449626862],[95.34782530909081,5.575793288404578],[95.35374310805803,5.58074238802086],[95.35763920678403,5.571190202945173]]]}},{"type":"Feature","properties":{"code":"1171042008","desa":"Kopelma Darussalam","kecamatan":"Syiah Kuala","kecCode":"117104"},"geometry":{"type":"Polygon","coordinates":[[[95.37742292213022,5.569339093306037],[95.36804586922153,5.56219350121781],[95.36084173665688,5.570527476342309],[95.36606286770723,5.572226952190672],[95.36335110327086,5.579700492854606],[95.37742292213022,5.569339093306037]]]}},{"type":"Feature","properties":{"code":"1171042009","desa":"Rukoh","kecamatan":"Syiah Kuala","kecCode":"117104"},"geometry":{"type":"Polygon","coordinates":[[[95.36871322013906,5.5891494321621575],[95.36999303634961,5.576725870076942],[95.36335110327086,5.579700492854606],[95.36606286770723,5.572226952190672],[95.3573954986034,5.571233112297898],[95.35220374660564,5.584019850302599],[95.36871322013906,5.5891494321621575]]]}},{"type":"Feature","properties":{"code":"1171042010","desa":"Peurada","kecamatan":"Syiah Kuala","kecCode":"117104"},"geometry":{"type":"Polygon","coordinates":[[[95.35179891229001,5.571343015747073],[95.34513458159576,5.573313404267737],[95.35082296980424,5.574134446624102],[95.35179891229001,5.571343015747073]]]}},{"type":"Feature","properties":{"code":"1171052001","desa":"Lueng Bata","kecamatan":"Lueng Bata","kecCode":"117105"},"geometry":{"type":"Polygon","coordinates":[[[95.34170915115646,5.546428360584961],[95.34258058882317,5.5382322389394645],[95.33277597663009,5.537368295324238],[95.3341212230161,5.542745086424854],[95.34170915115646,5.546428360584961]]]}},{"type":"Feature","properties":{"code":"1171052002","desa":"Cot Mesjid","kecamatan":"Lueng Bata","kecCode":"117105"},"geometry":{"type":"Polygon","coordinates":[[[95.34350788338217,5.527823649265312],[95.33424591042046,5.532308982892048],[95.33445947512473,5.5362287553675955],[95.34258058882317,5.5382322389394645],[95.34350788338217,5.527823649265312]]]}},{"type":"Feature","properties":{"code":"1171052003","desa":"Panteriek","kecamatan":"Lueng Bata","kecCode":"117105"},"geometry":{"type":"Polygon","coordinates":[[[95.3415615679121,5.547963516805866],[95.33608232963586,5.543228786786901],[95.33334569534763,5.547206211201465],[95.33769664598348,5.550495672237955],[95.3415615679121,5.547963516805866]]]}},{"type":"Feature","properties":{"code":"1171052004","desa":"Blang Cut","kecamatan":"Lueng Bata","kecCode":"117105"},"geometry":{"type":"Polygon","coordinates":[[[95.33414220599809,5.547137242193833],[95.33173301037021,5.541818343151225],[95.32864772960907,5.545347320628032],[95.33414220599809,5.547137242193833]]]}},{"type":"Feature","properties":{"code":"1171052005","desa":"Lamseupeung","kecamatan":"Lueng Bata","kecCode":"117105"},"geometry":{"type":"Polygon","coordinates":[[[95.33385435639349,5.547712376628178],[95.33118088598916,5.553522047402022],[95.33759833659398,5.549609515368193],[95.33385435639349,5.547712376628178]]]}},{"type":"Feature","properties":{"code":"1171052006","desa":"Batoh","kecamatan":"Lueng Bata","kecCode":"117105"},"geometry":{"type":"Polygon","coordinates":[[[95.32596613562873,5.532490927432988],[95.32707895672854,5.5419562559855065],[95.3341212230161,5.542745086424854],[95.33424591042046,5.532308982892048],[95.32596613562873,5.532490927432988]]]}},{"type":"Feature","properties":{"code":"1171052007","desa":"Sukadamai","kecamatan":"Lueng Bata","kecCode":"117105"},"geometry":{"type":"Polygon","coordinates":[[[95.33391779816793,5.547584948090285],[95.32820544392615,5.550915847188622],[95.3315305972593,5.550810218217135],[95.33391779816793,5.547584948090285]]]}},{"type":"Feature","properties":{"code":"1171052008","desa":"Lamdom","kecamatan":"Lueng Bata","kecCode":"117105"},"geometry":{"type":"Polygon","coordinates":[[[95.34313291465236,5.528466415415332],[95.33102692565215,5.528454186434186],[95.3302413723415,5.5300182657514565],[95.34127952702863,5.532140872622134],[95.34313291465236,5.528466415415332]]]}},{"type":"Feature","properties":{"code":"1171052009","desa":"Lampaloh","kecamatan":"Lueng Bata","kecCode":"117105"},"geometry":{"type":"Polygon","coordinates":[[[95.32707895672854,5.5419562559855065],[95.32911416838418,5.546018826412695],[95.32976130524007,5.542442687588529],[95.32707895672854,5.5419562559855065]]]}},{"type":"Feature","properties":{"code":"1171062001","desa":"Keudah","kecamatan":"Kuta Raja","kecCode":"117106"},"geometry":{"type":"Polygon","coordinates":[[[95.31818467698133,5.562449378124713],[95.31328090229185,5.560491586407988],[95.31018664539742,5.561551626295868],[95.31818467698133,5.562449378124713]]]}},{"type":"Feature","properties":{"code":"1171062002","desa":"Peulanggahan","kecamatan":"Kuta Raja","kecCode":"117106"},"geometry":{"type":"Polygon","coordinates":[[[95.30766149208426,5.567260045997942],[95.31818467698133,5.562449378124713],[95.3082645729517,5.5610785307394295],[95.30736820967519,5.5612150855974045],[95.30728676886933,5.56125646880065],[95.30720535324451,5.561354889705953],[95.30719330682568,5.561761675550023],[95.30618406963917,5.561724233176008],[95.3060056027764,5.561748405153926],[95.30766149208426,5.567260045997942]]]}},{"type":"Feature","properties":{"code":"1171062003","desa":"Merduati","kecamatan":"Kuta Raja","kecCode":"117106"},"geometry":{"type":"Polygon","coordinates":[[[95.31630959860915,5.5602393553526435],[95.31382781060505,5.552351175065268],[95.3131225595585,5.552427853061532],[95.3083107279578,5.56181122999341],[95.31630959860915,5.5602393553526435]]]}},{"type":"Feature","properties":{"code":"1171062004","desa":"Lampaseh Kota","kecamatan":"Kuta Raja","kecCode":"117106"},"geometry":{"type":"Polygon","coordinates":[[[95.31235832737495,5.553920587362209],[95.30824148555615,5.5561966761304165],[95.30836182114119,5.5605249953226785],[95.312045891205,5.559481824917708],[95.31235832737495,5.553920587362209]]]}},{"type":"Feature","properties":{"code":"1171062005","desa":"Gampong Pande","kecamatan":"Kuta Raja","kecCode":"117106"},"geometry":{"type":"Polygon","coordinates":[[[95.31278498733735,5.584957484366263],[95.31760201971747,5.576418549251048],[95.31221438998216,5.565688106606025],[95.31176944140668,5.58083208280433],[95.30706746289314,5.5766561132631844],[95.31278498733735,5.584957484366263]]]}},{"type":"Feature","properties":{"code":"1171062006","desa":"Gampong Jawa","kecamatan":"Kuta Raja","kecCode":"117106"},"geometry":{"type":"Polygon","coordinates":[[[95.32289009989823,5.575197601763543],[95.31546610107976,5.566082337015043],[95.31775912858096,5.5793508265508605],[95.32289009989823,5.575197601763543]]]}},{"type":"Feature","properties":{"code":"1171072001","desa":"Geuceu Komplek","kecamatan":"Banda Raya","kecCode":"117107"},"geometry":{"type":"Polygon","coordinates":[[[95.30744791209149,5.526827990044016],[95.31110927427363,5.534540236858951],[95.3115156266449,5.52704680319153],[95.30744791209149,5.526827990044016]]]}},{"type":"Feature","properties":{"code":"1171072002","desa":"Lamlagang","kecamatan":"Banda Raya","kecCode":"117107"},"geometry":{"type":"Polygon","coordinates":[[[95.31198970695948,5.528502838857568],[95.31279642671376,5.539864110051824],[95.31847829303888,5.530945574698632],[95.31198970695948,5.528502838857568]]]}},{"type":"Feature","properties":{"code":"1171072003","desa":"Geuceu Iniem","kecamatan":"Banda Raya","kecCode":"117107"},"geometry":{"type":"Polygon","coordinates":[[[95.30779115993414,5.5303500562308425],[95.30605787227306,5.523697097470518],[95.30093034356054,5.525324510643437],[95.30189150478918,5.53041435236115],[95.30779115993414,5.5303500562308425]]]}},{"type":"Feature","properties":{"code":"1171072004","desa":"Geuceu Kayee Jato","kecamatan":"Banda Raya","kecCode":"117107"},"geometry":{"type":"Polygon","coordinates":[[[95.30853986442328,5.538853120087566],[95.30779115993414,5.5303500562308425],[95.30360166638388,5.530070267250037],[95.3042645072013,5.534459493927158],[95.30853986442328,5.538853120087566]]]}},{"type":"Feature","properties":{"code":"1171072005","desa":"Lam Ara","kecamatan":"Banda Raya","kecCode":"117107"},"geometry":{"type":"Polygon","coordinates":[[[95.31316027262852,5.521164974414028],[95.30373992995384,5.520369256067099],[95.31218804074553,5.52849626481337],[95.31316027262852,5.521164974414028]]]}},{"type":"Feature","properties":{"code":"1171072006","desa":"Lhong Raya","kecamatan":"Banda Raya","kecCode":"117107"},"geometry":{"type":"Polygon","coordinates":[[[95.3265689979609,5.527703324472273],[95.31946868313327,5.521078528881069],[95.31717597039477,5.530247395921441],[95.3265689979609,5.527703324472273]]]}},{"type":"Feature","properties":{"code":"1171072007","desa":"Mibo","kecamatan":"Banda Raya","kecCode":"117107"},"geometry":{"type":"Polygon","coordinates":[[[95.32304026599553,5.518833918183154],[95.31351515859772,5.518361239912138],[95.31259181296183,5.526086748129944],[95.31529307241743,5.525916743887818],[95.32304026599553,5.518833918183154]]]}},{"type":"Feature","properties":{"code":"1171072008","desa":"Peunyerat","kecamatan":"Banda Raya","kecCode":"117107"},"geometry":{"type":"Polygon","coordinates":[[[95.32842336674503,5.532384215677747],[95.32325586406694,5.526789983795021],[95.32150287855507,5.532207807363246],[95.32842336674503,5.532384215677747]]]}},{"type":"Feature","properties":{"code":"1171072009","desa":"Lhong Cut","kecamatan":"Banda Raya","kecCode":"117107"},"geometry":{"type":"Polygon","coordinates":[[[95.31253659908486,5.528365434140217],[95.31712074302793,5.529781142407116],[95.3192526875615,5.523381700732638],[95.3169393479726,5.523265120716624],[95.31253659908486,5.528365434140217]]]}},{"type":"Feature","properties":{"code":"1171072010","desa":"Lampeout","kecamatan":"Banda Raya","kecCode":"117107"},"geometry":{"type":"Polygon","coordinates":[[[95.3131377886781,5.516360751981946],[95.3097989449654,5.521277234986303],[95.31316027262852,5.521164974414028],[95.3131377886781,5.516360751981946]]]}},{"type":"Feature","properties":{"code":"1171082001","desa":"Punge Blang Cut","kecamatan":"Jaya Baru","kecCode":"117108"},"geometry":{"type":"Polygon","coordinates":[[[95.31107514140473,5.549197499067128],[95.3087066427974,5.541189198132788],[95.30254930490655,5.540417961130639],[95.30447885881232,5.551282239083798],[95.31107514140473,5.549197499067128]]]}},{"type":"Feature","properties":{"code":"1171082002","desa":"Bitai","kecamatan":"Jaya Baru","kecCode":"117108"},"geometry":{"type":"Polygon","coordinates":[[[95.29241522518252,5.5344404723665654],[95.29441100966045,5.541125727580199],[95.30005163397578,5.539753378326998],[95.29241522518252,5.5344404723665654]]]}},{"type":"Feature","properties":{"code":"1171082003","desa":"Lamjamee","kecamatan":"Jaya Baru","kecCode":"117108"},"geometry":{"type":"Polygon","coordinates":[[[95.2860618126026,5.534695144181942],[95.28569673731465,5.542368713853719],[95.28978111540617,5.5391374056786145],[95.2860618126026,5.534695144181942]]]}},{"type":"Feature","properties":{"code":"1171082004","desa":"Ulee Pata","kecamatan":"Jaya Baru","kecCode":"117108"},"geometry":{"type":"Polygon","coordinates":[[[95.28266680083226,5.535760380352571],[95.2832898151729,5.54389911625832],[95.28569673731465,5.542368713853719],[95.28266680083226,5.535760380352571]]]}},{"type":"Feature","properties":{"code":"1171082005","desa":"Lampoh Daya","kecamatan":"Jaya Baru","kecCode":"117108"},"geometry":{"type":"Polygon","coordinates":[[[95.28902140321524,5.530507571587773],[95.28364080168171,5.5322784841834975],[95.28487637304625,5.536591585048073],[95.29014849475725,5.5370877877851346],[95.28902140321524,5.530507571587773]]]}},{"type":"Feature","properties":{"code":"1171082006","desa":"Emperom","kecamatan":"Jaya Baru","kecCode":"117108"},"geometry":{"type":"Polygon","coordinates":[[[95.29604813191582,5.52764123797625],[95.28964160717447,5.528110427777023],[95.29038246417946,5.534378842726069],[95.29863529618204,5.535700686952494],[95.29604813191582,5.52764123797625]]]}},{"type":"Feature","properties":{"code":"1171082007","desa":"Geuceu Meunara","kecamatan":"Jaya Baru","kecCode":"117108"},"geometry":{"type":"Polygon","coordinates":[[[95.30605787227306,5.523697097470518],[95.30080393485377,5.521521973789705],[95.29604813191582,5.52764123797625],[95.30605787227306,5.523697097470518]]]}},{"type":"Feature","properties":{"code":"1171082008","desa":"Lamteumen Timur","kecamatan":"Jaya Baru","kecCode":"117108"},"geometry":{"type":"Polygon","coordinates":[[[95.3087066427974,5.541189198132788],[95.30368789967689,5.530683299115395],[95.30189150478918,5.53041435236115],[95.29846553205874,5.53827309244203],[95.3087066427974,5.541189198132788]]]}},{"type":"Feature","properties":{"code":"1171082009","desa":"Lamteumen Barat","kecamatan":"Jaya Baru","kecCode":"117108"},"geometry":{"type":"Polygon","coordinates":[[[95.30189150478918,5.53041435236115],[95.2964249847253,5.527312901792824],[95.29361216616859,5.530186417390168],[95.29893132512062,5.534832708079231],[95.30189150478918,5.53041435236115]]]}},{"type":"Feature","properties":{"code":"1171092001","desa":"Lambhuk","kecamatan":"Ulee Kareng","kecCode":"117109"},"geometry":{"type":"Polygon","coordinates":[[[95.33749126690849,5.561202880897922],[95.34551746975546,5.554210664587246],[95.34154473440202,5.548000025683618],[95.33548325704675,5.550840367089391],[95.33749126690849,5.561202880897922]]]}},{"type":"Feature","properties":{"code":"1171092002","desa":"Lamteh","kecamatan":"Ulee Kareng","kecCode":"117109"},"geometry":{"type":"Polygon","coordinates":[[[95.34828910565778,5.546591034453063],[95.34154473440202,5.548000025683618],[95.34551746975546,5.554210664587246],[95.34828910565778,5.546591034453063]]]}},{"type":"Feature","properties":{"code":"1171092003","desa":"Ilie","kecamatan":"Ulee Kareng","kecCode":"117109"},"geometry":{"type":"Polygon","coordinates":[[[95.3586927175949,5.542053628281275],[95.35404452483498,5.540251700766124],[95.34170915115646,5.546428360584961],[95.34932005877373,5.549688948887165],[95.3586927175949,5.542053628281275]]]}},{"type":"Feature","properties":{"code":"1171092004","desa":"Pango Raya","kecamatan":"Ulee Kareng","kecCode":"117109"},"geometry":{"type":"Polygon","coordinates":[[[95.3519796769206,5.542257337315024],[95.34408763583576,5.535102742113822],[95.34153118521606,5.544735030703404],[95.3519796769206,5.542257337315024]]]}},{"type":"Feature","properties":{"code":"1171092005","desa":"Pango Deah","kecamatan":"Ulee Kareng","kecCode":"117109"},"geometry":{"type":"Polygon","coordinates":[[[95.35398030514705,5.53588722073381],[95.34974696065376,5.538569008965042],[95.35393044673282,5.542318714245967],[95.35398030514705,5.53588722073381]]]}},{"type":"Feature","properties":{"code":"1171092006","desa":"Ceurih","kecamatan":"Ulee Kareng","kecCode":"117109"},"geometry":{"type":"Polygon","coordinates":[[[95.35955212413126,5.541276679684754],[95.35238036985822,5.547052222086324],[95.35533441704979,5.551480580963501],[95.35983487817714,5.552166353593151],[95.35955212413126,5.541276679684754]]]}},{"type":"Feature","properties":{"code":"1171092007","desa":"Doy","kecamatan":"Ulee Kareng","kecCode":"117109"},"geometry":{"type":"Polygon","coordinates":[[[95.34427356976948,5.55678707655649],[95.35299326232928,5.558231671946779],[95.35421170970274,5.553887939274054],[95.34741127381129,5.552138713829446],[95.34427356976948,5.55678707655649]]]}},{"type":"Feature","properties":{"code":"1171092008","desa":"Lamglumpang","kecamatan":"Ulee Kareng","kecCode":"117109"},"geometry":{"type":"Polygon","coordinates":[[[95.35416663837968,5.546660355095645],[95.35068326102372,5.553858198694007],[95.35661482321558,5.5515303251637915],[95.35416663837968,5.546660355095645]]]}},{"type":"Feature","properties":{"code":"1171092009","desa":"Ie Masen Ulee Kareng","kecamatan":"Ulee Kareng","kecCode":"117109"},"geometry":{"type":"Polygon","coordinates":[[[95.35661899517055,5.5514274939832005],[95.35731581867013,5.5586346806382885],[95.35983487817714,5.552166353593151],[95.35661899517055,5.5514274939832005]]]}}]}