{"type":"FeatureCollection","features":[{"type":"Feature","properties":{"code":"1172012004","desa":"Krueng Raya","kecamatan":"Sukakarya","kecCode":"117201"},"geometry":{"type":"Polygon","coordinates":[[[95.3210131779159,5.856487277660251],[95.30150800419108,5.86237916175757],[95.30274045400883,5.873659069487899],[95.3133465761836,5.866938172342947],[95.32233070269984,5.8747615726648315],[95.3210131779159,5.856487277660251]]]}},{"type":"Feature","properties":{"code":"1172012004","desa":"Krueng Raya","kecamatan":"Sukakarya","kecCode":"117201"},"geometry":{"type":"Polygon","coordinates":[[[95.30773416629881,5.875228678736493],[95.31390932785324,5.874918217477994],[95.31325088472062,5.873275913330559],[95.30773416629881,5.875228678736493]]]}},{"type":"Feature","properties":{"code":"1172012005","desa":"Aneuk Laot","kecamatan":"Sukakarya","kecCode":"117201"},"geometry":{"type":"Polygon","coordinates":[[[95.32191430490133,5.8560961076441425],[95.32516654030366,5.864803563120198],[95.32203551372805,5.881295369455636],[95.3392164696644,5.863115387253264],[95.33608400777081,5.850131400944223],[95.32191430490133,5.8560961076441425]]]}},{"type":"Feature","properties":{"code":"1172012006","desa":"Kuta Timu","kecamatan":"Sukakarya","kecCode":"117201"},"geometry":{"type":"Polygon","coordinates":[[[95.32815682657633,5.878698590539991],[95.32203551372805,5.881295369455636],[95.3229687438125,5.891528763101675],[95.32662514443489,5.888315105020995],[95.32815682657633,5.878698590539991]]]}},{"type":"Feature","properties":{"code":"1172012007","desa":"Kuta Barat","kecamatan":"Sukakarya","kecCode":"117201"},"geometry":{"type":"Polygon","coordinates":[[[95.3229687438125,5.891528763101675],[95.31462113136018,5.885247847576034],[95.31005375707531,5.891078493238063],[95.31316714434831,5.895521709814874],[95.3229687438125,5.891528763101675]]]}},{"type":"Feature","properties":{"code":"1172012008","desa":"Kuta Ateuh","kecamatan":"Sukakarya","kecCode":"117201"},"geometry":{"type":"Polygon","coordinates":[[[95.32541584496533,5.890460931487593],[95.31594889222764,5.892958007064702],[95.31316714434831,5.895521709814874],[95.32235886137244,5.898805878341156],[95.32541584496533,5.890460931487593]]]}},{"type":"Feature","properties":{"code":"1172022004","desa":"Jaboi","kecamatan":"Sukajaya","kecCode":"117202"},"geometry":{"type":"Polygon","coordinates":[[[95.31411263758821,5.813883802332534],[95.34504509095824,5.813985868190048],[95.34220024124818,5.7881651847380144],[95.31030859256754,5.802567025096302],[95.31411263758821,5.813883802332534]]]}},{"type":"Feature","properties":{"code":"1172022005","desa":"Balohan","kecamatan":"Sukajaya","kecCode":"117202"},"geometry":{"type":"Polygon","coordinates":[[[95.32840000595557,5.851031243696869],[95.34998806799501,5.848815962588768],[95.37126099320032,5.8039722661539495],[95.35188307534372,5.828039771640989],[95.34434198029821,5.825851734594822],[95.34453586064154,5.814489944491624],[95.33085967873124,5.813213252527136],[95.32522199699763,5.834730197956438],[95.32840000595557,5.851031243696869]]]}},{"type":"Feature","properties":{"code":"1172022006","desa":"Cot Abeuk","kecamatan":"Sukajaya","kecCode":"117202"},"geometry":{"type":"Polygon","coordinates":[[[95.33608400777081,5.850131400944223],[95.33687895809747,5.86104416224826],[95.34940660593018,5.86730232312746],[95.34815295459525,5.8505281917231],[95.33608400777081,5.850131400944223]]]}},{"type":"Feature","properties":{"code":"1172022007","desa":"Cot Ba U","kecamatan":"Sukajaya","kecCode":"117202"},"geometry":{"type":"Polygon","coordinates":[[[95.35028346740812,5.848219265109719],[95.34624750881555,5.859987930989249],[95.35269718033067,5.862084041134559],[95.35984200620366,5.8514320841229575],[95.35028346740812,5.848219265109719]]]}},{"type":"Feature","properties":{"code":"1172022007","desa":"Cot Ba U","kecamatan":"Sukajaya","kecCode":"117202"},"geometry":{"type":"Polygon","coordinates":[[[95.33831251341184,5.864980589268855],[95.32573627790697,5.882546352500815],[95.32718484740285,5.8930717362298655],[95.34592936284984,5.868895163663061],[95.33831251341184,5.864980589268855]]]}},{"type":"Feature","properties":{"code":"1172022008","desa":"Ie Meulee","kecamatan":"Sukajaya","kecCode":"117202"},"geometry":{"type":"Polygon","coordinates":[[[95.33888338595955,5.883093617844301],[95.32056290265585,5.9000967634061485],[95.33666568117633,5.898068775107095],[95.34276168260563,5.887159431226857],[95.33888338595955,5.883093617844301]]]}},{"type":"Feature","properties":{"code":"1172022009","desa":"Ujoeng Kareung","kecamatan":"Sukajaya","kecCode":"117202"},"geometry":{"type":"Polygon","coordinates":[[[95.34940660593018,5.86730232312746],[95.33888338595955,5.883093617844301],[95.34333029155977,5.888976368426921],[95.35296500113395,5.878229394443917],[95.34940660593018,5.86730232312746]]]}},{"type":"Feature","properties":{"code":"1172022010","desa":"Anoe Itam","kecamatan":"Sukajaya","kecCode":"117202"},"geometry":{"type":"Polygon","coordinates":[[[95.37126099320032,5.8039722661539495],[95.35059634064866,5.842614330395371],[95.35985660759644,5.851612855947893],[95.34904062862215,5.869997353875835],[95.37422974430727,5.847073458677093],[95.37715069464888,5.821522570039839],[95.37126099320032,5.8039722661539495]]]}},{"type":"Feature","properties":{"code":"1172032001","desa":"Iboih","kecamatan":"Sukamakmue","kecCode":"117203"},"geometry":{"type":"Polygon","coordinates":[[[95.11046312077643,6.0586794995537705],[95.11143416285636,6.057960515860289],[95.11027304456542,6.058150591171855],[95.11046312077643,6.0586794995537705]]]}},{"type":"Feature","properties":{"code":"1172032001","desa":"Iboih","kecamatan":"Sukamakmue","kecCode":"117203"},"geometry":{"type":"Polygon","coordinates":[[[95.11168622034283,6.05860512112404],[95.11236801527171,6.057890269815314],[95.11166556021749,6.0580431572610225],[95.11168622034283,6.05860512112404]]]}},{"type":"Feature","properties":{"code":"1172032001","desa":"Iboih","kecamatan":"Sukamakmue","kecCode":"117203"},"geometry":{"type":"Polygon","coordinates":[[[95.11446838101101,6.060053650148973],[95.11468655833806,6.059795221865387],[95.11425280182539,6.059923731388354],[95.11446838101101,6.060053650148973]]]}},{"type":"Feature","properties":{"code":"1172032001","desa":"Iboih","kecamatan":"Sukamakmue","kecCode":"117203"},"geometry":{"type":"Polygon","coordinates":[[[95.1144234670694,6.061950940874464],[95.11441275974113,6.0615058726895645],[95.11424500830053,6.061929405708771],[95.1144234670694,6.061950940874464]]]}},{"type":"Feature","properties":{"code":"1172032001","desa":"Iboih","kecamatan":"Sukamakmue","kecCode":"117203"},"geometry":{"type":"Polygon","coordinates":[[[95.11384525785239,6.0624821515207925],[95.11396971323171,6.0626803279253485],[95.11400255017759,6.0624790245780655],[95.11384525785239,6.0624821515207925]]]}},{"type":"Feature","properties":{"code":"1172032001","desa":"Iboih","kecamatan":"Sukamakmue","kecCode":"117203"},"geometry":{"type":"Polygon","coordinates":[[[95.1141986077796,6.0627513464879454],[95.11436054780107,6.062444980742042],[95.1140725057416,6.062574679168783],[95.1141986077796,6.0627513464879454]]]}},{"type":"Feature","properties":{"code":"1172032001","desa":"Iboih","kecamatan":"Sukamakmue","kecCode":"117203"},"geometry":{"type":"Polygon","coordinates":[[[95.11371273105776,6.0628031078675475],[95.11380242763998,6.062973880130729],[95.11382266328535,6.062814528358169],[95.11371273105776,6.0628031078675475]]]}},{"type":"Feature","properties":{"code":"1172032001","desa":"Iboih","kecamatan":"Sukamakmue","kecCode":"117203"},"geometry":{"type":"Polygon","coordinates":[[[95.27472554794575,5.853078869592098],[95.27476944925074,5.830879884619001],[95.2616116527556,5.821354876156054],[95.2564340740733,5.844529079659682],[95.23948111426205,5.851116747639668],[95.22005281458576,5.875202842113391],[95.21643008458078,5.906974594945969],[95.23595677728349,5.8979807737470455],[95.2477133589844,5.876905698513451],[95.25096637589756,5.88269766883088],[95.25791199744076,5.8718953766495385],[95.26804863573601,5.870204525299451],[95.26768600030873,5.864862615303665],[95.26226766502076,5.866981494484452],[95.26345612989655,5.856900044895284],[95.27472554794575,5.853078869592098]]]}},{"type":"Feature","properties":{"code":"1172032001","desa":"Iboih","kecamatan":"Sukamakmue","kecCode":"117203"},"geometry":{"type":"Polygon","coordinates":[[[95.25891824528088,5.875341442929057],[95.25835341527794,5.879785766571247],[95.25441255459579,5.888053646921447],[95.25999735799171,5.882842722282167],[95.25891824528088,5.875341442929057]]]}},{"type":"Feature","properties":{"code":"1172032001","desa":"Iboih","kecamatan":"Sukamakmue","kecCode":"117203"},"geometry":{"type":"Polygon","coordinates":[[[95.25458794577712,5.8942415419706276],[95.2530443548132,5.895827471216321],[95.25325364144248,5.896702257058102],[95.25458794577712,5.8942415419706276]]]}},{"type":"Feature","properties":{"code":"1172032001","desa":"Iboih","kecamatan":"Sukamakmue","kecCode":"117203"},"geometry":{"type":"Polygon","coordinates":[[[95.1166432456893,6.055773981581332],[95.11689784825715,6.055300468739411],[95.11642147916797,6.055139558441828],[95.1166432456893,6.055773981581332]]]}},{"type":"Feature","properties":{"code":"1172032001","desa":"Iboih","kecamatan":"Sukamakmue","kecCode":"117203"},"geometry":{"type":"Polygon","coordinates":[[[95.11524722627854,6.059351471187269],[95.11512497423824,6.059465071749348],[95.11528053806643,6.05944070192062],[95.11524722627854,6.059351471187269]]]}},{"type":"Feature","properties":{"code":"1172032001","desa":"Iboih","kecamatan":"Sukamakmue","kecCode":"117203"},"geometry":{"type":"Polygon","coordinates":[[[95.11525584358235,6.059762503630083],[95.11520230604162,6.059997475796015],[95.11533912530045,6.059771426703378],[95.11525584358235,6.059762503630083]]]}},{"type":"Feature","properties":{"code":"1172032001","desa":"Iboih","kecamatan":"Sukamakmue","kecCode":"117203"},"geometry":{"type":"Polygon","coordinates":[[[95.1123443244311,6.075183305543328],[95.12011871710517,6.07280037461813],[95.11450202644745,6.070644698776503],[95.1123443244311,6.075183305543328]]]}},{"type":"Feature","properties":{"code":"1172032002","desa":"Batee Shok","kecamatan":"Sukamakmue","kecCode":"117203"},"geometry":{"type":"Polygon","coordinates":[[[95.33085967873124,5.813213252527136],[95.3142966379795,5.81396849418744],[95.30264370674172,5.802394325585975],[95.27195090381122,5.829091495497862],[95.27672061206664,5.847509289925237],[95.31287791788168,5.836184203852629],[95.31509781341344,5.823212448323459],[95.32619884689935,5.824925716174738],[95.33085967873124,5.813213252527136]]]}},{"type":"Feature","properties":{"code":"1172032003","desa":"Paya Seunara","kecamatan":"Sukamakmue","kecCode":"117203"},"geometry":{"type":"Polygon","coordinates":[[[95.30150800419108,5.86237916175757],[95.32840000595557,5.851031243696869],[95.32530793261502,5.822743911430403],[95.31611574974208,5.822416493454801],[95.31021937442466,5.829751439598386],[95.31287791788168,5.836184203852629],[95.30165027244219,5.837708256144301],[95.30150800419108,5.86237916175757]]]}},{"type":"Feature","properties":{"code":"1172032004","desa":"Paya","kecamatan":"Sukamakmue","kecCode":"117203"},"geometry":{"type":"Polygon","coordinates":[[[95.30937105023382,5.805613563959925],[95.3138295930613,5.798607715725582],[95.31073320927027,5.777206754061912],[95.28626940131186,5.780063053937361],[95.2656425400712,5.807303921582126],[95.26230346343415,5.821014299300282],[95.27195090381122,5.829091495497862],[95.27974149957059,5.826675617909609],[95.30264370674172,5.802394325585975],[95.30937105023382,5.805613563959925]]]}},{"type":"Feature","properties":{"code":"1172032005","desa":"Keunekai","kecamatan":"Sukamakmue","kecCode":"117203"},"geometry":{"type":"Polygon","coordinates":[[[95.31154471701511,5.801184409182658],[95.31663559925357,5.802495341934699],[95.31880156064358,5.794600801641742],[95.3317916335771,5.794673688096277],[95.32561828505591,5.772640886145911],[95.31073320927027,5.777206754061912],[95.31154471701511,5.801184409182658]]]}},{"type":"Feature","properties":{"code":"1172032006","desa":"Beurawang","kecamatan":"Sukamakmue","kecCode":"117203"},"geometry":{"type":"Polygon","coordinates":[[[95.33219111422858,5.793630257787242],[95.34195021533026,5.786328471446149],[95.32649046106599,5.772007173470914],[95.32834040338696,5.789155733112087],[95.33219111422858,5.793630257787242]]]}}]}