{"type":"FeatureCollection","features":[{"type":"Feature","properties":{"code":"1210011001","desa":"Padang Matinggi","kecamatan":"Rantau Utara","kecCode":"121001"},"geometry":{"type":"Polygon","coordinates":[[[99.84664761359653,2.104894543904541],[99.8143471555968,2.1067328840697304],[99.8135435412015,2.112745486862512],[99.80500127678754,2.1142207527316623],[99.80843868259915,2.119972685231049],[99.81453486299357,2.113533864043468],[99.83006798484968,2.1155326108860106],[99.8380638877383,2.1250354024960747],[99.83539707681369,2.116636431569549],[99.84664761359653,2.104894543904541]]]}},{"type":"Feature","properties":{"code":"1210011002","desa":"Siringo-Ringo","kecamatan":"Rantau Utara","kecCode":"121001"},"geometry":{"type":"Polygon","coordinates":[[[99.80487062507932,2.0973746099150437],[99.82135877208968,2.108434913992613],[99.82058340360122,2.084112621579594],[99.77780269343958,2.086660141029197],[99.78495104195706,2.1057219642527567],[99.79030487157263,2.098757510014287],[99.80487062507932,2.0973746099150437]]]}},{"type":"Feature","properties":{"code":"1210011003","desa":"Sirandorung","kecamatan":"Rantau Utara","kecCode":"121001"},"geometry":{"type":"Polygon","coordinates":[[[99.78020367286126,2.0835499931176416],[99.81717712602358,2.0826754662806635],[99.82865651058955,2.0979750539696655],[99.83198898260552,2.074882424373904],[99.8271976996142,2.068320347502833],[99.79086333077817,2.067401875294104],[99.78069416220586,2.074593208699454],[99.78020367286126,2.0835499931176416]]]}},{"type":"Feature","properties":{"code":"1210011004","desa":"Rantauprapat","kecamatan":"Rantau Utara","kecCode":"121001"},"geometry":{"type":"Polygon","coordinates":[[[99.82135877208968,2.108434913992613],[99.82754396288362,2.106847268840685],[99.83448817069257,2.1018857576813077],[99.8258629654036,2.098446946233109],[99.82135877208968,2.108434913992613]]]}},{"type":"Feature","properties":{"code":"1210011005","desa":"Kartini","kecamatan":"Rantau Utara","kecCode":"121001"},"geometry":{"type":"Polygon","coordinates":[[[99.83446632526072,2.102944024106],[99.83879222258305,2.095914313261257],[99.8352278585789,2.090478153416387],[99.82865651058955,2.0979750539696655],[99.83446632526072,2.102944024106]]]}},{"type":"Feature","properties":{"code":"1210011006","desa":"Cendana","kecamatan":"Rantau Utara","kecCode":"121001"},"geometry":{"type":"Polygon","coordinates":[[[99.82031213569655,2.095217130932953],[99.8217990073184,2.103166055927104],[99.82524290443654,2.1026666165300045],[99.8261176570043,2.097357042558186],[99.82031213569655,2.095217130932953]]]}},{"type":"Feature","properties":{"code":"1210011007","desa":"Binaraga","kecamatan":"Rantau Utara","kecCode":"121001"},"geometry":{"type":"Polygon","coordinates":[[[99.82691747895855,2.0922975808389728],[99.82031213569655,2.095217130932953],[99.82813715030932,2.0981176450771226],[99.82691747895855,2.0922975808389728]]]}},{"type":"Feature","properties":{"code":"1210011008","desa":"Pulo Padang","kecamatan":"Rantau Utara","kecCode":"121001"},"geometry":{"type":"Polygon","coordinates":[[[99.84664761359653,2.104894543904541],[99.83547528185879,2.116472714487848],[99.84015781343243,2.121608979209052],[99.83381907059366,2.130139683728017],[99.82599418908062,2.1287185525493535],[99.82457779732755,2.1394673764365777],[99.83424355869334,2.1599480699432316],[99.85549214464679,2.179816568853461],[99.86416457693372,2.1809814669937335],[99.86234371059385,2.189538297717459],[99.88280074026204,2.196193651371765],[99.92175202023958,2.1882529362885834],[99.92983849205284,2.1905138984597556],[99.93737559410846,2.2061288891818265],[99.96151152363795,2.208232517659149],[99.96298518961486,2.196619675513028],[99.92999160163116,2.1837869938441643],[99.88069532662809,2.150719192043004],[99.87686815464167,2.1384183838208024],[99.86914049703637,2.13661114131259],[99.88221373207811,2.1339300221772186],[99.88332941392137,2.1217820735217003],[99.87746547085486,2.1171146946303767],[99.86612142076699,2.1199954794476064],[99.85692314858447,2.1097506392316863],[99.84724512406329,2.1115823064273505],[99.84664761359653,2.104894543904541]]]}},{"type":"Feature","properties":{"code":"1210011009","desa":"Padang Bulan","kecamatan":"Rantau Utara","kecCode":"121001"},"geometry":{"type":"Polygon","coordinates":[[[99.8306445878775,2.0727409092574556],[99.83085556523218,2.093081692535553],[99.83283170941591,2.093470734755643],[99.84384563906501,2.080967302082122],[99.83567714728258,2.069600021619063],[99.8306445878775,2.0727409092574556]]]}},{"type":"Feature","properties":{"code":"1210011010","desa":"Aek Paing","kecamatan":"Rantau Utara","kecCode":"121001"},"geometry":{"type":"Polygon","coordinates":[[[99.82457779732755,2.1394673764365777],[99.82584787657828,2.123667549853274],[99.80502351792107,2.1252283439469566],[99.8086573095872,2.134412226067276],[99.82457779732755,2.1394673764365777]]]}},{"type":"Feature","properties":{"code":"1210021001","desa":"Bakaran Batu","kecamatan":"Rantau Selatan","kecCode":"121002"},"geometry":{"type":"Polygon","coordinates":[[[99.8352278585789,2.090478153416387],[99.84080381894113,2.0997270034605924],[99.84535572758482,2.0888100369277884],[99.85837597637025,2.091804685808442],[99.86260391593804,2.0768613060917405],[99.84680646264819,2.0661184905750636],[99.83651529384582,2.0671297620269713],[99.84385515659027,2.0811766939318885],[99.8352278585789,2.090478153416387]]]}},{"type":"Feature","properties":{"code":"1210021002","desa":"Sioldengan","kecamatan":"Rantau Selatan","kecCode":"121002"},"geometry":{"type":"Polygon","coordinates":[[[99.83551645462074,2.103195945794568],[99.8481909077842,2.105022470666783],[99.84781758931034,2.11178093069424],[99.85609803769434,2.1097962429532684],[99.85401973682144,2.0929444236158607],[99.84578403060857,2.0888100369277884],[99.83551645462074,2.103195945794568]]]}},{"type":"Feature","properties":{"code":"1210021003","desa":"Urung Kompas","kecamatan":"Rantau Selatan","kecCode":"121002"},"geometry":{"type":"Polygon","coordinates":[[[99.85609803769434,2.1097962429532684],[99.86680574908611,2.1202363214885973],[99.87746547085486,2.1171146946303767],[99.8877799626752,2.1222327166039396],[99.89451383794334,2.11702169753638],[99.88627642661584,2.099339785065612],[99.86919303003435,2.0886839843527056],[99.853720723033,2.092473811986956],[99.85609803769434,2.1097962429532684]]]}},{"type":"Feature","properties":{"code":"1210021004","desa":"Ujung Bandar","kecamatan":"Rantau Selatan","kecCode":"121002"},"geometry":{"type":"Polygon","coordinates":[[[99.84838187702208,2.0669556101115636],[99.86260391593804,2.0768613060917405],[99.86327317971352,2.0833473758608836],[99.86810856455867,2.068889796423056],[99.86164950771865,2.05805546949244],[99.84838187702208,2.0669556101115636]]]}},{"type":"Feature","properties":{"code":"1210021005","desa":"Sigambal","kecamatan":"Rantau Selatan","kecCode":"121002"},"geometry":{"type":"Polygon","coordinates":[[[99.88127505569935,2.0480974086875503],[99.87266460109053,2.0386988305160725],[99.85847190165696,2.041888162834371],[99.87054947208053,2.06144206090675],[99.88127505569935,2.0480974086875503]]]}},{"type":"Feature","properties":{"code":"1210021006","desa":"Lobusona","kecamatan":"Rantau Selatan","kecCode":"121002"},"geometry":{"type":"Polygon","coordinates":[[[99.84465467097635,2.065989383002946],[99.8555773680012,2.065147218269782],[99.85351802933364,2.0451985672823487],[99.87283116362737,2.03713314590912],[99.87196906721874,2.023198367557177],[99.8193674356587,2.034582602039454],[99.81553615916647,2.0253452768072453],[99.78489725530414,2.031318465012717],[99.78384758100111,2.0417468316770018],[99.79650631221658,2.041270940128359],[99.84465467097635,2.065989383002946]]]}},{"type":"Feature","properties":{"code":"1210021007","desa":"Pardamean","kecamatan":"Rantau Selatan","kecCode":"121002"},"geometry":{"type":"Polygon","coordinates":[[[99.85233237573863,2.0495128795332738],[99.86810856455867,2.068889796423056],[99.87070175698057,2.0618608455055054],[99.85847190165696,2.041888162834371],[99.85233237573863,2.0495128795332738]]]}},{"type":"Feature","properties":{"code":"1210021008","desa":"Danau Bale","kecamatan":"Rantau Selatan","kecCode":"121002"},"geometry":{"type":"Polygon","coordinates":[[[99.8716881738702,2.055557681652548],[99.86019395858439,2.0903839395395867],[99.86919303003435,2.0886839843527056],[99.88179281068972,2.0963639212238268],[99.88127505569935,2.0480974086875503],[99.8716881738702,2.055557681652548]]]}},{"type":"Feature","properties":{"code":"1210021009","desa":"Sidorejo","kecamatan":"Rantau Selatan","kecCode":"121002"},"geometry":{"type":"Polygon","coordinates":[[[99.87094662978318,2.038646482778469],[99.88124869657014,2.043581391991686],[99.88107795398444,2.0318060873180883],[99.87415159322148,2.031596877131431],[99.87094662978318,2.038646482778469]]]}},{"type":"Feature","properties":{"code":"1210081001","desa":"Negeri Lama","kecamatan":"Bilah Hilir","kecCode":"121008"},"geometry":{"type":"Polygon","coordinates":[[[100.10830304265134,2.302717392532317],[100.09890417129053,2.3028661080230144],[100.0948543298635,2.2952875256456555],[100.07815923805843,2.312132769140304],[100.08630758322846,2.3240448247241092],[100.09539188792536,2.3250226917579875],[100.10830304265134,2.302717392532317]]]}},{"type":"Feature","properties":{"code":"1210081002","desa":"Negeri Baru","kecamatan":"Bilah Hilir","kecCode":"121008"},"geometry":{"type":"Polygon","coordinates":[[[100.10830304265134,2.302717392532317],[100.09539188792536,2.3250226917579875],[100.06349347634288,2.322661157503185],[100.07080754383314,2.3549460014381562],[100.05734455340848,2.354885681210587],[100.05699380072338,2.375353305769309],[100.07079309982176,2.3757310974706383],[100.07082509320355,2.360452906451702],[100.12280848942032,2.319207588180178],[100.12896310866056,2.306421479702141],[100.12310238067037,2.3044334060136946],[100.12367345106895,2.2970094872429936],[100.10830304265134,2.302717392532317]]]}},{"type":"Feature","properties":{"code":"1210082003","desa":"Perkebunan Sennah","kecamatan":"Bilah Hilir","kecCode":"121008"},"geometry":{"type":"Polygon","coordinates":[[[100.07815923805843,2.312132769140304],[100.08052693267187,2.3042902591251044],[100.08862319540417,2.3069125958736234],[100.08445832978815,2.302414116857039],[100.09103190000224,2.293546478635853],[100.08445986043427,2.2875730763916775],[100.09783146624919,2.2738819432674595],[100.0901165394468,2.267392274411432],[100.09190928758363,2.259403710898825],[100.08346036380482,2.259203218740064],[100.09516372542565,2.2299357702383324],[100.091020684557,2.2159055279519384],[100.06647368031615,2.216510997418121],[100.05654428089387,2.2224898927213057],[100.05186814080213,2.230019727347152],[100.0562141325762,2.237597306081108],[100.04344873367216,2.2588879020419346],[100.04200095108307,2.272033916504467],[100.06207940484073,2.296773462870233],[100.06100412234241,2.30424740463099],[100.07815923805843,2.312132769140304]]]}},{"type":"Feature","properties":{"code":"1210082004","desa":"Perkebunan Negeri Lama","kecamatan":"Bilah Hilir","kecCode":"121008"},"geometry":{"type":"Polygon","coordinates":[[[100.08327933657216,2.320642079687189],[100.07520373936114,2.310919467688921],[100.04899299922761,2.318193460481516],[100.04885023185277,2.3358014729619185],[100.06345064702981,2.33598137963906],[100.06349347634288,2.322661157503185],[100.08327933657216,2.320642079687189]]]}},{"type":"Feature","properties":{"code":"1210082005","desa":"Perkebunan Bilah","kecamatan":"Bilah Hilir","kecCode":"121008"},"geometry":{"type":"Polygon","coordinates":[[[100.13118762580838,2.2563787152950985],[100.1088083663131,2.2555950163873923],[100.11824530867408,2.272769965732926],[100.10611243623997,2.2729936343201427],[100.10577931296496,2.282035586334666],[100.13134898306917,2.282306660884823],[100.13118762580838,2.2563787152950985]]]}},{"type":"Feature","properties":{"code":"1210082006","desa":"Kampung Bilah","kecamatan":"Bilah Hilir","kecCode":"121008"},"geometry":{"type":"Polygon","coordinates":[[[100.08562669841348,2.3000321841795994],[100.0948543298635,2.2952875256456555],[100.09890417129053,2.3028661080230144],[100.11508359633096,2.3026012217077794],[100.11955698336817,2.295486632848452],[100.12698090124762,2.3062180026934747],[100.15355737227496,2.306684484635608],[100.15108146763566,2.247190883352302],[100.1573036160691,2.1694407801531868],[100.07773450444385,2.171064090618803],[100.08737121141233,2.182368795354731],[100.08724152737464,2.2040936847229218],[100.09644907696338,2.222320149282568],[100.08346036380482,2.259203218740064],[100.09190928758363,2.259403710898825],[100.0901165394468,2.267392274411432],[100.09783146624919,2.2738819432674595],[100.0853964234063,2.285563558369078],[100.09103619426503,2.293625379756131],[100.08562669841348,2.3000321841795994]],[[100.13118762580838,2.2563787152950985],[100.13134898306917,2.282306660884823],[100.10577931296496,2.282035586334666],[100.10611243623997,2.2729936343201427],[100.11824530867408,2.272769965732926],[100.1088083663131,2.2555950163873923],[100.13118762580838,2.2563787152950985]]]}},{"type":"Feature","properties":{"code":"1210082007","desa":"Negeri Lama Seberang","kecamatan":"Bilah Hilir","kecCode":"121008"},"geometry":{"type":"Polygon","coordinates":[[[100.07520373936114,2.310919467688921],[100.06100412234241,2.30424740463099],[100.06207940484073,2.296773462870233],[100.05027356996935,2.2872562452351866],[100.03560603209274,2.253174748309146],[100.02328819699278,2.2516366683924027],[100.020454875692,2.276790199675122],[99.98678093798998,2.2745915092603837],[99.98524698506036,2.3195833923798075],[100.0593333600466,2.318006474341206],[100.07520373936114,2.310919467688921]]]}},{"type":"Feature","properties":{"code":"1210082008","desa":"Sei Tampang","kecamatan":"Bilah Hilir","kecCode":"121008"},"geometry":{"type":"Polygon","coordinates":[[[100.12896310866056,2.306421479702141],[100.118656047039,2.324614877988816],[100.07082509320355,2.360452906451702],[100.07079309982176,2.3757310974706383],[100.07660313122959,2.369735061089278],[100.08890494580669,2.3759573525080397],[100.09569830673155,2.3693519687838056],[100.1386020702294,2.3683814456137893],[100.13882375041578,2.3480585525489963],[100.15315762362546,2.3479157851744],[100.15355737227496,2.306684484635608],[100.12896310866056,2.306421479702141]]]}},{"type":"Feature","properties":{"code":"1210082009","desa":"Selat Besar","kecamatan":"Bilah Hilir","kecCode":"121008"},"geometry":{"type":"Polygon","coordinates":[[[100.12951392632668,2.472147996685396],[100.12680448034257,2.4533143755313676],[100.05488317641749,2.445235508394229],[100.04377347256774,2.454027617053436],[100.0490067633515,2.477785562400296],[100.06960388221346,2.459555442096491],[100.09483105001298,2.4903719422441046],[100.1151298169875,2.496906424317626],[100.12951392632668,2.472147996685396]]]}},{"type":"Feature","properties":{"code":"1210082010","desa":"Tanjung Haloban","kecamatan":"Bilah Hilir","kecCode":"121008"},"geometry":{"type":"Polygon","coordinates":[[[100.04349022209612,2.460748069033379],[100.04517735475116,2.450696371716385],[100.05488317641749,2.445235508394229],[100.12680448034257,2.4533143755313676],[100.12497208109669,2.4361429434342647],[100.13258594478562,2.4243808327143253],[100.1420719784391,2.4242393837457707],[100.14232821687375,2.4148170733648047],[100.06161465858968,2.417251007540882],[100.06436669286865,2.408167046394974],[100.00909638968669,2.409346107958096],[100.00872055580908,2.427175553311188],[100.01472861073688,2.4275324969288437],[100.01443111140674,2.445497497093731],[100.02047083326238,2.446114718900436],[100.02284666674034,2.4603877754410926],[100.04349022209612,2.460748069033379]]]}},{"type":"Feature","properties":{"code":"1210082011","desa":"Sidomulyo","kecamatan":"Bilah Hilir","kecCode":"121008"},"geometry":{"type":"Polygon","coordinates":[[[100.05679875395941,2.3841924112000354],[100.05734455340848,2.354885681210587],[100.07080754383314,2.3549460014381562],[100.07089082465187,2.349185405769482],[100.06345064702981,2.33598137963906],[100.04885023185277,2.3358014729619185],[100.04899299922761,2.318193460481516],[99.98524698506036,2.3195833923798075],[99.98407694369604,2.3675747195651065],[99.97935361078054,2.3680327757588966],[99.9832418314454,2.408413055041056],[100.01206446270486,2.409422446909897],[100.01706485605831,2.404814561769157],[100.01704819971468,2.4093700389177095],[100.04236850220467,2.409970831009917],[100.04323438655773,2.3839142023280777],[100.05679875395941,2.3841924112000354]]]}},{"type":"Feature","properties":{"code":"1210082012","desa":"Sei Tarolat","kecamatan":"Bilah Hilir","kecCode":"121008"},"geometry":{"type":"Polygon","coordinates":[[[100.07560084040652,2.375673803461795],[100.05699380072338,2.375353305769309],[100.05679875395941,2.3841924112000354],[100.04323438655773,2.3839142023280777],[100.04340095089321,2.407266232374622],[100.06436669286865,2.408167046394974],[100.08879790579878,2.3944700991536507],[100.14261105365728,2.3931931841574556],[100.14256226903353,2.384219750590175],[100.12202255569645,2.384355174100989],[100.12850125822655,2.3680007311157913],[100.09569830673155,2.3693519687838056],[100.08890494580669,2.3759573525080397],[100.07660313122959,2.369735061089278],[100.07560084040652,2.375673803461795]]]}},{"type":"Feature","properties":{"code":"1210082012","desa":"Sei Tarolat","kecamatan":"Bilah Hilir","kecCode":"121008"},"geometry":{"type":"Polygon","coordinates":[[[100.01206446270486,2.409422446909897],[100.01706485605831,2.404814561769157],[100.01218815096246,2.4048562012792005],[100.01206446270486,2.409422446909897]]]}},{"type":"Feature","properties":{"code":"1210082013","desa":"Sei Kasih","kecamatan":"Bilah Hilir","kecCode":"121008"},"geometry":{"type":"Polygon","coordinates":[[[100.06436669286865,2.408167046394974],[100.06161465858968,2.417251007540882],[100.12983305525137,2.4181091757098905],[100.12144086340516,2.415235520717819],[100.12121133123799,2.3957346376799],[100.08879790579878,2.3944700991536507],[100.06436669286865,2.408167046394974]]]}},{"type":"Feature","properties":{"code":"1210142001","desa":"Sidorukun","kecamatan":"Pangkatan","kecCode":"121014"},"geometry":{"type":"Polygon","coordinates":[[[99.97638841289499,2.1489231029267724],[99.95032502488004,2.124392672318862],[99.94439675240824,2.1102603291014344],[99.93199807904818,2.110390023930848],[99.92972846000049,2.1296874263626937],[99.94211501589535,2.1251653500350125],[99.95569549465141,2.138706557181049],[99.96331856739799,2.1387763850411847],[99.96761514142571,2.15047951282545],[99.97638841289499,2.1489231029267724]]]}},{"type":"Feature","properties":{"code":"1210142002","desa":"Tebing Tinggi Pangkatan","kecamatan":"Pangkatan","kecCode":"121014"},"geometry":{"type":"Polygon","coordinates":[[[100.10087478644232,2.1218792830401796],[100.10058574613532,2.1084657652353656],[100.07782439617898,2.0940038960314213],[100.05201160155423,2.0956525664793775],[100.04597261984061,2.116614462031338],[100.01019200405777,2.1146874675981464],[100.00032756356624,2.081945835513607],[99.99069369755613,2.072030037448899],[99.97296502031946,2.0738733427712086],[99.98717182382069,2.1069357747204154],[100.00614909280641,2.1240838190483013],[100.10087478644232,2.1218792830401796]]]}},{"type":"Feature","properties":{"code":"1210142003","desa":"Perkebunan Pangkatan","kecamatan":"Pangkatan","kecCode":"121014"},"geometry":{"type":"Polygon","coordinates":[[[99.92624573375366,2.1106061696891363],[99.96880560639367,2.1146826616212278],[99.96965112739768,2.1252010702072446],[99.98265250301067,2.1315589883836235],[99.98064074657327,2.0883416322352235],[99.97531779428084,2.082099910064388],[99.95871290177904,2.0822960135315354],[99.95515322773933,2.066068089869701],[99.9282016099164,2.0660020796316],[99.92624573375366,2.1106061696891363]]]}},{"type":"Feature","properties":{"code":"1210142004","desa":"Kampung Padang","kecamatan":"Pangkatan","kecCode":"121014"},"geometry":{"type":"Polygon","coordinates":[[[100.07773450444385,2.171064090618803],[100.1250028343134,2.170630142551057],[100.12419034360954,2.1284379271991023],[100.10806734743022,2.1336875658531484],[100.10818927481523,2.1218775662344136],[100.00614909280641,2.1240838190483013],[99.98717182382069,2.1069357747204154],[99.98103053343243,2.0927636832672203],[99.98112964771512,2.13261546965411],[99.96965112739768,2.1252010702072446],[99.96880560639367,2.1146826616212278],[99.94439675240824,2.1102603291014344],[99.95032502488004,2.124392672318862],[99.97244480658264,2.140132178674721],[99.98041684056476,2.1546028756238615],[100.00907748144066,2.1340715134138803],[100.0552369022613,2.1430175104641402],[100.07773450444385,2.171064090618803]]]}},{"type":"Feature","properties":{"code":"1210142005","desa":"Pangkatan","kecamatan":"Pangkatan","kecCode":"121014"},"geometry":{"type":"Polygon","coordinates":[[[100.06653760772444,2.1584337887857368],[100.05505285870254,2.142941229968283],[100.00128236658799,2.13601791341813],[99.99620605066876,2.1454779404663045],[99.97955459666734,2.1508342216278393],[99.97568678341838,2.170069070815575],[99.96677659376485,2.1680528744274294],[99.96119238841806,2.177335896011389],[99.95410862741129,2.1717685736435],[99.95351181391912,2.1881922293525617],[99.99936905983428,2.189368599244861],[99.99919956191029,2.2075485562641997],[100.02319940063187,2.2080060081136366],[100.0264257760288,2.1869160221227815],[100.04774764144054,2.1650072735570416],[100.05167375234186,2.1697186068132566],[100.06653760772444,2.1584337887857368]]]}},{"type":"Feature","properties":{"code":"1210142006","desa":"Sennah","kecamatan":"Pangkatan","kecCode":"121014"},"geometry":{"type":"Polygon","coordinates":[[[99.95462739683694,2.194586965773501],[99.98985936501775,2.1984739408730287],[99.9928336919214,2.234374057630487],[100.00270082408383,2.262290803560888],[100.02463671691099,2.2502480117327046],[100.03560603209274,2.253174748309146],[100.04448544784519,2.2650156477341024],[100.05654428089387,2.2224898927213057],[100.06647368031615,2.216510997418121],[100.091020684557,2.2159055279519384],[100.08737121141233,2.182368795354731],[100.06653760772444,2.1584337887857368],[100.05167375234186,2.1697186068132566],[100.04774764144054,2.1650072735570416],[100.0264257760288,2.1869160221227815],[100.02319940063187,2.2080060081136366],[99.99919956191029,2.2075485562641997],[99.99936905983428,2.189368599244861],[99.95351181391912,2.1881922293525617],[99.95462739683694,2.194586965773501]]]}},{"type":"Feature","properties":{"code":"1210142007","desa":"Tanjung Harapan","kecamatan":"Pangkatan","kecCode":"121014"},"geometry":{"type":"Polygon","coordinates":[[[99.97638841289499,2.1489231029267724],[99.96761514142571,2.15047951282545],[99.96331856739799,2.1387763850411847],[99.95569549465141,2.138706557181049],[99.94211501589535,2.1251653500350125],[99.92291708385642,2.128232464487347],[99.92546303309257,2.1395024823719533],[99.96119238841806,2.177335896011389],[99.96677659376485,2.1680528744274294],[99.97581527405572,2.1699548569158624],[99.97638841289499,2.1489231029267724]]]}},{"type":"Feature","properties":{"code":"1210181001","desa":"Labuhan Bilik","kecamatan":"Panai Tengah","kecCode":"121018"},"geometry":{"type":"Polygon","coordinates":[[[100.16268274900972,2.522063353239197],[100.17674991837406,2.516103702528369],[100.18364007063279,2.520623334498923],[100.18790302530441,2.516918574636141],[100.16367748642692,2.504682901611656],[100.1563146244204,2.5080845377845375],[100.16268274900972,2.522063353239197]]]}},{"type":"Feature","properties":{"code":"1210182002","desa":"Sei Pelancang","kecamatan":"Panai Tengah","kecCode":"121018"},"geometry":{"type":"Polygon","coordinates":[[[100.30812784172655,2.367863628570702],[100.30922416656209,2.362292525452949],[100.22567520594606,2.3618558056746326],[100.20459519521216,2.362656972114403],[100.20107702938144,2.367879013272945],[100.19042986034981,2.363065725675123],[100.17097572584913,2.3700896206041757],[100.17751975333401,2.3803594322953883],[100.19958038842422,2.3841707429346672],[100.21337570262665,2.394515435776569],[100.26062557930709,2.395291959893072],[100.26062576456748,2.3880932277651588],[100.2723977930238,2.38820360515702],[100.27233839639996,2.3688409757964584],[100.28104864787683,2.3682735314649905],[100.28171042839364,2.3852661387692975],[100.29044780881941,2.3852661387692975],[100.28987026330206,2.3676988332018842],[100.30812784172655,2.367863628570702]]]}},{"type":"Feature","properties":{"code":"1210182003","desa":"Sei Siarti","kecamatan":"Panai Tengah","kecCode":"121018"},"geometry":{"type":"Polygon","coordinates":[[[100.15676317568004,2.193883320916928],[100.15099283225344,2.253567363535746],[100.1881854735808,2.254376381056958],[100.1884829153543,2.272942493472673],[100.20064971741061,2.2729354994451234],[100.23126588101564,2.2945143002424464],[100.26731314308716,2.2993811532599846],[100.27245732004934,2.3049116555847458],[100.33550846584306,2.303876772432537],[100.36258476567446,2.247977340480779],[100.34714142223889,2.2425012363478927],[100.36023729231727,2.2193833987551654],[100.23795277839803,2.2196472193737082],[100.21118055643755,2.2140027756438605],[100.21076679994792,2.2021681633793446],[100.20267663282037,2.203595840723191],[100.2047597468649,2.193883407251814],[100.15676317568004,2.193883320916928]]]}},{"type":"Feature","properties":{"code":"1210182004","desa":"Sei Nahodaris","kecamatan":"Panai Tengah","kecCode":"121018"},"geometry":{"type":"Polygon","coordinates":[[[100.30955547770321,2.4947216823877216],[100.303597223633,2.466032461088656],[100.18745048824951,2.4644730411590383],[100.17736220739998,2.4697611483136868],[100.15365551708851,2.4661671642425094],[100.14646120781856,2.4767680154791774],[100.14838185843608,2.483204864453483],[100.16921723468766,2.485574250689151],[100.1824634759087,2.4939996814688623],[100.30955547770321,2.4947216823877216]]]}},{"type":"Feature","properties":{"code":"1210182005","desa":"Sei Merdeka","kecamatan":"Panai Tengah","kecCode":"121018"},"geometry":{"type":"Polygon","coordinates":[[[100.16268274900972,2.522063353239197],[100.1563146244204,2.5080845377845375],[100.14125106558424,2.5150930435148076],[100.12196605488957,2.547856644238553],[100.15247941699158,2.542848843174804],[100.15099225398937,2.5308087708964884],[100.16268274900972,2.522063353239197]]]}},{"type":"Feature","properties":{"code":"1210182006","desa":"Sei Rakyat","kecamatan":"Panai Tengah","kecCode":"121018"},"geometry":{"type":"Polygon","coordinates":[[[100.18745048824951,2.4644730411590383],[100.303597223633,2.466032461088656],[100.30063344937423,2.4282690812539465],[100.19738704897321,2.425759574348414],[100.18745048824951,2.4644730411590383]]]}},{"type":"Feature","properties":{"code":"1210182007","desa":"Selat Beting","kecamatan":"Panai Tengah","kecCode":"121018"},"geometry":{"type":"Polygon","coordinates":[[[100.20459519521216,2.362656972114403],[100.30922416656209,2.362292525452949],[100.33550846584306,2.303876772432537],[100.27245732004934,2.3049116555847458],[100.26731314308716,2.2993811532599846],[100.23126588101564,2.2945143002424464],[100.20064971741061,2.2729354994451234],[100.1884829153543,2.272942493472673],[100.18879323631886,2.2959136777202116],[100.20021786206472,2.3016776917119],[100.19055084164808,2.335131024780016],[100.21104685782625,2.341275898959862],[100.20459519521216,2.362656972114403]]]}},{"type":"Feature","properties":{"code":"1210182008","desa":"Bagan Bilah","kecamatan":"Panai Tengah","kecCode":"121018"},"geometry":{"type":"Polygon","coordinates":[[[100.30812784172655,2.367863628570702],[100.28987026330206,2.3676988332018842],[100.29044780881941,2.3852661387692975],[100.28171042839364,2.3852661387692975],[100.28104864787683,2.3682735314649905],[100.27233839639996,2.3688409757964584],[100.2723977930238,2.38820360515702],[100.26062576456748,2.3880932277651588],[100.26062557930709,2.395291959893072],[100.21337570262665,2.394515435776569],[100.20029536473936,2.4072212410913445],[100.18588716076391,2.4077923780390678],[100.19731112640744,2.4167748165180094],[100.19738704897321,2.425759574348414],[100.30063344937423,2.4282690812539465],[100.30812784172655,2.367863628570702]]]}},{"type":"Feature","properties":{"code":"1210182009","desa":"Telaga Suka","kecamatan":"Panai Tengah","kecCode":"121018"},"geometry":{"type":"Polygon","coordinates":[[[100.16367748642692,2.504682901611656],[100.18790302530441,2.516918574636141],[100.18364007063279,2.520623334498923],[100.19892122943126,2.5227805814559363],[100.3156258574474,2.521327843603921],[100.30955547770321,2.4947216823877216],[100.18268809687821,2.4940168135538303],[100.16921723468766,2.485574250689151],[100.14838185843608,2.483204864453483],[100.16871243443137,2.4979390339837084],[100.16367748642692,2.504682901611656]]]}},{"type":"Feature","properties":{"code":"1210182010","desa":"Pasar Tiga","kecamatan":"Panai Tengah","kecCode":"121018"},"geometry":{"type":"Polygon","coordinates":[[[100.3156258574474,2.521327843603921],[100.16852412179081,2.5178502264094735],[100.15099225398937,2.5308087708964884],[100.15247941699158,2.542848843174804],[100.14778995794029,2.543242735438737],[100.20481521525005,2.553549213389054],[100.21388128889042,2.550120183866698],[100.21378268722127,2.543180603077308],[100.31972086462628,2.538411611586738],[100.3156258574474,2.521327843603921]]]}},{"type":"Feature","properties":{"code":"1210191001","desa":"Sei Berombang","kecamatan":"Panai Hilir","kecCode":"121019"},"geometry":{"type":"Polygon","coordinates":[[[100.19338666666141,2.6189233763048194],[100.19355549009383,2.6052599719771012],[100.10824759674925,2.6046947678568855],[100.10476944535365,2.615857119805664],[100.19338666666141,2.6189233763048194]]]}},{"type":"Feature","properties":{"code":"1210192002","desa":"Sei Penggantungan","kecamatan":"Panai Hilir","kecCode":"121019"},"geometry":{"type":"Polygon","coordinates":[[[100.10476944535365,2.615857119805664],[100.1189950078134,2.548122464049971],[100.09620853979231,2.532141368316477],[100.07297257622349,2.546553596742306],[100.05958341744082,2.6334283724975784],[100.05764007602873,2.6791253061142486],[100.06449303862291,2.6966506511138033],[100.05235302916901,2.712999926594632],[100.05955076305729,2.734117099091106],[100.09923362533158,2.705184791942405],[100.10782350704926,2.664258279738317],[100.10476944535365,2.615857119805664]]]}},{"type":"Feature","properties":{"code":"1210192003","desa":"Sei Lumut","kecamatan":"Panai Hilir","kecCode":"121019"},"geometry":{"type":"Polygon","coordinates":[[[100.14778995794029,2.543242735438737],[100.11673451958245,2.5502044935097605],[100.11268943556905,2.5764975368702463],[100.19353092421282,2.5789444383708813],[100.2139242297195,2.5502922421603906],[100.20481521525005,2.553549213389054],[100.14778995794029,2.543242735438737]]]}},{"type":"Feature","properties":{"code":"1210192004","desa":"Sei Tawar","kecamatan":"Panai Hilir","kecCode":"121019"},"geometry":{"type":"Polygon","coordinates":[[[100.31972086462628,2.538411611586738],[100.21378268722127,2.543180603077308],[100.20292402462411,2.6050412901306568],[100.1935594012454,2.6095734010938276],[100.19327449332326,2.6249960439176427],[100.21783394508053,2.626180218126693],[100.2340362317867,2.642919887508604],[100.27119342363767,2.6124019667765075],[100.27296463930674,2.5953993599103153],[100.2957107466537,2.5675723834069593],[100.32051663603397,2.55091011597554],[100.31972086462628,2.538411611586738]]]}},{"type":"Feature","properties":{"code":"1210192005","desa":"Sei Sanggul","kecamatan":"Panai Hilir","kecCode":"121019"},"geometry":{"type":"Polygon","coordinates":[[[100.10824759674925,2.6046947678568855],[100.19355549009383,2.6052599719771012],[100.1935594012454,2.6095734010938276],[100.20292402462411,2.6050412901306568],[100.2089708619158,2.5584167678777465],[100.19353092421282,2.5789444383708813],[100.11268943556905,2.5764975368702463],[100.10824759674925,2.6046947678568855]]]}},{"type":"Feature","properties":{"code":"1210192006","desa":"Sei Sakat","kecamatan":"Panai Hilir","kecCode":"121019"},"geometry":{"type":"Polygon","coordinates":[[[100.19338666666141,2.6189233763048194],[100.10476944535365,2.615857119805664],[100.10317540961749,2.621638425961651],[100.1310243233139,2.6287109769114325],[100.19327449332326,2.6249960439176427],[100.19338666666141,2.6189233763048194]]]}},{"type":"Feature","properties":{"code":"1210192007","desa":"Sei Baru","kecamatan":"Panai Hilir","kecCode":"121019"},"geometry":{"type":"Polygon","coordinates":[[[100.10317540961749,2.621638425961651],[100.10782350704926,2.664258279738317],[100.09923362533158,2.705184791942405],[100.13840652434168,2.687574932254384],[100.17735830344297,2.7108231796376856],[100.1840569783469,2.7001933225670802],[100.17424179642182,2.6718149636238895],[100.15007727564578,2.6570649723209785],[100.14303663533252,2.6253529632537016],[100.1236682197126,2.6281410963165026],[100.10317540961749,2.621638425961651]]]}},{"type":"Feature","properties":{"code":"1210192008","desa":"Wonosari","kecamatan":"Panai Hilir","kecCode":"121019"},"geometry":{"type":"Polygon","coordinates":[[[100.2340362317867,2.642919887508604],[100.21783394508053,2.626180218126693],[100.14310801991923,2.625876444226989],[100.15007727564578,2.6570649723209785],[100.17424179642182,2.6718149636238895],[100.1840569783469,2.7001933225670802],[100.17801758564315,2.7111020710950227],[100.22027277336984,2.7045218459050155],[100.22164077979824,2.6778269899512974],[100.23302053476992,2.658818702469578],[100.2340362317867,2.642919887508604]]]}},{"type":"Feature","properties":{"code":"1210202001","desa":"Tanjung Sarang Elang","kecamatan":"Panai Hulu","kecCode":"121020"},"geometry":{"type":"Polygon","coordinates":[[[100.12951392632668,2.472147996685396],[100.11693786439099,2.4907876781411367],[100.11905884978614,2.5002057787956007],[100.14125106558424,2.5150930435148076],[100.16874091056461,2.5022724856064333],[100.12951392632668,2.472147996685396]]]}},{"type":"Feature","properties":{"code":"1210202002","desa":"Perkebunan Ajamu","kecamatan":"Panai Hulu","kecCode":"121020"},"geometry":{"type":"Polygon","coordinates":[[[100.15426871892628,2.253600038603579],[100.15315762362546,2.3479157851744],[100.13882375041578,2.3480585525489963],[100.1386020702294,2.3683814456137893],[100.12850125822655,2.3680007311157913],[100.12783069672935,2.3775072144429275],[100.12201708691906,2.3775941887772096],[100.12202255569645,2.384355174100989],[100.14256226903353,2.384219750590175],[100.14261105365728,2.3931931841574556],[100.1212551956708,2.393418849239594],[100.12103240572098,2.4112032961147345],[100.14232821687375,2.4148170733648047],[100.14207817566734,2.4231444807396256],[100.15197916730477,2.4234309498845508],[100.151891535566,2.440431346217122],[100.14280212182051,2.440367345064483],[100.13824419491374,2.452887958386362],[100.16060346697645,2.4545673289910437],[100.16259918670316,2.4655863712739117],[100.16274883658957,2.458795121065349],[100.18252810838554,2.4591366341153913],[100.19733587395147,2.4168290681203697],[100.16696743040266,2.4010869033685056],[100.16711526455788,2.370421081931696],[100.15329382325137,2.3700425042228765],[100.15195892086756,2.4202915380336143],[100.14762631190484,2.4200120197488166],[100.14609859577364,2.3581301167892663],[100.1648714272746,2.358652923271024],[100.16811032573099,2.348096033593927],[100.17514098626754,2.3481260061990405],[100.16931593977887,2.367460644160966],[100.19042986034981,2.363065725675123],[100.20306946208609,2.3676678704431833],[100.21104685782625,2.341275898959862],[100.19055084164808,2.335131024780016],[100.20021786206472,2.3016776917119],[100.18879323631886,2.2959136777202116],[100.1881854735808,2.254376381056958],[100.15426871892628,2.253600038603579]]]}},{"type":"Feature","properties":{"code":"1210202003","desa":"Teluk Sentosa","kecamatan":"Panai Hulu","kecCode":"121020"},"geometry":{"type":"Polygon","coordinates":[[[100.1668007149811,2.4666593128357572],[100.18574743399694,2.467180946601583],[100.19477555804565,2.43185278517483],[100.18252810838554,2.4591366341153913],[100.16274883658957,2.458795121065349],[100.1668007149811,2.4666593128357572]]]}},{"type":"Feature","properties":{"code":"1210202003","desa":"Teluk Sentosa","kecamatan":"Panai Hulu","kecCode":"121020"},"geometry":{"type":"Polygon","coordinates":[[[100.14646120781856,2.4767680154791774],[100.16051894059672,2.4652870328305356],[100.16054560909265,2.4572805323396647],[100.1365659844327,2.47772854897998],[100.14838185843608,2.483204864453483],[100.14646120781856,2.4767680154791774]]]}},{"type":"Feature","properties":{"code":"1210202004","desa":"Cinta Makmur","kecamatan":"Panai Hulu","kecCode":"121020"},"geometry":{"type":"Polygon","coordinates":[[[100.12497208109669,2.4361429434342647],[100.12673372438194,2.470301574312965],[100.1365659844327,2.47772854897998],[100.14900865172797,2.4624714452642844],[100.13436306090658,2.4514493344946002],[100.13844080290079,2.424174945522641],[100.12497208109669,2.4361429434342647]]]}},{"type":"Feature","properties":{"code":"1210202005","desa":"Sei Sentosa","kecamatan":"Panai Hulu","kecCode":"121020"},"geometry":{"type":"Polygon","coordinates":[[[100.14207817566734,2.4231444807396256],[100.13230115737257,2.439963438849663],[100.13555469859051,2.4537219132086663],[100.14900865172797,2.4624714452642844],[100.16060346697645,2.4545673289910437],[100.13824419491374,2.452887958386362],[100.14280212182051,2.440367345064483],[100.151891535566,2.440431346217122],[100.15197916730477,2.4234309498845508],[100.14207817566734,2.4231444807396256]]]}},{"type":"Feature","properties":{"code":"1210202006","desa":"Meranti Paham","kecamatan":"Panai Hulu","kecCode":"121020"},"geometry":{"type":"Polygon","coordinates":[[[100.21337570262665,2.394515435776569],[100.19958038842422,2.3841707429346672],[100.17751975333401,2.3803594322953883],[100.16931593977887,2.367460644160966],[100.17514098626754,2.3481260061990405],[100.16811032573099,2.348096033593927],[100.1648714272746,2.358652923271024],[100.14609859577364,2.3581301167892663],[100.14762631190484,2.4200120197488166],[100.15195892086756,2.4202915380336143],[100.15329382325137,2.3700425042228765],[100.16711526455788,2.370421081931696],[100.1668816530659,2.4009433832613056],[100.1736379502313,2.405360251500327],[100.20029536473936,2.4072212410913445],[100.21337570262665,2.394515435776569]]]}},{"type":"Feature","properties":{"code":"1210202007","desa":"Sei Jawi-Jawi","kecamatan":"Panai Hulu","kecCode":"121020"},"geometry":{"type":"Polygon","coordinates":[[[100.14125106558424,2.5150930435148076],[100.09483105001298,2.4903719422441046],[100.06960388221346,2.459555442096491],[100.0490067633515,2.477785562400296],[100.04349022209612,2.460748069033379],[100.0277150845835,2.4595170086695473],[100.03741997904889,2.483398675548828],[100.01585585876091,2.485577248129534],[100.01544918263374,2.4942725798441514],[100.05515521144389,2.514452220799756],[100.07297257622349,2.546553596742306],[100.09620853979231,2.532141368316477],[100.12196605488957,2.547856644238553],[100.14125106558424,2.5150930435148076]]]}},{"type":"Feature","properties":{"code":"1210072001","desa":"Sibargot","kecamatan":"Bilah Barat","kecCode":"121007"},"geometry":{"type":"Polygon","coordinates":[[[99.73714455957382,2.0441142465986752],[99.73925752031833,2.0324297428746485],[99.75230942434051,2.019006983636523],[99.74914690980209,2.0060757299763794],[99.74194638531746,2.001731157337278],[99.7329108202782,1.9755094149266932],[99.72248238435463,1.9749107605229916],[99.7093519200551,1.9632001710638243],[99.70798382639254,1.9489776600194815],[99.70111385222253,1.9428228708141349],[99.70871558855362,1.9691041015792954],[99.69209072480713,1.9713071276256429],[99.68381542414254,1.9825977984409788],[99.69210713293789,2.013348375584475],[99.69929772441048,2.012136317895522],[99.7052836928882,2.029030605917818],[99.71931299359983,2.0287191338214043],[99.73714455957382,2.0441142465986752]]]}},{"type":"Feature","properties":{"code":"1210072002","desa":"Bandar Kumbul","kecamatan":"Bilah Barat","kecCode":"121007"},"geometry":{"type":"Polygon","coordinates":[[[99.74829384798278,2.0050510010694103],[99.74825632107239,2.005116289151908],[99.74835435526931,2.005145922712628],[99.74829384798278,2.0050510010694103]]]}},{"type":"Feature","properties":{"code":"1210072002","desa":"Bandar Kumbul","kecamatan":"Bilah Barat","kecCode":"121007"},"geometry":{"type":"Polygon","coordinates":[[[99.76812267422206,2.1040916264846703],[99.7872941383139,2.068353659290645],[99.8271976996142,2.068320347502833],[99.8306445878775,2.0727409092574556],[99.84465467097635,2.065989383002946],[99.79650631221658,2.041270940128359],[99.78384758100111,2.0417468316770018],[99.78489725530414,2.031318465012717],[99.77643611063803,2.018891664470035],[99.74914690980209,2.0060757299763794],[99.75230942434051,2.019006983636523],[99.73862934296989,2.033743204520203],[99.73530273543297,2.0547795594408305],[99.75814556126868,2.061132721102879],[99.7570391118656,2.0864382872739164],[99.76812267422206,2.1040916264846703]]]}},{"type":"Feature","properties":{"code":"1210072003","desa":"Tanjung Medan","kecamatan":"Bilah Barat","kecCode":"121007"},"geometry":{"type":"Polygon","coordinates":[[[99.73714455957382,2.0441142465986752],[99.71931299359983,2.0287191338214043],[99.7052836928882,2.029030605917818],[99.69559827144313,2.012067538644808],[99.69113793177017,2.0166271904462834],[99.69516951875835,2.0273501156572875],[99.68787129282595,2.033768912540118],[99.66624704836266,2.0349323861542965],[99.66347672636986,2.0273659886913435],[99.65642493356387,2.0268003466012994],[99.63020006238304,2.045237261512635],[99.66943214937423,2.0663951004523904],[99.68121044880324,2.057782637667005],[99.70612340607039,2.0685615960373616],[99.70580217722873,2.073237237000227],[99.742181361081,2.075589929120643],[99.76018841176585,2.0920434252345177],[99.75871663166726,2.06223916960546],[99.73530273543297,2.0547795594408305],[99.73714455957382,2.0441142465986752]]]}},{"type":"Feature","properties":{"code":"1210092001","desa":"Lingga Tiga","kecamatan":"Bilah Hulu","kecCode":"121009"},"geometry":{"type":"Polygon","coordinates":[[[99.90877870617243,1.984135287503158],[99.88691430764923,1.9677510589719467],[99.87477683788082,1.9684556723983213],[99.87819136493958,1.9889309348990678],[99.87281854164246,2.031125916565588],[99.88107795398444,2.0318060873180883],[99.88095877762554,2.011621854424345],[99.9120834143182,2.011274683739362],[99.90877870617243,1.984135287503158]]]}},{"type":"Feature","properties":{"code":"1210092002","desa":"Tanjung Siram","kecamatan":"Bilah Hulu","kecCode":"121009"},"geometry":{"type":"Polygon","coordinates":[[[99.83736290307559,1.802706051833049],[99.84029974893433,1.8213223563113663],[99.82956462260931,1.82613630041425],[99.83040004692468,1.8315132282112283],[99.84786165339266,1.8351862653880961],[99.84414277686773,1.8487242763435638],[99.8317061566139,1.8596714879760081],[99.83678359578634,1.8678511826041468],[99.83119769611682,1.8830849210336071],[99.83345112826703,1.9007715837233712],[99.86117967670076,1.9088959925288125],[99.87232424726626,1.9021822674778415],[99.87402273386215,1.8936865726667667],[99.86507500021116,1.8869416645232278],[99.87286393582205,1.883657145261724],[99.87480676641916,1.8662371108739015],[99.86793607189225,1.8631884262282101],[99.8750744550221,1.8571921848014068],[99.88241356503408,1.823393265654059],[99.8632421369151,1.8133688492714046],[99.86104092839615,1.794944710129092],[99.85089631761103,1.7937003775705957],[99.83736290307559,1.802706051833049]]]}},{"type":"Feature","properties":{"code":"1210092007","desa":"Bandar Tinggi","kecamatan":"Bilah Hulu","kecCode":"121009"},"geometry":{"type":"Polygon","coordinates":[[[99.78489725530414,2.031318465012717],[99.81553615916647,2.0253452768072453],[99.8193674356587,2.034582602039454],[99.85589382504001,2.030519175458024],[99.87058473359866,2.022927542119203],[99.87819136493958,1.9889309348990678],[99.87477683788082,1.9684556723983213],[99.83209590660084,1.9521264410074692],[99.8359327346081,1.9616498405821643],[99.85024989661548,1.962940388401263],[99.85568812130981,1.9725319907612324],[99.85202004658795,1.993591551787915],[99.83896654536981,1.993595399087602],[99.8524436830296,2.000710882772348],[99.79705097402329,2.017393888570077],[99.79242136125686,2.02420992319483],[99.76535373089001,2.0040944623571666],[99.74902136084717,2.003659336177495],[99.77643611063803,2.018891664470035],[99.78489725530414,2.031318465012717]]]}},{"type":"Feature","properties":{"code":"1210092008","desa":"Kampung Dalam","kecamatan":"Bilah Hulu","kecCode":"121009"},"geometry":{"type":"Polygon","coordinates":[[[99.88829235231024,1.9363564494330319],[99.87232561963168,1.901433945201457],[99.86117967670076,1.9088959925288125],[99.83661196107322,1.9027731580343803],[99.82911846174767,1.9098335186737165],[99.83144767077344,1.9162498945816013],[99.84098721139077,1.9129039282420204],[99.84608240857636,1.919491662771078],[99.83886954539325,1.9478930911229246],[99.83209590660084,1.9521264410074692],[99.88276856341855,1.9679938435485467],[99.88829235231024,1.9363564494330319]]]}},{"type":"Feature","properties":{"code":"1210092010","desa":"Meranti","kecamatan":"Bilah Hulu","kecCode":"121009"},"geometry":{"type":"Polygon","coordinates":[[[100.04337241810265,2.0399395316121858],[100.04877187392293,2.019316267682426],[100.04541535943133,2.0133629706819334],[100.03897862466386,2.0170213399163],[100.02921171564822,1.9996359150380116],[100.05998647469613,1.9873560340398093],[100.04214722221661,1.948391664472836],[100.03723578800128,1.9480027724395668],[100.00069916433499,1.9844732662175795],[99.99145687843225,1.986327706945353],[100.02516462974391,2.022274368115176],[100.0251900751619,2.0423467424336392],[100.03873299373271,2.0349740490466415],[100.04337241810265,2.0399395316121858]]]}},{"type":"Feature","properties":{"code":"1210092012","desa":"N-2 Aek Nabara","kecamatan":"Bilah Hulu","kecCode":"121009"},"geometry":{"type":"Polygon","coordinates":[[[99.88095877762554,2.011621854424345],[99.88144551499857,2.0658722184276073],[99.91304873041463,2.063577376097028],[99.89433468489783,2.024949427618569],[99.93114842386073,2.0184762936977663],[99.93114323836983,2.0110939811622215],[99.88095877762554,2.011621854424345]]]}},{"type":"Feature","properties":{"code":"1210092013","desa":"N-3 Aek Nabara","kecamatan":"Bilah Hulu","kecCode":"121009"},"geometry":{"type":"Polygon","coordinates":[[[99.93114323836983,2.0110939811622215],[99.93114842386073,2.0184762936977663],[99.89433468489783,2.024949427618569],[99.89902121575652,2.03837635971099],[99.91548899941785,2.038571000880565],[99.91545887122997,2.0430035937655093],[99.93680746809024,2.038621041857128],[99.93114323836983,2.0110939811622215]]]}},{"type":"Feature","properties":{"code":"1210092015","desa":"N-5 Aek Nabara","kecamatan":"Bilah Hulu","kecCode":"121009"},"geometry":{"type":"Polygon","coordinates":[[[99.93389113127073,2.011348254577895],[99.93680746809024,2.038621041857128],[99.94293503932066,2.038719237032545],[99.94307074881607,2.047584241139452],[99.95624102610252,2.0454446523708105],[99.95592854856373,2.011346532376177],[99.93389113127073,2.011348254577895]]]}},{"type":"Feature","properties":{"code":"1210092017","desa":"N-7 Aek Nabara","kecamatan":"Bilah Hulu","kecCode":"121009"},"geometry":{"type":"Polygon","coordinates":[[[99.95592854856373,2.011346532376177],[99.95613784598487,2.034009171820445],[99.99245544786066,2.0295580250223204],[99.99214709731075,2.0111445230611196],[99.95592854856373,2.011346532376177]]]}},{"type":"Feature","properties":{"code":"1210092019","desa":"S-1 Aek Nabara","kecamatan":"Bilah Hulu","kecCode":"121009"},"geometry":{"type":"Polygon","coordinates":[[[99.94269573512014,1.967816258021563],[99.91264999979774,1.9658972198906208],[99.91238746161213,1.9846606615493851],[99.9064362690187,1.9880910220683001],[99.91237543677704,1.9916399222260113],[99.9120834143182,2.011274683739362],[99.94278210960675,1.9930342554063727],[99.94269573512014,1.967816258021563]]]}},{"type":"Feature","properties":{"code":"1210092020","desa":"S-2 Aek Nabara","kecamatan":"Bilah Hulu","kecCode":"121009"},"geometry":{"type":"Polygon","coordinates":[[[99.91587497944681,2.0113185769504573],[99.97402206276803,2.0111675726851623],[99.97395305508944,1.9929165440432615],[99.95579512064836,1.9930733921031722],[99.9557775829691,1.9839932557739328],[99.94290529514329,1.9840102313769017],[99.94278210960675,1.9930342554063727],[99.91587497944681,2.0113185769504573]]]}},{"type":"Feature","properties":{"code":"1210092021","desa":"S-3 Aek Nabara","kecamatan":"Bilah Hulu","kecCode":"121009"},"geometry":{"type":"Polygon","coordinates":[[[99.95949634258221,1.9269612059477002],[99.94376555603564,1.9446867481281307],[99.95274802060469,1.955096890031169],[99.94853637495379,1.9605220610599798],[99.95317632362851,1.9674462931199928],[99.94269573512014,1.967816258021563],[99.94290529514329,1.9840102313769017],[99.9557775829691,1.9839932557739328],[99.95579512064836,1.9930733921031722],[99.97395305508944,1.9929165440432615],[99.9788259371673,1.948535695395057],[99.96324166726919,1.9484333309624995],[99.96965821855201,1.9530142850052803],[99.96908069281977,1.9613571742090024],[99.95597337796909,1.9521197455548134],[99.96726666672333,1.9381916644541708],[99.9661746883113,1.9286641495817685],[99.95949634258221,1.9269612059477002]]]}},{"type":"Feature","properties":{"code":"1210092022","desa":"S-4 Aek Nabara","kecamatan":"Bilah Hulu","kecCode":"121009"},"geometry":{"type":"Polygon","coordinates":[[[100.02294687729659,2.020085581034727],[99.99782907425241,1.9932243361138484],[99.97394829857518,1.9932835438800407],[99.97402206276803,2.0111675726851623],[99.99214709731075,2.0111445230611196],[99.99245544786066,2.0295580250223204],[100.02294687729659,2.020085581034727]]]}},{"type":"Feature","properties":{"code":"1210092023","desa":"S-5 Aek Nabara","kecamatan":"Bilah Hulu","kecCode":"121009"},"geometry":{"type":"Polygon","coordinates":[[[100.00539532333555,1.950407743949126],[99.9788259371673,1.948535695395057],[99.97394829857518,1.9932835438800407],[99.99782907425241,1.9932243361138484],[99.99149019022018,1.9861183141963152],[100.00611571536803,1.9790374930811083],[99.99826811967802,1.9637523799805603],[100.00539532333555,1.950407743949126]]]}},{"type":"Feature","properties":{"code":"1210092024","desa":"S-6 Aek Nabara","kecamatan":"Bilah Hulu","kecCode":"121009"},"geometry":{"type":"Polygon","coordinates":[[[99.99777424438592,1.9363381446321537],[99.99808981739125,1.9485045132017405],[100.00539532333555,1.950407743949126],[99.99826811967802,1.9637523799805603],[100.00611571536803,1.9790374930811083],[100.03724029989995,1.9480236214225137],[100.03723888886366,1.9363416645785976],[99.99777424438592,1.9363381446321537]]]}},{"type":"Feature","properties":{"code":"1210072004","desa":"Janji","kecamatan":"Bilah Barat","kecCode":"121007"},"geometry":{"type":"Polygon","coordinates":[[[99.78325572277345,2.1100269424402174],[99.77780269343958,2.086660141029197],[99.76907921833133,2.1042629482336177],[99.75316973109828,2.0898067438591656],[99.75898926294416,2.111789333060106],[99.75091245974225,2.114953232550962],[99.7361205483247,2.0963099879814524],[99.7340437520176,2.074855175815307],[99.70580217722873,2.073237237000227],[99.70612340607039,2.0685615960373616],[99.68121044880324,2.057782637667005],[99.66993015705116,2.0645206561043454],[99.67296600297873,2.0757570249553288],[99.71712493856512,2.0901920772752027],[99.73188781716907,2.1182911373677507],[99.76349556696692,2.134717643028327],[99.76243075887248,2.144475019219554],[99.7700200261034,2.153482793399088],[99.76970974830628,2.1352543845051963],[99.78010650561082,2.137594187542129],[99.78459416938547,2.13079130820022],[99.78630976108667,2.1361974441785945],[99.79693994642145,2.116945618488633],[99.78325572277345,2.1100269424402174]]]}},{"type":"Feature","properties":{"code":"1210072005","desa":"Tebing Linggahara","kecamatan":"Bilah Barat","kecCode":"121007"},"geometry":{"type":"Polygon","coordinates":[[[99.88179281068972,2.0963639212238268],[99.91124778585667,2.1339987663543547],[99.9334436070369,2.1175909288207615],[99.93199807904818,2.110390023930848],[99.92624573375366,2.1106061696891363],[99.9282016099164,2.0660020796316],[99.90721670158956,2.0632771581166733],[99.90355785391186,2.082411357879083],[99.88170736070616,2.0883224640851186],[99.88179281068972,2.0963639212238268]]]}},{"type":"Feature","properties":{"code":"1210072006","desa":"AFD.I Rantauprapat","kecamatan":"Bilah Barat","kecCode":"121007"},"geometry":{"type":"Polygon","coordinates":[[[99.83692549801337,2.124591952191568],[99.83006798484968,2.1155326108860106],[99.81453486299357,2.113533864043468],[99.80828493270354,2.1199314585098517],[99.80500127678754,2.1142207527316623],[99.8135435412015,2.112745486862512],[99.8143471555968,2.1067328840697304],[99.80594462784232,2.097587164680395],[99.79030487157263,2.098757510014287],[99.78325572277345,2.1100269424402174],[99.80379743440413,2.124984669041557],[99.82584787657828,2.123667549853274],[99.83291487602075,2.13085352150059],[99.83692549801337,2.124591952191568]]]}},{"type":"Feature","properties":{"code":"1210072007","desa":"AFD.II Rantauprapat","kecamatan":"Bilah Barat","kecCode":"121007"},"geometry":{"type":"Polygon","coordinates":[[[99.85773915743624,2.1809311067578565],[99.83424355869334,2.1599480699432316],[99.82457779732755,2.1394673764365777],[99.80409079055761,2.130218310555124],[99.80502351792107,2.1252283439469566],[99.79777179593168,2.116626083070779],[99.79008001677941,2.1216601290496846],[99.78630976108667,2.1361974441785945],[99.78459416938547,2.13079130820022],[99.78010650561082,2.137594187542129],[99.76970974830628,2.1352543845051963],[99.77112283055425,2.1880413159188037],[99.85773915743624,2.1809311067578565]],[[99.77963620244883,2.1606946907023654],[99.78129567735367,2.147495027183239],[99.78422241483264,2.146900161623293],[99.7853469082333,2.1593241203083613],[99.77963620244883,2.1606946907023654]],[[99.80622183037327,2.156904873859987],[99.80456969123833,2.1440516193000683],[99.82158997699587,2.1438600735970104],[99.81703648194814,2.157011949840591],[99.80622183037327,2.156904873859987]],[[99.80810306820212,2.139498784359675],[99.80386707340676,2.137997622512244],[99.80584258087048,2.135144371338723],[99.80810306820212,2.139498784359675]],[[99.80266982575192,2.1263640950597305],[99.79473168721768,2.1231798466089082],[99.79501652679134,2.119478787456467],[99.80266982575192,2.1263640950597305]]]}},{"type":"Feature","properties":{"code":"1210072008","desa":"Aek Buru Selatan","kecamatan":"Bilah Barat","kecCode":"121007"},"geometry":{"type":"Polygon","coordinates":[[[99.75898926294416,2.111789333060106],[99.74646439041936,2.0773031421131534],[99.7340437520176,2.074855175815307],[99.7361205483247,2.0963099879814524],[99.7517405473884,2.11522797903307],[99.75898926294416,2.111789333060106]]]}},{"type":"Feature","properties":{"code":"1210072009","desa":"Kampung Baru","kecamatan":"Bilah Barat","kecCode":"121007"},"geometry":{"type":"Polygon","coordinates":[[[99.79473168721768,2.1231798466089082],[99.80266982575192,2.1263640950597305],[99.79501652679134,2.119478787456467],[99.79473168721768,2.1231798466089082]]]}},{"type":"Feature","properties":{"code":"1210072009","desa":"Kampung Baru","kecamatan":"Bilah Barat","kecCode":"121007"},"geometry":{"type":"Polygon","coordinates":[[[99.80569925771464,2.140448467540006],[99.80584258087048,2.135144371338723],[99.80386707340676,2.137997622512244],[99.80569925771464,2.140448467540006]]]}},{"type":"Feature","properties":{"code":"1210072009","desa":"Kampung Baru","kecamatan":"Bilah Barat","kecCode":"121007"},"geometry":{"type":"Polygon","coordinates":[[[99.80456969123833,2.1440516193000683],[99.80622183037327,2.156904873859987],[99.81703648194814,2.157011949840591],[99.82154238757117,2.143681613929042],[99.80456969123833,2.1440516193000683]]]}},{"type":"Feature","properties":{"code":"1210072009","desa":"Kampung Baru","kecamatan":"Bilah Barat","kecCode":"121007"},"geometry":{"type":"Polygon","coordinates":[[[99.7853469082333,2.1593241203083613],[99.78526937767968,2.147495027183239],[99.78219987372523,2.147019134735331],[99.77799437494053,2.157753676489164],[99.7853469082333,2.1593241203083613]]]}},{"type":"Feature","properties":{"code":"1210072010","desa":"Tebing Linggahara Baru","kecamatan":"Bilah Barat","kecCode":"121007"},"geometry":{"type":"Polygon","coordinates":[[[99.88332941392137,2.1217820735217003],[99.88221373207811,2.1339300221772186],[99.86914049703637,2.13661114131259],[99.87686815464167,2.1384183838208024],[99.88069532662809,2.150719192043004],[99.95462739683694,2.194586965773501],[99.95410862741129,2.1717685736435],[99.92546303309257,2.1395024823719533],[99.92286837297705,2.128451664343293],[99.91124778585667,2.1339987663543547],[99.89451383794334,2.11702169753638],[99.88332941392137,2.1217820735217003]]]}},{"type":"Feature","properties":{"code":"1210092003","desa":"Pematang Seleng","kecamatan":"Bilah Hulu","kecCode":"121009"},"geometry":{"type":"Polygon","coordinates":[[[99.98377104020142,2.0474167433078647],[100.00083861231218,2.082605863250977],[100.01019200405777,2.1146874675981464],[100.04603448600277,2.116543077444656],[100.04661176981737,2.1041487082535473],[100.02977203465171,2.1003199975313054],[100.02003891136674,2.0741457977807203],[100.019404668091,2.042442044490045],[99.98377104020142,2.0474167433078647]]]}},{"type":"Feature","properties":{"code":"1210092004","desa":"Perbaungan","kecamatan":"Bilah Hulu","kecCode":"121009"},"geometry":{"type":"Polygon","coordinates":[[[99.9730851355706,2.07363884904455],[99.99339903183989,2.071023368727257],[99.98377104020142,2.0474167433078647],[99.96740943499748,2.0474960814986902],[99.97028837171102,2.0579591970674898],[99.95122428217495,2.058289416431248],[99.9730851355706,2.07363884904455]]]}},{"type":"Feature","properties":{"code":"1210092005","desa":"Gunung Selamat","kecamatan":"Bilah Hulu","kecCode":"121009"},"geometry":{"type":"Polygon","coordinates":[[[100.04661176981737,2.1041487082535473],[100.05197222204049,2.088899997910606],[100.03565277795336,2.076161108336632],[100.04583888885374,2.0419472195144484],[100.03873299373271,2.0349740490466415],[100.019404668091,2.042442044490045],[100.02003891136674,2.0741457977807203],[100.02977203465171,2.1003199975313054],[100.04661176981737,2.1041487082535473]]]}},{"type":"Feature","properties":{"code":"1210092006","desa":"Emplasemen Aek Nabara","kecamatan":"Bilah Hulu","kecCode":"121009"},"geometry":{"type":"Polygon","coordinates":[[[99.95329068141984,2.0452858276010093],[99.95297470282031,2.057302343936929],[99.9584935490381,2.056711513635037],[99.95329068141984,2.0452858276010093]]]}},{"type":"Feature","properties":{"code":"1210092006","desa":"Emplasemen Aek Nabara","kecamatan":"Bilah Hulu","kecCode":"121009"},"geometry":{"type":"Polygon","coordinates":[[[99.94733641494366,2.0615220699917916],[99.95122428217495,2.058289416431248],[99.94724340076237,2.057542214710097],[99.94733641494366,2.0615220699917916]]]}},{"type":"Feature","properties":{"code":"1210092009","desa":"Pondok Batu","kecamatan":"Bilah Hulu","kecCode":"121009"},"geometry":{"type":"Polygon","coordinates":[[[99.97531779428084,2.082099910064388],[99.97198870461504,2.0702382309042604],[99.95176506790362,2.062009145509365],[99.95871290177904,2.0822960135315354],[99.97531779428084,2.082099910064388]]]}},{"type":"Feature","properties":{"code":"1210092011","desa":"N-1 Aek Nabara","kecamatan":"Bilah Hulu","kecCode":"121009"},"geometry":{"type":"Polygon","coordinates":[[[99.8814574157272,2.0658721824547177],[99.88175437726278,2.0884095040699755],[99.90355785391186,2.082411357879083],[99.9072450671062,2.065800055927403],[99.8814574157272,2.0658721824547177]]]}},{"type":"Feature","properties":{"code":"1210092014","desa":"N-4 Aek Nabara","kecamatan":"Bilah Hulu","kecCode":"121009"},"geometry":{"type":"Polygon","coordinates":[[[99.91301655896706,2.0660818989596925],[99.95191314217783,2.065956618902233],[99.94726561041965,2.0574993844976768],[99.9605053900118,2.06033948128763],[99.96074927805681,2.052266680977038],[99.95297470282031,2.057302343936929],[99.95106616607075,2.04734965478264],[99.94307074881607,2.047584241139452],[99.94293503932066,2.038719237032545],[99.92909773757059,2.0384974920952503],[99.92900241572897,2.042995775059692],[99.89988298571124,2.0387471420963217],[99.91301655896706,2.0660818989596925]]]}},{"type":"Feature","properties":{"code":"1210092016","desa":"N-6 Aek Nabara","kecamatan":"Bilah Hulu","kecCode":"121009"},"geometry":{"type":"Polygon","coordinates":[[[99.95613784598487,2.034009171820445],[99.95267297397861,2.047417049976663],[99.96079138341565,2.0578502954630653],[99.97028837171102,2.0579591970674898],[99.96740943499748,2.0474960814986902],[99.9879973061308,2.0473753340242884],[99.98783825293309,2.033915190868068],[99.95613784598487,2.034009171820445]]]}},{"type":"Feature","properties":{"code":"1210092018","desa":"N-8 Aek Nabara","kecamatan":"Bilah Hulu","kecCode":"121009"},"geometry":{"type":"Polygon","coordinates":[[[100.0251900751619,2.0423467424336392],[100.02294687729659,2.020085581034727],[99.9878374057717,2.029642011808853],[99.9879973061308,2.0473753340242884],[100.0251900751619,2.0423467424336392]]]}}]}