{"type":"FeatureCollection","features":[{"type":"Feature","properties":{"code":"1215012001","desa":"Tanjung Meriah","kecamatan":"Sitelu Tali Urang Jehe","kecCode":"121501"},"geometry":{"type":"Polygon","coordinates":[[[98.23608192723917,2.6738747807285557],[98.23502098533025,2.6644466760155496],[98.22557069523144,2.6566272524965373],[98.19520851456133,2.664627905595487],[98.20950332931528,2.681972024612378],[98.20791334502489,2.689424716292657],[98.22318493503677,2.6951336782853685],[98.22296053530049,2.6846622233031407],[98.23608192723917,2.6738747807285557]]]}},{"type":"Feature","properties":{"code":"1215012002","desa":"Tanjung Mulia","kecamatan":"Sitelu Tali Urang Jehe","kecCode":"121501"},"geometry":{"type":"Polygon","coordinates":[[[98.095964922843,2.6947655057326467],[98.07146466716073,2.7391530732164777],[98.0765013580513,2.750604871965516],[98.06936527808516,2.76416676351876],[98.108233969722,2.7764384975586927],[98.11965733012175,2.785760071280196],[98.13786769503814,2.7702599059966686],[98.1579477783673,2.769264441029011],[98.1611703631218,2.7577896205349677],[98.17029873909557,2.7538941180637497],[98.17839705587949,2.7602549059768235],[98.19313845957231,2.7378861128159717],[98.21999062316875,2.723811714716318],[98.22318493503677,2.6951336782853685],[98.17201081624624,2.680785209094561],[98.11988927786791,2.6960674047946918],[98.095964922843,2.6947655057326467]]]}},{"type":"Feature","properties":{"code":"1215012003","desa":"Kaban Tengah","kecamatan":"Sitelu Tali Urang Jehe","kecCode":"121501"},"geometry":{"type":"Polygon","coordinates":[[[98.07943436110695,2.5847488984723133],[98.0848094417024,2.603409425313738],[98.10900362032089,2.6057294423663215],[98.10579496336692,2.6227640309231584],[98.11288498995037,2.634819242388779],[98.15106136728832,2.651999021093825],[98.1625019595978,2.663973773813427],[98.17463394799836,2.6615444594546798],[98.1802381722539,2.651539807472542],[98.1720375503927,2.6253644143212362],[98.15326702295481,2.6010876860593823],[98.15104873631019,2.5827536715762904],[98.07943436110695,2.5847488984723133]]]}},{"type":"Feature","properties":{"code":"1215012004","desa":"Bandar Baru","kecamatan":"Sitelu Tali Urang Jehe","kecCode":"121501"},"geometry":{"type":"Polygon","coordinates":[[[98.08119827068371,2.5490668556193357],[98.07943436110695,2.5847488984723133],[98.14896552334027,2.5814195471074477],[98.18678234542897,2.6014074984684576],[98.24410237442508,2.6158741736495754],[98.25329805296286,2.640301296436404],[98.27018761956305,2.6271002875313436],[98.25480240290862,2.5991857431411276],[98.21698661144302,2.5764649040705785],[98.1723771182095,2.57114700597385],[98.15351632042189,2.5482115499924247],[98.11066651444816,2.5534569213635074],[98.08119827068371,2.5490668556193357]]]}},{"type":"Feature","properties":{"code":"1215012005","desa":"Simberruna","kecamatan":"Sitelu Tali Urang Jehe","kecCode":"121501"},"geometry":{"type":"Polygon","coordinates":[[[98.22557069523144,2.6566272524965373],[98.23502098533025,2.6644466760155496],[98.23608192723917,2.6738747807285557],[98.2610641943571,2.6631145894105224],[98.26667678320706,2.6495781288860814],[98.25114418655505,2.6446036674892417],[98.22557069523144,2.6566272524965373]]]}},{"type":"Feature","properties":{"code":"1215012006","desa":"Perolihen","kecamatan":"Sitelu Tali Urang Jehe","kecCode":"121501"},"geometry":{"type":"Polygon","coordinates":[[[98.21999062316875,2.723811714716318],[98.2404148689511,2.71895886054577],[98.2468902358957,2.7086366480569257],[98.25693866958397,2.7154547439279177],[98.25941443662703,2.703378871437523],[98.25297394629062,2.688251610040066],[98.2610641943571,2.6631145894105224],[98.22296053530049,2.6846622233031407],[98.21999062316875,2.723811714716318]]]}},{"type":"Feature","properties":{"code":"1215012007","desa":"Maholida","kecamatan":"Sitelu Tali Urang Jehe","kecCode":"121501"},"geometry":{"type":"Polygon","coordinates":[[[98.19520851456133,2.664627905595487],[98.22087526558113,2.6603102478664633],[98.24030415161535,2.647465522476768],[98.20182034103597,2.633688306246226],[98.17283675091538,2.634801005037076],[98.1802381722539,2.651539807472542],[98.19520851456133,2.664627905595487]]]}},{"type":"Feature","properties":{"code":"1215012008","desa":"Perjaga","kecamatan":"Sitelu Tali Urang Jehe","kecCode":"121501"},"geometry":{"type":"Polygon","coordinates":[[[98.15104873631019,2.5827536715762904],[98.15326702295481,2.6010876860593823],[98.1720375503927,2.6253644143212362],[98.17283675091538,2.634801005037076],[98.20182034103597,2.633688306246226],[98.24030415161535,2.647465522476768],[98.25114418655505,2.6446036674892417],[98.25174304330687,2.629372341041332],[98.24410237442508,2.6158741736495754],[98.18678234542897,2.6014074984684576],[98.15104873631019,2.5827536715762904]]]}},{"type":"Feature","properties":{"code":"1215012009","desa":"Malum","kecamatan":"Sitelu Tali Urang Jehe","kecCode":"121501"},"geometry":{"type":"Polygon","coordinates":[[[98.10667005497913,2.6272985592640157],[98.10401915396085,2.6819346352983664],[98.095964922843,2.6947655057326467],[98.11988927786791,2.6960674047946918],[98.17201081624624,2.680785209094561],[98.15106136728832,2.651999021093825],[98.12159719295612,2.640603627823516],[98.10667005497913,2.6272985592640157]]]}},{"type":"Feature","properties":{"code":"1215012010","desa":"Mbinalun","kecamatan":"Sitelu Tali Urang Jehe","kecCode":"121501"},"geometry":{"type":"Polygon","coordinates":[[[98.20791334502489,2.689424716292657],[98.20950332931528,2.681972024612378],[98.18218888900606,2.651077784369185],[98.17283530120824,2.6637098407796094],[98.15955238563413,2.6607857661964545],[98.1703069517045,2.680184899038936],[98.20791334502489,2.689424716292657]]]}},{"type":"Feature","properties":{"code":"1215022001","desa":"Sukaramai","kecamatan":"Kerajaan","kecCode":"121502"},"geometry":{"type":"Polygon","coordinates":[[[98.27736340189954,2.7173868905770213],[98.30745095389845,2.696067620631944],[98.29934334801715,2.675493047796154],[98.30315779729453,2.657127289942777],[98.29559829222745,2.6523471018927407],[98.31004352398952,2.645370134487247],[98.26344932862366,2.6352770881412675],[98.25337912144937,2.640184437630528],[98.25402719809676,2.6494625336276525],[98.27220524137884,2.650316689021684],[98.26543413058072,2.6871923957299533],[98.25433120492126,2.6918151457647594],[98.25941443662703,2.703378871437523],[98.25581062026394,2.7173306541708815],[98.27736340189954,2.7173868905770213]]]}},{"type":"Feature","properties":{"code":"1215022002","desa":"Kuta Saga","kecamatan":"Kerajaan","kecCode":"121502"},"geometry":{"type":"Polygon","coordinates":[[[98.27427231241734,2.637170541459422],[98.31979227479371,2.6519917293906943],[98.32829900339634,2.6393262038110032],[98.3050070849091,2.6249932056573306],[98.27427231241734,2.637170541459422]]]}},{"type":"Feature","properties":{"code":"1215022003","desa":"Kuta Meriah","kecamatan":"Kerajaan","kecCode":"121502"},"geometry":{"type":"Polygon","coordinates":[[[98.30745095389845,2.696067620631944],[98.3258833731192,2.697692206336254],[98.33219444381858,2.7058333299413277],[98.33440718074682,2.6952668642829765],[98.31997285776121,2.6660071040851627],[98.32231309157595,2.654872985452672],[98.31004352398952,2.645370134487247],[98.29559829222745,2.6523471018927407],[98.30315779729453,2.657127289942777],[98.29934334801715,2.675493047796154],[98.30745095389845,2.696067620631944]]]}},{"type":"Feature","properties":{"code":"1215022004","desa":"Kuta Dame","kecamatan":"Kerajaan","kecCode":"121502"},"geometry":{"type":"Polygon","coordinates":[[[98.3322205061715,2.7058100608827527],[98.34108001183313,2.699519679993267],[98.34004499198284,2.678846231195172],[98.35623638789906,2.660410014157495],[98.32829900339634,2.6393262038110032],[98.31979227479371,2.6519917293906943],[98.31984362788118,2.6650958084663516],[98.33440718074682,2.6952668642829765],[98.3322205061715,2.7058100608827527]]]}},{"type":"Feature","properties":{"code":"1215022005","desa":"Perpulungen","kecamatan":"Kerajaan","kecCode":"121502"},"geometry":{"type":"Polygon","coordinates":[[[98.35623638789906,2.660410014157495],[98.37770890863929,2.651513891709166],[98.35917755230223,2.632443461973429],[98.33342939644956,2.629674780347131],[98.32380761642843,2.6382917640245163],[98.33839402736253,2.642773841205783],[98.35623638789906,2.660410014157495]]]}},{"type":"Feature","properties":{"code":"1215022006","desa":"Pardomuan","kecamatan":"Kerajaan","kecCode":"121502"},"geometry":{"type":"Polygon","coordinates":[[[98.3050070849091,2.6249932056573306],[98.32380761642843,2.6382917640245163],[98.33479958463317,2.62954505314212],[98.31589719859686,2.6128183115145904],[98.3050070849091,2.6249932056573306]]]}},{"type":"Feature","properties":{"code":"1215022014","desa":"Majanggut I","kecamatan":"Kerajaan","kecCode":"121502"},"geometry":{"type":"Polygon","coordinates":[[[98.29996720682117,2.613155090533351],[98.31160881739305,2.6059982722086974],[98.29919830535755,2.590498976569674],[98.27203408240705,2.5988517025580373],[98.27732976185911,2.613989271984745],[98.29996720682117,2.613155090533351]]]}},{"type":"Feature","properties":{"code":"1215022015","desa":"Majanggut Ii","kecamatan":"Kerajaan","kecCode":"121502"},"geometry":{"type":"Polygon","coordinates":[[[98.15149513009622,2.527795691309857],[98.16975023358644,2.5690248568582614],[98.18208982778337,2.574393670072566],[98.21083599058858,2.5748032591033887],[98.22976450372892,2.582737171714697],[98.24070796340185,2.571765739540891],[98.21986651582709,2.5655941204226718],[98.2201209861946,2.5394109463371293],[98.20943720576246,2.5391730001131183],[98.19590283165041,2.526430987193553],[98.17905624814738,2.53085678390185],[98.15875402327957,2.5242014806095265],[98.15149513009622,2.527795691309857]],[[98.16260941329386,2.526145451544866],[98.16260941329386,2.5261573495755787],[98.16259751616252,2.5261573495755787],[98.16260941329386,2.526145451544866]]]}},{"type":"Feature","properties":{"code":"1215022016","desa":"Surung Mersada","kecamatan":"Kerajaan","kecCode":"121502"},"geometry":{"type":"Polygon","coordinates":[[[98.27220524137884,2.650316689021684],[98.2626619415954,2.6529971768330722],[98.25433120492126,2.6918151457647594],[98.26311179327467,2.690900153932368],[98.26923734372849,2.6759612024772212],[98.27220524137884,2.650316689021684]]]}},{"type":"Feature","properties":{"code":"1215022021","desa":"Perduhapen","kecamatan":"Kerajaan","kecCode":"121502"},"geometry":{"type":"Polygon","coordinates":[[[98.28254597811446,2.6227658763319517],[98.26344932862366,2.6352770881412675],[98.26544773372598,2.6363900774131204],[98.27427231241734,2.637170541459422],[98.3050070849091,2.6249932056573306],[98.29996720682117,2.613155090533351],[98.29049808222076,2.6132665884804984],[98.27732976185911,2.613989271984745],[98.28254597811446,2.6227658763319517]]]}},{"type":"Feature","properties":{"code":"1215032001","desa":"Salak I","kecamatan":"Salak","kecCode":"121503"},"geometry":{"type":"Polygon","coordinates":[[[98.31864320112288,2.5800043118840823],[98.32203268565996,2.5371473959170934],[98.32671425675761,2.552728652170036],[98.347455155631,2.541145733166177],[98.33900364360333,2.5346629099495868],[98.32018639458654,2.532163072554761],[98.30836689271796,2.5371781032683156],[98.3074597339796,2.5756575125235854],[98.31864320112288,2.5800043118840823]]]}},{"type":"Feature","properties":{"code":"1215032002","desa":"Salak Ii","kecamatan":"Salak","kecCode":"121503"},"geometry":{"type":"Polygon","coordinates":[[[98.32390651037718,2.55751486927501],[98.32286668634856,2.546279768468058],[98.32575773243349,2.5436028743476435],[98.32203268565996,2.5371473959170934],[98.3210907717218,2.548325294446044],[98.32390651037718,2.55751486927501]]]}},{"type":"Feature","properties":{"code":"1215032003","desa":"Boangmanalu","kecamatan":"Salak","kecCode":"121503"},"geometry":{"type":"Polygon","coordinates":[[[98.32367476677712,2.5572596191956025],[98.3218983035639,2.580594418231806],[98.34010016808831,2.5699236195250523],[98.34234233533056,2.5547403357601506],[98.35569053898722,2.541041735564872],[98.32367476677712,2.5572596191956025]]]}},{"type":"Feature","properties":{"code":"1215032009","desa":"Sibongkaras","kecamatan":"Salak","kecCode":"121503"},"geometry":{"type":"Polygon","coordinates":[[[98.33195599936992,2.4195578729078986],[98.29871888936532,2.4175052755606625],[98.30750000022486,2.3872222190760106],[98.30277777797215,2.3352777752520626],[98.27666666743282,2.3388888860122306],[98.25833333281712,2.356111108221105],[98.2417193346796,2.359281098820201],[98.21932947487545,2.474330197131218],[98.22124451192472,2.4905161746143354],[98.2661313650705,2.484648616279615],[98.29763542843233,2.4617700990748643],[98.30322716290327,2.441068788380677],[98.33195599936992,2.4195578729078986]]]}},{"type":"Feature","properties":{"code":"1215032013","desa":"Kuta Tinggi","kecamatan":"Salak","kecCode":"121503"},"geometry":{"type":"Polygon","coordinates":[[[98.33195599936992,2.4195578729078986],[98.30322716290327,2.441068788380677],[98.29763542843233,2.4617700990748643],[98.2661313650705,2.484648616279615],[98.22124451192472,2.4905161746143354],[98.22548640267541,2.5285216834199065],[98.23467866109138,2.5185402780133317],[98.24662355543278,2.5167080946067344],[98.26270047934372,2.5276390321075777],[98.29403798196734,2.5105782975609974],[98.33857128283847,2.5163375640316534],[98.34383658499046,2.504845345253389],[98.35497627583453,2.5039179706557],[98.36310273690185,2.457624737060574],[98.3558333333417,2.448055553000504],[98.35499999995011,2.4299999974008943],[98.33195599936992,2.4195578729078986]]]}},{"type":"Feature","properties":{"code":"1215032014","desa":"Penanggalan Binanga Boang","kecamatan":"Salak","kecCode":"121503"},"geometry":{"type":"Polygon","coordinates":[[[98.32337940423615,2.532205384757632],[98.33900364360333,2.5346629099495868],[98.33857128283847,2.5163375640316534],[98.32141764470862,2.516622809199268],[98.32337940423615,2.532205384757632]]]}},{"type":"Feature","properties":{"code":"1215042001","desa":"Ulumerah","kecamatan":"Sitelu Tali Urang Julu","kecCode":"121504"},"geometry":{"type":"Polygon","coordinates":[[[98.36310273690185,2.457624737060574],[98.35685307460976,2.472228306144029],[98.354684941357,2.5173302977582783],[98.3605320769938,2.5098657026514775],[98.3743269784074,2.5192873987954942],[98.37699233332954,2.5101861823574874],[98.4066172120148,2.492266467554095],[98.40586092444214,2.4613566843280386],[98.36310273690185,2.457624737060574]]]}},{"type":"Feature","properties":{"code":"1215042002","desa":"Pardomuan","kecamatan":"Sitelu Tali Urang Julu","kecCode":"121504"},"geometry":{"type":"Polygon","coordinates":[[[98.40586092444214,2.4613566843280386],[98.4066172120148,2.492266467554095],[98.37699233332954,2.5101861823574874],[98.37505385095454,2.519084655633652],[98.41595398608762,2.5170413797594122],[98.44107937401395,2.498566756274557],[98.42570090227485,2.48471375057806],[98.43104621531063,2.467493415146851],[98.42138888868634,2.4763888864860104],[98.40586092444214,2.4613566843280386]]]}},{"type":"Feature","properties":{"code":"1215042003","desa":"Silima Kuta","kecamatan":"Sitelu Tali Urang Julu","kecCode":"121504"},"geometry":{"type":"Polygon","coordinates":[[[98.35294340421477,2.5394851682848665],[98.3690310453465,2.5485850887998063],[98.38383231420998,2.544664411606576],[98.37092104706875,2.5177982914606347],[98.3605320769938,2.5098657026514775],[98.35323224127495,2.5219471941058758],[98.35294340421477,2.5394851682848665]]]}},{"type":"Feature","properties":{"code":"1215042004","desa":"Lae Langge Namuseng","kecamatan":"Sitelu Tali Urang Julu","kecCode":"121504"},"geometry":{"type":"Polygon","coordinates":[[[98.37505385095454,2.519084655633652],[98.37335120229619,2.5259097329416336],[98.38604163731179,2.5471066591156477],[98.44346692385949,2.5539607764318326],[98.45466606168947,2.5484206657502697],[98.42014576301659,2.536844417018057],[98.4441523907203,2.505136747179688],[98.44134275306567,2.4980400008697057],[98.41595398608762,2.5170413797594122],[98.37505385095454,2.519084655633652]]]}},{"type":"Feature","properties":{"code":"1215042005","desa":"Cikaok","kecamatan":"Sitelu Tali Urang Julu","kecCode":"121504"},"geometry":{"type":"Polygon","coordinates":[[[98.33857542421651,2.5116759677810703],[98.34224772755066,2.5410223003162136],[98.35294340421477,2.5394851682848665],[98.35602837560911,2.5041575491492596],[98.34383658499046,2.504845345253389],[98.33857542421651,2.5116759677810703]]]}},{"type":"Feature","properties":{"code":"1215052001","desa":"Kecupak I","kecamatan":"Pergetteng Getteng Sengkut","kecCode":"121505"},"geometry":{"type":"Polygon","coordinates":[[[98.28747558133306,2.5815984042757707],[98.29620489663874,2.549167237946028],[98.28249264202185,2.5506673781636553],[98.27667166676405,2.5434371877506137],[98.26135961625334,2.5463512285977457],[98.25367865324735,2.5700193550547055],[98.26556941829409,2.580231473438134],[98.28747558133306,2.5815984042757707]]]}},{"type":"Feature","properties":{"code":"1215052002","desa":"Kecupak Ii","kecamatan":"Pergetteng Getteng Sengkut","kecCode":"121505"},"geometry":{"type":"Polygon","coordinates":[[[98.30974401737255,2.5794646503085668],[98.30922192585125,2.5512812365058655],[98.29506614898365,2.5497653779375575],[98.28747558133306,2.5815984042757707],[98.30974401737255,2.5794646503085668]]]}},{"type":"Feature","properties":{"code":"1215052003","desa":"Aornakan I","kecamatan":"Pergetteng Getteng Sengkut","kecCode":"121505"},"geometry":{"type":"Polygon","coordinates":[[[98.28249264202185,2.5506673781636553],[98.32337940423615,2.532205384757632],[98.32141764470862,2.516622809199268],[98.29403798196734,2.5105782975609974],[98.26083488342316,2.5280938021786143],[98.26135961625334,2.5463512285977457],[98.27692069893118,2.543469559746955],[98.28249264202185,2.5506673781636553]]]}},{"type":"Feature","properties":{"code":"1215052004","desa":"Simerpara","kecamatan":"Pergetteng Getteng Sengkut","kecCode":"121505"},"geometry":{"type":"Polygon","coordinates":[[[98.23467866109138,2.5185402780133317],[98.21683270326666,2.558872142293219],[98.2212941922732,2.567021795967909],[98.25367865324735,2.5700193550547055],[98.26135961625334,2.5463512285977457],[98.25890157394855,2.5218477290877024],[98.23467866109138,2.5185402780133317]]]}},{"type":"Feature","properties":{"code":"1215052005","desa":"Aornakan Ii","kecamatan":"Pergetteng Getteng Sengkut","kecCode":"121505"},"geometry":{"type":"Polygon","coordinates":[[[98.30854935796656,2.5499786161876403],[98.30836689271796,2.5371781032683156],[98.2965019247241,2.5432475899791385],[98.29531576301213,2.5500906825063203],[98.30854935796656,2.5499786161876403]]]}},{"type":"Feature","properties":{"code":"1215062001","desa":"Sibagindar","kecamatan":"Pagindar","kecCode":"121506"},"geometry":{"type":"Polygon","coordinates":[[[98.16260941329386,2.5261573495755787],[98.16260941329386,2.526145451544866],[98.16259751616252,2.5261573495755787],[98.16260941329386,2.5261573495755787]]]}},{"type":"Feature","properties":{"code":"1215062001","desa":"Sibagindar","kecamatan":"Pagindar","kecCode":"121506"},"geometry":{"type":"Polygon","coordinates":[[[98.14076697981231,2.547459443368824],[98.16260241566901,2.5556967242856206],[98.15097792369227,2.5283151271325974],[98.15875402327957,2.5242014806095265],[98.17524435114592,2.5306664271025],[98.19547452862666,2.52820130623659],[98.18723459470083,2.505422132641556],[98.1660973789909,2.496860847575695],[98.13953272595461,2.508758916003767],[98.12898616857689,2.519075234335897],[98.12945999798058,2.5341368784989444],[98.14076697981231,2.547459443368824]]]}},{"type":"Feature","properties":{"code":"1215062002","desa":"Napatalun Perlambuken","kecamatan":"Pagindar","kecCode":"121506"},"geometry":{"type":"Polygon","coordinates":[[[98.08874495861299,2.5004354629479297],[98.08119827068371,2.5490668556193357],[98.098386059669,2.5530890860565023],[98.13551102791166,2.5471096952268413],[98.13101628197592,2.5201503900285975],[98.09492776620353,2.5082105453935246],[98.08874495861299,2.5004354629479297]]]}},{"type":"Feature","properties":{"code":"1215062003","desa":"Lae Mbentar","kecamatan":"Pagindar","kecCode":"121506"},"geometry":{"type":"Polygon","coordinates":[[[98.14823063423643,2.4219739384542365],[98.21932947487545,2.474330197131218],[98.2417193346796,2.359281098820201],[98.26176943820906,2.341761147954385],[98.26611111143869,2.2636111081477797],[98.19704836199236,2.3115964287611157],[98.18380796816324,2.331399421053613],[98.14823063423643,2.4219739384542365]]]}},{"type":"Feature","properties":{"code":"1215062004","desa":"Pagindar","kecamatan":"Pagindar","kecCode":"121506"},"geometry":{"type":"Polygon","coordinates":[[[98.14705071381945,2.424009463971118],[98.10431156492683,2.4711531252703622],[98.08653590081121,2.5000338239239865],[98.09492776620353,2.5082105453935246],[98.12898616857689,2.519075234335897],[98.14649794462451,2.5030649124345845],[98.17537781863149,2.4989390468228683],[98.18723459470083,2.505422132641556],[98.20042856642527,2.5314278551991247],[98.22063575723445,2.5404211700788695],[98.22555452901838,2.5269450999291276],[98.21932947487545,2.474330197131218],[98.14705071381945,2.424009463971118]]]}},{"type":"Feature","properties":{"code":"1215072001","desa":"Kuta Babo","kecamatan":"Tinada","kecCode":"121507"},"geometry":{"type":"Polygon","coordinates":[[[98.37770890863929,2.651513891709166],[98.40646389289441,2.6408572429355255],[98.38085886504467,2.6316279513470118],[98.36212774769744,2.6138676539666674],[98.31589719859686,2.6128183115145904],[98.32982279758407,2.628958889422312],[98.35917755230223,2.632443461973429],[98.37770890863929,2.651513891709166]]]}},{"type":"Feature","properties":{"code":"1215072002","desa":"Tinada","kecamatan":"Tinada","kecCode":"121507"},"geometry":{"type":"Polygon","coordinates":[[[98.2871554478657,2.5911865703263577],[98.29919830535755,2.590498976569674],[98.31589719859686,2.6128183115145904],[98.32413157201448,2.6092456314833004],[98.32786789358845,2.597389957995763],[98.3189009755996,2.5839518383369793],[98.32294803632287,2.5805671660758516],[98.31455052768477,2.5776086699414],[98.28522428237476,2.5811415549721395],[98.2871554478657,2.5911865703263577]]]}},{"type":"Feature","properties":{"code":"1215072003","desa":"Silima Kuta","kecamatan":"Tinada","kecCode":"121507"},"geometry":{"type":"Polygon","coordinates":[[[98.3251060719877,2.5791648720966958],[98.31882959191222,2.583494980939434],[98.32786789358845,2.597389957995763],[98.35039867625794,2.5927707449945308],[98.35757523470936,2.5839439971480798],[98.35115623367328,2.5788555107091518],[98.33490971291297,2.5896976941172656],[98.3251060719877,2.5791648720966958]]]}},{"type":"Feature","properties":{"code":"1215072004","desa":"Mahala","kecamatan":"Tinada","kecCode":"121507"},"geometry":{"type":"Polygon","coordinates":[[[98.22976450372892,2.582737171714697],[98.25750605186289,2.6018417055409766],[98.26984070428512,2.6266141401141203],[98.28254597811446,2.6227658763319517],[98.27096808271091,2.6022971599961506],[98.2871554478657,2.5911865703263577],[98.28522428237476,2.5811415549721395],[98.26556941829409,2.580231473438134],[98.25367865324735,2.5700193550547055],[98.24070796340185,2.571765739540891],[98.22976450372892,2.582737171714697]]]}},{"type":"Feature","properties":{"code":"1215072005","desa":"Prongil","kecamatan":"Tinada","kecCode":"121507"},"geometry":{"type":"Polygon","coordinates":[[[98.32413157201448,2.6092456314833004],[98.34926634886295,2.6173943201854106],[98.36155344873272,2.609758841299547],[98.35746109185595,2.584007817536967],[98.35039867625794,2.5927707449945308],[98.32632548972965,2.5979446058738396],[98.32413157201448,2.6092456314833004]]]}},{"type":"Feature","properties":{"code":"1215072006","desa":"Buluh Tellang","kecamatan":"Tinada","kecCode":"121507"},"geometry":{"type":"Polygon","coordinates":[[[98.3044096787637,2.6226501920407275],[98.31589719859686,2.6128183115145904],[98.31160881739305,2.6059982722086974],[98.29854207006052,2.615119352872034],[98.3044096787637,2.6226501920407275]]]}},{"type":"Feature","properties":{"code":"1215082001","desa":"Siempat Rube Ii","kecamatan":"Siempat Rube","kecCode":"121508"},"geometry":{"type":"Polygon","coordinates":[[[98.35569053898722,2.541041735564872],[98.34234233533056,2.5547403357601506],[98.33796882430187,2.5709927605519125],[98.35115623367328,2.5788555107091518],[98.35588846627974,2.569795097411608],[98.3751087446729,2.5673500170381174],[98.36328420839953,2.5550891072383752],[98.3690310453465,2.5485850887998063],[98.35569053898722,2.541041735564872]]]}},{"type":"Feature","properties":{"code":"1215082002","desa":"Siempat Rube I","kecamatan":"Siempat Rube","kecCode":"121508"},"geometry":{"type":"Polygon","coordinates":[[[98.40646389289441,2.6408572429355255],[98.42220435075022,2.6356831689168367],[98.43076552520886,2.6144568969651103],[98.39174793641818,2.6172952859425043],[98.36439114883251,2.607113615006297],[98.35736386165296,2.612881309923129],[98.38085886504467,2.6316279513470118],[98.40646389289441,2.6408572429355255]]]}},{"type":"Feature","properties":{"code":"1215082003","desa":"Mungkur","kecamatan":"Siempat Rube","kecCode":"121508"},"geometry":{"type":"Polygon","coordinates":[[[98.43076552520886,2.6144568969651103],[98.44145807403095,2.5860708928853486],[98.42246723337615,2.5742085518241318],[98.37604404229876,2.566931118225433],[98.35588846627974,2.569795097411608],[98.35217042072838,2.5758142094973664],[98.35537532391216,2.5831364680047306],[98.36396907181529,2.5803548469328774],[98.37615992264237,2.5893057048188375],[98.39903497028767,2.6146342765473385],[98.43076552520886,2.6144568969651103]]]}},{"type":"Feature","properties":{"code":"1215082004","desa":"Siempat Rube Iv","kecamatan":"Siempat Rube","kecCode":"121508"},"geometry":{"type":"Polygon","coordinates":[[[98.44145807403095,2.5860708928853486],[98.46507948882743,2.561684057927614],[98.46750805585214,2.549219163901637],[98.4377562171757,2.5537466253697683],[98.3794531986063,2.5442253994563617],[98.36322834970859,2.554723354761263],[98.3751087446729,2.5673500170381174],[98.42246723337615,2.5742085518241318],[98.44145807403095,2.5860708928853486]]]}},{"type":"Feature","properties":{"code":"1215082005","desa":"Kuta Jungak","kecamatan":"Siempat Rube","kecCode":"121508"},"geometry":{"type":"Polygon","coordinates":[[[98.35757523470936,2.5839439971480798],[98.3663638459148,2.6088006100632226],[98.39869596184921,2.6157010469613264],[98.37615992264237,2.5893057048188375],[98.36396907181529,2.5803548469328774],[98.35757523470936,2.5839439971480798]]]}},{"type":"Feature","properties":{"code":"1215082006","desa":"Traju","kecamatan":"Siempat Rube","kecCode":"121508"},"geometry":{"type":"Polygon","coordinates":[[[98.33796882430187,2.5709927605519125],[98.32513437095452,2.5789668674626993],[98.33490971291297,2.5896976941172656],[98.35123634438185,2.5787334412313445],[98.33796882430187,2.5709927605519125]]]}}]}