{"type":"FeatureCollection","features":[{"type":"Feature","properties":{"code":"1223011001","desa":"Aek Kanopan","kecamatan":"Kualuh Hulu","kecCode":"122301"},"geometry":{"type":"Polygon","coordinates":[[[99.62565576020523,2.570756324289653],[99.65284686479106,2.578940954397304],[99.6561911026373,2.56437531871769],[99.64342914543873,2.5647709880419347],[99.63968506271556,2.5720507508847565],[99.62565576020523,2.570756324289653]]]}},{"type":"Feature","properties":{"code":"1223011002","desa":"Aek Kanopan Timur","kecamatan":"Kualuh Hulu","kecCode":"122301"},"geometry":{"type":"Polygon","coordinates":[[[99.65284686479106,2.578940954397304],[99.68510937409836,2.582027989732343],[99.71101222683285,2.563641330735327],[99.70306974097582,2.563773769396316],[99.68451232498387,2.58045973935958],[99.65982923623034,2.573100823586324],[99.66145423382589,2.565200706598121],[99.65668167292091,2.5637751174800827],[99.65284686479106,2.578940954397304]]]}},{"type":"Feature","properties":{"code":"1223012003","desa":"Kuala Beringin","kecamatan":"Kualuh Hulu","kecCode":"122301"},"geometry":{"type":"Polygon","coordinates":[[[99.50176238972256,2.3945114580752125],[99.41874694831309,2.460396287524244],[99.45047760036101,2.5017511809925104],[99.45254516602664,2.5408527826073106],[99.46523017633164,2.547195343960469],[99.47850193401712,2.5382669160656377],[99.49083349726816,2.5464487321945746],[99.5336423795922,2.548683046554252],[99.53967820108818,2.5333719430463817],[99.53094341520647,2.5327252702413734],[99.53107939090125,2.5104941992585745],[99.51474257281153,2.489591403554026],[99.51435038835979,2.4731435542832005],[99.5240230079555,2.4602531091593844],[99.5123748781981,2.4384646395211615],[99.5182724001512,2.423019644947251],[99.51115417532498,2.4135289159437354],[99.51949310302432,2.400058982767619],[99.50176238972256,2.3945114580752125]]]}},{"type":"Feature","properties":{"code":"1223012004","desa":"Parpaudangan","kecamatan":"Kualuh Hulu","kecCode":"122301"},"geometry":{"type":"Polygon","coordinates":[[[99.64907322584877,2.563866793470023],[99.65629612096927,2.5565601813675207],[99.65934007068779,2.5338321576130904],[99.6257471708953,2.530361296125854],[99.61099229985477,2.538859533320425],[99.59225404368924,2.5363967902619997],[99.59682531293787,2.5439449710576265],[99.58591353727996,2.5640831514682825],[99.60256508481085,2.566476774432975],[99.64690593256279,2.5507896724719523],[99.64907322584877,2.563866793470023]]]}},{"type":"Feature","properties":{"code":"1223012005","desa":"Pulo Dogom","kecamatan":"Kualuh Hulu","kecCode":"122301"},"geometry":{"type":"Polygon","coordinates":[[[99.58266862685569,2.5709311938640416],[99.59469507621684,2.539696407342038],[99.56099349425442,2.5386450962740383],[99.54979907156996,2.5461589886180933],[99.54997753303678,2.565462365246475],[99.58266862685569,2.5709311938640416]]]}},{"type":"Feature","properties":{"code":"1223012005","desa":"Pulo Dogom","kecamatan":"Kualuh Hulu","kecCode":"122301"},"geometry":{"type":"Polygon","coordinates":[[[99.53735966521646,2.5839515334667844],[99.5491082546423,2.578865434727869],[99.54869184874984,2.5760695683947805],[99.53740780592557,2.5789811864683116],[99.53735966521646,2.5839515334667844]]]}},{"type":"Feature","properties":{"code":"1223012005","desa":"Pulo Dogom","kecamatan":"Kualuh Hulu","kecCode":"122301"},"geometry":{"type":"Polygon","coordinates":[[[99.58115873079083,2.5827269635102152],[99.58272401520122,2.5915479278166083],[99.59123222858453,2.5857104940724196],[99.58115873079083,2.5827269635102152]]]}},{"type":"Feature","properties":{"code":"1223012006","desa":"Londut","kecamatan":"Kualuh Hulu","kecCode":"122301"},"geometry":{"type":"Polygon","coordinates":[[[99.50118103287843,2.5839498877074027],[99.53757200684271,2.5893730235704924],[99.54168898355984,2.596587992058665],[99.5421569781621,2.6151319280922105],[99.55081701419391,2.6144138644052797],[99.55998402414343,2.61017688845423],[99.5676310188565,2.58714989048183],[99.58115873079083,2.5827269635102152],[99.57439405104469,2.570799496244404],[99.54923395108602,2.5650162160764807],[99.55174334108239,2.5434795665033834],[99.54455206792362,2.530334624032614],[99.53207193667059,2.5490637601528654],[99.49083349726816,2.5464487321945746],[99.47850193401712,2.5382669160656377],[99.46523017633164,2.547195343960469],[99.50118103287843,2.5839498877074027]],[[99.54512265808427,2.5832971813508214],[99.53740780592557,2.5789811864683116],[99.54955440381273,2.5767239205107044],[99.54512265808427,2.5832971813508214]]]}},{"type":"Feature","properties":{"code":"1223012007","desa":"Perkebunan Kanopan Ulu","kecamatan":"Kualuh Hulu","kecCode":"122301"},"geometry":{"type":"Polygon","coordinates":[[[99.59123222858453,2.5857104940724196],[99.60911875212878,2.5742556780979444],[99.63968506271556,2.5720507508847565],[99.64907322584877,2.563866793470023],[99.6487381186693,2.551384537132609],[99.60256508481085,2.566476774432975],[99.58258058682469,2.5638511083942177],[99.57439405104469,2.577724556580113],[99.59123222858453,2.5857104940724196]]]}},{"type":"Feature","properties":{"code":"1223012008","desa":"Perkebunan Membang Muda","kecamatan":"Kualuh Hulu","kecCode":"122301"},"geometry":{"type":"Polygon","coordinates":[[[99.65308527686408,2.56093025608194],[99.66145423382589,2.565200706598121],[99.65982923623034,2.573100823586324],[99.68451232498387,2.58045973935958],[99.70997651630323,2.5582213478953495],[99.69883270656418,2.551977246118309],[99.70131493793411,2.533991721625601],[99.68846782842756,2.5244278372703013],[99.65934007068779,2.5338321576130904],[99.65308527686408,2.56093025608194]]]}},{"type":"Feature","properties":{"code":"1223012009","desa":"Perkebunan Labuhan Haji","kecamatan":"Kualuh Hulu","kecCode":"122301"},"geometry":{"type":"Polygon","coordinates":[[[99.74531753357736,2.547013412010088],[99.78188762101695,2.54138865174176],[99.7820196810635,2.521118021878295],[99.7389385137015,2.5137802716492934],[99.74531753357736,2.547013412010088]]]}},{"type":"Feature","properties":{"code":"1223012010","desa":"Perkebunan Hanna","kecamatan":"Kualuh Hulu","kecCode":"122301"},"geometry":{"type":"Polygon","coordinates":[[[99.70131493793411,2.533991721625601],[99.69883270656418,2.551977246118309],[99.70997651630323,2.5582213478953495],[99.74468939759764,2.5457981437414094],[99.73340509037268,2.5263557948773676],[99.70131493793411,2.533991721625601]]]}},{"type":"Feature","properties":{"code":"1223012011","desa":"Sonomartani","kecamatan":"Kualuh Hulu","kecCode":"122301"},"geometry":{"type":"Polygon","coordinates":[[[99.90275737725118,2.620130902309988],[99.9078315788643,2.5446187071609447],[99.90346526780792,2.533459035191876],[99.88385131658504,2.54284777927686],[99.82059194985868,2.527516266554512],[99.82287052165731,2.564137062227623],[99.81762669531582,2.5889158478130003],[99.78407952874733,2.5874733892119997],[99.78570055493672,2.600429657514952],[99.79905783994741,2.6171999964765487],[99.85707172557971,2.6146581418564776],[99.87057516840933,2.620606795657297],[99.88062839098751,2.637917372659916],[99.90275737725118,2.620130902309988]]]}},{"type":"Feature","properties":{"code":"1223012012","desa":"Sukarame","kecamatan":"Kualuh Hulu","kecCode":"122301"},"geometry":{"type":"Polygon","coordinates":[[[99.69393603382098,2.5958368908771003],[99.7634947593757,2.658262262242637],[99.77392137237347,2.646609077408764],[99.75070890808966,2.625274055838074],[99.7584117578964,2.5893471968400394],[99.75058294364798,2.5834494239825467],[99.75065931137816,2.546476300911874],[99.70997651630323,2.5582213478953495],[99.71101222683285,2.563641330735327],[99.69068623558138,2.579962618414758],[99.65726797243906,2.5812178453605505],[99.69393603382098,2.5958368908771003]]]}},{"type":"Feature","properties":{"code":"1223012013","desa":"Sukarame Baru","kecamatan":"Kualuh Hulu","kecCode":"122301"},"geometry":{"type":"Polygon","coordinates":[[[99.76704342841157,2.54541284360033],[99.75071507833826,2.549705269050668],[99.75058294364798,2.5834494239825467],[99.7584117578964,2.5893471968400394],[99.75841898934492,2.6014799973151437],[99.75070890808966,2.625274055838074],[99.77392137237347,2.646609077408764],[99.78274520732548,2.64140863167048],[99.78229310913974,2.618970315519667],[99.79957180339606,2.617390353275934],[99.78570055493672,2.600429657514952],[99.78407952874733,2.5874733892119997],[99.81762669531582,2.5889158478130003],[99.82120025668655,2.5300549051989716],[99.79274030042463,2.553863637060406],[99.76704342841157,2.54541284360033]]]}},{"type":"Feature","properties":{"code":"1223021001","desa":"Tanjung Leidong","kecamatan":"Kualuh Leidong","kecCode":"122302"},"geometry":{"type":"Polygon","coordinates":[[[99.99322993591288,2.7886404792814514],[99.9848622371026,2.7580471432012397],[99.99950846374469,2.7468881196432813],[99.98349375942949,2.7320978450079876],[99.9629255717578,2.746571069052256],[99.96075579544367,2.784873750733856],[99.9668585606741,2.7990031666582724],[99.99322993591288,2.7886404792814514]]]}},{"type":"Feature","properties":{"code":"1223022002","desa":"Teluk Pulai Dalam","kecamatan":"Kualuh Leidong","kecCode":"122302"},"geometry":{"type":"Polygon","coordinates":[[[99.90306356133435,2.6013227112853783],[99.90275737725118,2.620130902309988],[99.88532782621826,2.6383932660071503],[99.87372795408184,2.6322066668817055],[99.86831467927908,2.6189411720894125],[99.83428838809867,2.612438105133613],[99.78229310913974,2.618970315519667],[99.78229310913974,2.632033556381203],[99.8284921693782,2.631176859503093],[99.9889520542939,2.675049153226561],[99.97579664459953,2.61529572431424],[99.93329102985722,2.6028618586974015],[99.90306356133435,2.6013227112853783]]]}},{"type":"Feature","properties":{"code":"1223022003","desa":"Teluk Pulai Luar","kecamatan":"Kualuh Leidong","kecCode":"122302"},"geometry":{"type":"Polygon","coordinates":[[[99.9629255717578,2.746571069052256],[99.98349375942949,2.7320978450079876],[99.96087386293844,2.7128045560748664],[99.95860629344575,2.6984014944386536],[99.97049572569722,2.687815766201423],[99.989770666683,2.6889623244672096],[99.9889520542939,2.675049153226561],[99.9147354268985,2.655632756998057],[99.9629255717578,2.746571069052256]]]}},{"type":"Feature","properties":{"code":"1223022004","desa":"Kelapa Sebatang","kecamatan":"Kualuh Leidong","kecCode":"122302"},"geometry":{"type":"Polygon","coordinates":[[[99.89420419956423,2.7719683795619927],[99.91093641898061,2.7893602300965097],[99.91536682112195,2.7829479146275666],[99.90915325581817,2.776266851154529],[99.96291973066108,2.7465720385214163],[99.92089447979644,2.668812306280422],[99.91107258263366,2.700783571007618],[99.93576078133502,2.7329805349911864],[99.89650718256046,2.762668671956729],[99.89420419956423,2.7719683795619927]]]}},{"type":"Feature","properties":{"code":"1223022005","desa":"Simandulang","kecamatan":"Kualuh Leidong","kecCode":"122302"},"geometry":{"type":"Polygon","coordinates":[[[99.93534895568979,2.8092549658283335],[99.95241646574736,2.8256306247200214],[99.98701059696158,2.8563800165575266],[99.99458088669859,2.8291529831862956],[99.99322993591288,2.7886404792814514],[99.93534895568979,2.8092549658283335]]]}},{"type":"Feature","properties":{"code":"1223022006","desa":"Air Hitam","kecamatan":"Kualuh Leidong","kecCode":"122302"},"geometry":{"type":"Polygon","coordinates":[[[99.7634947593757,2.658262262242637],[99.89420419956423,2.7719683795619927],[99.89650718256046,2.762668671956729],[99.93576078133502,2.7329805349911864],[99.91107258263366,2.700783571007618],[99.92089447979644,2.668812306280422],[99.9147354268985,2.655632756998057],[99.8284921693782,2.631176859503093],[99.78229310913974,2.632033556381203],[99.78274520732548,2.64140863167048],[99.7634947593757,2.658262262242637]]]}},{"type":"Feature","properties":{"code":"1223022007","desa":"Pangkalan Lunang","kecamatan":"Kualuh Leidong","kecCode":"122302"},"geometry":{"type":"Polygon","coordinates":[[[99.91093641898061,2.7893602300965097],[99.93534895568979,2.8092549658283335],[99.9668585606741,2.7990031666582724],[99.96075579544367,2.784873750733856],[99.9629255717578,2.746571069052256],[99.90915325581817,2.776266851154529],[99.91536682112195,2.7829479146275666],[99.91093641898061,2.7893602300965097]]]}},{"type":"Feature","properties":{"code":"1223031001","desa":"Kampung Mesjid","kecamatan":"Kualuh Hilir","kecCode":"122303"},"geometry":{"type":"Polygon","coordinates":[[[100.071144104317,2.5731596923080273],[100.06991338299628,2.54008902436729],[100.01653941366305,2.5805971602647135],[100.00270582431438,2.5766343543302828],[100.0039161553064,2.587770888541806],[100.01486966939979,2.6068199386945117],[100.02992141833886,2.61047569270032],[100.071144104317,2.5731596923080273]]]}},{"type":"Feature","properties":{"code":"1223032002","desa":"Kuala Bangka","kecamatan":"Kualuh Hilir","kecCode":"122303"},"geometry":{"type":"Polygon","coordinates":[[[100.02024476888101,2.4511229138671293],[100.01443111140674,2.445497497093731],[100.01472861073688,2.4275324969288437],[100.00872055580908,2.427175553311188],[100.00909638968669,2.409346107958096],[99.9832418314454,2.408413055041056],[99.98054333290855,2.3832019365704076],[99.97219156378969,2.382419681074564],[99.97311920368838,2.39181681673351],[99.84415444736993,2.4477421887305013],[99.83491372089156,2.4797075871798127],[99.8593973454112,2.4889319540807597],[99.86893592555259,2.486170893309442],[99.86986283789969,2.491876792211312],[99.8757796718944,2.488807109295108],[99.8770328717697,2.4965729026432957],[99.8844380109055,2.497813384304873],[99.88168670687605,2.5041398414981124],[99.89108413842227,2.503363852478305],[99.89251589059592,2.5093764714589346],[99.89835006070678,2.504033593793104],[99.89738695604323,2.5111568701034424],[99.90618739962882,2.511182647371233],[99.90785533625483,2.528839283496708],[99.92344538609575,2.5162558795096426],[99.91539139060022,2.5095306179554187],[99.91967401344503,2.501373500807103],[99.92884841042587,2.510018782551992],[99.94698241840393,2.508017799095572],[99.94378421696807,2.522451301883665],[99.94893518740899,2.5361994790053237],[99.97031549256597,2.5453876086237024],[99.99942817407106,2.517533075094287],[99.99405059156163,2.501971399780314],[100.00594710327623,2.493640114528822],[100.00778097830953,2.45469775856658],[100.02024476888101,2.4511229138671293]]]}},{"type":"Feature","properties":{"code":"1223032003","desa":"Sei Sentang","kecamatan":"Kualuh Hilir","kecCode":"122303"},"geometry":{"type":"Polygon","coordinates":[[[100.03741997904889,2.483398675548828],[100.02024476888101,2.4511229138671293],[100.00778097830953,2.45469775856658],[100.00594710327623,2.493640114528822],[99.99405059156163,2.501971399780314],[99.99942817407106,2.517533075094287],[99.97031549256597,2.5453876086237024],[99.96363764056473,2.5817409297328298],[99.96812159283729,2.589908479016878],[100.00516194386869,2.57570114403189],[100.01653941366305,2.5805971602647135],[100.06991338299628,2.54008902436729],[100.05515521144389,2.514452220799756],[100.01544918263374,2.4942725798441514],[100.01585585876091,2.485577248129534],[100.03741997904889,2.483398675548828]]]}},{"type":"Feature","properties":{"code":"1223032004","desa":"Teluk Piai","kecamatan":"Kualuh Hilir","kecCode":"122303"},"geometry":{"type":"Polygon","coordinates":[[[100.05994746480371,2.6497188152295403],[100.06148698633541,2.6180094636588747],[100.071144104317,2.5731596923080273],[100.02992141833886,2.61047569270032],[100.03467660074459,2.6284733373562084],[100.05994746480371,2.6497188152295403]]]}},{"type":"Feature","properties":{"code":"1223032005","desa":"Tanjung Mangedar","kecamatan":"Kualuh Hilir","kecCode":"122303"},"geometry":{"type":"Polygon","coordinates":[[[100.05955076305729,2.734117099091106],[100.05235302916901,2.712999926594632],[100.06449303862291,2.6966506511138033],[100.05764007602873,2.6791253061142486],[100.05994746480371,2.6497188152295403],[100.03266893532316,2.624801401848836],[99.9758037042776,2.6153178782134585],[99.989770666683,2.6889623244672096],[99.96339194398308,2.6917202627924035],[99.95798033742267,2.7021193718127106],[99.96087386293844,2.7128045560748664],[99.99950846374469,2.7468881196432813],[100.01514508407841,2.7349745118295345],[100.03254291242553,2.7422825691425627],[100.04996347293599,2.740568081810708],[100.05955076305729,2.734117099091106]]]}},{"type":"Feature","properties":{"code":"1223032005","desa":"Tanjung Mangedar","kecamatan":"Kualuh Hilir","kecCode":"122303"},"geometry":{"type":"Polygon","coordinates":[[[100.02253487988088,2.7493029989839077],[100.02576856766534,2.756097549704446],[100.02994095341234,2.7529316771009285],[100.02766023942854,2.7505248520885943],[100.02253487988088,2.7493029989839077]]]}},{"type":"Feature","properties":{"code":"1223032005","desa":"Tanjung Mangedar","kecamatan":"Kualuh Hilir","kecCode":"122303"},"geometry":{"type":"Polygon","coordinates":[[[100.03154613714457,2.754357415506474],[100.02463594529267,2.761139627528534],[100.030548905008,2.7685278540059883],[100.03716380716399,2.760639940817894],[100.03154613714457,2.754357415506474]]]}},{"type":"Feature","properties":{"code":"1223032006","desa":"Teluk Binjai","kecamatan":"Kualuh Hilir","kecCode":"122303"},"geometry":{"type":"Polygon","coordinates":[[[99.87196584404852,2.5367156673761255],[99.88385131658504,2.54284777927686],[99.90636820922553,2.535445884903035],[99.90731183457358,2.56667319895813],[99.96318597495286,2.563833128248549],[99.97026335886697,2.545368887436737],[99.94893518740899,2.5361994790053237],[99.94378421696807,2.522451301883665],[99.94698241840393,2.508017799095572],[99.92884841042587,2.510018782551992],[99.91967401344503,2.501373500807103],[99.91539139060022,2.5095306179554187],[99.92344538609575,2.5162558795096426],[99.90785533625483,2.528839283496708],[99.90618739962882,2.511182647371233],[99.89738695604323,2.5111568701034424],[99.89835006070678,2.504033593793104],[99.89251589059592,2.5093764714589346],[99.89108413842227,2.503363852478305],[99.88168670687605,2.5041398414981124],[99.8844380109055,2.497813384304873],[99.8770328717697,2.4965729026432957],[99.8757796718944,2.488807109295108],[99.86986283789969,2.491876792211312],[99.86893592555259,2.486170893309442],[99.8593973454112,2.4889319540807597],[99.83491372089156,2.4797075871798127],[99.83485035555952,2.504050287908223],[99.84966746688012,2.518679134236414],[99.86245132436919,2.520325464648401],[99.87196584404852,2.5367156673761255]]]}},{"type":"Feature","properties":{"code":"1223032007","desa":"Sei Apung","kecamatan":"Kualuh Hilir","kecCode":"122303"},"geometry":{"type":"Polygon","coordinates":[[[99.90731183457358,2.56667319895813],[99.90306356133435,2.6013227112853783],[99.93329102985722,2.6028618586974015],[100.01947002901869,2.6258629193227376],[100.03332453300084,2.6235155359002604],[100.03286663958379,2.611988891074112],[100.01684389173226,2.608134506506108],[100.00723164902142,2.597887156282292],[100.00270582431438,2.5766343543302828],[99.97592727382471,2.589946475373295],[99.96482108542483,2.5873279715352555],[99.97031549256597,2.5453876086237024],[99.96318597495286,2.563833128248549],[99.90731183457358,2.56667319895813]]]}},{"type":"Feature","properties":{"code":"1223042001","desa":"Aek Korsik","kecamatan":"Aek Kuo","kecCode":"122304"},"geometry":{"type":"Polygon","coordinates":[[[99.98407694369604,2.3675747195651065],[99.98571500124638,2.3003868947806088],[99.95096372969243,2.299717516791904],[99.9547343262282,2.3201432788088314],[99.93495615520247,2.318150777757915],[99.93476486400732,2.3363495431985886],[99.90109099555302,2.334404954428945],[99.90023318621262,2.3518874026661702],[99.86243095472486,2.349944674593841],[99.84153267809067,2.335639635463321],[99.82223879108739,2.3340128626077776],[99.82259033607524,2.3570857484874677],[99.81473811427263,2.3645810509454432],[99.81730077471104,2.378183682686567],[99.85664904062075,2.442612552012761],[99.97311920368838,2.39181681673351],[99.97219156378969,2.382419681074564],[99.98054333290855,2.3832019365704076],[99.97935361078054,2.3680327757588966],[99.98407694369604,2.3675747195651065]]]}},{"type":"Feature","properties":{"code":"1223042002","desa":"Bandar Selamat","kecamatan":"Aek Kuo","kecCode":"122304"},"geometry":{"type":"Polygon","coordinates":[[[99.83567772734528,2.47236834857288],[99.84415444736993,2.4477421887305013],[99.85664904062075,2.442612552012761],[99.83390660340704,2.409473157881422],[99.81473811427263,2.3645810509454432],[99.77571495328253,2.3618446702690106],[99.75959829192773,2.367070111764263],[99.75276775392877,2.3772695685925322],[99.76261153339561,2.4009082872185243],[99.78231347158948,2.4113874332028207],[99.79948314283287,2.448375210726182],[99.83567772734528,2.47236834857288]]]}},{"type":"Feature","properties":{"code":"1223042003","desa":"Perk. Padang Halaban","kecamatan":"Aek Kuo","kecCode":"122304"},"geometry":{"type":"Polygon","coordinates":[[[99.86723822676282,2.323517635846056],[99.86718657060378,2.306864871550706],[99.83505542256977,2.3096708354717523],[99.83492868291243,2.3204106814270604],[99.86723822676282,2.323517635846056]]]}},{"type":"Feature","properties":{"code":"1223042004","desa":"Perkebunan Panigoran","kecamatan":"Aek Kuo","kecCode":"122304"},"geometry":{"type":"Polygon","coordinates":[[[99.81934695539773,2.308402600731904],[99.79112041277686,2.312860462767684],[99.7865554297893,2.3318631978350006],[99.81827931623752,2.333821309710165],[99.81934695539773,2.308402600731904]]]}},{"type":"Feature","properties":{"code":"1223042005","desa":"Sidomulyo","kecamatan":"Aek Kuo","kecCode":"122304"},"geometry":{"type":"Polygon","coordinates":[[[99.82223879108739,2.3340128626077776],[99.83551345538172,2.3346550576883214],[99.83505542256977,2.3096708354717523],[99.81934695539773,2.308402600731904],[99.82223879108739,2.3340128626077776]]]}},{"type":"Feature","properties":{"code":"1223042006","desa":"Karang Anyar","kecamatan":"Aek Kuo","kecCode":"122304"},"geometry":{"type":"Polygon","coordinates":[[[99.83551345538172,2.3346550576883214],[99.86243095472486,2.349944674593841],[99.90023318621262,2.3518874026661702],[99.90104785057792,2.3352842710551585],[99.88510829631086,2.344825243382702],[99.86723822676282,2.323517635846056],[99.83790253227606,2.3212466947974235],[99.83551345538172,2.3346550576883214]]]}},{"type":"Feature","properties":{"code":"1223042007","desa":"Padang Maninjau","kecamatan":"Aek Kuo","kecCode":"122304"},"geometry":{"type":"Polygon","coordinates":[[[99.7865554297893,2.3318631978350006],[99.7922504738803,2.3125138055955583],[99.74500873966167,2.3077236971241164],[99.75438819735747,2.3220221496199382],[99.7865554297893,2.3318631978350006]]]}},{"type":"Feature","properties":{"code":"1223042008","desa":"Purworejo","kecamatan":"Aek Kuo","kecCode":"122304"},"geometry":{"type":"Polygon","coordinates":[[[99.81473811427263,2.3645810509454432],[99.82259033607524,2.3570857484874677],[99.82223879108739,2.3340128626077776],[99.77207362439832,2.334105088982864],[99.77090267202078,2.348095147761725],[99.76430400082903,2.350944099276461],[99.77571495328253,2.3618446702690106],[99.81473811427263,2.3645810509454432]]]}},{"type":"Feature","properties":{"code":"1223051001","desa":"Marbau","kecamatan":"Marbau","kecCode":"122305"},"geometry":{"type":"Polygon","coordinates":[[[99.85132091632727,2.265883051041137],[99.8604425806606,2.2532832092457764],[99.87824727758984,2.2566301837253184],[99.85500142057913,2.22988306007396],[99.83349557096386,2.241053103924092],[99.80979059655886,2.2211211092801593],[99.80856881270063,2.2381535862286634],[99.81868152183483,2.2475227134018976],[99.81951061672162,2.2605438731862266],[99.85132091632727,2.265883051041137]]]}},{"type":"Feature","properties":{"code":"1223052002","desa":"Perkebunan Pernantian","kecamatan":"Marbau","kecCode":"122305"},"geometry":{"type":"Polygon","coordinates":[[[99.80239831143297,2.245089876398682],[99.80979059655886,2.2211211092801593],[99.80289122355117,2.213345805601411],[99.80931576980697,2.2101335333763745],[99.80945503522173,2.1877246025735344],[99.75530460202582,2.1881228025899615],[99.75517333608065,2.197457756424797],[99.76951156290835,2.197292974545746],[99.76986808294572,2.2385377109558604],[99.77168272058117,2.2503416941101517],[99.77555799100854,2.244994698448708],[99.80239831143297,2.245089876398682]],[[99.77919360290251,2.220731115577391],[99.77158785199782,2.2252070503890096],[99.77071318936225,2.220635475375837],[99.77919360290251,2.220731115577391]]]}},{"type":"Feature","properties":{"code":"1223052003","desa":"Perk. Marbau Selatan","kecamatan":"Marbau","kecCode":"122305"},"geometry":{"type":"Polygon","coordinates":[[[99.80289122355117,2.2158442409532175],[99.83349557096386,2.241053103924092],[99.82882734940272,2.2252431105050396],[99.83834519387567,2.231667655854454],[99.84667330722743,2.226789760960915],[99.84667330722743,2.21667705093843],[99.8383013276442,2.2125022613082095],[99.84272163489561,2.211265426397575],[99.8401678606583,2.2019243922464504],[99.82779466329316,2.203637604339612],[99.83001708142325,2.2121560744815127],[99.80943474291911,2.2044228266989],[99.80289122355117,2.2158442409532175]]]}},{"type":"Feature","properties":{"code":"1223052004","desa":"Perkebunan Milano","kecamatan":"Marbau","kecCode":"122305"},"geometry":{"type":"Polygon","coordinates":[[[99.88110014205797,2.1940497341661427],[99.86234371059385,2.189538297717459],[99.86416457693372,2.1809814669937335],[99.85773915743624,2.1809311067578565],[99.86501778084595,2.1990233519988482],[99.88129446486772,2.221316999608026],[99.88110014205797,2.1940497341661427]]]}},{"type":"Feature","properties":{"code":"1223052005","desa":"Perkebunan Brussel","kecamatan":"Marbau","kecCode":"122305"},"geometry":{"type":"Polygon","coordinates":[[[99.78851666141486,2.31255485964689],[99.86718657060378,2.306864871550706],[99.87200969139423,2.2788800640286224],[99.8661205259416,2.273454893899056],[99.82802233386364,2.2700233138994537],[99.82058651795346,2.280159816385874],[99.81937299256958,2.275091564693007],[99.7884209636566,2.2860442235191476],[99.78851666141486,2.31255485964689]]]}},{"type":"Feature","properties":{"code":"1223052006","desa":"Pulo Bargot","kecamatan":"Marbau","kecCode":"122305"},"geometry":{"type":"Polygon","coordinates":[[[99.8944772490259,2.195071691362583],[99.88110014205797,2.1940497341661427],[99.88129446486772,2.221316999608026],[99.85773915743624,2.1809311067578565],[99.85928445081679,2.2284553827300773],[99.85500142057913,2.22988306007396],[99.88256243071169,2.265188707872508],[99.9001115277249,2.2676590834771027],[99.90594002131502,2.2653478752839744],[99.89269832167025,2.255465973566462],[99.8944772490259,2.195071691362583]]]}},{"type":"Feature","properties":{"code":"1223052007","desa":"Sipare Pare Tengah","kecamatan":"Marbau","kecCode":"122305"},"geometry":{"type":"Polygon","coordinates":[[[99.89481009261173,2.2258496150909077],[99.89269832167025,2.255465973566462],[99.90594002131502,2.2653478752839744],[99.91112730278284,2.2331159915249907],[99.89481009261173,2.2258496150909077]]]}},{"type":"Feature","properties":{"code":"1223052008","desa":"Sipare Pare Hilir","kecamatan":"Marbau","kecCode":"122305"},"geometry":{"type":"Polygon","coordinates":[[[99.96292904134226,2.197265057790862],[99.96151152363795,2.208232517659149],[99.9464651346583,2.208603528472276],[99.93737559410846,2.2061288891818265],[99.92787493567981,2.189836581256091],[99.93165723689201,2.2089570294851364],[99.91880814707837,2.2091949757091336],[99.90594002131502,2.2653478752839744],[99.91981227971297,2.270649314887915],[99.95050683092556,2.2676872709280302],[99.97954735892351,2.2524923499359293],[99.99827876675177,2.2580420078202104],[99.98985936501775,2.1984739408730287],[99.96292904134226,2.197265057790862]]]}},{"type":"Feature","properties":{"code":"1223052009","desa":"Tubiran","kecamatan":"Marbau","kecCode":"122305"},"geometry":{"type":"Polygon","coordinates":[[[99.91981227971297,2.270649314887915],[99.89476131338398,2.2677368550489403],[99.88345472905257,2.265426653197182],[99.91482316835457,2.282976825780258],[99.91981227971297,2.270649314887915]]]}},{"type":"Feature","properties":{"code":"1223052010","desa":"Belongkut","kecamatan":"Marbau","kecCode":"122305"},"geometry":{"type":"Polygon","coordinates":[[[99.98571500124638,2.3003868947806088],[99.98678093798998,2.2745915092603837],[100.020454875692,2.276790199675122],[100.02244059495756,2.253725720658041],[100.00270082408383,2.262290803560888],[99.99752594336763,2.255348576066735],[99.99144466384023,2.258976381841309],[99.97954735892351,2.2524923499359293],[99.95364771856742,2.266973432256042],[99.9215456177361,2.2696586738837254],[99.91018321967988,2.284118967475491],[99.88732135159917,2.2706317250479944],[99.87862799298756,2.2566301837253184],[99.86214151601821,2.2527977992726],[99.85155924386406,2.2637304940485787],[99.85132437332122,2.273600668606656],[99.87431791204203,2.2709096614253794],[99.89331076987615,2.2858479177044595],[99.90415635273352,2.285471963318062],[99.89968224623874,2.2985056164843267],[99.98571500124638,2.3003868947806088]]]}},{"type":"Feature","properties":{"code":"1223052011","desa":"Simpang Empat","kecamatan":"Marbau","kecCode":"122305"},"geometry":{"type":"Polygon","coordinates":[[[99.85132437332122,2.273600668606656],[99.84517229466569,2.2608190657320533],[99.82950949686585,2.270112542834129],[99.85132437332122,2.273600668606656]]]}},{"type":"Feature","properties":{"code":"1223052012","desa":"Babussalam","kecamatan":"Marbau","kecCode":"122305"},"geometry":{"type":"Polygon","coordinates":[[[99.83563708608273,2.237698062525729],[99.8432534184106,2.239101177585942],[99.85928445081679,2.2284553827300773],[99.85811819379967,2.2165594465946383],[99.84667330722743,2.21667705093843],[99.84667330722743,2.226789760960915],[99.83834519387567,2.231667655854454],[99.82882734940272,2.2252431105050396],[99.83563708608273,2.237698062525729]]]}},{"type":"Feature","properties":{"code":"1223052013","desa":"Marbau Selatan","kecamatan":"Marbau","kecCode":"122305"},"geometry":{"type":"Polygon","coordinates":[[[99.81287834326098,2.180979002851321],[99.80943474291911,2.2044228266989],[99.81979967501508,2.204399031536912],[99.8204992369503,2.212394020705527],[99.83001708142325,2.2121560744815127],[99.82779466329316,2.203637604339612],[99.8401678606583,2.2019243922464504],[99.83989184343386,2.216558077826464],[99.85811819379967,2.2165594465946383],[99.85773915743624,2.1809311067578565],[99.81287834326098,2.180979002851321]]]}},{"type":"Feature","properties":{"code":"1223052014","desa":"Aek Tapa","kecamatan":"Marbau","kecCode":"122305"},"geometry":{"type":"Polygon","coordinates":[[[99.82949007420761,2.2662736778666495],[99.81951061672162,2.2605438731862266],[99.81868152183483,2.2475227134018976],[99.80856881270063,2.2381535862286634],[99.80239831143297,2.245089876398682],[99.77555799100854,2.244994698448708],[99.77168272058117,2.2503416941101517],[99.78605079680688,2.2785009413306367],[99.82949007420761,2.2662736778666495]]]}},{"type":"Feature","properties":{"code":"1223052015","desa":"Lobu Rampah","kecamatan":"Marbau","kecCode":"122305"},"geometry":{"type":"Polygon","coordinates":[[[99.7884209636566,2.2860442235191476],[99.81937299256958,2.275091564693007],[99.82058651795346,2.280159816385874],[99.82950949686585,2.270112542834129],[99.82949007420761,2.2662736778666495],[99.79666657590182,2.2728310593774075],[99.78605079680688,2.2785009413306367],[99.7884209636566,2.2860442235191476]]]}},{"type":"Feature","properties":{"code":"1223052016","desa":"Bulungihit","kecamatan":"Marbau","kecCode":"122305"},"geometry":{"type":"Polygon","coordinates":[[[99.8661205259416,2.273454893899056],[99.87200969139423,2.2788800640286224],[99.87198632520881,2.29802856840755],[99.89968224623874,2.2985056164843267],[99.90415635273352,2.285471963318062],[99.89331076987615,2.2858479177044595],[99.87431791204203,2.2709096614253794],[99.8661205259416,2.273454893899056]]]}},{"type":"Feature","properties":{"code":"1223052017","desa":"Aek Hitetoras","kecamatan":"Marbau","kecCode":"122305"},"geometry":{"type":"Polygon","coordinates":[[[99.90104785057792,2.3352842710551585],[99.93476486400732,2.3363495431985886],[99.93495615520247,2.318150777757915],[99.9547343262282,2.3201432788088314],[99.9553103276096,2.306404879116505],[99.94770003692724,2.2993326986874814],[99.86724125208217,2.298931385218125],[99.86723822676282,2.323517635846056],[99.88510829631086,2.344825243382702],[99.90104785057792,2.3352842710551585]]]}},{"type":"Feature","properties":{"code":"1223052018","desa":"Sumber Mulyo","kecamatan":"Marbau","kecCode":"122305"},"geometry":{"type":"Polygon","coordinates":[[[99.92787493567981,2.189836581256091],[99.8944772490259,2.195071691362583],[99.89481009261173,2.2258496150909077],[99.91112730278284,2.2331159915249907],[99.91880814707837,2.2091949757091336],[99.93165723689201,2.2089570294851364],[99.92787493567981,2.189836581256091]]]}},{"type":"Feature","properties":{"code":"1223071001","desa":"Bandar Durian","kecamatan":"Aek Natas","kecCode":"122307"},"geometry":{"type":"Polygon","coordinates":[[[99.72178559682787,2.3898109274753114],[99.71383050877101,2.354938151255979],[99.73587967120993,2.3528758781028483],[99.70622248707814,2.330530267665825],[99.69092479604255,2.3312942894071815],[99.67577978920598,2.343963591240102],[99.67739782155229,2.356646118502986],[99.67147636684092,2.355801548083358],[99.6559503838032,2.371565477327932],[99.63796432059694,2.4116690487066648],[99.68036585769822,2.423168191365406],[99.67455184589103,2.4073054688960975],[99.67778791238231,2.3997863721753876],[99.70500894640581,2.38893603011768],[99.72178559682787,2.3898109274753114]]]}},{"type":"Feature","properties":{"code":"1223072002","desa":"Poldung","kecamatan":"Aek Natas","kecCode":"122307"},"geometry":{"type":"Polygon","coordinates":[[[99.39460694125738,2.170900553401517],[99.42749786443493,2.2180089927526776],[99.46203613336093,2.2281320072070687],[99.4815063477398,2.2430453270844803],[99.50174713092541,2.247343060333575],[99.52169028527851,2.2421936852955944],[99.51533680524943,2.2106323459459785],[99.53144025556338,2.1803940361291194],[99.5348408476271,2.153333461872845],[99.55148331380393,2.133046039868283],[99.55101369592539,2.1080426054348917],[99.54202874563013,2.087655407246708],[99.53480552675369,2.0940010982405424],[99.52082807735393,2.0915548145741996],[99.51164149995532,2.123155108957397],[99.48906253520788,2.1118616835186463],[99.45732941631957,2.126068317931597],[99.41452027768872,2.112674164329049],[99.38755805595956,2.1357236084802143],[99.39481406141988,2.1493491819266164],[99.39460694125738,2.170900553401517]]]}},{"type":"Feature","properties":{"code":"1223072003","desa":"Rombisan","kecamatan":"Aek Natas","kecCode":"122307"},"geometry":{"type":"Polygon","coordinates":[[[99.52169028527851,2.2421936852955944],[99.53823852498799,2.2498652917466044],[99.53570556555944,2.2564852211055872],[99.54758453419896,2.2681360218366713],[99.54631404036074,2.2872215323036147],[99.62274621956242,2.2964815195520205],[99.63052874930241,2.2756493404131746],[99.61642903257386,2.2388385566629583],[99.59388742656353,2.2234451481009687],[99.5802599195597,2.1995297278668584],[99.57681445222522,2.2299713582102605],[99.55992730839866,2.2436476965875705],[99.54602304402833,2.239391787209517],[99.54688859473293,2.2053026199657593],[99.54112750443085,2.1858051804320304],[99.53144025556338,2.1803940361291194],[99.51533680524943,2.2106323459459785],[99.52169028527851,2.2421936852955944]]]}},{"type":"Feature","properties":{"code":"1223072004","desa":"Sibito","kecamatan":"Aek Natas","kecCode":"122307"},"geometry":{"type":"Polygon","coordinates":[[[99.54631404036074,2.2872215323036147],[99.55185699470461,2.3087148642316504],[99.55725306098003,2.30997458958636],[99.56205005376705,2.3016940656684013],[99.5864562988192,2.314833161646434],[99.58188446029965,2.337443732143018],[99.57030654690963,2.3420472007131994],[99.57437274430674,2.3712284545929325],[99.60244093789902,2.343844867240335],[99.63463467065363,2.297921443863474],[99.54631404036074,2.2872215323036147]]]}},{"type":"Feature","properties":{"code":"1223072005","desa":"Simonis","kecamatan":"Aek Natas","kecCode":"122307"},"geometry":{"type":"Polygon","coordinates":[[[99.63052874930241,2.2756493404131746],[99.62274621956242,2.2964815195520205],[99.67749049489049,2.3033746683442087],[99.67801127969686,2.292464433236954],[99.64048176042496,2.2837900008672936],[99.63052874930241,2.2756493404131746]]]}},{"type":"Feature","properties":{"code":"1223072006","desa":"Perk. Aek Pamienke","kecamatan":"Aek Natas","kecCode":"122307"},"geometry":{"type":"Polygon","coordinates":[[[99.75959829192773,2.367070111764263],[99.77571495328253,2.3618446702690106],[99.76430400082903,2.350944099276461],[99.77090267202078,2.348095147761725],[99.77207362439832,2.334105088982864],[99.78715858889778,2.332199817673721],[99.74830873176262,2.3166831543274427],[99.74198545366579,2.3261410832573386],[99.7235603387387,2.327887015384443],[99.71869888074882,2.34276270672822],[99.73587967120993,2.3528758781028483],[99.74764819860552,2.352304808604239],[99.75959829192773,2.367070111764263]]]}},{"type":"Feature","properties":{"code":"1223072007","desa":"Pangkalan","kecamatan":"Aek Natas","kecCode":"122307"},"geometry":{"type":"Polygon","coordinates":[[[99.76723571785413,2.4058265616719416],[99.75513085390583,2.387958214345193],[99.75276775392877,2.3772695685925322],[99.75959829192773,2.367070111764263],[99.74898069620222,2.353351771450169],[99.71383050877101,2.354938151255979],[99.72388171776714,2.401937027101862],[99.75415427559936,2.432690842704193],[99.75399401641079,2.413892933628549],[99.76723571785413,2.4058265616719416]]]}},{"type":"Feature","properties":{"code":"1223072008","desa":"Adian Torop","kecamatan":"Aek Natas","kecCode":"122307"},"geometry":{"type":"Polygon","coordinates":[[[99.75415427559936,2.432690842704193],[99.74126308402418,2.4215885231999663],[99.7344340308059,2.410500234918234],[99.7313784222764,2.436957211197661],[99.74920952869684,2.4585461500524275],[99.7560918262768,2.4439883456692235],[99.75415427559936,2.432690842704193]]]}},{"type":"Feature","properties":{"code":"1223072009","desa":"Ujung Padang","kecamatan":"Aek Natas","kecCode":"122307"},"geometry":{"type":"Polygon","coordinates":[[[99.83491372089156,2.4797075871798127],[99.82754557356941,2.4642441250277414],[99.79948314283287,2.448375210726182],[99.77680115085245,2.4064690157572444],[99.7555644602317,2.4113944991761556],[99.7560918262768,2.4439883456692235],[99.74920952869684,2.4585461500524275],[99.76104188097808,2.4707414525103197],[99.76241795072791,2.4866790948011377],[99.79357928155865,2.4819304306868526],[99.80204529785225,2.4738553038300726],[99.81506099157156,2.482537817507637],[99.83491372089156,2.4797075871798127]]]}},{"type":"Feature","properties":{"code":"1223072010","desa":"Kampung Yaman","kecamatan":"Aek Natas","kecCode":"122307"},"geometry":{"type":"Polygon","coordinates":[[[99.70202874962717,2.3303369520969657],[99.71869888074882,2.34276270672822],[99.71893649242526,2.3330398555102705],[99.7326844618185,2.3271476413623757],[99.7328252767652,2.3187534377420325],[99.69650383658283,2.311160622693978],[99.67801127969686,2.292464433236954],[99.67749049489049,2.3033746683442087],[99.68992317881174,2.310721254412208],[99.70202874962717,2.3303369520969657]]]}},{"type":"Feature","properties":{"code":"1223072011","desa":"Terang Bulan","kecamatan":"Aek Natas","kecCode":"122307"},"geometry":{"type":"Polygon","coordinates":[[[99.72178559682787,2.3898109274753114],[99.69073217924671,2.393599775747929],[99.67455184589103,2.4073054688960975],[99.68036585769822,2.423168191365406],[99.70569461741275,2.4325742635874996],[99.71335397600524,2.450295116702946],[99.731874250896,2.43343112234356],[99.73283875940126,2.4140966813331306],[99.72178559682787,2.3898109274753114]]]}},{"type":"Feature","properties":{"code":"1223072012","desa":"Perkebunan Halimbe","kecamatan":"Aek Natas","kecCode":"122307"},"geometry":{"type":"Polygon","coordinates":[[[99.65389838810016,2.3792996334258865],[99.67147636684092,2.355801548083358],[99.67739782155229,2.356646118502986],[99.67727884933947,2.3411558277756597],[99.70202874962717,2.3303369520969657],[99.68992317881174,2.310721254412208],[99.67462667757917,2.301610513254458],[99.63463467065363,2.297921443863474],[99.5803733717338,2.366629333345533],[99.59924963696125,2.3574398556434284],[99.61469233918018,2.357868158666693],[99.62349634408103,2.369646490458337],[99.64931349592113,2.365886942097973],[99.65389838810016,2.3792996334258865]]]}},{"type":"Feature","properties":{"code":"1223081001","desa":"Gunting Saga","kecamatan":"Kualuh Selatan","kecCode":"122308"},"geometry":{"type":"Polygon","coordinates":[[[99.6575029922693,2.5340300003691243],[99.68846782842756,2.5244278372703013],[99.70311000092585,2.5353944418833776],[99.71641639959721,2.526993701990409],[99.71756336255919,2.502947466371478],[99.67809418729694,2.498916262498873],[99.65645032142525,2.512519984218406],[99.6575029922693,2.5340300003691243]]]}},{"type":"Feature","properties":{"code":"1223082002","desa":"Damuli Pekan","kecamatan":"Kualuh Selatan","kecCode":"122308"},"geometry":{"type":"Polygon","coordinates":[[[99.65645032142525,2.512519984218406],[99.67809418729694,2.498916262498873],[99.67645423577443,2.464268463380255],[99.65748975155081,2.481421834392705],[99.59429485991988,2.505645186991814],[99.60550240641099,2.515796511204959],[99.65645032142525,2.512519984218406]]]}},{"type":"Feature","properties":{"code":"1223082003","desa":"Siamporik","kecamatan":"Kualuh Selatan","kecCode":"122308"},"geometry":{"type":"Polygon","coordinates":[[[99.70715060901347,2.434483184345466],[99.63364044944721,2.410304789754768],[99.63749907342354,2.420199787399962],[99.63072422774098,2.4273702781176727],[99.64393754658056,2.436920398349037],[99.63973793205997,2.4485225772337613],[99.66520189764951,2.448556949322349],[99.68042925180855,2.4680573656120997],[99.68075991273986,2.4840453321660068],[99.6931212102757,2.450214573420581],[99.70715060901347,2.434483184345466]]]}},{"type":"Feature","properties":{"code":"1223082004","desa":"Lobu Huala","kecamatan":"Kualuh Selatan","kecCode":"122308"},"geometry":{"type":"Polygon","coordinates":[[[99.57030654690963,2.3420472007131994],[99.56069703723851,2.3340153267502166],[99.52191162102457,2.3492093061521264],[99.51880645805164,2.3743407707699316],[99.58392822900464,2.4682975664364784],[99.59991794655603,2.4597248321016543],[99.620954634249,2.473292265277256],[99.63048723839539,2.4665866772921428],[99.64399603488913,2.4380857821232182],[99.63072422774098,2.4273702781176727],[99.63749907342354,2.420199787399962],[99.63364044944721,2.410304789754768],[99.63796432059694,2.4116690487066648],[99.65398732925189,2.382213565455074],[99.64986077205702,2.3663866288086077],[99.62349634408103,2.369646490458337],[99.61495407876775,2.357963336616718],[99.6038419962112,2.356749811234153],[99.57437274430674,2.3712284545929325],[99.57030654690963,2.3420472007131994]]]}},{"type":"Feature","properties":{"code":"1223082005","desa":"Gunung Melayu","kecamatan":"Kualuh Selatan","kecCode":"122308"},"geometry":{"type":"Polygon","coordinates":[[[99.63463910790858,2.4864169388277153],[99.65748975155081,2.481421834392705],[99.67645423577443,2.464268463380255],[99.66520189764951,2.448556949322349],[99.63973793205997,2.4485225772337613],[99.63048723839539,2.4665866772921428],[99.63621980669875,2.473230817299898],[99.63463910790858,2.4864169388277153]]]}},{"type":"Feature","properties":{"code":"1223082006","desa":"Damuli Kebun","kecamatan":"Kualuh Selatan","kecCode":"122308"},"geometry":{"type":"Polygon","coordinates":[[[99.59429485991988,2.505645186991814],[99.63463910790858,2.4864169388277153],[99.63621980669875,2.473230817299898],[99.63048723839539,2.4665866772921428],[99.620954634249,2.473292265277256],[99.59991794655603,2.4597248321016543],[99.58392822900464,2.4682975664364784],[99.57436137957403,2.482837360097093],[99.59429485991988,2.505645186991814]]]}},{"type":"Feature","properties":{"code":"1223082007","desa":"Hasang","kecamatan":"Kualuh Selatan","kecCode":"122308"},"geometry":{"type":"Polygon","coordinates":[[[99.52307315570164,2.3819451672873364],[99.53023529082606,2.422674414099864],[99.5206603996578,2.4422287915110332],[99.528236389298,2.44916963314991],[99.51391013064806,2.478762207255537],[99.51474257281153,2.489591403554026],[99.53107939090125,2.5104941992585745],[99.53145245576626,2.5245193522816547],[99.57843707381198,2.4899189006699465],[99.57436137957403,2.482837360097093],[99.58392822900464,2.4682975664364784],[99.52307315570164,2.3819451672873364]]]}},{"type":"Feature","properties":{"code":"1223082008","desa":"Bandar Lama","kecamatan":"Kualuh Selatan","kecCode":"122308"},"geometry":{"type":"Polygon","coordinates":[[[99.53145245576626,2.5245193522816547],[99.53094341520647,2.5327252702413734],[99.54455206792362,2.530334624032614],[99.55268281336123,2.5434061557441225],[99.56099349425442,2.5386450962740383],[99.57874843888942,2.5428638807387514],[99.59378879521675,2.5359327967439937],[99.61164626436369,2.538243823274107],[99.60690532542047,2.5170671930000195],[99.57744901386097,2.4903863826581407],[99.53145245576626,2.5245193522816547]]]}},{"type":"Feature","properties":{"code":"1223082009","desa":"Sidua Dua","kecamatan":"Kualuh Selatan","kecCode":"122308"},"geometry":{"type":"Polygon","coordinates":[[[99.61164626436369,2.538243823274107],[99.6257471708953,2.530361296125854],[99.6575029922693,2.5340300003691243],[99.65645032142525,2.512519984218406],[99.60550240641099,2.515796511204959],[99.61164626436369,2.538243823274107]]]}},{"type":"Feature","properties":{"code":"1223082010","desa":"Simangalam","kecamatan":"Kualuh Selatan","kecCode":"122308"},"geometry":{"type":"Polygon","coordinates":[[[99.76104188097808,2.4707414525103197],[99.7313784222764,2.436957211197661],[99.71335397600524,2.450295116702946],[99.70715060901347,2.434483184345466],[99.6931212102757,2.450214573420581],[99.67809418729694,2.498916262498873],[99.70996176292509,2.5047741989870587],[99.76241795072791,2.4866790948011377],[99.76104188097808,2.4707414525103197]]]}},{"type":"Feature","properties":{"code":"1223082011","desa":"Tanjung Pasir","kecamatan":"Kualuh Selatan","kecCode":"122308"},"geometry":{"type":"Polygon","coordinates":[[[99.73922233704126,2.535220902406329],[99.7389385137015,2.5137802716492934],[99.80863239207126,2.517239593935434],[99.80927982930075,2.507269585637058],[99.83532578575648,2.5045278494978827],[99.83460285403855,2.483276396529017],[99.81506099157156,2.482537817507637],[99.80204529785225,2.4738553038300726],[99.79357928155865,2.4819304306868526],[99.71756336255919,2.502947466371478],[99.71641639959721,2.526993701990409],[99.73340509037268,2.5263557948773676],[99.73922233704126,2.535220902406329]]]}},{"type":"Feature","properties":{"code":"1223082012","desa":"Sialang Taji","kecamatan":"Kualuh Selatan","kecCode":"122308"},"geometry":{"type":"Polygon","coordinates":[[[99.77048305644797,2.5179061975156087],[99.7820196810635,2.521118021878295],[99.78188762101695,2.54138865174176],[99.76751448970201,2.5421547805946774],[99.77728027186708,2.5513581582183886],[99.79274030042463,2.553863637060406],[99.81707747844291,2.5381677127501474],[99.82194348340511,2.527021338156842],[99.8565971353496,2.5381786997675886],[99.87196584404852,2.5367156673761255],[99.86245132436919,2.520325464648401],[99.84966746688012,2.518679134236414],[99.83532578575648,2.5045278494978827],[99.80927982930075,2.507269585637058],[99.80863239207126,2.517239593935434],[99.77148479778526,2.5128799387662255],[99.77048305644797,2.5179061975156087]]]}},{"type":"Feature","properties":{"code":"1223062002","desa":"Pematang","kecamatan":"Na IX-X","kecCode":"122306"},"geometry":{"type":"Polygon","coordinates":[[[99.58944955375398,2.01670175953229],[99.56318754416985,2.0302121963745527],[99.54956179623997,2.057350937904312],[99.56004464564394,2.059868208656968],[99.59894943157104,2.116191822938241],[99.61967589272831,2.1117157478324056],[99.65981021556904,2.12629977644639],[99.67096244386175,2.122227216350271],[99.68953807202443,2.087708774815472],[99.70691312144343,2.0869333955359815],[99.67296600297873,2.0757570249553288],[99.66761971597718,2.064736073411793],[99.64911709837543,2.059636985764595],[99.63064250005141,2.0426847193493587],[99.61605802086103,2.040690881905938],[99.62555802098592,1.9972908815441008],[99.60545802127074,1.9968908819842117],[99.58944955375398,2.01670175953229]]]}},{"type":"Feature","properties":{"code":"1223061001","desa":"Aek Kota Batu","kecamatan":"Na IX-X","kecCode":"122306"},"geometry":{"type":"Polygon","coordinates":[[[99.76758296228394,2.271570326782039],[99.75724772400332,2.238966946576119],[99.7161707920485,2.2420255966094307],[99.72507565861478,2.2496175042414985],[99.72393956036247,2.2767131601514965],[99.74059902822262,2.290418460295918],[99.74894237878783,2.292386392767845],[99.76758296228394,2.271570326782039]]]}},{"type":"Feature","properties":{"code":"1223062003","desa":"Batu Tunggal","kecamatan":"Na IX-X","kecCode":"122306"},"geometry":{"type":"Polygon","coordinates":[[[99.75530460202582,2.1881228025899615],[99.77201425655277,2.1854098537494386],[99.76349556696692,2.134717643028327],[99.73188781716907,2.1182911373677507],[99.71520996087105,2.0888326144077554],[99.68953807202443,2.087708774815472],[99.67096244386175,2.122227216350271],[99.65981021556904,2.12629977644639],[99.61967589272831,2.1117157478324056],[99.59894943157104,2.116191822938241],[99.61611606760249,2.1178760291974967],[99.63180292856237,2.1291383479861063],[99.65637827673612,2.189410420417915],[99.66039176576743,2.1686013601508773],[99.6732585524403,2.1496185477648884],[99.713525855334,2.154464523021102],[99.72158319720683,2.1660804471439103],[99.7200546590953,2.1754936896607084],[99.73543307687504,2.1834034293946925],[99.73126988579666,2.1766926882942266],[99.75624289259548,2.1768050684763067],[99.76212546781612,2.1814676395919705],[99.75530460202582,2.1881228025899615]]]}},{"type":"Feature","properties":{"code":"1223062004","desa":"Sungai Raja","kecamatan":"Na IX-X","kecCode":"122306"},"geometry":{"type":"Polygon","coordinates":[[[99.73543307687504,2.1834034293946925],[99.71852861840107,2.174156308746811],[99.72158319720683,2.1660804471439103],[99.713525855334,2.154464523021102],[99.6732585524403,2.1496185477648884],[99.66039176576743,2.1686013601508773],[99.65823640108907,2.19121291000914],[99.67897395628313,2.196772073727434],[99.68524275974562,2.1903461569119242],[99.70196234098933,2.1991093074012955],[99.74658908591765,2.2052255489658013],[99.74122703200196,2.188354415788144],[99.73004280403222,2.186506728968881],[99.73543307687504,2.1834034293946925]]]}},{"type":"Feature","properties":{"code":"1223062005","desa":"Perkebunan Berangir","kecamatan":"Na IX-X","kecCode":"122306"},"geometry":{"type":"Polygon","coordinates":[[[99.76986808294572,2.2385377109558604],[99.76951156290835,2.197292974545746],[99.75517333608065,2.197457756424797],[99.7600502030545,2.1784424389428363],[99.73126988579666,2.1766926882942266],[99.73544162762909,2.185550568871212],[99.73004280403222,2.186506728968881],[99.74122703200196,2.188354415788144],[99.74658908591765,2.2052255489658013],[99.70772914198636,2.199766305322668],[99.70717634041586,2.226403867267257],[99.71302400485398,2.2313591173465346],[99.70912605802123,2.239069997191273],[99.75652957757802,2.2409901585755327],[99.74333232962339,2.221017088296525],[99.744324641569,2.2057827904886826],[99.75710111562402,2.2205826447022954],[99.75724772400332,2.238966946576119],[99.76986808294572,2.2385377109558604]]]}},{"type":"Feature","properties":{"code":"1223062005","desa":"Perkebunan Berangir","kecamatan":"Na IX-X","kecCode":"122306"},"geometry":{"type":"Polygon","coordinates":[[[99.77248152720078,2.2258382719419654],[99.77919360290251,2.220731115577391],[99.77071318936225,2.220635475375837],[99.77248152720078,2.2258382719419654]]]}},{"type":"Feature","properties":{"code":"1223062006","desa":"Silumajang","kecamatan":"Na IX-X","kecCode":"122306"},"geometry":{"type":"Polygon","coordinates":[[[99.72276750631546,2.273442771037895],[99.72507565861478,2.2496175042414985],[99.7161707920485,2.2420255966094307],[99.72429803732462,2.241799593382169],[99.70912605802123,2.239069997191273],[99.71302400485398,2.2313591173465346],[99.70717634041586,2.226403867267257],[99.70772914198636,2.199766305322668],[99.68524275974562,2.1903461569119242],[99.67689425966239,2.1968019617962713],[99.65637827673612,2.189410420417915],[99.63572727859109,2.2121798912272186],[99.67140908855866,2.2443447395209484],[99.69283684194674,2.2740346922174624],[99.72276750631546,2.273442771037895]]]}},{"type":"Feature","properties":{"code":"1223062007","desa":"Pulo Jantan","kecamatan":"Na IX-X","kecCode":"122306"},"geometry":{"type":"Polygon","coordinates":[[[99.74782975284084,2.3044328133604304],[99.78853542307137,2.313783799409368],[99.7888319349459,2.2857534556148162],[99.7781152510181,2.264147705733119],[99.77108867700088,2.263912231745437],[99.74782975284084,2.3044328133604304]]]}},{"type":"Feature","properties":{"code":"1223062008","desa":"Kampung Pajak","kecamatan":"Na IX-X","kecCode":"122306"},"geometry":{"type":"Polygon","coordinates":[[[99.74830873176262,2.3166831543274427],[99.74500873966167,2.3077236971241164],[99.75668774584284,2.2853093577984747],[99.74353710525325,2.2917658533621266],[99.72276750631546,2.273442771037895],[99.70699322225947,2.271675112189468],[99.71018571929557,2.2888644488890844],[99.73688428408252,2.2988116746620735],[99.74052197161177,2.3103666733135775],[99.7336886798887,2.313677989674104],[99.73118290966362,2.3262677977334407],[99.74198545366579,2.3261410832573386],[99.74830873176262,2.3166831543274427]]]}},{"type":"Feature","properties":{"code":"1223062009","desa":"Meranti Omas","kecamatan":"Na IX-X","kecCode":"122306"},"geometry":{"type":"Polygon","coordinates":[[[99.58007222565277,2.1995704959337847],[99.59388742656353,2.2234451481009687],[99.61642903257386,2.2388385566629583],[99.62199209396003,2.260853627577553],[99.6385214856781,2.2825981680318],[99.71018571929557,2.2888644488890844],[99.70979645044588,2.2736670655532554],[99.69212930302494,2.2734764425546268],[99.66966222383263,2.242526376895641],[99.60977735174345,2.192619044992725],[99.58466553098954,2.1829873139837503],[99.58007222565277,2.1995704959337847]]]}},{"type":"Feature","properties":{"code":"1223062010","desa":"Hatapang","kecamatan":"Na IX-X","kecCode":"122306"},"geometry":{"type":"Polygon","coordinates":[[[99.54044080280083,2.0892206430919096],[99.55101369592539,2.1080426054348917],[99.55148331380393,2.133046039868283],[99.5348408476271,2.153333461872845],[99.53132030488818,2.1766377226301743],[99.54112750443085,2.1858051804320304],[99.54688859473293,2.2053026199657593],[99.5452149330228,2.2389614139468885],[99.55992730839866,2.2436476965875705],[99.57681445222522,2.2299713582102605],[99.58466553098954,2.1829873139837503],[99.60977735174345,2.192619044992725],[99.63572727859109,2.2121798912272186],[99.6467876384388,2.203676258100467],[99.65697142998755,2.183706361528971],[99.63180292856237,2.1291383479861063],[99.61611606760249,2.1178760291974967],[99.59894943157104,2.116191822938241],[99.56004464564394,2.059868208656968],[99.54747980904602,2.058877564055516],[99.55061305964506,2.0787369258537227],[99.54044080280083,2.0892206430919096]]]}},{"type":"Feature","properties":{"code":"1223062011","desa":"Pasang Lela","kecamatan":"Na IX-X","kecCode":"122306"},"geometry":{"type":"Polygon","coordinates":[[[99.75599419857349,2.2391758195170266],[99.75710111562402,2.2205826447022954],[99.74378273258706,2.2059262512406383],[99.74362705274632,2.221820462571944],[99.75599419857349,2.2391758195170266]]]}},{"type":"Feature","properties":{"code":"1223062012","desa":"Simpang Marbau","kecamatan":"Na IX-X","kecCode":"122306"},"geometry":{"type":"Polygon","coordinates":[[[99.77168272058117,2.2503416941101517],[99.7716900572504,2.23857881536923],[99.75724772400332,2.238966946576119],[99.76758296228394,2.271570326782039],[99.78054006157464,2.260337630762299],[99.77168272058117,2.2503416941101517]]]}},{"type":"Feature","properties":{"code":"1223062013","desa":"Bangun Rejo","kecamatan":"Na IX-X","kecCode":"122306"},"geometry":{"type":"Polygon","coordinates":[[[99.66817744763112,2.287935998702299],[99.68581102785669,2.29602998344302],[99.69650383658283,2.311160622693978],[99.7177344280015,2.3193173693215403],[99.73021261402096,2.321080605304197],[99.74052197161177,2.3103666733135775],[99.73468099273366,2.2960107748234413],[99.7206020332573,2.2903886342802635],[99.66817744763112,2.287935998702299]]]}}]}