{"type":"FeatureCollection","features":[{"type":"Feature","properties":{"code":"1224012001","desa":"Hilidundra","kecamatan":"Lotu","kecCode":"122401"},"geometry":{"type":"Polygon","coordinates":[[[97.34276874368264,1.3843233816731078],[97.36064892880506,1.3868877697063187],[97.35912025759386,1.3751317950608948],[97.33631503601013,1.3673254737648806],[97.3251556149397,1.3735006694866951],[97.33249719628861,1.3932792200044457],[97.34276874368264,1.3843233816731078]]]}},{"type":"Feature","properties":{"code":"1224012002","desa":"Lawira Satua","kecamatan":"Lotu","kecCode":"122401"},"geometry":{"type":"Polygon","coordinates":[[[97.37574186579451,1.4129563638676441],[97.3515553898694,1.3872125706547642],[97.34648986581469,1.394978611316351],[97.37574186579451,1.4129563638676441]]]}},{"type":"Feature","properties":{"code":"1224012003","desa":"Fadoro Fulolo","kecamatan":"Lotu","kecCode":"122401"},"geometry":{"type":"Polygon","coordinates":[[[97.37318174773952,1.3760954078403411],[97.35740751764291,1.3898546727032113],[97.36919069679328,1.3987263965442918],[97.38456996443239,1.3906239267002152],[97.40186386262724,1.394310454607043],[97.40528482163727,1.3789794823775574],[97.37318174773952,1.3760954078403411]]]}},{"type":"Feature","properties":{"code":"1224012004","desa":"Lawira I","kecamatan":"Lotu","kecCode":"122401"},"geometry":{"type":"Polygon","coordinates":[[[97.35074171655702,1.3879194764530451],[97.33833943871417,1.386537107853171],[97.33186931391776,1.3989232968108622],[97.35518235298326,1.4033160919973084],[97.38093256558551,1.417969234409603],[97.34648986581469,1.394978611316351],[97.35074171655702,1.3879194764530451]]]}},{"type":"Feature","properties":{"code":"1224012005","desa":"Hiligodu","kecamatan":"Lotu","kecCode":"122401"},"geometry":{"type":"Polygon","coordinates":[[[97.36730032185244,1.3985944633023308],[97.38099831322165,1.4140243753460136],[97.38264200502458,1.401203583614106],[97.39000574207141,1.4030445183234186],[97.39270708606323,1.3953782178725473],[97.38456996443239,1.3906239267002152],[97.36730032185244,1.3985944633023308]]]}},{"type":"Feature","properties":{"code":"1224012006","desa":"Lombuza'Ua","kecamatan":"Lotu","kecCode":"122401"},"geometry":{"type":"Polygon","coordinates":[[[97.38264200502458,1.401203583614106],[97.38161996598869,1.4277911792255802],[97.39373300837171,1.436106480826264],[97.4077357880762,1.4241625928394983],[97.39216666006335,1.4016688856456543],[97.38264200502458,1.401203583614106]]]}},{"type":"Feature","properties":{"code":"1224012007","desa":"Maziaya","kecamatan":"Lotu","kecCode":"122401"},"geometry":{"type":"Polygon","coordinates":[[[97.40528482163727,1.3789794823775574],[97.40186386262724,1.394310454607043],[97.39207267731229,1.3955136090077729],[97.39589940143628,1.406629328410355],[97.42479620787871,1.3813322608328276],[97.42463758455693,1.3744353169017303],[97.41082518863162,1.3639153039251997],[97.39962722171894,1.3660460730425406],[97.40528482163727,1.3789794823775574]]]}},{"type":"Feature","properties":{"code":"1224012008","desa":"Baho","kecamatan":"Lotu","kecCode":"122401"},"geometry":{"type":"Polygon","coordinates":[[[97.35912025759386,1.3751317950608948],[97.36216876687513,1.3825206852378005],[97.37318174773952,1.3760954078403411],[97.40528482163727,1.3789794823775574],[97.39238785821317,1.3578145882564816],[97.38263782857297,1.356750310763283],[97.35912025759386,1.3751317950608948]]]}},{"type":"Feature","properties":{"code":"1224012009","desa":"Lolofaoso","kecamatan":"Lotu","kecCode":"122401"},"geometry":{"type":"Polygon","coordinates":[[[97.35327540893303,1.404149383119857],[97.33186931391776,1.3989232968108622],[97.29880031598184,1.4500315491980091],[97.31495716534096,1.4580764732230431],[97.35601420609078,1.4323679703066],[97.35040925698166,1.4197839637738265],[97.35327540893303,1.404149383119857]]]}},{"type":"Feature","properties":{"code":"1224012010","desa":"Lawira Ii","kecamatan":"Lotu","kecCode":"122401"},"geometry":{"type":"Polygon","coordinates":[[[97.38066957504094,1.424938486531169],[97.37631435172601,1.4180869196924015],[97.35327540893303,1.404149383119857],[97.35040925698166,1.4197839637738265],[97.35789207505928,1.4321156394264445],[97.38066957504094,1.424938486531169]]]}},{"type":"Feature","properties":{"code":"1224012011","desa":"Dahadano","kecamatan":"Lotu","kecCode":"122401"},"geometry":{"type":"Polygon","coordinates":[[[97.38308699856617,1.4839499531714369],[97.39160666661444,1.4756833327724719],[97.38451888743674,1.4536422201896615],[97.38843332423856,1.4423636938192628],[97.36324644786531,1.4420328755070324],[97.3554151712732,1.4548609724319148],[97.36120827024553,1.4521580132606802],[97.37435780107171,1.4790488036085454],[97.38308699856617,1.4839499531714369]]]}},{"type":"Feature","properties":{"code":"1224012012","desa":"Lolomboli","kecamatan":"Lotu","kecCode":"122401"},"geometry":{"type":"Polygon","coordinates":[[[97.39373300837171,1.436106480826264],[97.37305492264665,1.4240748702692245],[97.31495716534096,1.4580764732230431],[97.32987248083036,1.474934241575657],[97.3398067302964,1.4744226577337012],[97.36324644786531,1.4420328755070324],[97.38843332423856,1.4423636938192628],[97.39373300837171,1.436106480826264]]]}},{"type":"Feature","properties":{"code":"1224012013","desa":"Hiligeo Afia","kecamatan":"Lotu","kecCode":"122401"},"geometry":{"type":"Polygon","coordinates":[[[97.38308699856617,1.4839499531714369],[97.37435780107171,1.4790488036085454],[97.36120827024553,1.4521580132606802],[97.34595481506271,1.4705016082212379],[97.33806509692675,1.470633103493396],[97.34849938204093,1.4879802343395117],[97.37457608092141,1.4909936331854239],[97.38308699856617,1.4839499531714369]]]}},{"type":"Feature","properties":{"code":"1224022001","desa":"Seriwa'U","kecamatan":"Sawo","kecCode":"122402"},"geometry":{"type":"Polygon","coordinates":[[[97.41362133915356,1.5223987773826395],[97.4169401360785,1.504442658922517],[97.41152864642993,1.5050252397432344],[97.41362133915356,1.5223987773826395]]]}},{"type":"Feature","properties":{"code":"1224022001","desa":"Seriwa'U","kecamatan":"Sawo","kecCode":"122402"},"geometry":{"type":"Polygon","coordinates":[[[97.45160944971637,1.7040488478755278],[97.44490845006499,1.6933528483665647],[97.43857645034296,1.7033228476715254],[97.44714071037554,1.706297626930948],[97.45160944971637,1.7040488478755278]]]}},{"type":"Feature","properties":{"code":"1224022002","desa":"Ombolata Sawo","kecamatan":"Sawo","kecCode":"122402"},"geometry":{"type":"Polygon","coordinates":[[[97.40780329298764,1.424114562746961],[97.38451888743674,1.4536422201896615],[97.38813526642946,1.4637259261766984],[97.40737939034663,1.4461634220898598],[97.41108506482395,1.4284317986938708],[97.40780329298764,1.424114562746961]]]}},{"type":"Feature","properties":{"code":"1224022003","desa":"Sanawuyu","kecamatan":"Sawo","kecCode":"122402"},"geometry":{"type":"Polygon","coordinates":[[[97.38996037667009,1.4690371602969743],[97.40026025090991,1.4579268341286655],[97.42288666658646,1.4559972199704547],[97.40734013044272,1.442751989602083],[97.38813526642946,1.4637259261766984],[97.38996037667009,1.4690371602969743]]]}},{"type":"Feature","properties":{"code":"1224022003","desa":"Sanawuyu","kecamatan":"Sawo","kecCode":"122402"},"geometry":{"type":"Polygon","coordinates":[[[97.40748465329413,1.4765396501366217],[97.40625817137754,1.4756149726058228],[97.40602058038553,1.4760516249349842],[97.40748465329413,1.4765396501366217]]]}},{"type":"Feature","properties":{"code":"1224022004","desa":"Onozitoli Sawo","kecamatan":"Sawo","kecCode":"122402"},"geometry":{"type":"Polygon","coordinates":[[[97.38996037667009,1.4690371602969743],[97.389999720211,1.4813269563205371],[97.40257303291916,1.4783949272339054],[97.40358581972986,1.4914132307713375],[97.4228783874277,1.4561147685562839],[97.40026025090991,1.4579268341286655],[97.38996037667009,1.4690371602969743]],[[97.40625817137754,1.4756149726058228],[97.40748465329413,1.4765396501366217],[97.40602058038553,1.4760516249349842],[97.40625817137754,1.4756149726058228]]]}},{"type":"Feature","properties":{"code":"1224022005","desa":"Sifahandro","kecamatan":"Sawo","kecCode":"122402"},"geometry":{"type":"Polygon","coordinates":[[[97.37136666943633,1.4882362524400035],[97.34849938204093,1.4879802343395117],[97.35165299958635,1.5041919980834135],[97.3346709997669,1.522790998706129],[97.34567099981683,1.5401349981129355],[97.36049728602096,1.5371156565469442],[97.36480125157658,1.4982582946123413],[97.37136666943633,1.4882362524400035]]]}},{"type":"Feature","properties":{"code":"1224022006","desa":"Sisarahili Teluk Siabang","kecamatan":"Sawo","kecCode":"122402"},"geometry":{"type":"Polygon","coordinates":[[[97.3723526762351,1.497414894210746],[97.37136666943633,1.4882362524400035],[97.36480125157658,1.4982582946123413],[97.36049728602096,1.5371156565469442],[97.37860527031705,1.5214890303964201],[97.37365429560928,1.5161400859041487],[97.38053956994524,1.5110000880972403],[97.3723526762351,1.497414894210746]]]}},{"type":"Feature","properties":{"code":"1224022007","desa":"Lasara Sawo","kecamatan":"Sawo","kecCode":"122402"},"geometry":{"type":"Polygon","coordinates":[[[97.40257303291916,1.4783949272339054],[97.37304549505359,1.4930027429158357],[97.38006903565753,1.5135273350293248],[97.40230672567492,1.4903440564696018],[97.40257303291916,1.4783949272339054]]]}},{"type":"Feature","properties":{"code":"1224022008","desa":"Sawo","kecamatan":"Sawo","kecCode":"122402"},"geometry":{"type":"Polygon","coordinates":[[[97.40358581972986,1.4914132307713375],[97.39628394165067,1.4917265743569557],[97.3955556814496,1.4995666013439135],[97.41063731935685,1.5031536741251086],[97.40358581972986,1.4914132307713375]]]}},{"type":"Feature","properties":{"code":"1224022009","desa":"Hiliduruwa","kecamatan":"Sawo","kecCode":"122402"},"geometry":{"type":"Polygon","coordinates":[[[97.41152864642993,1.5050252397432344],[97.42612521520658,1.5059500224947469],[97.43353266829808,1.4963865104589102],[97.41610696996075,1.4841795545862164],[97.41261531524462,1.4747091952271034],[97.40358581972986,1.4914132307713375],[97.41152864642993,1.5050252397432344]]]}},{"type":"Feature","properties":{"code":"1224022010","desa":"Teluk Bengkuang","kecamatan":"Sawo","kecCode":"122402"},"geometry":{"type":"Polygon","coordinates":[[[97.4169401360785,1.504442658922517],[97.41797196963073,1.509601824879498],[97.41784423172594,1.5201728950665254],[97.42968814029551,1.5037516540372937],[97.4169401360785,1.504442658922517]]]}},{"type":"Feature","properties":{"code":"1224032001","desa":"Botolakha","kecamatan":"Tuhemberua","kecCode":"122403"},"geometry":{"type":"Polygon","coordinates":[[[97.51275583861108,1.4328106399995169],[97.48650833059502,1.4123438877834409],[97.46888593343913,1.4096855844483078],[97.45685980333728,1.4165018897690107],[97.45634343600085,1.4239294777734952],[97.509187112895,1.4447842137076319],[97.51275583861108,1.4328106399995169]]]}},{"type":"Feature","properties":{"code":"1224032002","desa":"Siofa Banua","kecamatan":"Tuhemberua","kecCode":"122403"},"geometry":{"type":"Polygon","coordinates":[[[97.509187112895,1.4447842137076319],[97.45671914757064,1.4235125107045925],[97.43630571074004,1.4326392373116483],[97.49485153007413,1.451230802339672],[97.509187112895,1.4447842137076319]]]}},{"type":"Feature","properties":{"code":"1224032003","desa":"La'Aya","kecamatan":"Tuhemberua","kecCode":"122403"},"geometry":{"type":"Polygon","coordinates":[[[97.49216064070104,1.4635353499427703],[97.46043064785619,1.4492056244222848],[97.45431419224622,1.4580306887377579],[97.48659683197825,1.4756554061249632],[97.49216064070104,1.4635353499427703]]]}},{"type":"Feature","properties":{"code":"1224032004","desa":"Alo'Oa","kecamatan":"Tuhemberua","kecCode":"122403"},"geometry":{"type":"Polygon","coordinates":[[[97.49485153007413,1.451230802339672],[97.46158962306272,1.441389858446179],[97.45704104101128,1.4488034673887964],[97.49216064070104,1.4635353499427703],[97.49485153007413,1.451230802339672]]]}},{"type":"Feature","properties":{"code":"1224032005","desa":"Ladara","kecamatan":"Tuhemberua","kecCode":"122403"},"geometry":{"type":"Polygon","coordinates":[[[97.48659683197825,1.4756554061249632],[97.46873516299745,1.4629542107352287],[97.45431419224622,1.4580306887377579],[97.4532182109517,1.4706906070442338],[97.46671729566674,1.4720024984734248],[97.4731010001111,1.4794889983671917],[97.48659683197825,1.4756554061249632]]]}},{"type":"Feature","properties":{"code":"1224032006","desa":"Banua Gea","kecamatan":"Tuhemberua","kecCode":"122403"},"geometry":{"type":"Polygon","coordinates":[[[97.46158962306272,1.441389858446179],[97.43598666455301,1.4327272206852308],[97.43311265522493,1.4449203863537727],[97.44309492758889,1.4725176346374502],[97.4532182109517,1.4706906070442338],[97.46158962306272,1.441389858446179]]]}},{"type":"Feature","properties":{"code":"1224032007","desa":"Silima Banua","kecamatan":"Tuhemberua","kecCode":"122403"},"geometry":{"type":"Polygon","coordinates":[[[97.43307295555252,1.4432928068063793],[97.41260999755342,1.4746961091920185],[97.41610696996075,1.4841795545862164],[97.43399011025542,1.4854860842573525],[97.44309492758889,1.4725176346374502],[97.4393291397281,1.4526374004740938],[97.43307295555252,1.4432928068063793]]]}},{"type":"Feature","properties":{"code":"1224032008","desa":"Fino","kecamatan":"Tuhemberua","kecCode":"122403"},"geometry":{"type":"Polygon","coordinates":[[[97.41610696996075,1.4841795545862164],[97.42312411008965,1.4910273820438813],[97.43353266829808,1.4963865104589102],[97.43397166695893,1.484932220588091],[97.41610696996075,1.4841795545862164]]]}},{"type":"Feature","properties":{"code":"1224042001","desa":"Tetehosi Maziaya","kecamatan":"Sitolu Ori","kecCode":"122404"},"geometry":{"type":"Polygon","coordinates":[[[97.4621873439708,1.3890476130060283],[97.4525643489656,1.381975375020517],[97.45171287085236,1.3636859804009651],[97.4301099996768,1.3951599982776286],[97.44701044627514,1.3980145822463441],[97.4621873439708,1.3890476130060283]]]}},{"type":"Feature","properties":{"code":"1224042002","desa":"Umbubalodano","kecamatan":"Sitolu Ori","kecCode":"122404"},"geometry":{"type":"Polygon","coordinates":[[[97.45685980333728,1.4165018897690107],[97.48240986642224,1.3988709661603886],[97.50935051521418,1.368134814142699],[97.50752999960986,1.34886999864533],[97.49929000003351,1.3390799986477389],[97.48460801724627,1.3436972466301782],[97.47902436498254,1.3526565113784546],[97.47060262141387,1.3467378994306693],[97.4489599966066,1.359126166721566],[97.4525643489656,1.381975375020517],[97.46390132588556,1.3896227978023632],[97.45068503298796,1.3990531346324826],[97.45685980333728,1.4165018897690107]]]}},{"type":"Feature","properties":{"code":"1224042003","desa":"Hilimbosi","kecamatan":"Sitolu Ori","kecCode":"122404"},"geometry":{"type":"Polygon","coordinates":[[[97.46888593343913,1.4096855844483078],[97.48650833059502,1.4123438877834409],[97.51275583861108,1.4328106399995169],[97.52280999378625,1.4227375613010718],[97.53915797875777,1.420825912000024],[97.53464148811423,1.4124938488350685],[97.5275462283758,1.4141028178120694],[97.52458499829908,1.4032779670378335],[97.51668461510297,1.406569953370299],[97.49761934295837,1.3824011950156276],[97.46888593343913,1.4096855844483078]]]}},{"type":"Feature","properties":{"code":"1224042004","desa":"Hilisalo'O","kecamatan":"Sitolu Ori","kecCode":"122404"},"geometry":{"type":"Polygon","coordinates":[[[97.45634343600085,1.4239294777734952],[97.45068503298796,1.3990531346324826],[97.46293282259177,1.3890081705398194],[97.44701044627514,1.3980145822463441],[97.4301099996768,1.3951599982776286],[97.41783556585874,1.407158709835562],[97.41775213035656,1.4259429222361981],[97.43630571074004,1.4326392373116483],[97.45634343600085,1.4239294777734952]]]}},{"type":"Feature","properties":{"code":"1224042005","desa":"Fulolo Salo'O","kecamatan":"Sitolu Ori","kecCode":"122404"},"geometry":{"type":"Polygon","coordinates":[[[97.41775213035656,1.4259429222361981],[97.40734013044272,1.442751989602083],[97.42288666658646,1.4559972199704547],[97.43630571074004,1.4326392373116483],[97.41775213035656,1.4259429222361981]]]}},{"type":"Feature","properties":{"code":"1224042006","desa":"Botombawo","kecamatan":"Sitolu Ori","kecCode":"122404"},"geometry":{"type":"Polygon","coordinates":[[[97.39589940143628,1.406629328410355],[97.4077357880762,1.4241625928394983],[97.39380388843875,1.4360377762192904],[97.40780329298764,1.424114562746961],[97.40946698391421,1.4374491794314337],[97.41775213035656,1.4259429222361981],[97.41783556585874,1.407158709835562],[97.43461998192667,1.3865730006952635],[97.42114674642526,1.3817967894474268],[97.39589940143628,1.406629328410355]]]}},{"type":"Feature","properties":{"code":"1224052001","desa":"Berua","kecamatan":"Namohalu Esiwa","kecCode":"122405"},"geometry":{"type":"Polygon","coordinates":[[[97.3795027109814,1.3566350410594408],[97.39238785821317,1.3578145882564816],[97.40513390100881,1.3414084864146152],[97.39881603143476,1.3273859009562032],[97.40467161800079,1.311668272408051],[97.40010723755904,1.3087823542606098],[97.38509788985579,1.3099735458794595],[97.39163886324303,1.330963484091212],[97.37764868124168,1.3172817111109858],[97.36523004742877,1.3324395035922785],[97.37745119461697,1.334914877628818],[97.3795027109814,1.3566350410594408]]]}},{"type":"Feature","properties":{"code":"1224052002","desa":"Esiwa","kecamatan":"Namohalu Esiwa","kecCode":"122405"},"geometry":{"type":"Polygon","coordinates":[[[97.41082518863162,1.3639153039251997],[97.4245874968156,1.3743415472900393],[97.42495732771856,1.3842381574194769],[97.43461998192667,1.3865730006952635],[97.45171287085236,1.3636859804009651],[97.4489599966066,1.359126166721566],[97.46100968624808,1.3502974853328706],[97.45403508585059,1.341514413061669],[97.44671828801864,1.3549225763029178],[97.43311777866262,1.3525715110560566],[97.42495056841403,1.3608957788975116],[97.4163813234394,1.3494662887313664],[97.41082518863162,1.3639153039251997]]]}},{"type":"Feature","properties":{"code":"1224052003","desa":"Dahana Hiligodu","kecamatan":"Namohalu Esiwa","kecCode":"122405"},"geometry":{"type":"Polygon","coordinates":[[[97.33631503601013,1.3673254737648806],[97.35912025759386,1.3751317950608948],[97.36802498566458,1.3685710294013538],[97.3795027109814,1.3566350410594408],[97.37745119461697,1.334914877628818],[97.36523004742877,1.3324395035922785],[97.35490215840791,1.3412692560735482],[97.34357413963487,1.3407532340772832],[97.33631503601013,1.3673254737648806]]]}},{"type":"Feature","properties":{"code":"1224052004","desa":"Hilibanua","kecamatan":"Namohalu Esiwa","kecCode":"122405"},"geometry":{"type":"Polygon","coordinates":[[[97.45719493389915,1.2891366938635989],[97.44052923643515,1.2740401919783217],[97.43671440764388,1.2888452559643357],[97.42153642176851,1.302013786752747],[97.44020929002674,1.3065893124875847],[97.45448171076241,1.2994749799351373],[97.45719493389915,1.2891366938635989]]]}},{"type":"Feature","properties":{"code":"1224052005","desa":"Sisarahili","kecamatan":"Namohalu Esiwa","kecCode":"122405"},"geometry":{"type":"Polygon","coordinates":[[[97.46100968624808,1.3502974853328706],[97.47099438588225,1.3461832866261727],[97.4637706723787,1.3335027162881823],[97.46870966272081,1.3217494782797299],[97.45697610995956,1.3218574697702408],[97.45169563174807,1.315699058095744],[97.44626253768602,1.32023030391102],[97.44815589927536,1.3350530899373314],[97.46100968624808,1.3502974853328706]]]}},{"type":"Feature","properties":{"code":"1224052006","desa":"Sisobahili","kecamatan":"Namohalu Esiwa","kecCode":"122405"},"geometry":{"type":"Polygon","coordinates":[[[97.45719493389915,1.2891366938635989],[97.45537400820399,1.2985112979078788],[97.44531246959485,1.300940841593664],[97.4381818880837,1.3143863473841637],[97.46859567455078,1.3215292612905682],[97.4637706723787,1.3335027162881823],[97.47027875036412,1.345961302469148],[97.49009000025336,1.3171699982258704],[97.48294804141904,1.309417132632212],[97.46587302382108,1.3128650092466545],[97.46552234577968,1.2941199461332704],[97.45719493389915,1.2891366938635989]]]}},{"type":"Feature","properties":{"code":"1224052007","desa":"Lasara","kecamatan":"Namohalu Esiwa","kecCode":"122405"},"geometry":{"type":"Polygon","coordinates":[[[97.39962722171894,1.3660460730425406],[97.41082518863162,1.3639153039251997],[97.41663800344115,1.3533038856546569],[97.40513390100881,1.3400419926474696],[97.39236841307188,1.357778937331979],[97.39962722171894,1.3660460730425406]]]}},{"type":"Feature","properties":{"code":"1224052008","desa":"Namohalu","kecamatan":"Namohalu Esiwa","kecCode":"122405"},"geometry":{"type":"Polygon","coordinates":[[[97.4088516470859,1.304288221667447],[97.39881603143476,1.3273859009562032],[97.42495056841403,1.3608957788975116],[97.43311777866262,1.3525715110560566],[97.42859620774885,1.349488919271305],[97.43202901083025,1.3321366425044618],[97.44082549560021,1.3388810892957494],[97.44819576262438,1.3345348726959227],[97.44708356385547,1.3183893404234235],[97.4381818880837,1.3143863473841637],[97.44020929002674,1.3065893124875847],[97.42193850685669,1.302327780548216],[97.4088516470859,1.304288221667447]]]}},{"type":"Feature","properties":{"code":"1224052009","desa":"Tuhenakhe I","kecamatan":"Namohalu Esiwa","kecCode":"122405"},"geometry":{"type":"Polygon","coordinates":[[[97.42859620774885,1.349488919271305],[97.44671828801864,1.3549225763029178],[97.45403508585059,1.341514413061669],[97.44819576262438,1.3345348726959227],[97.44082549560021,1.3388810892957494],[97.43202901083025,1.3321366425044618],[97.42859620774885,1.349488919271305]]]}},{"type":"Feature","properties":{"code":"1224052010","desa":"Orahili","kecamatan":"Namohalu Esiwa","kecCode":"122405"},"geometry":{"type":"Polygon","coordinates":[[[97.38509788985579,1.3099735458794595],[97.4042273430175,1.3111351426084732],[97.4088516470859,1.304288221667447],[97.42193850685669,1.302327780548216],[97.43671440764388,1.2888452559643357],[97.44052923643515,1.2740401919783217],[97.39134770773057,1.278116267524272],[97.37958863041104,1.294636828780721],[97.38509788985579,1.3099735458794595]]]}},{"type":"Feature","properties":{"code":"1224052011","desa":"Banua Sibohou","kecamatan":"Namohalu Esiwa","kecCode":"122405"},"geometry":{"type":"Polygon","coordinates":[[[97.46552234577968,1.2941199461332704],[97.46587302382108,1.3128650092466545],[97.48459421355216,1.3098744037179026],[97.48479943344717,1.302051496225431],[97.46552234577968,1.2941199461332704]]]}},{"type":"Feature","properties":{"code":"1224062001","desa":"Banua Sibohou Iii","kecamatan":"Alasa Talumuzoi","kecCode":"122406"},"geometry":{"type":"Polygon","coordinates":[[[97.4871535860692,1.2135769884316103],[97.48140888681075,1.2267786880156921],[97.47222319164705,1.2204811782004845],[97.47424402044525,1.238248657566367],[97.49003905905539,1.2339862532845423],[97.4871535860692,1.2135769884316103]]]}},{"type":"Feature","properties":{"code":"1224062002","desa":"Harefanaese","kecamatan":"Alasa Talumuzoi","kecCode":"122406"},"geometry":{"type":"Polygon","coordinates":[[[97.43848734191738,1.2174021000669153],[97.44656038055717,1.1880632804687452],[97.42129734689512,1.1877981801149922],[97.41905478485052,1.1988458936837958],[97.43848734191738,1.2174021000669153]]]}},{"type":"Feature","properties":{"code":"1224062003","desa":"Hilimbowo Kare","kecamatan":"Alasa Talumuzoi","kecCode":"122406"},"geometry":{"type":"Polygon","coordinates":[[[97.49472222195305,1.2615916656137711],[97.49003905905539,1.2339862532845423],[97.47424402044525,1.238248657566367],[97.47222319164705,1.2204811782004845],[97.46548430805443,1.220440920948459],[97.44167965729042,1.2561217991786549],[97.44582772806723,1.2636725133643765],[97.4416951004486,1.2740389680010542],[97.4629634750844,1.2667506013443632],[97.47521041662748,1.2521923814746225],[97.48846385692148,1.2635130284922242],[97.49472222195305,1.2615916656137711]]]}},{"type":"Feature","properties":{"code":"1224062004","desa":"Laehuwa","kecamatan":"Alasa Talumuzoi","kecCode":"122406"},"geometry":{"type":"Polygon","coordinates":[[[97.506888889111,1.2614722203576978],[97.48846385692148,1.2635130284922242],[97.47521041662748,1.2521923814746225],[97.4629634750844,1.2667506013443632],[97.4416951004486,1.2740389680010542],[97.45882343705205,1.2904179175116977],[97.48479943344717,1.302051496225431],[97.49792653967813,1.2933850543322967],[97.49301387069362,1.2881536197550616],[97.48818857624182,1.2924428831890316],[97.48268212358118,1.293930117236003],[97.48079723270621,1.291705211583618],[97.49071777200764,1.2863656793959248],[97.506888889111,1.2614722203576978]]]}},{"type":"Feature","properties":{"code":"1224062005","desa":"Mazingo","kecamatan":"Alasa Talumuzoi","kecCode":"122406"},"geometry":{"type":"Polygon","coordinates":[[[97.44052923643515,1.2740401919783217],[97.44582772806723,1.2636725133643765],[97.42871652444808,1.2346196574921007],[97.4257219906774,1.2444483984848058],[97.40126061268717,1.2552110224687376],[97.39946332836996,1.2759763927712326],[97.44052923643515,1.2740401919783217]]]}},{"type":"Feature","properties":{"code":"1224062006","desa":"Hilina'A","kecamatan":"Alasa Talumuzoi","kecCode":"122406"},"geometry":{"type":"Polygon","coordinates":[[[97.44321398703595,1.2146215500876538],[97.43513683939368,1.2181732696199234],[97.43917538263786,1.2289650963892937],[97.42871652444808,1.2346196574921007],[97.44167965729042,1.2561217991786549],[97.46563662263208,1.2238274035447878],[97.44321398703595,1.2146215500876538]]]}},{"type":"Feature","properties":{"code":"1224072001","desa":"Bitaya","kecamatan":"Alasa","kecCode":"122407"},"geometry":{"type":"Polygon","coordinates":[[[97.39286001487783,1.1884162535796519],[97.38046149889914,1.140827473734278],[97.3720758819964,1.1393313876604236],[97.37457431555225,1.1338586281063285],[97.36879222608042,1.1356670181494861],[97.36880104033582,1.1261568718838444],[97.36203747125234,1.122425753791367],[97.36693202159556,1.1820986699970313],[97.37231105201352,1.1780136902635465],[97.38257614407381,1.1914507208431042],[97.39286001487783,1.1884162535796519]]]}},{"type":"Feature","properties":{"code":"1224072002","desa":"Lahemboho","kecamatan":"Alasa","kecCode":"122407"},"geometry":{"type":"Polygon","coordinates":[[[97.38267308739313,1.131533627910333],[97.39286001487783,1.1884162535796519],[97.40629152543364,1.1925121960487821],[97.42104418324254,1.1532034994535199],[97.40744540058483,1.1283215859117746],[97.40133792740346,1.13219462331822],[97.39608465368389,1.1235105196394561],[97.39430662025438,1.1319923702869028],[97.38267308739313,1.131533627910333]]]}},{"type":"Feature","properties":{"code":"1224072003","desa":"Anaoma","kecamatan":"Alasa","kecCode":"122407"},"geometry":{"type":"Polygon","coordinates":[[[97.48769323865213,1.2194199125368201],[97.48821666656596,1.1879666654021668],[97.50183999891686,1.1915299987793189],[97.49400140094393,1.1793894128734932],[97.47218820442212,1.1817513509239053],[97.45176786889208,1.1594859366312529],[97.44189644156756,1.1838276624941066],[97.44528363733008,1.2013273930027553],[97.45382884162778,1.1980768456315198],[97.47944582956143,1.2276352940622937],[97.48769323865213,1.2194199125368201]]]}},{"type":"Feature","properties":{"code":"1224072004","desa":"Dahana Tugala Oyo","kecamatan":"Alasa","kecCode":"122407"},"geometry":{"type":"Polygon","coordinates":[[[97.47222319164705,1.2204811782004845],[97.45382884162778,1.1980768456315198],[97.44534926085976,1.20142388306362],[97.4424684886299,1.2142974200334677],[97.47222319164705,1.2204811782004845]]]}},{"type":"Feature","properties":{"code":"1224072005","desa":"Fulolo","kecamatan":"Alasa","kecCode":"122407"},"geometry":{"type":"Polygon","coordinates":[[[97.39286001487783,1.1884162535796519],[97.37628241230355,1.1891376564492147],[97.3761514278462,1.201040831227696],[97.39070230656625,1.2123304219571598],[97.3954802643028,1.225141439857059],[97.41135512224116,1.2268092559720263],[97.41603790202758,1.2371741880563847],[97.41610349677897,1.1991508996547247],[97.39286001487783,1.1884162535796519]]]}},{"type":"Feature","properties":{"code":"1224072006","desa":"Hiligawoni","kecamatan":"Alasa","kecCode":"122407"},"geometry":{"type":"Polygon","coordinates":[[[97.37628241230355,1.1891376564492147],[97.37231105201352,1.1780136902635465],[97.36263003274983,1.1850904437450802],[97.35829838696105,1.1807959939208041],[97.35414670270823,1.1924553526003505],[97.3419107796588,1.1987526456789241],[97.33957226534784,1.2146988594079489],[97.36375930964446,1.2214718344930864],[97.37628241230355,1.1891376564492147]]]}},{"type":"Feature","properties":{"code":"1224072007","desa":"Ononamolo Tumula","kecamatan":"Alasa","kecCode":"122407"},"geometry":{"type":"Polygon","coordinates":[[[97.36693202159556,1.1820986699970313],[97.36201850724837,1.1224689931952774],[97.35520434500455,1.1242947815227604],[97.35499005005084,1.1142510009379467],[97.34190163984886,1.120688711462661],[97.32156699801862,1.1557809546360804],[97.34256818407447,1.1980952430626195],[97.35414670270823,1.1924553526003505],[97.35829838696105,1.1807959939208041],[97.36693202159556,1.1820986699970313]]]}},{"type":"Feature","properties":{"code":"1224072008","desa":"Banua Sibohou I","kecamatan":"Alasa","kecCode":"122407"},"geometry":{"type":"Polygon","coordinates":[[[97.40671594158749,1.2260461902099427],[97.3954802643028,1.225141439857059],[97.39070230656625,1.2123304219571598],[97.37600251270584,1.2006087609443483],[97.36549631600225,1.2081064025388901],[97.37049318491262,1.214257309370889],[97.35811469143994,1.2273236519939703],[97.39326920461018,1.241435508655122],[97.40671594158749,1.2260461902099427]]]}},{"type":"Feature","properties":{"code":"1224072009","desa":"Ombolata","kecamatan":"Alasa","kecCode":"122407"},"geometry":{"type":"Polygon","coordinates":[[[97.40160839491152,1.2550225920172293],[97.4239233996452,1.244568034397087],[97.41135512224116,1.2268092559720263],[97.39068809008336,1.2468395761927906],[97.40298524257496,1.2475866277271304],[97.40160839491152,1.2550225920172293]]]}},{"type":"Feature","properties":{"code":"1224072010","desa":"Banua Sibohou Ii","kecamatan":"Alasa","kecCode":"122407"},"geometry":{"type":"Polygon","coordinates":[[[97.35851646176536,1.227079810714027],[97.33767068575361,1.2198332058751584],[97.32969284305032,1.2365884560111775],[97.35695377459706,1.2339329171920494],[97.35851646176536,1.227079810714027]]]}},{"type":"Feature","properties":{"code":"1224072010","desa":"Banua Sibohou Ii","kecamatan":"Alasa","kecCode":"122407"},"geometry":{"type":"Polygon","coordinates":[[[97.40022990058952,1.2698967176410936],[97.40298524257496,1.2475866277271304],[97.39068809008336,1.2468395761927906],[97.39206422458437,1.2663522439465027],[97.40022990058952,1.2698967176410936]]]}},{"type":"Feature","properties":{"code":"1224072011","desa":"Dahana Alasa","kecamatan":"Alasa","kecCode":"122407"},"geometry":{"type":"Polygon","coordinates":[[[97.38865409790832,1.2827347673629579],[97.40022990058952,1.2698967176410936],[97.38816176855086,1.2600228279837455],[97.39326920461018,1.241435508655122],[97.35811469143994,1.2273236519939703],[97.35695377459706,1.2339329171920494],[97.32966069498514,1.2365928087298554],[97.3287610635723,1.2533601394589184],[97.36766024762238,1.2530765877147103],[97.38865409790832,1.2827347673629579]]]}},{"type":"Feature","properties":{"code":"1224072012","desa":"Ononamolo Alasa","kecamatan":"Alasa","kecCode":"122407"},"geometry":{"type":"Polygon","coordinates":[[[97.37958863041104,1.294636828780721],[97.38892642521442,1.283118733809468],[97.37051560141396,1.2550753345572032],[97.3287610635723,1.2533601394589184],[97.32814193879949,1.2663391480189046],[97.37134550029462,1.2787482984669987],[97.37163103594361,1.2906693976331667],[97.37958863041104,1.294636828780721]]]}},{"type":"Feature","properties":{"code":"1224072013","desa":"Loloana'A","kecamatan":"Alasa","kecCode":"122407"},"geometry":{"type":"Polygon","coordinates":[[[97.36040643560857,1.2192621345778905],[97.33957226534784,1.2146988594079489],[97.33767068575361,1.2198332058751584],[97.35992475242544,1.2242475209387946],[97.36040643560857,1.2192621345778905]]]}},{"type":"Feature","properties":{"code":"1224072013","desa":"Loloana'A","kecamatan":"Alasa","kecCode":"122407"},"geometry":{"type":"Polygon","coordinates":[[[97.43935625698572,1.2158690797360399],[97.41610349677897,1.1991508996547247],[97.41603790202758,1.2371741880563847],[97.4239233996452,1.244568034397087],[97.43917538263786,1.2289650963892937],[97.44091283505935,1.223610514047142],[97.43445869391364,1.2231403943474017],[97.43935625698572,1.2158690797360399]]]}},{"type":"Feature","properties":{"code":"1224072014","desa":"Hilisebua Siwalubanua","kecamatan":"Alasa","kecCode":"122407"},"geometry":{"type":"Polygon","coordinates":[[[97.41784469757475,1.197124472579017],[97.42129734689512,1.1877981801149922],[97.44155497797993,1.1869791828170022],[97.45176786889208,1.1594859366312529],[97.4411588104308,1.1419239271716746],[97.43876031403732,1.1476346338490904],[97.42880840368497,1.1403092492983424],[97.41991498279025,1.1476727048492357],[97.4230939423316,1.1360038277451971],[97.411805779713,1.1413147848742262],[97.42104418324254,1.1532034994535199],[97.42056829169336,1.163720719135727],[97.40591081183452,1.1860876506994786],[97.40997325366277,1.1962395549751241],[97.41784469757475,1.197124472579017]]]}},{"type":"Feature","properties":{"code":"1224082001","desa":"Te'Olo","kecamatan":"Tugala Oyo","kecCode":"122408"},"geometry":{"type":"Polygon","coordinates":[[[97.44608435590834,1.1508579200711238],[97.46423320539816,1.1591174762955014],[97.46423836840603,1.149498029126418],[97.47202532640772,1.1519429979839253],[97.47161436680966,1.1468602420252145],[97.48106174940027,1.1448226525642473],[97.45198164133971,1.1343755530219288],[97.45756890707945,1.1492574352983702],[97.44608435590834,1.1508579200711238]]]}},{"type":"Feature","properties":{"code":"1224082002","desa":"Siwawo","kecamatan":"Tugala Oyo","kecCode":"122408"},"geometry":{"type":"Polygon","coordinates":[[[97.4401046134372,1.1298266409243558],[97.44628333270968,1.1191499984231954],[97.4342499999376,1.0916666654643667],[97.3863917049133,1.0870501153558618],[97.40219530596863,1.1021696641671133],[97.4151292845889,1.101361290560451],[97.43170094624173,1.1102534020323234],[97.43291350755236,1.1250735863198609],[97.4401046134372,1.1298266409243558]]]}},{"type":"Feature","properties":{"code":"1224082003","desa":"Fabaliwa Oyo","kecamatan":"Tugala Oyo","kecCode":"122408"},"geometry":{"type":"Polygon","coordinates":[[[97.40784149079222,1.1289807269176007],[97.41099208571625,1.1412633175729008],[97.41863959124419,1.1366320059923174],[97.42435029792796,1.1368604337917472],[97.42019774223205,1.1477558705546467],[97.42880840368497,1.1403092492983424],[97.43289831980167,1.1442926748885278],[97.44167088979981,1.1322142231428591],[97.43587754441319,1.1318100345408875],[97.43170094624173,1.1102534020323234],[97.41748859662151,1.1053010756490578],[97.42507403543844,1.1290799653066017],[97.41688076193765,1.133965697791721],[97.40784149079222,1.1289807269176007]]]}},{"type":"Feature","properties":{"code":"1224082004","desa":"Ononazara","kecamatan":"Tugala Oyo","kecCode":"122408"},"geometry":{"type":"Polygon","coordinates":[[[97.45176786889208,1.1594859366312529],[97.47218820442212,1.1817513509239053],[97.49400140094393,1.1793894128734932],[97.48227810764858,1.1448046076674845],[97.47161436680966,1.1468602420252145],[97.47202532640772,1.1519429979839253],[97.46423836840603,1.149498029126418],[97.46423320539816,1.1591174762955014],[97.45176786889208,1.1594859366312529]]]}},{"type":"Feature","properties":{"code":"1224082005","desa":"Humene Siheneasi","kecamatan":"Tugala Oyo","kecCode":"122408"},"geometry":{"type":"Polygon","coordinates":[[[97.35520434500455,1.1242947815227604],[97.36880104033582,1.1261568718838444],[97.36879222608042,1.1356670181494861],[97.37457431555225,1.1338586281063285],[97.3720758819964,1.1393313876604236],[97.37960489285159,1.1408036785722726],[97.38290143155587,1.1313040471800417],[97.39458025877201,1.1317187317695836],[97.39469923188409,1.1234382069524411],[97.40190899870139,1.1323135964301883],[97.40617140388724,1.1279093160018854],[97.41876696762152,1.1338309685575174],[97.42533162555412,1.1280909385854851],[97.4151292845889,1.101361290560451],[97.40219530596863,1.1021696641671133],[97.3863917049133,1.0870501153558618],[97.36508333292954,1.0940999988932667],[97.36149141729514,1.0903925644468673],[97.34269875934035,1.118214072172264],[97.34799036396419,1.121306073563542],[97.355703239413,1.1142035473109317],[97.35520434500455,1.1242947815227604]]]}},{"type":"Feature","properties":{"code":"1224082006","desa":"Gunung Tua","kecamatan":"Tugala Oyo","kecCode":"122408"},"geometry":{"type":"Polygon","coordinates":[[[97.43289831980167,1.1442926748885278],[97.45756890707945,1.1492574352983702],[97.45030247757732,1.1379216697778496],[97.45887400862864,1.1385896421261423],[97.44934157355482,1.1243471616359306],[97.45387271595314,1.1146495705757515],[97.44207507660356,1.1226484654998978],[97.43289831980167,1.1442926748885278]]]}},{"type":"Feature","properties":{"code":"1224082007","desa":"Botona'Ai","kecamatan":"Tugala Oyo","kecCode":"122408"},"geometry":{"type":"Polygon","coordinates":[[[97.45150376768481,1.1132114089355425],[97.46810363387567,1.1179124737325499],[97.47708776758645,1.1138529627993847],[97.47783333344165,1.08544999840575],[97.46991666712057,1.0838833317391692],[97.45150376768481,1.1132114089355425]]]}},{"type":"Feature","properties":{"code":"1224082008","desa":"Harefa","kecamatan":"Tugala Oyo","kecCode":"122408"},"geometry":{"type":"Polygon","coordinates":[[[97.45887400862864,1.1385896421261423],[97.48227810764858,1.1448046076674845],[97.47708776758645,1.1138529627993847],[97.44898055600794,1.1190802020392674],[97.45887400862864,1.1385896421261423]]]}},{"type":"Feature","properties":{"code":"1224092001","desa":"Afulu","kecamatan":"Afulu","kecCode":"122409"},"geometry":{"type":"Polygon","coordinates":[[[97.28605288463297,1.2931397138824732],[97.29336176573298,1.2660975388561797],[97.27600618124035,1.2554549635734435],[97.24905693223171,1.2484647842279168],[97.24845032782042,1.259281229038946],[97.23872043490019,1.2604438438005245],[97.24687948559982,1.2779974365050994],[97.26955686405806,1.2954743431196136],[97.28605288463297,1.2931397138824732]]]}},{"type":"Feature","properties":{"code":"1224092002","desa":"Lauru Fadoro","kecamatan":"Afulu","kecCode":"122409"},"geometry":{"type":"Polygon","coordinates":[[[97.34157228203524,1.270739585644092],[97.3128616712292,1.2605256991937248],[97.26662887832015,1.2142694349300627],[97.25813397939969,1.214196192344047],[97.25548044426715,1.228246076723057],[97.26310978888567,1.231505144271383],[97.26285994642944,1.2418676976489813],[97.24905693223171,1.2484647842279168],[97.29336176573298,1.2660975388561797],[97.28869540576841,1.2797691548932608],[97.30581157274595,1.302008567986949],[97.31253555457226,1.2922116656926483],[97.33772000007797,1.2924933315584872],[97.34157228203524,1.270739585644092]]]}},{"type":"Feature","properties":{"code":"1224092003","desa":"Lauru I","kecamatan":"Afulu","kecCode":"122409"},"geometry":{"type":"Polygon","coordinates":[[[97.0880458780149,1.234674139320956],[97.09166781481787,1.2221308109230078],[97.08388939587898,1.2147153196993414],[97.09461911997646,1.1961785350750898],[97.09897068484929,1.2060016732913514],[97.09361911882736,1.2174938354121598],[97.09819099961497,1.2149609982942724],[97.1061367886819,1.1907303126236009],[97.10204522320856,1.194140203673404],[97.10211431002745,1.1885644087925933],[97.08079160285024,1.2088510987488077],[97.08032760843248,1.2310514695745514],[97.0880458780149,1.234674139320956]]]}},{"type":"Feature","properties":{"code":"1224092003","desa":"Lauru I","kecamatan":"Afulu","kecCode":"122409"},"geometry":{"type":"Polygon","coordinates":[[[97.23525859630722,1.2561688939761881],[97.23661012985364,1.250144098175243],[97.23366911563721,1.2543890574079803],[97.23525859630722,1.2561688939761881]]]}},{"type":"Feature","properties":{"code":"1224092003","desa":"Lauru I","kecamatan":"Afulu","kecCode":"122409"},"geometry":{"type":"Polygon","coordinates":[[[97.26829198468737,1.2942382114788367],[97.24687948559982,1.2779974365050994],[97.24310302458497,1.2628784164951559],[97.23853256922274,1.2612603913452118],[97.23302997105638,1.2536659575176636],[97.23220513086216,1.265102479482831],[97.22220854039186,1.272588502735871],[97.20469927615073,1.267132199875863],[97.20989209294576,1.2800631468670862],[97.22387913541381,1.2861013317746623],[97.24628883785964,1.2939319653428245],[97.2504882806097,1.2888793933298417],[97.26470947056566,1.3001098617287523],[97.26829198468737,1.2942382114788367]]]}},{"type":"Feature","properties":{"code":"1224092004","desa":"Ombolata Afulu","kecamatan":"Afulu","kecCode":"122409"},"geometry":{"type":"Polygon","coordinates":[[[97.25978972841331,1.2964885544552742],[97.2504882806097,1.2888793933298417],[97.24628883785964,1.2939319653428245],[97.21307118198949,1.2799073815908686],[97.20636602836959,1.2863458439489122],[97.24270818983115,1.2974832549991389],[97.24800802055374,1.306866787512768],[97.25508139888751,1.3066568173989699],[97.25978972841331,1.2964885544552742]]]}},{"type":"Feature","properties":{"code":"1224092005","desa":"Harewakhe","kecamatan":"Afulu","kecCode":"122409"},"geometry":{"type":"Polygon","coordinates":[[[97.24269230600514,1.297642097755392],[97.21125020683165,1.2868914950091996],[97.20319362758391,1.289936602151825],[97.23591770943483,1.3101931333432415],[97.24269230600514,1.297642097755392]]]}},{"type":"Feature","properties":{"code":"1224092006","desa":"Sisobahili","kecamatan":"Afulu","kecCode":"122409"},"geometry":{"type":"Polygon","coordinates":[[[97.29063863656387,1.284537072593196],[97.28605288463297,1.2931397138824732],[97.26531982155257,1.3001098617287523],[97.25978972841331,1.2964885544552742],[97.25848686707529,1.3121880769527685],[97.27281340991101,1.318573620503693],[97.29726095093217,1.3133854163372027],[97.30581157274595,1.302008567986949],[97.29063863656387,1.284537072593196]]]}},{"type":"Feature","properties":{"code":"1224092007","desa":"Lauru Lahewa","kecamatan":"Afulu","kecCode":"122409"},"geometry":{"type":"Polygon","coordinates":[[[97.2769641426811,1.3185416415110878],[97.24080381874131,1.2984345938313626],[97.23499133578154,1.3085859729029223],[97.23764958695892,1.3257076104374297],[97.25074900126543,1.330602146386061],[97.276205131062,1.323784602698926],[97.2769641426811,1.3185416415110878]]]}},{"type":"Feature","properties":{"code":"1224092008","desa":"Sifaoro'Asi","kecamatan":"Afulu","kecCode":"122409"},"geometry":{"type":"Polygon","coordinates":[[[97.32822452084503,1.2663678399894243],[97.31836973907222,1.216081378194604],[97.2972608735905,1.1935768854315034],[97.28608926041106,1.192851894266946],[97.28558366425477,1.2036641779148747],[97.2676603368551,1.2174170189203557],[97.3128616712292,1.2605256991937248],[97.32813804743301,1.2663851321537014],[97.32822452084503,1.2663678399894243]]]}},{"type":"Feature","properties":{"code":"1224092009","desa":"Faekhuna'A","kecamatan":"Afulu","kecCode":"122409"},"geometry":{"type":"Polygon","coordinates":[[[97.32752595625794,1.239741994412716],[97.34256818407447,1.1980952430626195],[97.32156699801862,1.1557809546360804],[97.30790005394437,1.1697052316043985],[97.29557452514427,1.1671137604877748],[97.30076472491218,1.178199371487529],[97.29361437090654,1.1912661161075577],[97.31836973907222,1.216081378194604],[97.32752595625794,1.239741994412716]]]}},{"type":"Feature","properties":{"code":"1224101001","desa":"Pasar Lahewa","kecamatan":"Lahewa","kecCode":"122410"},"geometry":{"type":"Polygon","coordinates":[[[97.19556237460397,1.4187265130342916],[97.18898516843086,1.3929848898855384],[97.17988611844964,1.3866445912267082],[97.16790936292682,1.3927055613576038],[97.16646436643741,1.3979209538281614],[97.17253871039321,1.3956969007330893],[97.17769262161727,1.4032064790291445],[97.17869000034328,1.3955599987368323],[97.1840219890236,1.399786004757492],[97.18812060967844,1.406222446338865],[97.17699068097521,1.409208669471209],[97.1856459712846,1.417917496412387],[97.19556237460397,1.4187265130342916]]]}},{"type":"Feature","properties":{"code":"1224102002","desa":"Iraono Lase","kecamatan":"Lahewa","kecCode":"122410"},"geometry":{"type":"Polygon","coordinates":[[[97.18848695390982,1.3499453683766325],[97.20911885764923,1.3194585515973731],[97.1906828959989,1.3100772359126112],[97.16978445299019,1.3374731511714597],[97.1673668630903,1.3459174047614617],[97.18848695390982,1.3499453683766325]]]}},{"type":"Feature","properties":{"code":"1224102003","desa":"Holi","kecamatan":"Lahewa","kecCode":"122410"},"geometry":{"type":"Polygon","coordinates":[[[97.23597222543795,1.3101372260890307],[97.20319362758391,1.289936602151825],[97.19595654116146,1.292731155474695],[97.1906828959989,1.3100772359126112],[97.20911885764923,1.3194585515973731],[97.2252872947729,1.3161035110984063],[97.23122982509642,1.3306393684262043],[97.23986247497326,1.3267462653462405],[97.23597222543795,1.3101372260890307]]]}},{"type":"Feature","properties":{"code":"1224102004","desa":"Sifaoro'Asi","kecamatan":"Lahewa","kecCode":"122410"},"geometry":{"type":"Polygon","coordinates":[[[97.276205131062,1.323784602698926],[97.25980026397103,1.3387742489374774],[97.2376512534027,1.3392161488107495],[97.23747840100748,1.3532182117400449],[97.24711623392709,1.3570144839160585],[97.28159521594654,1.3500597846238311],[97.276205131062,1.323784602698926]]]}},{"type":"Feature","properties":{"code":"1224102005","desa":"Hilizukhu","kecamatan":"Lahewa","kecCode":"122410"},"geometry":{"type":"Polygon","coordinates":[[[97.27065969458931,1.3276029109629959],[97.24839040689183,1.330600462855193],[97.2379111673665,1.325829976691474],[97.238586197595,1.3385142747193237],[97.25980026397103,1.3387742489374774],[97.27065969458931,1.3276029109629959]]]}},{"type":"Feature","properties":{"code":"1224102006","desa":"Onozalukhu","kecamatan":"Lahewa","kecCode":"122410"},"geometry":{"type":"Polygon","coordinates":[[[97.23986247497326,1.3267462653462405],[97.23122982509642,1.3306393684262043],[97.22136046441398,1.3562420732986662],[97.23747840100748,1.3532182117400449],[97.23986247497326,1.3267462653462405]]]}},{"type":"Feature","properties":{"code":"1224102007","desa":"Hilina'A","kecamatan":"Lahewa","kecCode":"122410"},"geometry":{"type":"Polygon","coordinates":[[[97.20911885764923,1.3194585515973731],[97.19546946294543,1.341515119928797],[97.22208510844102,1.35035244290307],[97.23163597422086,1.3333531563341554],[97.2252872947729,1.3161035110984063],[97.20911885764923,1.3194585515973731]]]}},{"type":"Feature","properties":{"code":"1224102008","desa":"Hiligodu Hoya","kecamatan":"Lahewa","kecCode":"122410"},"geometry":{"type":"Polygon","coordinates":[[[97.19546946294543,1.341515119928797],[97.18698368674778,1.354181850599823],[97.19549289657999,1.354577329267771],[97.20304610279543,1.373652225036369],[97.22208510844102,1.35035244290307],[97.19546946294543,1.341515119928797]]]}},{"type":"Feature","properties":{"code":"1224102009","desa":"Sitolubanua","kecamatan":"Lahewa","kecCode":"122410"},"geometry":{"type":"Polygon","coordinates":[[[97.18739366878287,1.3500820293546023],[97.16792487263483,1.3447931119109486],[97.16253902265782,1.3503907908943642],[97.18074682990232,1.365968847359186],[97.18739366878287,1.3500820293546023]]]}},{"type":"Feature","properties":{"code":"1224102010","desa":"Hilihati","kecamatan":"Lahewa","kecCode":"122410"},"geometry":{"type":"Polygon","coordinates":[[[97.18074682990232,1.365968847359186],[97.16117992581297,1.3502844874314188],[97.15279880641985,1.3644537037519158],[97.17540847132398,1.372951203502266],[97.18074682990232,1.365968847359186]]]}},{"type":"Feature","properties":{"code":"1224102010","desa":"Hilihati","kecamatan":"Lahewa","kecCode":"122410"},"geometry":{"type":"Polygon","coordinates":[[[97.11594508000148,1.395365661538178],[97.11774389496486,1.4028052716798147],[97.12088478440533,1.402995627579781],[97.11594508000148,1.395365661538178]]]}},{"type":"Feature","properties":{"code":"1224102011","desa":"Fadoro Sitolu Hili","kecamatan":"Lahewa","kecCode":"122410"},"geometry":{"type":"Polygon","coordinates":[[[97.16790936292682,1.3927055613576038],[97.18530116581621,1.3820506923424751],[97.1819777760536,1.3736314363079996],[97.15948949804198,1.3710835040695624],[97.15279880641985,1.3644537037519158],[97.1422241218458,1.37267202516114],[97.16220341455602,1.3802578084100348],[97.16790936292682,1.3927055613576038]]]}},{"type":"Feature","properties":{"code":"1224102012","desa":"Marafala","kecamatan":"Lahewa","kecCode":"122410"},"geometry":{"type":"Polygon","coordinates":[[[97.09970967935828,1.359511101737926],[97.11160698427493,1.3569793554976277],[97.10229853255127,1.3513447917198094],[97.09970967935828,1.359511101737926]]]}},{"type":"Feature","properties":{"code":"1224102012","desa":"Marafala","kecamatan":"Lahewa","kecCode":"122410"},"geometry":{"type":"Polygon","coordinates":[[[97.14228630097203,1.372674940763205],[97.1363196553279,1.3791346792821906],[97.11924121401084,1.3923472732534985],[97.15232624506022,1.3992035138688594],[97.15402070179402,1.3782352187414972],[97.14228630097203,1.372674940763205]]]}},{"type":"Feature","properties":{"code":"1224102013","desa":"Hiligawolo","kecamatan":"Lahewa","kecCode":"122410"},"geometry":{"type":"Polygon","coordinates":[[[97.12140826358056,1.4021390215332261],[97.11313766187368,1.3980145085018767],[97.10092831558931,1.4065062750742932],[97.08374007604372,1.4078240687540309],[97.07378441102179,1.3878746677321472],[97.05750889791739,1.4121832400878673],[97.06040232180975,1.4187124818116976],[97.06715999223991,1.425127508736562],[97.06279130067804,1.4151528086752623],[97.08949837125287,1.4265456676558637],[97.13317135727237,1.4339618855317848],[97.13700385144664,1.4259707904277035],[97.12932240280666,1.4008160648455485],[97.134704589845,1.3941040026411016],[97.11924121401084,1.3923472732534985],[97.12140826358056,1.4021390215332261]]]}},{"type":"Feature","properties":{"code":"1224102013","desa":"Hiligawolo","kecamatan":"Lahewa","kecCode":"122410"},"geometry":{"type":"Polygon","coordinates":[[[97.07665130491385,1.427633058624982],[97.07558411721328,1.427211893520767],[97.07468111064479,1.427183340045843],[97.07665130491385,1.427633058624982]]]}},{"type":"Feature","properties":{"code":"1224102013","desa":"Hiligawolo","kecamatan":"Lahewa","kecCode":"122410"},"geometry":{"type":"Polygon","coordinates":[[[97.0837618288454,1.4279595889697134],[97.0838522475832,1.4282213303557205],[97.0839926362512,1.4280642853442436],[97.0837618288454,1.4279595889697134]]]}},{"type":"Feature","properties":{"code":"1224102013","desa":"Hiligawolo","kecamatan":"Lahewa","kecCode":"122410"},"geometry":{"type":"Polygon","coordinates":[[[97.07697342498362,1.4278263894823064],[97.0820583330257,1.4283498704555884],[97.08239621641228,1.428166652474635],[97.07697342498362,1.4278263894823064]]]}},{"type":"Feature","properties":{"code":"1224102014","desa":"Balefadoro Tuho","kecamatan":"Lahewa","kecCode":"122410"},"geometry":{"type":"Polygon","coordinates":[[[97.12969970707586,1.4020996078452292],[97.13700385144664,1.4259707904277035],[97.13614532534653,1.435492440821],[97.15481933484449,1.4233096002689127],[97.14906405955878,1.4111305116883237],[97.12969970707586,1.4020996078452292]]]}},{"type":"Feature","properties":{"code":"1224102015","desa":"Ombolata","kecamatan":"Lahewa","kecCode":"122410"},"geometry":{"type":"Polygon","coordinates":[[[97.17432139691498,1.4076813004800306],[97.16427830430035,1.3827451380338056],[97.15402070179402,1.3782352187414972],[97.15232624506022,1.3992035138688594],[97.13313353178711,1.395616574187388],[97.12932240280666,1.4008160648455485],[97.16256686027242,1.4247467951379325],[97.1615674859508,1.4142105413045751],[97.17432139691498,1.4076813004800306]]]}},{"type":"Feature","properties":{"code":"1224102015","desa":"Ombolata","kecamatan":"Lahewa","kecCode":"122410"},"geometry":{"type":"Polygon","coordinates":[[[97.1747197192397,1.4185909204508476],[97.17351830142854,1.417821539649473],[97.17337371922184,1.4182389204065176],[97.1747197192397,1.4185909204508476]]]}},{"type":"Feature","properties":{"code":"1224102015","desa":"Ombolata","kecamatan":"Lahewa","kecCode":"122410"},"geometry":{"type":"Polygon","coordinates":[[[97.1740655766651,1.4341357181878382],[97.17324228330476,1.4267355945792815],[97.16823589686918,1.422014744697173],[97.17320897061757,1.4304356563835263],[97.16843815080006,1.4314707220981222],[97.1740655766651,1.4341357181878382]]]}},{"type":"Feature","properties":{"code":"1224102016","desa":"Afia","kecamatan":"Lahewa","kecCode":"122410"},"geometry":{"type":"Polygon","coordinates":[[[97.17988611844964,1.3866445912267082],[97.18898516843086,1.3929848898855384],[97.20391215442243,1.3762901488345958],[97.20357981355761,1.3644367218536932],[97.19216950681732,1.3529156348379672],[97.17900643759707,1.368457348799584],[97.18530116581621,1.3820506923424751],[97.17988611844964,1.3866445912267082]]]}},{"type":"Feature","properties":{"code":"1224102017","desa":"Moawo","kecamatan":"Lahewa","kecCode":"122410"},"geometry":{"type":"Polygon","coordinates":[[[97.18898516843086,1.3929848898855384],[97.19443614820972,1.40976555935917],[97.2118044464181,1.4033189005800621],[97.21200820401549,1.3890889278607823],[97.21558596162288,1.39325380246543],[97.21411816462164,1.388297693533694],[97.2009720737023,1.378212341787329],[97.18898516843086,1.3929848898855384]]]}},{"type":"Feature","properties":{"code":"1224102018","desa":"Lasara","kecamatan":"Lahewa","kecCode":"122410"},"geometry":{"type":"Polygon","coordinates":[[[97.22136046441398,1.3562420732986662],[97.20908184335246,1.362292471898912],[97.20269357844597,1.3750715728594514],[97.22036438430892,1.389123883609375],[97.23309925932341,1.389523632258425],[97.23160707630556,1.3675385537343345],[97.22136046441398,1.3562420732986662]]]}},{"type":"Feature","properties":{"code":"1224102019","desa":"Sihene'Asi","kecamatan":"Lahewa","kecCode":"122410"},"geometry":{"type":"Polygon","coordinates":[[[97.2009720737023,1.378212341787329],[97.21468387596019,1.389123318835111],[97.2118044464181,1.4033189005800621],[97.22831208623386,1.412294830665204],[97.25848388672205,1.40130615039402],[97.23431396461785,1.396656406308774],[97.23468017574959,1.3886718735576289],[97.22036438430892,1.389123883609375],[97.2009720737023,1.378212341787329]]]}},{"type":"Feature","properties":{"code":"1224102019","desa":"Sihene'Asi","kecamatan":"Lahewa","kecCode":"122410"},"geometry":{"type":"Polygon","coordinates":[[[97.23183973181824,1.4157999041616185],[97.23219209518908,1.4164091984444143],[97.23254445766064,1.4161522666328226],[97.23183973181824,1.4157999041616185]]]}},{"type":"Feature","properties":{"code":"1224102019","desa":"Sihene'Asi","kecamatan":"Lahewa","kecCode":"122410"},"geometry":{"type":"Polygon","coordinates":[[[97.22813525883521,1.4209582634267457],[97.22187727601556,1.411731903628314],[97.22068754579367,1.4129037886015807],[97.22813525883521,1.4209582634267457]]]}},{"type":"Feature","properties":{"code":"1224102019","desa":"Sihene'Asi","kecamatan":"Lahewa","kecCode":"122410"},"geometry":{"type":"Polygon","coordinates":[[[97.22027325240873,1.4260779914141404],[97.21584257237684,1.4194710320777297],[97.21257257356547,1.4238682312442745],[97.22027325240873,1.4260779914141404]]]}},{"type":"Feature","properties":{"code":"1224102020","desa":"Fadoro Hilimbowo","kecamatan":"Lahewa","kecCode":"122410"},"geometry":{"type":"Polygon","coordinates":[[[97.23160707630556,1.3675385537343345],[97.23431396461785,1.396656406308774],[97.25199053963176,1.3991107658870712],[97.25859414990015,1.3991344738148022],[97.26031494058206,1.3867187484231904],[97.27671758364959,1.3735694829116294],[97.23160707630556,1.3675385537343345]]]}},{"type":"Feature","properties":{"code":"1224102021","desa":"Fadoro Hilihambawa","kecamatan":"Lahewa","kecCode":"122410"},"geometry":{"type":"Polygon","coordinates":[[[97.28158966443151,1.3500460097080555],[97.24711623392709,1.3570144839160585],[97.22136046441398,1.3562420732986662],[97.23937056559919,1.3716734854114578],[97.27671758364959,1.3735694829116294],[97.28486429025486,1.3571579527618605],[97.28158966443151,1.3500460097080555]]]}},{"type":"Feature","properties":{"code":"1224112001","desa":"Laowowaga","kecamatan":"Lahewa Timur","kecCode":"122411"},"geometry":{"type":"Polygon","coordinates":[[[97.37553087494996,1.2933372050035614],[97.37134550029462,1.2787482984669987],[97.34157228203524,1.270739585644092],[97.33637154491093,1.2938248219130042],[97.34856864242896,1.3276822644423534],[97.36537679880028,1.323949545556603],[97.36935510005786,1.3116054088977385],[97.37599932820649,1.3125539535363433],[97.37048784833557,1.3062094595401645],[97.37553087494996,1.2933372050035614]]]}},{"type":"Feature","properties":{"code":"1224112002","desa":"Lukhu Lase","kecamatan":"Lahewa Timur","kecCode":"122411"},"geometry":{"type":"Polygon","coordinates":[[[97.34340209483088,1.34350754453728],[97.34198899099918,1.3331868860771616],[97.35037513400528,1.3254776385020488],[97.34071379730396,1.314860873761958],[97.33637154491093,1.2924775871274874],[97.31253555457226,1.2922116656926483],[97.29726095093217,1.3133854163372027],[97.31978477194974,1.3387424983726337],[97.34340209483088,1.34350754453728]]]}},{"type":"Feature","properties":{"code":"1224112003","desa":"Tetehosi Sorowi","kecamatan":"Lahewa Timur","kecCode":"122411"},"geometry":{"type":"Polygon","coordinates":[[[97.34040081164818,1.3559752723268643],[97.34569448021614,1.3447288733372427],[97.31978477194974,1.3387424983726337],[97.29726095093217,1.3133854163372027],[97.2792165927716,1.317028308239],[97.30055681244698,1.3497355997109681],[97.34040081164818,1.3559752723268643]]]}},{"type":"Feature","properties":{"code":"1224112004","desa":"Tefa'O","kecamatan":"Lahewa Timur","kecCode":"122411"},"geometry":{"type":"Polygon","coordinates":[[[97.25830078025689,1.4006957994077849],[97.24534291474377,1.410238976872848],[97.26052046984387,1.420518247633181],[97.26892234738845,1.4166563825044711],[97.2809709308638,1.4236581298294488],[97.30364273442473,1.408359639313567],[97.30473519757135,1.3783873858301847],[97.28232295544012,1.3677111714062642],[97.26031494058206,1.3867187484231904],[97.25830078025689,1.4006957994077849]]]}},{"type":"Feature","properties":{"code":"1224112004","desa":"Tefa'O","kecamatan":"Lahewa Timur","kecCode":"122411"},"geometry":{"type":"Polygon","coordinates":[[[97.2662258201655,1.4219467757357016],[97.26528613294875,1.4229127834097182],[97.26528927338131,1.4235141429740876],[97.2662258201655,1.4219467757357016]]]}},{"type":"Feature","properties":{"code":"1224112004","desa":"Tefa'O","kecamatan":"Lahewa Timur","kecCode":"122411"},"geometry":{"type":"Polygon","coordinates":[[[97.24418148978401,1.430285210597259],[97.24028179017255,1.4285212875326558],[97.24025318633558,1.430046842591267],[97.24418148978401,1.430285210597259]]]}},{"type":"Feature","properties":{"code":"1224112004","desa":"Tefa'O","kecamatan":"Lahewa Timur","kecCode":"122411"},"geometry":{"type":"Polygon","coordinates":[[[97.25797146201342,1.4291085825995844],[97.25777918965791,1.4302740904801892],[97.25887043871982,1.4297024975761514],[97.25797146201342,1.4291085825995844]]]}},{"type":"Feature","properties":{"code":"1224112004","desa":"Tefa'O","kecamatan":"Lahewa Timur","kecCode":"122411"},"geometry":{"type":"Polygon","coordinates":[[[97.23075465120627,1.4393170596278684],[97.22567186286625,1.4412750141216764],[97.232127378176,1.4419355229963526],[97.23075465120627,1.4393170596278684]]]}},{"type":"Feature","properties":{"code":"1224112005","desa":"Tugala Lauru","kecamatan":"Lahewa Timur","kecCode":"122411"},"geometry":{"type":"Polygon","coordinates":[[[97.33249719628861,1.3932792200044457],[97.3251556149397,1.3735006694866951],[97.33631503601013,1.3673254737648806],[97.34040081164818,1.3559752723268643],[97.30055681244698,1.3497355997109681],[97.27819633259475,1.3168811809511143],[97.28232295544012,1.3677111714062642],[97.30473519757135,1.3783873858301847],[97.31497666624023,1.430078887234365],[97.33249719628861,1.3932792200044457]]]}},{"type":"Feature","properties":{"code":"1224112006","desa":"Muzoi","kecamatan":"Lahewa Timur","kecCode":"122411"},"geometry":{"type":"Polygon","coordinates":[[[97.29880031598184,1.4500315491980091],[97.31646975667398,1.4246644819897467],[97.30513313858351,1.3913204839997075],[97.30364273442473,1.408359639313567],[97.2809709308638,1.4236581298294488],[97.29134848314607,1.4509016037064344],[97.29880031598184,1.4500315491980091]]]}},{"type":"Feature","properties":{"code":"1224112006","desa":"Muzoi","kecamatan":"Lahewa Timur","kecCode":"122411"},"geometry":{"type":"Polygon","coordinates":[[[97.2546069930184,1.4540751843990816],[97.25356478938357,1.4552030484575325],[97.25477117594907,1.4550388664263043],[97.2546069930184,1.4540751843990816]]]}},{"type":"Feature","properties":{"code":"1224112006","desa":"Muzoi","kecamatan":"Lahewa Timur","kecCode":"122411"},"geometry":{"type":"Polygon","coordinates":[[[97.25879727797206,1.466108271642892],[97.25598475529226,1.460618853946555],[97.23020091613944,1.4511836571800922],[97.23681581829543,1.4627763913845289],[97.25879727797206,1.466108271642892]]]}},{"type":"Feature","properties":{"code":"1224112006","desa":"Muzoi","kecamatan":"Lahewa Timur","kecCode":"122411"},"geometry":{"type":"Polygon","coordinates":[[[97.2029021950803,1.462035258288531],[97.19960426242683,1.461421357678227],[97.20274515006865,1.4653902987875524],[97.2029021950803,1.462035258288531]]]}},{"type":"Feature","properties":{"code":"1224112006","desa":"Muzoi","kecamatan":"Lahewa Timur","kecCode":"122411"},"geometry":{"type":"Polygon","coordinates":[[[97.21051069431313,1.464591051501],[97.20924099997222,1.465086345922762],[97.21018424220908,1.4654894679287596],[97.21051069431313,1.464591051501]]]}},{"type":"Feature","properties":{"code":"1224112007","desa":"Meafu","kecamatan":"Lahewa Timur","kecCode":"122411"},"geometry":{"type":"Polygon","coordinates":[[[97.35451032199381,1.3413829357759863],[97.37764868124168,1.3172817111109858],[97.39163886324303,1.330963484091212],[97.3784174334179,1.29399799446671],[97.37048784833557,1.3062094595401645],[97.37599932820649,1.3125539535363433],[97.36935510005786,1.3116054088977385],[97.36537679880028,1.323949545556603],[97.3476043425664,1.326103134071466],[97.34238942583141,1.3387383444041339],[97.35451032199381,1.3413829357759863]]]}}]}