{"type":"FeatureCollection","features":[{"type":"Feature","properties":{"code":"1225012001","desa":"Sisobaoho","kecamatan":"Lahomi","kecCode":"122501"},"geometry":{"type":"Polygon","coordinates":[[[97.54591467432283,0.9802051057854302],[97.52628792934449,0.9538973468188408],[97.51545683636397,0.9654154175084332],[97.52243825272325,0.9733292842311726],[97.54591467432283,0.9802051057854302]]]}},{"type":"Feature","properties":{"code":"1225012002","desa":"Bawozamaiwo","kecamatan":"Lahomi","kecCode":"122501"},"geometry":{"type":"Polygon","coordinates":[[[97.53775680803034,0.9781024629650878],[97.51530471963719,0.967807094340154],[97.50983671838992,0.9719188028241317],[97.51683247623784,0.9870231351063931],[97.53322437240693,0.9936593637780246],[97.53775680803034,0.9781024629650878]]]}},{"type":"Feature","properties":{"code":"1225012003","desa":"Sitolubanua","kecamatan":"Lahomi","kecCode":"122501"},"geometry":{"type":"Polygon","coordinates":[[[97.52628792934449,0.9538973468188408],[97.53046671556653,0.9384828113836048],[97.51139696299953,0.948189957740499],[97.50368969662225,0.9662505549391538],[97.51032371566703,0.9781465513289958],[97.51043634226346,0.9706053402793832],[97.52628792934449,0.9538973468188408]]]}},{"type":"Feature","properties":{"code":"1225012004","desa":"Lologundre","kecamatan":"Lahomi","kecCode":"122501"},"geometry":{"type":"Polygon","coordinates":[[[97.50898179857118,0.9762053916743555],[97.49873955288813,0.9640990276703834],[97.49382053918657,0.9830606493307619],[97.49693672425047,0.9858615662564099],[97.50898179857118,0.9762053916743555]]]}},{"type":"Feature","properties":{"code":"1225012005","desa":"Iraonogaila","kecamatan":"Lahomi","kecCode":"122501"},"geometry":{"type":"Polygon","coordinates":[[[97.50368969662225,0.9662505549391538],[97.51139696299953,0.948189957740499],[97.49391605797973,0.9464109962126194],[97.48024504357397,0.9623050438670375],[97.48875129373725,0.9809022593354452],[97.49873955288813,0.9640990276703834],[97.50368969662225,0.9662505549391538]]]}},{"type":"Feature","properties":{"code":"1225012006","desa":"Tigaserangkai","kecamatan":"Lahomi","kecCode":"122501"},"geometry":{"type":"Polygon","coordinates":[[[97.47784263243159,0.9996430605615424],[97.48024504357397,0.9623050438670375],[97.46069342706005,0.9712276207725457],[97.46046452891494,0.9784628285031204],[97.47294047292455,0.9739729173276414],[97.47015073906539,0.9940368757901937],[97.47784263243159,0.9996430605615424]]]}},{"type":"Feature","properties":{"code":"1225012007","desa":"Onowaembo","kecamatan":"Lahomi","kecCode":"122501"},"geometry":{"type":"Polygon","coordinates":[[[97.49693672425047,0.9858615662564099],[97.48329332083016,0.9744844157339743],[97.47784263243159,0.9996430605615424],[97.485889621309,1.0087378594372591],[97.48724305602228,0.9955116299451],[97.49693672425047,0.9858615662564099]]]}},{"type":"Feature","properties":{"code":"1225012008","desa":"Onolimbu","kecamatan":"Lahomi","kecCode":"122501"},"geometry":{"type":"Polygon","coordinates":[[[97.50060545457814,0.9833085528483736],[97.48724305602228,0.9955116299451],[97.485889621309,1.0087378594372591],[97.49194270888897,1.0118985654355408],[97.50300058480921,1.0089379990618055],[97.50060545457814,0.9833085528483736]]]}},{"type":"Feature","properties":{"code":"1225012009","desa":"Haliadulo","kecamatan":"Lahomi","kecCode":"122501"},"geometry":{"type":"Polygon","coordinates":[[[97.50473724942456,0.9960606246848123],[97.50300058480921,1.0089379990618055],[97.5116823628508,1.007641972572791],[97.50897812394135,0.9972043006234094],[97.50473724942456,0.9960606246848123]]]}},{"type":"Feature","properties":{"code":"1225012010","desa":"Sisobambowo","kecamatan":"Lahomi","kecCode":"122501"},"geometry":{"type":"Polygon","coordinates":[[[97.50695617908445,0.9880587386155634],[97.50127553224006,0.9876410934578195],[97.50456454271955,0.99035367987152],[97.50695617908445,0.9880587386155634]]]}},{"type":"Feature","properties":{"code":"1225012011","desa":"Lolowau","kecamatan":"Lahomi","kecCode":"122501"},"geometry":{"type":"Polygon","coordinates":[[[97.53529166557796,0.993984445314923],[97.51683247623784,0.9870231351063931],[97.51256730833467,0.9771540226478616],[97.50060545457814,0.9833085528483736],[97.51316792056313,1.0098936564384182],[97.52922954340875,1.0099963850963136],[97.53529166557796,0.993984445314923]]]}},{"type":"Feature","properties":{"code":"1225022001","desa":"Bawosaloo","kecamatan":"Sirombu","kecCode":"122502"},"geometry":{"type":"Polygon","coordinates":[[[97.31953329362663,0.8483051333268676],[97.31095137360705,0.849437554250058],[97.3091138419303,0.8555797034839693],[97.32234841264919,0.8586081246053873],[97.31953329362663,0.8483051333268676]]]}},{"type":"Feature","properties":{"code":"1225022001","desa":"Bawosaloo","kecamatan":"Sirombu","kecCode":"122502"},"geometry":{"type":"Polygon","coordinates":[[[97.28337366486276,0.8711006691866465],[97.29080243818203,0.8684614944315168],[97.29081580930222,0.8631092242463909],[97.2826826087155,0.866529066294669],[97.28337366486276,0.8711006691866465]]]}},{"type":"Feature","properties":{"code":"1225022001","desa":"Bawosaloo","kecamatan":"Sirombu","kecCode":"122502"},"geometry":{"type":"Polygon","coordinates":[[[97.4474687758634,0.9588800963675257],[97.43707281266023,0.9581695087448759],[97.4382019906294,0.9696845163434827],[97.44525526641746,0.9641233813113208],[97.4474687758634,0.9588800963675257]]]}},{"type":"Feature","properties":{"code":"1225022002","desa":"Imana","kecamatan":"Sirombu","kecCode":"122502"},"geometry":{"type":"Polygon","coordinates":[[[97.31953329362663,0.8483051333268676],[97.32464168566531,0.8564184624846035],[97.33283375587321,0.8499182886479054],[97.3271924912405,0.8453475464070284],[97.31953329362663,0.8483051333268676]]]}},{"type":"Feature","properties":{"code":"1225022002","desa":"Imana","kecamatan":"Sirombu","kecCode":"122502"},"geometry":{"type":"Polygon","coordinates":[[[97.43035482571467,0.9765157791884033],[97.42488658524775,0.974973983272988],[97.43365061708236,0.9808078844800743],[97.43035482571467,0.9765157791884033]]]}},{"type":"Feature","properties":{"code":"1225022003","desa":"Tuwa Tuwa","kecamatan":"Sirombu","kecCode":"122502"},"geometry":{"type":"Polygon","coordinates":[[[97.33812750627949,0.8409217487994592],[97.34190177564646,0.8195630219995879],[97.33207499966157,0.8298819987274227],[97.33812750627949,0.8409217487994592]]]}},{"type":"Feature","properties":{"code":"1225022003","desa":"Tuwa Tuwa","kecamatan":"Sirombu","kecCode":"122502"},"geometry":{"type":"Polygon","coordinates":[[[97.43724677032225,0.9655667230465744],[97.43563851720386,0.9697502271073783],[97.4382019906294,0.9696845163434827],[97.43724677032225,0.9655667230465744]]]}},{"type":"Feature","properties":{"code":"1225022004","desa":"Kafo Kafo","kecamatan":"Sirombu","kecCode":"122502"},"geometry":{"type":"Polygon","coordinates":[[[97.34665682944915,0.8266090492440175],[97.33904920435737,0.8411812778532434],[97.34537772370305,0.8433797317463152],[97.35253672918674,0.8367723650170898],[97.34665682944915,0.8266090492440175]]]}},{"type":"Feature","properties":{"code":"1225022005","desa":"Bawasawa","kecamatan":"Sirombu","kecCode":"122502"},"geometry":{"type":"Polygon","coordinates":[[[97.34190177564646,0.8195630219995879],[97.34928739409803,0.8294158306487706],[97.35253672918674,0.8367723650170898],[97.36145403607499,0.8210261722021098],[97.359108800231,0.8118701160052941],[97.34190177564646,0.8195630219995879]]]}},{"type":"Feature","properties":{"code":"1225022006","desa":"Pulau Bogi","kecamatan":"Sirombu","kecCode":"122502"},"geometry":{"type":"Polygon","coordinates":[[[97.38211703387405,0.8422913353351822],[97.3834753878789,0.8365564917533904],[97.38140638779463,0.8350104924067521],[97.3758042292818,0.8403491711377996],[97.38211703387405,0.8422913353351822]]]}},{"type":"Feature","properties":{"code":"1225022006","desa":"Pulau Bogi","kecamatan":"Sirombu","kecCode":"122502"},"geometry":{"type":"Polygon","coordinates":[[[97.37250544407107,0.8623685686903974],[97.3847314359071,0.8574165219963099],[97.38090971111431,0.8471199239982202],[97.36402505571179,0.8515266847567063],[97.37250544407107,0.8623685686903974]]]}},{"type":"Feature","properties":{"code":"1225022007","desa":"Halamona","kecamatan":"Sirombu","kecCode":"122502"},"geometry":{"type":"Polygon","coordinates":[[[97.33450375734259,0.8572826021519607],[97.32948071456336,0.8602188562534976],[97.33201999982322,0.8651559993826646],[97.33461750989022,0.8617017393804283],[97.33450375734259,0.8572826021519607]]]}},{"type":"Feature","properties":{"code":"1225022007","desa":"Halamona","kecamatan":"Sirombu","kecCode":"122502"},"geometry":{"type":"Polygon","coordinates":[[[97.43459028181609,0.9639814646953497],[97.43299411378739,0.9618081810276261],[97.43277161162062,0.9636072073297071],[97.43459028181609,0.9639814646953497]]]}},{"type":"Feature","properties":{"code":"1225022008","desa":"Hanofa","kecamatan":"Sirombu","kecCode":"122502"},"geometry":{"type":"Polygon","coordinates":[[[97.33603850976948,0.8567614998855034],[97.33201999982322,0.8651559993826646],[97.33636948186614,0.870062783198191],[97.34270575876383,0.8617298144160139],[97.33603850976948,0.8567614998855034]]]}},{"type":"Feature","properties":{"code":"1225022008","desa":"Hanofa","kecamatan":"Sirombu","kecCode":"122502"},"geometry":{"type":"Polygon","coordinates":[[[97.27101949985006,0.9151417602609984],[97.2774725977822,0.9116867817004687],[97.28427407868581,0.8967191463690488],[97.26678504109684,0.9070698017160059],[97.27101949985006,0.9151417602609984]]]}},{"type":"Feature","properties":{"code":"1225022008","desa":"Hanofa","kecamatan":"Sirombu","kecCode":"122502"},"geometry":{"type":"Polygon","coordinates":[[[97.42795014198553,0.9771749849453818],[97.4206471406531,0.9796314876081106],[97.43185194780919,0.9807946959222613],[97.42795014198553,0.9771749849453818]]]}},{"type":"Feature","properties":{"code":"1225022009","desa":"Lahawa","kecamatan":"Sirombu","kecCode":"122502"},"geometry":{"type":"Polygon","coordinates":[[[97.34270575876383,0.8617298144160139],[97.33853275068594,0.8673016684676262],[97.34137235375118,0.8689486355996241],[97.34652057226668,0.8646992391119114],[97.34270575876383,0.8617298144160139]]]}},{"type":"Feature","properties":{"code":"1225022010","desa":"Hinako","kecamatan":"Sirombu","kecCode":"122502"},"geometry":{"type":"Polygon","coordinates":[[[97.33853275068594,0.8673016684676262],[97.34558157572917,0.8737189517914047],[97.34902513470229,0.8667221048722625],[97.34652057226668,0.8646992391119114],[97.33853275068594,0.8673016684676262]]]}},{"type":"Feature","properties":{"code":"1225022011","desa":"Sineneeto","kecamatan":"Sirombu","kecCode":"122502"},"geometry":{"type":"Polygon","coordinates":[[[97.35574888000683,0.8685038291174554],[97.34827062508934,0.8696209552706514],[97.345741343888,0.8736760406400584],[97.35574888000683,0.8685038291174554]]]}},{"type":"Feature","properties":{"code":"1225022012","desa":"Balowondrate","kecamatan":"Sirombu","kecCode":"122502"},"geometry":{"type":"Polygon","coordinates":[[[97.34968132683184,0.8738369302532545],[97.35437511162218,0.8747371381304988],[97.35806109544323,0.8721462021105373],[97.35574888000683,0.8685038291174554],[97.34968132683184,0.8738369302532545]]]}},{"type":"Feature","properties":{"code":"1225022012","desa":"Balowondrate","kecamatan":"Sirombu","kecCode":"122502"},"geometry":{"type":"Polygon","coordinates":[[[97.36982439687847,0.8794873346894853],[97.3747204284051,0.8794753656124293],[97.37490235585908,0.8772054336031867],[97.36982439687847,0.8794873346894853]]]}},{"type":"Feature","properties":{"code":"1225022012","desa":"Balowondrate","kecamatan":"Sirombu","kecCode":"122502"},"geometry":{"type":"Polygon","coordinates":[[[97.43724677032225,0.9655667230465744],[97.43459028181609,0.9639814646953497],[97.43462936365427,0.9655001003701791],[97.43724677032225,0.9655667230465744]]]}},{"type":"Feature","properties":{"code":"1225022013","desa":"Hilimberuanaa","kecamatan":"Sirombu","kecCode":"122502"},"geometry":{"type":"Polygon","coordinates":[[[97.53866256562496,0.9227215603202932],[97.5524260222432,0.8949345002265701],[97.5482381231909,0.8882485066702208],[97.51431485564615,0.907085220592398],[97.53866256562496,0.9227215603202932]]]}},{"type":"Feature","properties":{"code":"1225022014","desa":"Lahusa","kecamatan":"Sirombu","kecCode":"122502"},"geometry":{"type":"Polygon","coordinates":[[[97.53239267937869,0.9347790353792621],[97.53866256562496,0.9227215603202932],[97.50991285319564,0.9074421399284355],[97.51094647100291,0.9208505918519325],[97.53239267937869,0.9347790353792621]]]}},{"type":"Feature","properties":{"code":"1225022015","desa":"Ombolata","kecamatan":"Sirombu","kecCode":"122502"},"geometry":{"type":"Polygon","coordinates":[[[97.51114665289577,0.9482368636803998],[97.53239267937869,0.9347790353792621],[97.51094647100291,0.9208505918519325],[97.49639510844754,0.9316125575321629],[97.51114665289577,0.9482368636803998]]]}},{"type":"Feature","properties":{"code":"1225022016","desa":"Tetehosi","kecamatan":"Sirombu","kecCode":"122502"},"geometry":{"type":"Polygon","coordinates":[[[97.49853886107962,0.9457798843769671],[97.51114665289577,0.9482368636803998],[97.49220135480873,0.9317450627429172],[97.4898180839375,0.9338108081784368],[97.49853886107962,0.9457798843769671]]]}},{"type":"Feature","properties":{"code":"1225022017","desa":"Togimbogi","kecamatan":"Sirombu","kecCode":"122502"},"geometry":{"type":"Polygon","coordinates":[[[97.49200867955699,0.9481913543876199],[97.49887881290691,0.9420188152631478],[97.4898180839375,0.9338108081784368],[97.47620460995482,0.9405832085968154],[97.49200867955699,0.9481913543876199]]]}},{"type":"Feature","properties":{"code":"1225022018","desa":"Sisobandrao","kecamatan":"Sirombu","kecCode":"122502"},"geometry":{"type":"Polygon","coordinates":[[[97.48024504357397,0.9623050438670375],[97.49200867955699,0.9481913543876199],[97.47620460995482,0.9405832085968154],[97.45694523893165,0.9456579021334456],[97.46388723171042,0.9686703859468491],[97.48024504357397,0.9623050438670375]]]}},{"type":"Feature","properties":{"code":"1225022019","desa":"Fadoro","kecamatan":"Sirombu","kecCode":"122502"},"geometry":{"type":"Polygon","coordinates":[[[97.44392630855236,0.9813017175034433],[97.4651906065613,0.9728551733401792],[97.46561757858841,0.9614112283708451],[97.45565081233518,0.9499790033664635],[97.461126070212,0.9430617788238732],[97.44459618386685,0.9436286008244715],[97.45263467594957,0.9486913279819772],[97.44390124084963,0.9607894802763619],[97.44392630855236,0.9813017175034433]],[[97.46042342540085,0.9675006386621267],[97.45982085444892,0.9700176540073199],[97.45961710134821,0.9675786197760169],[97.46042342540085,0.9675006386621267]]]}},{"type":"Feature","properties":{"code":"1225022020","desa":"Tugala Gawu","kecamatan":"Sirombu","kecCode":"122502"},"geometry":{"type":"Polygon","coordinates":[[[97.4284688826329,0.9572430919252061],[97.44629173057893,0.9582031838587651],[97.45263467594957,0.9486913279819772],[97.43127255868171,0.9418474611385848],[97.4284688826329,0.9572430919252061]]]}},{"type":"Feature","properties":{"code":"1225022021","desa":"Sirombu","kecamatan":"Sirombu","kecCode":"122502"},"geometry":{"type":"Polygon","coordinates":[[[97.43261899397145,0.918097859702171],[97.42891786466775,0.919255125296238],[97.43106108669984,0.9213855032084421],[97.43261899397145,0.918097859702171]]]}},{"type":"Feature","properties":{"code":"1225022021","desa":"Sirombu","kecamatan":"Sirombu","kecCode":"122502"},"geometry":{"type":"Polygon","coordinates":[[[97.43129762908238,0.9340674863812746],[97.42463037918871,0.9317118193035212],[97.42805680337881,0.9375224631431873],[97.43129762908238,0.9340674863812746]]]}},{"type":"Feature","properties":{"code":"1225022021","desa":"Sirombu","kecamatan":"Sirombu","kecCode":"122502"},"geometry":{"type":"Polygon","coordinates":[[[97.42161553243096,0.972972368492494],[97.42810368593642,0.9446717298604846],[97.41581082231163,0.9498495882261879],[97.41113241502897,0.9385216782837555],[97.4061498228561,0.9389642580444842],[97.40911909197256,0.9684722095422943],[97.42161553243096,0.972972368492494]],[[97.42290442999551,0.9630393942762109],[97.40970726657712,0.9654356963212554],[97.4100747475516,0.9613669178744282],[97.42290442999551,0.9630393942762109]]]}},{"type":"Feature","properties":{"code":"1225022022","desa":"Togideu","kecamatan":"Sirombu","kecCode":"122502"},"geometry":{"type":"Polygon","coordinates":[[[97.4336315964211,0.9807831162515801],[97.43656443669943,0.9571566059227701],[97.42861648206507,0.9568281222504956],[97.42161553243096,0.972972368492494],[97.4336315964211,0.9807831162515801]],[[97.43490115406506,0.9624030699699826],[97.43277161162062,0.9636072073297071],[97.43299411378739,0.9618081810276261],[97.43490115406506,0.9624030699699826]]]}},{"type":"Feature","properties":{"code":"1225022023","desa":"Tugala","kecamatan":"Sirombu","kecCode":"122502"},"geometry":{"type":"Polygon","coordinates":[[[97.44525526641746,0.9641233813113208],[97.43563851720386,0.9697502271073783],[97.4362181536449,0.9806716587739117],[97.44664789358546,0.9783760133487883],[97.44525526641746,0.9641233813113208]]]}},{"type":"Feature","properties":{"code":"1225022024","desa":"Orahili","kecamatan":"Sirombu","kecCode":"122502"},"geometry":{"type":"Polygon","coordinates":[[[97.45937792575073,0.9906697744832299],[97.4607933867055,0.9726306953631468],[97.44392630855236,0.9813017175034433],[97.444675447414,0.9886069968104864],[97.45937792575073,0.9906697744832299]]]}},{"type":"Feature","properties":{"code":"1225022025","desa":"Gunungcahaya","kecamatan":"Sirombu","kecCode":"122502"},"geometry":{"type":"Polygon","coordinates":[[[97.47015073906539,0.9940368757901937],[97.47495460986742,0.9869630585951455],[97.47214601542635,0.9736226179012571],[97.45822367198491,0.9819621733181448],[97.45937792575073,0.9906697744832299],[97.47015073906539,0.9940368757901937]]]}},{"type":"Feature","properties":{"code":"1225032001","desa":"Onolimbu Raya","kecamatan":"Mandrehe Barat","kecCode":"122503"},"geometry":{"type":"Polygon","coordinates":[[[97.41930419922947,0.9861635720889845],[97.42161553243096,0.972972368492494],[97.40911909197256,0.9684722095422943],[97.40600130521614,0.9827489182295865],[97.41930419922947,0.9861635720889845]]]}},{"type":"Feature","properties":{"code":"1225032002","desa":"Ononamolo Iii","kecamatan":"Mandrehe Barat","kecCode":"122503"},"geometry":{"type":"Polygon","coordinates":[[[97.44323900257795,0.9804579420845225],[97.42200378504668,0.9803973106915033],[97.41757433978405,0.9916492396123878],[97.42716030340534,1.0085435537148788],[97.43692229582733,1.0068246471145175],[97.44478515840837,0.9917040407005212],[97.44323900257795,0.9804579420845225]]]}},{"type":"Feature","properties":{"code":"1225032003","desa":"Sisobaoho","kecamatan":"Mandrehe Barat","kecCode":"122503"},"geometry":{"type":"Polygon","coordinates":[[[97.46435144106619,0.9917040209154384],[97.44451438692947,0.9882214547518089],[97.43929644757303,1.0032299193040632],[97.45880982041693,0.9975605427699213],[97.46435144106619,0.9917040209154384]]]}},{"type":"Feature","properties":{"code":"1225032004","desa":"Iraonogeba","kecamatan":"Mandrehe Barat","kecCode":"122503"},"geometry":{"type":"Polygon","coordinates":[[[97.47784263243159,0.9996430605615424],[97.46435144106619,0.9917040209154384],[97.45880982041693,0.9975605427699213],[97.46605006705697,1.0084689990180333],[97.47784263243159,0.9996430605615424]]]}},{"type":"Feature","properties":{"code":"1225032005","desa":"Lolohia","kecamatan":"Mandrehe Barat","kecCode":"122503"},"geometry":{"type":"Polygon","coordinates":[[[97.48443296600863,1.0071397920421574],[97.47887394797436,1.0005539110159363],[97.4591386548251,1.0215462926855998],[97.46743242396722,1.0208108792777868],[97.48443296600863,1.0071397920421574]]]}},{"type":"Feature","properties":{"code":"1225032006","desa":"Fadorosifulubanua","kecamatan":"Mandrehe Barat","kecCode":"122503"},"geometry":{"type":"Polygon","coordinates":[[[97.46245793108868,1.0221901730956293],[97.45299012399511,1.019173207538461],[97.4433599308162,1.0377994027604103],[97.45952096562013,1.0278366600850815],[97.46245793108868,1.0221901730956293]]]}},{"type":"Feature","properties":{"code":"1225032007","desa":"Hillidaura","kecamatan":"Mandrehe Barat","kecCode":"122503"},"geometry":{"type":"Polygon","coordinates":[[[97.41490597123362,1.0359079675209752],[97.44613750224396,1.0115636938788564],[97.44343836608776,1.00762780105603],[97.42281063340408,1.0230682405634715],[97.40356423690007,1.0226334192539857],[97.40527113755303,1.0308231988794574],[97.41490597123362,1.0359079675209752]]]}},{"type":"Feature","properties":{"code":"1225032008","desa":"Sisarahili Ii","kecamatan":"Mandrehe Barat","kecCode":"122503"},"geometry":{"type":"Polygon","coordinates":[[[97.41930419922947,0.9861635720889845],[97.40600130521614,0.9827489182295865],[97.39547100128574,1.0134784674246236],[97.40341192322173,1.0209484701547338],[97.41927624740093,1.0060741430827964],[97.41930419922947,0.9861635720889845]]]}},{"type":"Feature","properties":{"code":"1225032009","desa":"Lasara Bagawu","kecamatan":"Mandrehe Barat","kecCode":"122503"},"geometry":{"type":"Polygon","coordinates":[[[97.42716030340534,1.0085435537148788],[97.41819733074225,0.9973394030762971],[97.41757433978405,0.9916492396123878],[97.41476383878017,1.020042440066582],[97.42716030340534,1.0085435537148788]]]}},{"type":"Feature","properties":{"code":"1225032010","desa":"Sisobandrao","kecamatan":"Mandrehe Barat","kecCode":"122503"},"geometry":{"type":"Polygon","coordinates":[[[97.43946466666107,1.01010243944708],[97.42242337274051,1.0087317350541507],[97.41508113758447,1.0202858658597211],[97.41545756231669,1.0092777584338097],[97.40434406692519,1.0221112521902274],[97.42281063340408,1.0230682405634715],[97.43946466666107,1.01010243944708]]]}},{"type":"Feature","properties":{"code":"1225032011","desa":"Mazingo","kecamatan":"Mandrehe Barat","kecCode":"122503"},"geometry":{"type":"Polygon","coordinates":[[[97.44293521968471,1.034494602887474],[97.45449369243003,1.0174801609435609],[97.44613750224396,1.0115636938788564],[97.42927271466412,1.0284036412657116],[97.44293521968471,1.034494602887474]]]}},{"type":"Feature","properties":{"code":"1225032012","desa":"Onolimbu You","kecamatan":"Mandrehe Barat","kecCode":"122503"},"geometry":{"type":"Polygon","coordinates":[[[97.45997127865166,1.02675588902558],[97.45017420457593,1.031290387688723],[97.44361819272547,1.0398090161111473],[97.45809436566253,1.035606039030158],[97.45997127865166,1.02675588902558]]]}},{"type":"Feature","properties":{"code":"1225032012","desa":"Onolimbu You","kecamatan":"Mandrehe Barat","kecCode":"122503"},"geometry":{"type":"Polygon","coordinates":[[[97.41580288129802,1.0582818031800483],[97.38479659268864,1.044631358982597],[97.38081205373334,1.0529111085841574],[97.41580288129802,1.0582818031800483]]]}},{"type":"Feature","properties":{"code":"1225032013","desa":"Lasarafaga","kecamatan":"Mandrehe Barat","kecCode":"122503"},"geometry":{"type":"Polygon","coordinates":[[[97.4433599308162,1.0377994027604103],[97.42927271466412,1.0284036412657116],[97.41490597123362,1.0359079675209752],[97.40527113755303,1.0308231988794574],[97.40613841675456,1.0209097714278694],[97.3954704446054,1.0158529321318146],[97.39116262905215,1.0240675249518192],[97.39818999986863,1.0365400002623755],[97.42655136795132,1.0455590402490071],[97.4433599308162,1.0377994027604103]]]}},{"type":"Feature","properties":{"code":"1225032014","desa":"Orahili Badalu","kecamatan":"Mandrehe Barat","kecCode":"122503"},"geometry":{"type":"Polygon","coordinates":[[[97.44821924931898,1.0412468342104082],[97.44361819272547,1.0398090161111473],[97.42655136795132,1.0455590402490071],[97.42876999993557,1.0517799988724774],[97.44821924931898,1.0412468342104082]]]}},{"type":"Feature","properties":{"code":"1225042001","desa":"Hiliwaloo Ii","kecamatan":"Moro'O","kecCode":"122504"},"geometry":{"type":"Polygon","coordinates":[[[97.47587453807954,1.0830532709814176],[97.46956987325107,1.062823298568648],[97.46580439385775,1.059521760536768],[97.45872912694773,1.0724604488921539],[97.46574879237295,1.0751956010946182],[97.46476131698125,1.0826433141278486],[97.47587453807954,1.0830532709814176]]]}},{"type":"Feature","properties":{"code":"1225042002","desa":"Gunungbaru","kecamatan":"Moro'O","kecCode":"122504"},"geometry":{"type":"Polygon","coordinates":[[[97.45872912694773,1.0724604488921539],[97.46580439385775,1.059521760536768],[97.44463924700369,1.0560038600100665],[97.44743381741682,1.0689979484020187],[97.45872912694773,1.0724604488921539]]]}},{"type":"Feature","properties":{"code":"1225042003","desa":"Hilisoromi","kecamatan":"Moro'O","kecCode":"122504"},"geometry":{"type":"Polygon","coordinates":[[[97.41130653726697,1.0559652736983487],[97.41580288129802,1.0582818031800483],[97.38081205373334,1.0529111085841574],[97.38479659268864,1.044631358982597],[97.39606982296401,1.0487288078162282],[97.3880082713647,1.0353397767522396],[97.37444540133423,1.0634326189318524],[97.38113240483665,1.0662762158831312],[97.39005968790433,1.0595263174016227],[97.41235810284422,1.0732636460011091],[97.4278600290172,1.059020169062104],[97.41130653726697,1.0559652736983487]]]}},{"type":"Feature","properties":{"code":"1225042004","desa":"Siduahili","kecamatan":"Moro'O","kecCode":"122504"},"geometry":{"type":"Polygon","coordinates":[[[97.4475071319486,1.0412567492359133],[97.43214999932307,1.0542699985834112],[97.42777321386278,1.047879390950102],[97.43137055600641,1.0583472207649458],[97.44192999976974,1.061957776643298],[97.44463924700369,1.0560038600100665],[97.45937378527202,1.053896036195389],[97.45818496066744,1.0443005307777975],[97.4475071319486,1.0412567492359133]]]}},{"type":"Feature","properties":{"code":"1225042004","desa":"Siduahili","kecamatan":"Moro'O","kecCode":"122504"},"geometry":{"type":"Polygon","coordinates":[[[97.42352501796529,1.0544167931221478],[97.42965224205739,1.0586766118530422],[97.42458387794368,1.0527392724230318],[97.42352501796529,1.0544167931221478]]]}},{"type":"Feature","properties":{"code":"1225042005","desa":"Sitolubanua Fadoro","kecamatan":"Moro'O","kecCode":"122504"},"geometry":{"type":"Polygon","coordinates":[[[97.36508333292954,1.0940999988932667],[97.40681166902333,1.087484454628715],[97.41235810284422,1.0732636460011091],[97.39005968790433,1.0595263174016227],[97.38113240483665,1.0662762158831312],[97.37444540133423,1.0634326189318524],[97.36149141729514,1.0903925644468673],[97.36508333292954,1.0940999988932667]]]}},{"type":"Feature","properties":{"code":"1225042006","desa":"Halifadolo","kecamatan":"Moro'O","kecCode":"122504"},"geometry":{"type":"Polygon","coordinates":[[[97.45201084142724,1.072367068686946],[97.44699833960173,1.0603972730307216],[97.43137055600641,1.0583472207649458],[97.40993828892094,1.0770671550215765],[97.42783734092063,1.0792316640041257],[97.44079278905605,1.0885944248764068],[97.45201084142724,1.072367068686946]]]}},{"type":"Feature","properties":{"code":"1225042007","desa":"Lasara Bahili","kecamatan":"Moro'O","kecCode":"122504"},"geometry":{"type":"Polygon","coordinates":[[[97.40681166902333,1.087484454628715],[97.434424802063,1.0920785549610406],[97.43480497696817,1.0853283462133905],[97.40993828892094,1.0770671550215765],[97.40681166902333,1.087484454628715]]]}},{"type":"Feature","properties":{"code":"1225042008","desa":"Hiliwaele","kecamatan":"Moro'O","kecCode":"122504"},"geometry":{"type":"Polygon","coordinates":[[[97.43480497696817,1.0853283462133905],[97.4347333333767,1.0928055552110951],[97.44497444501467,1.116164551405785],[97.4468212370105,1.0825606799217573],[97.44079278905605,1.0885944248764068],[97.43480497696817,1.0853283462133905]]]}},{"type":"Feature","properties":{"code":"1225042009","desa":"Sitoluewali","kecamatan":"Moro'O","kecCode":"122504"},"geometry":{"type":"Polygon","coordinates":[[[97.44497444501467,1.116164551405785],[97.46518333284462,1.097649998921773],[97.46991666712057,1.0838833317391692],[97.4768696172391,1.0852592845755995],[97.46476131698125,1.0826433141278486],[97.4616333813755,1.0724455920919738],[97.44434421721188,1.0799480315695695],[97.44497444501467,1.116164551405785]]]}},{"type":"Feature","properties":{"code":"1225042010","desa":"Onozalukhu You","kecamatan":"Moro'O","kecCode":"122504"},"geometry":{"type":"Polygon","coordinates":[[[97.39606982296401,1.0487288078162282],[97.41130653726697,1.0559652736983487],[97.42458387794368,1.0527392724230318],[97.43137055600641,1.0583472207649458],[97.42467368244456,1.0437919245911476],[97.38993720743622,1.0294570036872805],[97.39606982296401,1.0487288078162282]]]}},{"type":"Feature","properties":{"code":"1225052001","desa":"Simaeasi","kecamatan":"Mandrehe","kecCode":"122505"},"geometry":{"type":"Polygon","coordinates":[[[97.50994656158463,1.0062422731377483],[97.48730286543497,1.009167414316846],[97.47968720400132,1.0177581189046174],[97.47739594096997,1.0301219165419673],[97.48324985569633,1.0380145017078188],[97.49604906641132,1.0249070789530865],[97.51310940257692,1.026161521690018],[97.50994656158463,1.0062422731377483]]]}},{"type":"Feature","properties":{"code":"1225052001","desa":"Simaeasi","kecamatan":"Mandrehe","kecCode":"122505"},"geometry":{"type":"Polygon","coordinates":[[[97.52760376160437,1.0449708512559426],[97.52072050085046,1.0446246500401466],[97.51551106728198,1.04640865226803],[97.51046086857427,1.0502325345301466],[97.51694258832985,1.0516648370873136],[97.51762631140518,1.0463145687930497],[97.52303423164453,1.0508920577478655],[97.52760376160437,1.0449708512559426]]]}},{"type":"Feature","properties":{"code":"1225052002","desa":"Lologolu","kecamatan":"Mandrehe","kecCode":"122505"},"geometry":{"type":"Polygon","coordinates":[[[97.57079006600877,1.0609865088346409],[97.56242935672947,1.036535053991114],[97.53912469844613,1.0715323125687732],[97.55096829764886,1.0749815885282357],[97.55666825203826,1.064623297937159],[97.56532094600493,1.067241603024915],[97.57079006600877,1.0609865088346409]]]}},{"type":"Feature","properties":{"code":"1225052003","desa":"Tuwuna","kecamatan":"Mandrehe","kecCode":"122505"},"geometry":{"type":"Polygon","coordinates":[[[97.5762645064019,1.0622024354070703],[97.56532094600493,1.067241603024915],[97.55666825203826,1.064623297937159],[97.55096829764886,1.0749815885282357],[97.55676817481145,1.0988985502000137],[97.57000590844596,1.0999117965631215],[97.56751129970678,1.0799776669289385],[97.5762645064019,1.0622024354070703]]]}},{"type":"Feature","properties":{"code":"1225052004","desa":"Tuhemberua","kecamatan":"Mandrehe","kecCode":"122505"},"geometry":{"type":"Polygon","coordinates":[[[97.54117025500334,1.0541512673890094],[97.55725633401266,1.040446408811946],[97.54163147860993,1.033621159733578],[97.52828808093022,1.041940526269855],[97.54117025500334,1.0541512673890094]]]}},{"type":"Feature","properties":{"code":"1225052005","desa":"Lolozirugi","kecamatan":"Mandrehe","kecCode":"122505"},"geometry":{"type":"Polygon","coordinates":[[[97.52573254042449,1.0459522966922372],[97.52272014341992,1.0510348251225157],[97.51667452740759,1.0484798790714716],[97.52423018157765,1.0635112862284115],[97.5456303068932,1.0599371196178922],[97.54756765971977,1.053053029696771],[97.52573254042449,1.0459522966922372]]]}},{"type":"Feature","properties":{"code":"1225052005","desa":"Lolozirugi","kecamatan":"Mandrehe","kecCode":"122505"},"geometry":{"type":"Polygon","coordinates":[[[97.47777396199882,1.0877117879531806],[97.47931831378924,1.1160978891591782],[97.49596906542006,1.1154293439427585],[97.50136954376948,1.0958042663293892],[97.48268797097313,1.0949383451050576],[97.47777396199882,1.0877117879531806]]]}},{"type":"Feature","properties":{"code":"1225052006","desa":"Lakhene","kecamatan":"Mandrehe","kecCode":"122505"},"geometry":{"type":"Polygon","coordinates":[[[97.51657674232284,1.0508490566642787],[97.50116513955959,1.055506986378742],[97.51114144402248,1.068779225186745],[97.52423018157765,1.0635112862284115],[97.51657674232284,1.0508490566642787]]]}},{"type":"Feature","properties":{"code":"1225052006","desa":"Lakhene","kecamatan":"Mandrehe","kecCode":"122505"},"geometry":{"type":"Polygon","coordinates":[[[97.54329052184015,1.0644708421660878],[97.5400594726666,1.0602910280236597],[97.53556229136672,1.063974432585004],[97.53591722589931,1.0655748804856051],[97.54329052184015,1.0644708421660878]]]}},{"type":"Feature","properties":{"code":"1225052007","desa":"Hiliwaloo I","kecamatan":"Mandrehe","kecCode":"122505"},"geometry":{"type":"Polygon","coordinates":[[[97.51138484463489,1.0486786688135812],[97.52080675572726,1.044139240067011],[97.50825767705021,1.0258377837402903],[97.50288729271442,1.03946394624248],[97.51138484463489,1.0486786688135812]]]}},{"type":"Feature","properties":{"code":"1225052008","desa":"Sianaa","kecamatan":"Mandrehe","kecCode":"122505"},"geometry":{"type":"Polygon","coordinates":[[[97.50627800482611,1.0263000469626198],[97.49298669857733,1.027348405556296],[97.48943271724619,1.043349000390062],[97.50523544685842,1.041609403087432],[97.50627800482611,1.0263000469626198]]]}},{"type":"Feature","properties":{"code":"1225052009","desa":"Fadoro","kecamatan":"Mandrehe","kecCode":"122505"},"geometry":{"type":"Polygon","coordinates":[[[97.51046086857427,1.0502325345301466],[97.50523544685842,1.041609403087432],[97.48682793975767,1.0470809269730277],[97.48999239143573,1.0552384695005397],[97.51046086857427,1.0502325345301466]]]}},{"type":"Feature","properties":{"code":"1225052010","desa":"Iraonogambo","kecamatan":"Mandrehe","kecCode":"122505"},"geometry":{"type":"Polygon","coordinates":[[[97.42290442999551,0.9630393942762109],[97.40970726657712,0.9654356963212554],[97.42257130492185,0.9672034504977777],[97.42290442999551,0.9630393942762109]]]}},{"type":"Feature","properties":{"code":"1225052010","desa":"Iraonogambo","kecamatan":"Mandrehe","kecCode":"122505"},"geometry":{"type":"Polygon","coordinates":[[[97.47163401789568,1.01816219688997],[97.46258838674468,1.0438033567729945],[97.46553677270394,1.0481771591771947],[97.47543955938822,1.0291691100162057],[97.47163401789568,1.01816219688997]]]}},{"type":"Feature","properties":{"code":"1225052011","desa":"Tuhoowo","kecamatan":"Mandrehe","kecCode":"122505"},"geometry":{"type":"Polygon","coordinates":[[[97.45690402659959,1.0360286772238179],[97.44850249889127,1.04127475995853],[97.45818496066744,1.0443005307777975],[97.45968512876573,1.053337450186027],[97.46317329681027,1.0415715452266134],[97.45690402659959,1.0360286772238179]]]}},{"type":"Feature","properties":{"code":"1225052012","desa":"Fadoro Bahili","kecamatan":"Mandrehe","kecCode":"122505"},"geometry":{"type":"Polygon","coordinates":[[[97.46477999859809,1.0219499992509486],[97.45690402659959,1.0360286772238179],[97.46317329681027,1.0415715452266134],[97.4678945846674,1.0342355441791915],[97.46477999859809,1.0219499992509486]]]}},{"type":"Feature","properties":{"code":"1225052013","desa":"Tumori","kecamatan":"Mandrehe","kecCode":"122505"},"geometry":{"type":"Polygon","coordinates":[[[97.46042342540085,0.9675006386621267],[97.45982085444892,0.9700176540073199],[97.46077825021615,0.9699603168310152],[97.46042342540085,0.9675006386621267]]]}},{"type":"Feature","properties":{"code":"1225052013","desa":"Tumori","kecamatan":"Mandrehe","kecCode":"122505"},"geometry":{"type":"Polygon","coordinates":[[[97.45622072620563,1.0570333868001394],[97.47081395040357,1.0551413903837124],[97.46632459860143,1.0470863229053229],[97.45622072620563,1.0570333868001394]]]}},{"type":"Feature","properties":{"code":"1225052014","desa":"Lasara Baene","kecamatan":"Mandrehe","kecCode":"122505"},"geometry":{"type":"Polygon","coordinates":[[[97.485889621309,1.0087378594372591],[97.47163401789568,1.01816219688997],[97.47543955938822,1.0291691100162057],[97.4685313613333,1.0501437552565056],[97.48324985569633,1.0380145017078188],[97.47739594096997,1.0301219165419673],[97.485889621309,1.0087378594372591]]]}},{"type":"Feature","properties":{"code":"1225052015","desa":"Tetehosi","kecamatan":"Mandrehe","kecCode":"122505"},"geometry":{"type":"Polygon","coordinates":[[[97.46580439385775,1.059521760536768],[97.47124938774908,1.0715129915339734],[97.48999239143573,1.0552384695005397],[97.48906345471471,1.035906514216572],[97.46923511860592,1.0500551099818687],[97.46580439385775,1.059521760536768]]]}},{"type":"Feature","properties":{"code":"1225052016","desa":"Sisarahili I","kecamatan":"Mandrehe","kecCode":"122505"},"geometry":{"type":"Polygon","coordinates":[[[97.50813851328182,1.0675098779855376],[97.50905657540069,1.060329717757372],[97.50116513955959,1.055506986378742],[97.4774242399368,1.0618532862135666],[97.4939432498811,1.08371377176218],[97.50253794836765,1.0814248748496254],[97.50070206784619,1.0687318498007792],[97.50813851328182,1.0675098779855376]]]}},{"type":"Feature","properties":{"code":"1225052017","desa":"Doli-Doli","kecamatan":"Mandrehe","kecCode":"122505"},"geometry":{"type":"Polygon","coordinates":[[[97.53251160662539,1.0807912611000936],[97.54329588899412,1.0648594599061716],[97.52769015767467,1.0647966638450546],[97.52835301827724,1.0592500627564865],[97.51114144402248,1.068779225186745],[97.53251160662539,1.0807912611000936]]]}},{"type":"Feature","properties":{"code":"1225052018","desa":"Hayo","kecamatan":"Mandrehe","kecCode":"122505"},"geometry":{"type":"Polygon","coordinates":[[[97.51114144402248,1.068779225186745],[97.50055335055673,1.0694754317506296],[97.51077052224183,1.0899036669028608],[97.53251160662539,1.0807912611000936],[97.51114144402248,1.068779225186745]]]}},{"type":"Feature","properties":{"code":"1225052019","desa":"Zuzundrao","kecamatan":"Mandrehe","kecCode":"122505"},"geometry":{"type":"Polygon","coordinates":[[[97.47124938774908,1.0715129915339734],[97.48268797097313,1.0949383451050576],[97.4939432498811,1.08371377176218],[97.4774242399368,1.0618532862135666],[97.47124938774908,1.0715129915339734]]]}},{"type":"Feature","properties":{"code":"1225052020","desa":"Sisobambowo","kecamatan":"Mandrehe","kecCode":"122505"},"geometry":{"type":"Polygon","coordinates":[[[97.45914452559941,0.9976184141434785],[97.43533629373502,1.0072209162865866],[97.45357165081111,1.0143214271585217],[97.45742915333284,1.0229451089863477],[97.46607205458173,1.0084061849704098],[97.45914452559941,0.9976184141434785]]]}},{"type":"Feature","properties":{"code":"1225062001","desa":"Balodano","kecamatan":"Mandrehe Utara","kecCode":"122506"},"geometry":{"type":"Polygon","coordinates":[[[97.55096829764886,1.0749815885282357],[97.53942999939498,1.0713599988675948],[97.53428514884058,1.0780174200632442],[97.53785828123478,1.096197306935241],[97.5460805084088,1.1002721333228394],[97.55715563422517,1.0983449509314136],[97.55096829764886,1.0749815885282357]]]}},{"type":"Feature","properties":{"code":"1225062002","desa":"Hiambanua","kecamatan":"Mandrehe Utara","kecCode":"122506"},"geometry":{"type":"Polygon","coordinates":[[[97.53428514884058,1.0780174200632442],[97.51364644622657,1.0873560422325028],[97.51591225124946,1.1033284226357525],[97.52609237356427,1.1050621455667453],[97.5280554299142,1.1119328400860382],[97.53019248259704,1.1057239341767249],[97.53512250759769,1.1111925748358455],[97.53827529327019,1.0993844988670787],[97.53428514884058,1.0780174200632442]]]}},{"type":"Feature","properties":{"code":"1225062003","desa":"Hilimayo","kecamatan":"Mandrehe Utara","kecCode":"122506"},"geometry":{"type":"Polygon","coordinates":[[[97.50424718366065,1.0885608298020433],[97.50263224408285,1.103094142048431],[97.51591225124946,1.1033284226357525],[97.51552697808762,1.0877951389189904],[97.49722285075404,1.0811474996492485],[97.50424718366065,1.0885608298020433]]]}},{"type":"Feature","properties":{"code":"1225062004","desa":"Sihareo","kecamatan":"Mandrehe Utara","kecCode":"122506"},"geometry":{"type":"Polygon","coordinates":[[[97.4876740048515,1.0932137547893674],[97.49945021065878,1.0966955727170675],[97.50424718366065,1.0885608298020433],[97.49400565743518,1.0833241935461646],[97.4876740048515,1.0932137547893674]]]}},{"type":"Feature","properties":{"code":"1225062005","desa":"Lolomboli","kecamatan":"Mandrehe Utara","kecCode":"122506"},"geometry":{"type":"Polygon","coordinates":[[[97.49401928036552,1.1742064517545026],[97.49882795894318,1.1394946739668883],[97.47708776758645,1.1138529627993847],[97.47744166520073,1.1391052837091873],[97.49308612222683,1.1642574768003635],[97.4925465047175,1.1710100435704072],[97.49515088380626,1.1839729632589455],[97.50183999891686,1.1915299987793189],[97.49401928036552,1.1742064517545026]]]}},{"type":"Feature","properties":{"code":"1225062006","desa":"Ononamolo I","kecamatan":"Mandrehe Utara","kecCode":"122506"},"geometry":{"type":"Polygon","coordinates":[[[97.50256040443918,1.1157400291323878],[97.48191986630883,1.1142333823197252],[97.4792306415809,1.1168322971249394],[97.48926782025374,1.1263809082937033],[97.5012595063212,1.1233950889569968],[97.50256040443918,1.1157400291323878]]]}},{"type":"Feature","properties":{"code":"1225062007","desa":"Hilimbaruzo","kecamatan":"Mandrehe Utara","kecCode":"122506"},"geometry":{"type":"Polygon","coordinates":[[[97.5363311145893,1.1454271156890945],[97.54224793599347,1.1393807037834593],[97.53078422840946,1.1211738498405546],[97.53019248259704,1.1057239341767249],[97.52152679882278,1.1234021765140407],[97.5363311145893,1.1454271156890945]]]}},{"type":"Feature","properties":{"code":"1225062008","desa":"Tarahoso","kecamatan":"Mandrehe Utara","kecCode":"122506"},"geometry":{"type":"Polygon","coordinates":[[[97.55421543479451,1.099668108167905],[97.53643739826738,1.096505351715379],[97.53078422840946,1.1211738498405546],[97.53955173522446,1.1277776354693887],[97.54007619556006,1.1385622559712238],[97.54895719681724,1.1162035055401314],[97.56079897579217,1.1085408905110437],[97.55421543479451,1.099668108167905]]]}},{"type":"Feature","properties":{"code":"1225062009","desa":"Ononamolo Ii","kecamatan":"Mandrehe Utara","kecCode":"122506"},"geometry":{"type":"Polygon","coordinates":[[[97.57557833357328,1.123077455605271],[97.56079897579217,1.1085408905110437],[97.54895719681724,1.1162035055401314],[97.54174913781252,1.1388279534748693],[97.55753590086117,1.1414900042849345],[97.57557833357328,1.123077455605271]]]}},{"type":"Feature","properties":{"code":"1225062010","desa":"Taraha","kecamatan":"Mandrehe Utara","kecCode":"122506"},"geometry":{"type":"Polygon","coordinates":[[[97.51597637201199,1.1525728129971953],[97.52054379396098,1.1563653430941512],[97.53348327643208,1.1443090326572196],[97.5166675126956,1.1154979424296985],[97.51597637201199,1.1525728129971953]]]}},{"type":"Feature","properties":{"code":"1225062011","desa":"Lahagu","kecamatan":"Mandrehe Utara","kecCode":"122506"},"geometry":{"type":"Polygon","coordinates":[[[97.50261463895447,1.1030791899200771],[97.49629866695,1.1098202516632099],[97.5012595063212,1.1233950889569968],[97.5135875226461,1.1272434588590683],[97.5166675126956,1.1154979424296985],[97.52152679882278,1.1234021765140407],[97.52948014759077,1.1128968566610822],[97.52609237356427,1.1050621455667453],[97.50261463895447,1.1030791899200771]]]}},{"type":"Feature","properties":{"code":"1225062012","desa":"Hilimbowo","kecamatan":"Mandrehe Utara","kecCode":"122506"},"geometry":{"type":"Polygon","coordinates":[[[97.49790232093538,1.1430065724183682],[97.5130558443518,1.1545601609327558],[97.52017868989469,1.1363700604602507],[97.5076718964409,1.1248228139648921],[97.48926782025374,1.1263809082937033],[97.49790232093538,1.1430065724183682]]]}},{"type":"Feature","properties":{"code":"1225072001","desa":"Sisobawino Ii","kecamatan":"Lolofitu Moi","kecCode":"122507"},"geometry":{"type":"Polygon","coordinates":[[[97.6078600622921,1.026462133573435],[97.59112232913225,1.019968318842894],[97.58435087299443,1.043345339249998],[97.59966395502755,1.0444847982675671],[97.60019066726555,1.0315893780944085],[97.6078600622921,1.026462133573435]]]}},{"type":"Feature","properties":{"code":"1225072002","desa":"Duria","kecamatan":"Lolofitu Moi","kecCode":"122507"},"geometry":{"type":"Polygon","coordinates":[[[97.61975080935241,1.04864390641922],[97.62001063698136,1.0274341352288803],[97.60019066726555,1.0315893780944085],[97.6000065967271,1.0378318251187626],[97.61448625183908,1.0410296317486643],[97.61975080935241,1.04864390641922]]]}},{"type":"Feature","properties":{"code":"1225072003","desa":"Ambukha","kecamatan":"Lolofitu Moi","kecCode":"122507"},"geometry":{"type":"Polygon","coordinates":[[[97.618256946401,1.0587764473919365],[97.61534880690196,1.0418921859113004],[97.6000065967271,1.0378318251187626],[97.59966395502755,1.0444847982675671],[97.5782309585919,1.0432462879199604],[97.56973943302846,1.0581183055328653],[97.59009690684684,1.065919153554939],[97.618256946401,1.0587764473919365]]]}},{"type":"Feature","properties":{"code":"1225072004","desa":"Hilimbowo Mau","kecamatan":"Lolofitu Moi","kecCode":"122507"},"geometry":{"type":"Polygon","coordinates":[[[97.5762645064019,1.0622024354070703],[97.56784407044756,1.0782099037592188],[97.59918493203907,1.0833807815872114],[97.59666661627136,1.0653696731813276],[97.5762645064019,1.0622024354070703]]]}},{"type":"Feature","properties":{"code":"1225072005","desa":"Hilimbuasi","kecamatan":"Lolofitu Moi","kecCode":"122507"},"geometry":{"type":"Polygon","coordinates":[[[97.61948205055624,1.08585933922378],[97.61114999997255,1.059779999063392],[97.59666661627136,1.0653696731813276],[97.60009986181922,1.081759587226344],[97.61948205055624,1.08585933922378]]]}},{"type":"Feature","properties":{"code":"1225072005","desa":"Hilimbuasi","kecamatan":"Lolofitu Moi","kecCode":"122507"},"geometry":{"type":"Polygon","coordinates":[[[97.56751129970678,1.0799776669289385],[97.57043356395785,1.0911240091464178],[97.59538434760962,1.083539138709496],[97.58375863165558,1.0785647879293458],[97.56751129970678,1.0799776669289385]]]}},{"type":"Feature","properties":{"code":"1225072006","desa":"Lolofitu","kecamatan":"Lolofitu Moi","kecCode":"122507"},"geometry":{"type":"Polygon","coordinates":[[[97.58448829929561,1.1052561167413804],[97.58466297371734,1.0885243694876967],[97.57800337255763,1.08543318378149],[97.57000590844596,1.0999117965631215],[97.58448829929561,1.1052561167413804]]]}},{"type":"Feature","properties":{"code":"1225072007","desa":"Hiliuso","kecamatan":"Lolofitu Moi","kecCode":"122507"},"geometry":{"type":"Polygon","coordinates":[[[97.57178999970874,1.116770000187539],[97.5831770490816,1.1007843574821072],[97.55441941002785,1.0994599564832508],[97.56479331286117,1.1128810888477167],[97.57178999970874,1.116770000187539]]]}},{"type":"Feature","properties":{"code":"1225072008","desa":"Wango","kecamatan":"Lolofitu Moi","kecCode":"122507"},"geometry":{"type":"Polygon","coordinates":[[[97.58455016995441,1.1053091488630764],[97.5988565850634,1.1015298810683012],[97.60297128739505,1.1114772974973819],[97.61008123665981,1.103118275355487],[97.62202775787478,1.1041677527058087],[97.62436914641904,1.0973149061318597],[97.61537034296703,1.083860589683299],[97.58959094466644,1.083780531135523],[97.58370891803219,1.090861808206916],[97.58455016995441,1.1053091488630764]]]}},{"type":"Feature","properties":{"code":"1225082001","desa":"Bukit Tinggi","kecamatan":"Ulu Moro'O","kecCode":"122508"},"geometry":{"type":"Polygon","coordinates":[[[97.52922954340875,1.0099963850963136],[97.51316792056313,1.0098936564384182],[97.51566331441052,1.0387987680877817],[97.52760376160437,1.0449708512559426],[97.5326024282595,1.039306376026921],[97.52922954340875,1.0099963850963136]]]}},{"type":"Feature","properties":{"code":"1225082002","desa":"Lawelu","kecamatan":"Ulu Moro'O","kecCode":"122508"},"geometry":{"type":"Polygon","coordinates":[[[97.56923121444903,1.0023817776766017],[97.53775680803034,0.9781024629650878],[97.52882952226469,1.0109507798247463],[97.5326024282595,1.039306376026921],[97.54321937377512,1.0347659850057744],[97.53866018961611,1.0094078651527156],[97.55878781290731,1.0002461971863146],[97.56923121444903,1.0023817776766017]]]}},{"type":"Feature","properties":{"code":"1225082003","desa":"Saloo","kecamatan":"Ulu Moro'O","kecCode":"122508"},"geometry":{"type":"Polygon","coordinates":[[[97.55725633401266,1.040446408811946],[97.56325407641458,1.0289337178668854],[97.55878781290731,1.0002461971863146],[97.53807149520338,1.0104445982103392],[97.54321937377512,1.0347659850057744],[97.55725633401266,1.040446408811946]]]}},{"type":"Feature","properties":{"code":"1225082004","desa":"Hilisangawola","kecamatan":"Ulu Moro'O","kecCode":"122508"},"geometry":{"type":"Polygon","coordinates":[[[97.58014658379784,1.0116493192300264],[97.56299945765892,1.0019594101787608],[97.55855545776821,1.017987963136254],[97.56242935672947,1.036535053991114],[97.5783119434415,1.027393686421291],[97.58014658379784,1.0116493192300264]]]}},{"type":"Feature","properties":{"code":"1225082005","desa":"Hilibadalu","kecamatan":"Ulu Moro'O","kecCode":"122508"},"geometry":{"type":"Polygon","coordinates":[[[97.59112232913225,1.019968318842894],[97.58014658379784,1.0116493192300264],[97.5783119434415,1.027393686421291],[97.56242935672947,1.036535053991114],[97.56556260373122,1.0496191654191653],[97.57260863637953,1.053442110587666],[97.58959288540342,1.038219676636504],[97.59112232913225,1.019968318842894]]]}}]}