{"type":"FeatureCollection","features":[{"type":"Feature","properties":{"code":"1272011001","desa":"Kebun Sayur","kecamatan":"Siantar Timur","kecCode":"127201"},"geometry":{"type":"Polygon","coordinates":[[[99.0711512163556,2.9546944798924173],[99.07840738729112,2.9514681584583173],[99.0780006086412,2.950392524326319],[99.07056152009812,2.948765585096218],[99.0711512163556,2.9546944798924173]]]}},{"type":"Feature","properties":{"code":"1272011002","desa":"Tomuan","kecamatan":"Siantar Timur","kecCode":"127201"},"geometry":{"type":"Polygon","coordinates":[[[99.08160515615309,2.956750402033255],[99.08124933039231,2.9496000174584562],[99.07093909056663,2.954513129803353],[99.07323415773025,2.958284925131385],[99.08160515615309,2.956750402033255]]]}},{"type":"Feature","properties":{"code":"1272011003","desa":"Pahlawan","kecamatan":"Siantar Timur","kecCode":"127201"},"geometry":{"type":"Polygon","coordinates":[[[99.07878483185458,2.9565355827750213],[99.07166278221172,2.9562496936927944],[99.07016690028229,2.960965667450883],[99.07479613893071,2.9627731123066017],[99.07878483185458,2.9565355827750213]]]}},{"type":"Feature","properties":{"code":"1272011004","desa":"Asuhan","kecamatan":"Siantar Timur","kecCode":"127201"},"geometry":{"type":"Polygon","coordinates":[[[99.08160001293031,2.9751545699313366],[99.07414072741273,2.9673708638865883],[99.07601542986828,2.9743189621551664],[99.08160001293031,2.9751545699313366]]]}},{"type":"Feature","properties":{"code":"1272011005","desa":"Merdeka","kecamatan":"Siantar Timur","kecCode":"127201"},"geometry":{"type":"Polygon","coordinates":[[[99.07822408927035,2.96835153860385],[99.07479613893071,2.9627731123066017],[99.07624015156182,2.9685008026810085],[99.07822408927035,2.96835153860385]]]}},{"type":"Feature","properties":{"code":"1272011006","desa":"Pardomuan","kecamatan":"Siantar Timur","kecCode":"127201"},"geometry":{"type":"Polygon","coordinates":[[[99.0757838544414,2.967297419852449],[99.07172925200342,2.9627645471634465],[99.07212900155223,2.9673902190956465],[99.0757838544414,2.967297419852449]]]}},{"type":"Feature","properties":{"code":"1272011007","desa":"Siopat Suhu","kecamatan":"Siantar Timur","kecCode":"127201"},"geometry":{"type":"Polygon","coordinates":[[[99.09452293078868,2.9781669957108754],[99.08249676741195,2.975633606409176],[99.09122690739592,2.974399974883648],[99.07878483185458,2.9565355827750213],[99.08145183883136,2.9796412696279235],[99.09141940098465,2.9885071415807136],[99.09452293078868,2.9781669957108754]]]}},{"type":"Feature","properties":{"code":"1272021001","desa":"Dwikora","kecamatan":"Siantar Barat","kecCode":"127202"},"geometry":{"type":"Polygon","coordinates":[[[99.0636588789542,2.9592103266164833],[99.0709339239615,2.9591567549015183],[99.06513570155147,2.9557704081028096],[99.0636588789542,2.9592103266164833]]]}},{"type":"Feature","properties":{"code":"1272021002","desa":"Proklamasi","kecamatan":"Siantar Barat","kecCode":"127202"},"geometry":{"type":"Polygon","coordinates":[[[99.05910035399818,2.959989027092262],[99.06513570155147,2.9557704081028096],[99.06009191141267,2.9532964109281905],[99.05910035399818,2.959989027092262]]]}},{"type":"Feature","properties":{"code":"1272021003","desa":"Bantan","kecamatan":"Siantar Barat","kecCode":"127202"},"geometry":{"type":"Polygon","coordinates":[[[99.06114912383303,2.967498773561723],[99.05563409164004,2.9568401372862576],[99.05218969899545,2.955463752775223],[99.05167366800544,2.9674812098022176],[99.06114912383303,2.967498773561723]]]}},{"type":"Feature","properties":{"code":"1272021004","desa":"Timbang Galung","kecamatan":"Siantar Barat","kecCode":"127202"},"geometry":{"type":"Polygon","coordinates":[[[99.05818613558175,2.957963301487724],[99.06009191141267,2.9532964109281905],[99.053553519979,2.9500708683070465],[99.05239732637556,2.955326953301698],[99.05818613558175,2.957963301487724]]]}},{"type":"Feature","properties":{"code":"1272021005","desa":"Simarito","kecamatan":"Siantar Barat","kecCode":"127202"},"geometry":{"type":"Polygon","coordinates":[[[99.05162338690985,2.9560776542848943],[99.053553519979,2.9500708683070465],[99.04688799858235,2.9508056908602933],[99.0460138809359,2.95473905658823],[99.05162338690985,2.9560776542848943]]]}},{"type":"Feature","properties":{"code":"1272021006","desa":"Sipinggolpinggol","kecamatan":"Siantar Barat","kecCode":"127202"},"geometry":{"type":"Polygon","coordinates":[[[99.04688799858235,2.9508056908602933],[99.05262106690878,2.946226502186612],[99.04876830291487,2.9434918563024026],[99.04688799858235,2.9508056908602933]]]}},{"type":"Feature","properties":{"code":"1272021007","desa":"Banjar","kecamatan":"Siantar Barat","kecCode":"127202"},"geometry":{"type":"Polygon","coordinates":[[[99.05874297870552,2.965659529577815],[99.05563409164004,2.9568401372862576],[99.0546046358953,2.959057594753551],[99.05874297870552,2.965659529577815]]]}},{"type":"Feature","properties":{"code":"1272021008","desa":"Teladan","kecamatan":"Siantar Barat","kecCode":"127202"},"geometry":{"type":"Polygon","coordinates":[[[99.05713721940718,2.952555947827133],[99.06501790025594,2.952120269463724],[99.05395965921097,2.9500177327633117],[99.05713721940718,2.952555947827133]]]}},{"type":"Feature","properties":{"code":"1272031001","desa":"Melayu","kecamatan":"Siantar Utara","kecCode":"127203"},"geometry":{"type":"Polygon","coordinates":[[[99.06735471394892,2.9665189523010635],[99.06594282600065,2.9594102009409706],[99.06072704771515,2.9593435764658884],[99.06735471394892,2.9665189523010635]]]}},{"type":"Feature","properties":{"code":"1272031002","desa":"Martoba","kecamatan":"Siantar Utara","kecCode":"127203"},"geometry":{"type":"Polygon","coordinates":[[[99.06168886634816,2.9608276484966094],[99.0622492680893,2.968740642877201],[99.06735882295139,2.967299215798544],[99.06168886634816,2.9608276484966094]]]}},{"type":"Feature","properties":{"code":"1272031003","desa":"Baru","kecamatan":"Siantar Utara","kecCode":"127203"},"geometry":{"type":"Polygon","coordinates":[[[99.07193138542516,2.967185840966257],[99.07016690028229,2.960965667450883],[99.06735882295139,2.967299215798544],[99.07193138542516,2.967185840966257]]]}},{"type":"Feature","properties":{"code":"1272031004","desa":"Sukadame","kecamatan":"Siantar Utara","kecCode":"127203"},"geometry":{"type":"Polygon","coordinates":[[[99.06341548193899,2.97079021130779],[99.07414072741273,2.9673708638865883],[99.06197362498285,2.9685471654303752],[99.06341548193899,2.97079021130779]]]}},{"type":"Feature","properties":{"code":"1272031005","desa":"Kahean","kecamatan":"Siantar Utara","kecCode":"127203"},"geometry":{"type":"Polygon","coordinates":[[[99.0773121173604,2.98091530589422],[99.07475606244236,2.9706005847580035],[99.06931080055307,2.9707872957057506],[99.0773121173604,2.98091530589422]]]}},{"type":"Feature","properties":{"code":"1272031006","desa":"Sigulanggulang","kecamatan":"Siantar Utara","kecCode":"127203"},"geometry":{"type":"Polygon","coordinates":[[[99.06931080055307,2.9707872957057506],[99.06239799796928,2.970179485304267],[99.06135068708458,2.9749225691254044],[99.06936892373686,2.9762545019463995],[99.06931080055307,2.9707872957057506]]]}},{"type":"Feature","properties":{"code":"1272031007","desa":"Bane","kecamatan":"Siantar Utara","kecCode":"127203"},"geometry":{"type":"Polygon","coordinates":[[[99.06114912383303,2.967498773561723],[99.05058885719005,2.9674828546621974],[99.05102284572779,2.975620063518468],[99.06291354602337,2.9769303874293507],[99.06114912383303,2.967498773561723]]]}},{"type":"Feature","properties":{"code":"1272041001","desa":"Toba","kecamatan":"Siantar Selatan","kecCode":"127204"},"geometry":{"type":"Polygon","coordinates":[[[99.06266095164163,2.9506958368737926],[99.06724329873929,2.9496862138792213],[99.06676014606391,2.943998358075449],[99.06470602166564,2.9468854471402706],[99.06266095164163,2.9506958368737926]]]}},{"type":"Feature","properties":{"code":"1272041002","desa":"Karo","kecamatan":"Siantar Selatan","kecCode":"127204"},"geometry":{"type":"Polygon","coordinates":[[[99.0640903493902,2.954512837523745],[99.07056152009812,2.948765585096218],[99.0686992894407,2.946426750629114],[99.0640903493902,2.954512837523745]]]}},{"type":"Feature","properties":{"code":"1272041003","desa":"Simalungun","kecamatan":"Siantar Selatan","kecCode":"127204"},"geometry":{"type":"Polygon","coordinates":[[[99.0701290738977,2.9587692577167357],[99.06639372898746,2.9532339449182827],[99.06381656158509,2.9551609411501154],[99.0701290738977,2.9587692577167357]]]}},{"type":"Feature","properties":{"code":"1272041004","desa":"Martimbang","kecamatan":"Siantar Selatan","kecCode":"127204"},"geometry":{"type":"Polygon","coordinates":[[[99.05329435155312,2.9474750696527106],[99.05861777059368,2.9490373934931786],[99.06239307777838,2.942958440518491],[99.05798445631767,2.941171426460973],[99.05329435155312,2.9474750696527106]]]}},{"type":"Feature","properties":{"code":"1272041005","desa":"Kristen","kecamatan":"Siantar Selatan","kecCode":"127204"},"geometry":{"type":"Polygon","coordinates":[[[99.06239307777838,2.942958440518491],[99.06188640243556,2.95186057043813],[99.06676014606391,2.943998358075449],[99.06239307777838,2.942958440518491]]]}},{"type":"Feature","properties":{"code":"1272041006","desa":"Aek Nauli","kecamatan":"Siantar Selatan","kecCode":"127204"},"geometry":{"type":"Polygon","coordinates":[[[99.04318902765156,2.9423083871619142],[99.05329435155312,2.9474750696527106],[99.05468755338796,2.9460733701253443],[99.0501548515652,2.940125411500503],[99.04318902765156,2.9423083871619142]]]}},{"type":"Feature","properties":{"code":"1272051002","desa":"Sukaraja","kecamatan":"Siantar Marihat","kecCode":"127205"},"geometry":{"type":"Polygon","coordinates":[[[99.09035478174786,2.9332423531014915],[99.07728646779628,2.9306088611622507],[99.07044374758095,2.942525729917786],[99.07696880926319,2.9483708240871995],[99.09035478174786,2.9332423531014915]]]}},{"type":"Feature","properties":{"code":"1272051005","desa":"Baringin Pancur Nauli","kecamatan":"Siantar Marihat","kecCode":"127205"},"geometry":{"type":"Polygon","coordinates":[[[99.08957873337192,2.9443118995119133],[99.10207736457873,2.9350389008720192],[99.09035478174786,2.9332423531014915],[99.07811300321258,2.9470884376156405],[99.09072206487143,2.9530730750902054],[99.08957873337192,2.9443118995119133]]]}},{"type":"Feature","properties":{"code":"1272051006","desa":"Pardamean","kecamatan":"Siantar Marihat","kecCode":"127205"},"geometry":{"type":"Polygon","coordinates":[[[99.06956973695382,2.9443834180975816],[99.07569480627033,2.9508200629258554],[99.0780006086412,2.950392524326319],[99.06956973695382,2.9443834180975816]]]}},{"type":"Feature","properties":{"code":"1272051007","desa":"Sukamaju","kecamatan":"Siantar Marihat","kecCode":"127205"},"geometry":{"type":"Polygon","coordinates":[[[99.05938721794581,2.9369956089055305],[99.06330492558192,2.9435793621360653],[99.06653933462263,2.9363909515272018],[99.05938721794581,2.9369956089055305]]]}},{"type":"Feature","properties":{"code":"1272051008","desa":"Parhorasan Nauli","kecamatan":"Siantar Marihat","kecCode":"127205"},"geometry":{"type":"Polygon","coordinates":[[[99.06956973695382,2.9443834180975816],[99.07931601372307,2.9477121498295387],[99.07044374758095,2.942525729917786],[99.06956973695382,2.9443834180975816]]]}},{"type":"Feature","properties":{"code":"1272051009","desa":"Sukamakmur","kecamatan":"Siantar Marihat","kecCode":"127205"},"geometry":{"type":"Polygon","coordinates":[[[99.06330492558192,2.9435793621360653],[99.07044374758095,2.942525729917786],[99.06570414503032,2.9387180633314527],[99.06330492558192,2.9435793621360653]]]}},{"type":"Feature","properties":{"code":"1272051010","desa":"Mekar Nauli","kecamatan":"Siantar Marihat","kecCode":"127205"},"geometry":{"type":"Polygon","coordinates":[[[99.10174262522202,2.9591403089992903],[99.09233702243569,2.957142763651034],[99.09650523892572,2.943369331767615],[99.08957873337192,2.9443118995119133],[99.09072206487143,2.9530730750902054],[99.08816176425408,2.951426487472064],[99.08140458125648,2.9496416299888177],[99.09395086124327,2.9620315996967044],[99.10174262522202,2.9591403089992903]]]}},{"type":"Feature","properties":{"code":"1272061001","desa":"Sumber Jaya","kecamatan":"Siantar Martoba","kecCode":"127206"},"geometry":{"type":"Polygon","coordinates":[[[99.09436943540116,2.987315619011229],[99.08973474236454,2.988435757893342],[99.07892579159204,2.975138923526397],[99.08317361966685,3.000209723476634],[99.09436943540116,2.987315619011229]]]}},{"type":"Feature","properties":{"code":"1272061003","desa":"Tambun Nabolon","kecamatan":"Siantar Martoba","kecCode":"127206"},"geometry":{"type":"Polygon","coordinates":[[[99.09229406541884,3.00393998901188],[99.09436943540116,2.987315619011229],[99.08308283040832,3.00102256401589],[99.08533458442359,3.015698354954969],[99.09205375217897,3.012814436000382],[99.09948131141346,3.0186928095820877],[99.09229406541884,3.00393998901188]]]}},{"type":"Feature","properties":{"code":"1272061007","desa":"Naga Pita","kecamatan":"Siantar Martoba","kecCode":"127206"},"geometry":{"type":"Polygon","coordinates":[[[99.08145285866254,2.9882759492652338],[99.06286276220673,2.976940190938973],[99.06837542558547,2.9875476126226443],[99.08145285866254,2.9882759492652338]]]}},{"type":"Feature","properties":{"code":"1272061008","desa":"Pondok Sayur","kecamatan":"Siantar Martoba","kecCode":"127206"},"geometry":{"type":"Polygon","coordinates":[[[99.08302934862557,3.000066873364361],[99.08145285866254,2.9882759492652338],[99.06433559900874,2.987676194091341],[99.07316184774112,3.0009626071144395],[99.08302934862557,3.000066873364361]]]}},{"type":"Feature","properties":{"code":"1272061009","desa":"Tanjung Tongah","kecamatan":"Siantar Martoba","kecCode":"127206"},"geometry":{"type":"Polygon","coordinates":[[[99.0663516110381,3.0128788364520362],[99.08533458442359,3.015698354954969],[99.08308283040832,3.00102256401589],[99.07379194784015,3.0006178232301814],[99.0663516110381,3.0128788364520362]]]}},{"type":"Feature","properties":{"code":"1272061010","desa":"Naga Pitu","kecamatan":"Siantar Martoba","kecCode":"127206"},"geometry":{"type":"Polygon","coordinates":[[[99.07892579159204,2.975138923526397],[99.0773121173604,2.98091530589422],[99.06878030576655,2.9758249128925653],[99.06860089731362,2.9779709417064013],[99.08057026760383,2.9827277572758333],[99.07892579159204,2.975138923526397]]]}},{"type":"Feature","properties":{"code":"1272061011","desa":"Tanjung Pinggir","kecamatan":"Siantar Martoba","kecCode":"127206"},"geometry":{"type":"Polygon","coordinates":[[[99.05660797108105,3.00641556089935],[99.0663516110381,3.0128788364520362],[99.07365695060787,3.001583307498794],[99.0654561326944,2.9921202128629694],[99.064848930234,2.978312613936422],[99.05483816824692,2.9762476185354636],[99.06053032641347,2.995057909477192],[99.05660797108105,3.00641556089935]]]}},{"type":"Feature","properties":{"code":"1272061011","desa":"Tanjung Pinggir","kecamatan":"Siantar Martoba","kecCode":"127206"},"geometry":{"type":"Polygon","coordinates":[[[99.0364123032852,3.0016017534932944],[99.03527976095228,3.0019246253959766],[99.03642788583828,3.0021912429060493],[99.0364123032852,3.0016017534932944]]]}},{"type":"Feature","properties":{"code":"1272071001","desa":"Gurilla","kecamatan":"Siantar Sitalasari","kecCode":"127207"},"geometry":{"type":"Polygon","coordinates":[[[99.02866942555363,2.9641729295528605],[99.02702595138663,2.988207065693236],[99.03942127477205,2.9944082122521523],[99.03847085774395,3.003306288028079],[99.03247747705397,3.001597941267095],[99.02997350727162,3.0037068982276596],[99.05754362843578,3.0062499660331965],[99.05811893374187,2.9940793292809267],[99.05018790344904,2.9929408900945433],[99.02866942555363,2.9641729295528605]]]}},{"type":"Feature","properties":{"code":"1272071002","desa":"Bah Kapul","kecamatan":"Siantar Sitalasari","kecCode":"127207"},"geometry":{"type":"Polygon","coordinates":[[[99.02415272536803,2.955938950047244],[99.02633101556397,2.9640974089840784],[99.05152642380547,2.9746075788810997],[99.04496867536413,2.9505209690980965],[99.03190104579669,2.9585753512933297],[99.02415272536803,2.955938950047244]]]}},{"type":"Feature","properties":{"code":"1272071003","desa":"Setia Negara","kecamatan":"Siantar Sitalasari","kecCode":"127207"},"geometry":{"type":"Polygon","coordinates":[[[99.02611382928984,2.9384365215719828],[99.02085472616471,2.948441264385726],[99.02415272536803,2.955938950047244],[99.03190104579669,2.9585753512933297],[99.0468681442495,2.950880133141873],[99.04838336070361,2.943147495099476],[99.02611382928984,2.9384365215719828]]]}},{"type":"Feature","properties":{"code":"1272071004","desa":"Bukit Sofa","kecamatan":"Siantar Sitalasari","kecCode":"127207"},"geometry":{"type":"Polygon","coordinates":[[[99.0483707243295,2.9696759216162976],[99.05162338690985,2.9560776542848943],[99.04506581293695,2.951149676146582],[99.0483707243295,2.9696759216162976]]]}},{"type":"Feature","properties":{"code":"1272071005","desa":"Bah Sorma","kecamatan":"Siantar Sitalasari","kecCode":"127207"},"geometry":{"type":"Polygon","coordinates":[[[99.05314776026096,2.9776258475560207],[99.04206103229085,2.967356648303016],[99.02866942555363,2.9641729295528605],[99.05018790344904,2.9929408900945433],[99.05994248365873,2.99615446004141],[99.05314776026096,2.9776258475560207]]]}},{"type":"Feature","properties":{"code":"1272081001","desa":"Simarimbun","kecamatan":"Siantar Marimbun","kecCode":"127208"},"geometry":{"type":"Polygon","coordinates":[[[99.0455386692742,2.9263933124582073],[99.02881028906363,2.8922576017009334],[99.0121532448764,2.8921634273943515],[99.01755045239149,2.902700179452316],[99.03785387155898,2.9146853598110347],[99.03165564509203,2.921244203619575],[99.0455386692742,2.9263933124582073]]]}},{"type":"Feature","properties":{"code":"1272081002","desa":"Tong Marimbun","kecamatan":"Siantar Marimbun","kecCode":"127208"},"geometry":{"type":"Polygon","coordinates":[[[99.06108338159281,2.916635718630939],[99.0484132002091,2.907752471776253],[99.03510680873228,2.9047052566227336],[99.04600703889376,2.931756435661987],[99.06108338159281,2.916635718630939]]]}},{"type":"Feature","properties":{"code":"1272081003","desa":"Naga Huta","kecamatan":"Siantar Marimbun","kecCode":"127208"},"geometry":{"type":"Polygon","coordinates":[[[99.02722982409716,2.93364287786549],[99.03146364882838,2.9420665055046578],[99.0501548515652,2.940125411500503],[99.0455386692742,2.9263933124582073],[99.02722982409716,2.93364287786549]]]}},{"type":"Feature","properties":{"code":"1272081004","desa":"Naga Huta Timur","kecamatan":"Siantar Marimbun","kecCode":"127208"},"geometry":{"type":"Polygon","coordinates":[[[99.05468755338796,2.9460733701253443],[99.06164233722416,2.9421408794377806],[99.05128541359102,2.9263393747192556],[99.04613907196067,2.9317737215309894],[99.05468755338796,2.9460733701253443]]]}},{"type":"Feature","properties":{"code":"1272081005","desa":"Pematang Marihat","kecamatan":"Siantar Marimbun","kecCode":"127208"},"geometry":{"type":"Polygon","coordinates":[[[99.08601028644563,2.933409009167666],[99.06108338159281,2.916635718630939],[99.0525818097028,2.9263863957723806],[99.07419027376216,2.936260422126895],[99.07728646779628,2.9306088611622507],[99.08601028644563,2.933409009167666]]]}},{"type":"Feature","properties":{"code":"1272081006","desa":"Marihat Jaya","kecamatan":"Siantar Marimbun","kecCode":"127208"},"geometry":{"type":"Polygon","coordinates":[[[99.07044374758095,2.942525729917786],[99.07419027376216,2.936260422126895],[99.05320980358958,2.927689421684893],[99.05938721794581,2.9369956089055305],[99.07044374758095,2.942525729917786]]]}}]}