{"type":"FeatureCollection","features":[{"type":"Feature","properties":{"code":"1274011001","desa":"Tanjung Balai Kota I","kecamatan":"Tanjung Balai Selatan","kecCode":"127401"},"geometry":{"type":"Polygon","coordinates":[[[99.80208474301655,2.962108553784784],[99.79843365109218,2.9560351595196597],[99.79782885881485,2.9569697547739793],[99.80208474301655,2.962108553784784]]]}},{"type":"Feature","properties":{"code":"1274011002","desa":"Tanjung Balai Kota Ii","kecamatan":"Tanjung Balai Selatan","kecCode":"127401"},"geometry":{"type":"Polygon","coordinates":[[[99.80208474301655,2.962108553784784],[99.79747488475817,2.956758584065243],[99.79443054923051,2.958333809579791],[99.79473642844346,2.9652706977990535],[99.80208474301655,2.962108553784784]]]}},{"type":"Feature","properties":{"code":"1274011003","desa":"Perwira","kecamatan":"Tanjung Balai Selatan","kecCode":"127401"},"geometry":{"type":"Polygon","coordinates":[[[99.8100229903688,2.965496826032078],[99.80498073896995,2.9558252190834566],[99.80304785667329,2.961692210845333],[99.8100229903688,2.965496826032078]]]}},{"type":"Feature","properties":{"code":"1274011004","desa":"Karya","kecamatan":"Tanjung Balai Selatan","kecCode":"127401"},"geometry":{"type":"Polygon","coordinates":[[[99.80366617655284,2.9570562003069045],[99.80212271239333,2.96231502103921],[99.80849143323314,2.966361380286905],[99.80304785667329,2.961692210845333],[99.80366617655284,2.9570562003069045]]]}},{"type":"Feature","properties":{"code":"1274011005","desa":"Pantai Burung","kecamatan":"Tanjung Balai Selatan","kecCode":"127401"},"geometry":{"type":"Polygon","coordinates":[[[99.80221716189254,2.9670734769719904],[99.79706693159368,2.962897512827158],[99.79487038426089,2.9653170848301538],[99.80221716189254,2.9670734769719904]]]}},{"type":"Feature","properties":{"code":"1274011006","desa":"Indra Sakti","kecamatan":"Tanjung Balai Selatan","kecCode":"127401"},"geometry":{"type":"Polygon","coordinates":[[[99.8086165613053,2.9704325761114707],[99.81292124002329,2.966975279098606],[99.80221716189254,2.9670734769719904],[99.8086165613053,2.9704325761114707]]]}},{"type":"Feature","properties":{"code":"1274021001","desa":"Tanjung Balai Kota Iii","kecamatan":"Tanjung Balai Utara","kecCode":"127402"},"geometry":{"type":"Polygon","coordinates":[[[99.79965844408201,2.970398525080908],[99.79845057993037,2.9666879537990836],[99.79685079123107,2.9676657542831126],[99.79965844408201,2.970398525080908]]]}},{"type":"Feature","properties":{"code":"1274021002","desa":"Tanjung Balai Kota Iv","kecamatan":"Tanjung Balai Utara","kecCode":"127402"},"geometry":{"type":"Polygon","coordinates":[[[99.80389823761361,2.9724351387774584],[99.79784401688795,2.972581996268783],[99.80003085963652,2.9742371499293694],[99.80389823761361,2.9724351387774584]]]}},{"type":"Feature","properties":{"code":"1274021003","desa":"Sejahtera","kecamatan":"Tanjung Balai Utara","kecCode":"127402"},"geometry":{"type":"Polygon","coordinates":[[[99.79656607306588,2.972193552997182],[99.79726007988883,2.9680013327069843],[99.79685079123107,2.9676657542831126],[99.79656607306588,2.972193552997182]]]}},{"type":"Feature","properties":{"code":"1274021004","desa":"Kuala Silo Bestari","kecamatan":"Tanjung Balai Utara","kecCode":"127402"},"geometry":{"type":"Polygon","coordinates":[[[99.80361325864504,2.973009283957457],[99.81077394226367,2.970275867446513],[99.80342395405228,2.9714568364717286],[99.80361325864504,2.973009283957457]]]}},{"type":"Feature","properties":{"code":"1274021005","desa":"Matahalasan","kecamatan":"Tanjung Balai Utara","kecCode":"127402"},"geometry":{"type":"Polygon","coordinates":[[[99.80861502256526,2.97042980530027],[99.80221716189254,2.9670734769719904],[99.80123727408102,2.9686863939728165],[99.80252850628557,2.9718312395275643],[99.80861502256526,2.97042980530027]]]}},{"type":"Feature","properties":{"code":"1274031001","desa":"Keramat Kubah","kecamatan":"Sei Tualang Raso","kecCode":"127403"},"geometry":{"type":"Polygon","coordinates":[[[99.80905773182893,2.9796376570512604],[99.80990416834277,2.9733025393865518],[99.79888494708267,2.973005830560826],[99.80362273570073,2.973801793523277],[99.80905773182893,2.9796376570512604]]]}},{"type":"Feature","properties":{"code":"1274031002","desa":"Sumber Sari","kecamatan":"Sei Tualang Raso","kecCode":"127403"},"geometry":{"type":"Polygon","coordinates":[[[99.80113678293623,2.979226871922056],[99.79644618624256,2.9780403226035843],[99.79987152495094,2.9811243748873686],[99.80113678293623,2.979226871922056]]]}},{"type":"Feature","properties":{"code":"1274031003","desa":"Muara Sentosa","kecamatan":"Sei Tualang Raso","kecCode":"127403"},"geometry":{"type":"Polygon","coordinates":[[[99.79877278993234,2.9732331234159006],[99.79301806772969,2.976745451743338],[99.79412470688975,2.9839606108878103],[99.7963629665777,2.9824313029582052],[99.79877278993234,2.9732331234159006]]]}},{"type":"Feature","properties":{"code":"1274031004","desa":"Pasar Baru","kecamatan":"Sei Tualang Raso","kecCode":"127403"},"geometry":{"type":"Polygon","coordinates":[[[99.78276918055332,2.97043406269084],[99.7771731743026,2.981734363446815],[99.79766151836446,2.9729500105408246],[99.79164142691036,2.9701466978211535],[99.78276918055332,2.97043406269084]]]}},{"type":"Feature","properties":{"code":"1274031005","desa":"Sei Raja","kecamatan":"Sei Tualang Raso","kecCode":"127403"},"geometry":{"type":"Polygon","coordinates":[[[99.7771731743026,2.981734363446815],[99.76903354176459,3.0012347275761693],[99.76607438642384,3.0089613140805653],[99.78007426761343,3.0089583732974914],[99.79867392206391,2.988511907987567],[99.79301806772969,2.976745451743338],[99.7771731743026,2.981734363446815]]]}},{"type":"Feature","properties":{"code":"1274041001","desa":"Sei Merbau","kecamatan":"Teluk Nibung","kecCode":"127404"},"geometry":{"type":"Polygon","coordinates":[[[99.80837391342544,2.9891886631149323],[99.80069324359835,2.991277616455185],[99.80339075737761,3.009342544789401],[99.80409545264307,3.0006792397313005],[99.80837391342544,2.9891886631149323]]]}},{"type":"Feature","properties":{"code":"1274041002","desa":"Pematang Pasir","kecamatan":"Teluk Nibung","kecCode":"127404"},"geometry":{"type":"Polygon","coordinates":[[[99.80525371738518,3.0173896973346688],[99.81722859872092,3.025049896785024],[99.81882748809817,3.006664129915325],[99.80837391342544,2.9891886631149323],[99.80525371738518,3.0173896973346688]]]}},{"type":"Feature","properties":{"code":"1274041003","desa":"Perjuangan","kecamatan":"Teluk Nibung","kecCode":"127404"},"geometry":{"type":"Polygon","coordinates":[[[99.81882748809817,3.006664129915325],[99.81893972079155,2.9935485089404588],[99.81203294816208,2.9925308945701032],[99.8130813454278,3.0047187848157972],[99.81882748809817,3.006664129915325]]]}},{"type":"Feature","properties":{"code":"1274041004","desa":"Kapias Pulau Buaya","kecamatan":"Teluk Nibung","kecCode":"127404"},"geometry":{"type":"Polygon","coordinates":[[[99.78007426761343,3.0089583732974914],[99.79858044383248,3.009479299296842],[99.79825505832433,3.015320329429924],[99.80525371738518,3.0173896973346688],[99.79974207923361,2.999502269091856],[99.80837850266585,2.9846569298670027],[99.79700077386667,2.9851282213833263],[99.78007426761343,3.0089583732974914]]]}},{"type":"Feature","properties":{"code":"1274041005","desa":"Beting Kuala Kapias","kecamatan":"Teluk Nibung","kecCode":"127404"},"geometry":{"type":"Polygon","coordinates":[[[99.80837850266585,2.9846569298670027],[99.80303153757546,2.973427251971861],[99.79532857985015,2.9799479024723694],[99.79700077386667,2.9851282213833263],[99.80837850266585,2.9846569298670027]]]}},{"type":"Feature","properties":{"code":"1274051003","desa":"Gading","kecamatan":"Datuk Bandar","kecCode":"127405"},"geometry":{"type":"Polygon","coordinates":[[[99.80334239903256,2.9287584089276844],[99.78874231480603,2.9221100987635156],[99.78815931220252,2.933912857940695],[99.79437091698429,2.9364733231312408],[99.789559290429,2.9515957929409313],[99.7949318520234,2.954618583407064],[99.80334239903256,2.9287584089276844]]]}},{"type":"Feature","properties":{"code":"1274051004","desa":"Sirantau","kecamatan":"Datuk Bandar","kecCode":"127405"},"geometry":{"type":"Polygon","coordinates":[[[99.77993271881996,2.96928857911489],[99.79656607306588,2.972193552997182],[99.79747488475817,2.956758584065243],[99.7892003116451,2.9515416528545004],[99.77993271881996,2.96928857911489]]]}},{"type":"Feature","properties":{"code":"1274051005","desa":"Sijambi","kecamatan":"Datuk Bandar","kecCode":"127405"},"geometry":{"type":"Polygon","coordinates":[[[99.7572037525512,2.9662751406987233],[99.77005247724007,2.9689787428852323],[99.7784400087994,2.949805177098657],[99.77071071442798,2.9474565508131585],[99.77413565113942,2.923450478017169],[99.75297533634277,2.9422850758351125],[99.7572037525512,2.9662751406987233]]]}},{"type":"Feature","properties":{"code":"1274051006","desa":"Pahang","kecamatan":"Datuk Bandar","kecCode":"127405"},"geometry":{"type":"Polygon","coordinates":[[[99.78840408518045,2.9233629317140313],[99.77516699725918,2.920875428521041],[99.77071071442798,2.9474565508131585],[99.789559290429,2.9515957929409313],[99.79437091698429,2.9364733231312408],[99.78815931220252,2.933912857940695],[99.78840408518045,2.9233629317140313]]]}},{"type":"Feature","properties":{"code":"1274051010","desa":"Pantai Johor","kecamatan":"Datuk Bandar","kecCode":"127405"},"geometry":{"type":"Polygon","coordinates":[[[99.77005247724007,2.9689787428852323],[99.78043991666884,2.9693399061219234],[99.789559290429,2.9515957929409313],[99.7784400087994,2.949805177098657],[99.77005247724007,2.9689787428852323]]]}},{"type":"Feature","properties":{"code":"1274061001","desa":"Pulau Simardan","kecamatan":"Datuk Bandar Timur","kecCode":"127406"},"geometry":{"type":"Polygon","coordinates":[[[99.80559209809688,2.9607025186258933],[99.81509301463097,2.9636698586933736],[99.80898573840118,2.9564045461571635],[99.80559209809688,2.9607025186258933]]]}},{"type":"Feature","properties":{"code":"1274061002","desa":"Semula Jadi","kecamatan":"Datuk Bandar Timur","kecCode":"127406"},"geometry":{"type":"Polygon","coordinates":[[[99.8157697535713,2.965886530153213],[99.81725798856534,2.956442432796201],[99.8113864875964,2.9566990381540017],[99.80970385694752,2.960811396847942],[99.8157697535713,2.965886530153213]]]}},{"type":"Feature","properties":{"code":"1274061003","desa":"Selat Lancang","kecamatan":"Datuk Bandar Timur","kecCode":"127406"},"geometry":{"type":"Polygon","coordinates":[[[99.79873547166476,2.9562161121083426],[99.80450011608752,2.957352575484173],[99.81360846505866,2.9434111790210173],[99.8046293099947,2.9410163248844348],[99.79873547166476,2.9562161121083426]]]}},{"type":"Feature","properties":{"code":"1274061004","desa":"Bunga Tanjung","kecamatan":"Datuk Bandar Timur","kecCode":"127406"},"geometry":{"type":"Polygon","coordinates":[[[99.8171588176254,2.924243426452178],[99.80334239903256,2.9287584089276844],[99.7976537913894,2.9569328331074134],[99.8046293099947,2.9410163248844348],[99.8134149822157,2.943321227930785],[99.8171588176254,2.924243426452178]]]}},{"type":"Feature","properties":{"code":"1274061005","desa":"Selat Tanjung Medan","kecamatan":"Datuk Bandar Timur","kecCode":"127406"},"geometry":{"type":"Polygon","coordinates":[[[99.81738450609015,2.9245027369706227],[99.80498073896995,2.9558252190834566],[99.81725798856534,2.956442432796201],[99.81978502236097,2.962139405926863],[99.83564343079973,2.9550952780502557],[99.83808496065244,2.9391748910513065],[99.81738450609015,2.9245027369706227]]]}}]}