{"type":"FeatureCollection","features":[{"type":"Feature","properties":{"code":"1276011001","desa":"Pabatu","kecamatan":"Padang Hulu","kecCode":"127601"},"geometry":{"type":"Polygon","coordinates":[[[99.1143990505758,3.2976129922007256],[99.1264283993512,3.306823166001303],[99.13200144321212,3.3037043872959644],[99.12438039663805,3.2958156512282004],[99.1143990505758,3.2976129922007256]]]}},{"type":"Feature","properties":{"code":"1276011002","desa":"Lubuk Baru","kecamatan":"Padang Hulu","kecCode":"127601"},"geometry":{"type":"Polygon","coordinates":[[[99.13185197498869,3.300019877467686],[99.13216572596752,3.3156601930989043],[99.13734700356144,3.3175921275080342],[99.13551618982035,3.302675060155336],[99.13185197498869,3.300019877467686]]]}},{"type":"Feature","properties":{"code":"1276011006","desa":"Persiakan","kecamatan":"Padang Hulu","kecCode":"127601"},"geometry":{"type":"Polygon","coordinates":[[[99.15977656393733,3.30928336847501],[99.15017704483482,3.309487364392433],[99.1498959086693,3.31853348206693],[99.15576165307789,3.3191604237461863],[99.15977656393733,3.30928336847501]]]}},{"type":"Feature","properties":{"code":"1276011007","desa":"Bandar Sono","kecamatan":"Padang Hulu","kecCode":"127601"},"geometry":{"type":"Polygon","coordinates":[[[99.15951357699004,3.315615404163066],[99.15576165307789,3.3191604237461863],[99.14938650298477,3.3191513244057718],[99.15412194257362,3.3237998022457362],[99.15951357699004,3.315615404163066]]]}},{"type":"Feature","properties":{"code":"1276011010","desa":"Tualang","kecamatan":"Padang Hulu","kecCode":"127601"},"geometry":{"type":"Polygon","coordinates":[[[99.15734344724233,3.305833287622166],[99.14619077468456,3.3075419752261705],[99.14938650298477,3.3191513244057718],[99.15006924040317,3.309662928243449],[99.15734344724233,3.305833287622166]]]}},{"type":"Feature","properties":{"code":"1276011011","desa":"Padang Merbau","kecamatan":"Padang Hulu","kecCode":"127601"},"geometry":{"type":"Polygon","coordinates":[[[99.13952325139701,3.2739572682937066],[99.1222231793563,3.2951608746322467],[99.13699605392482,3.305069871124548],[99.13952325139701,3.2739572682937066]]]}},{"type":"Feature","properties":{"code":"1276011012","desa":"Lubuk Raya","kecamatan":"Padang Hulu","kecCode":"127601"},"geometry":{"type":"Polygon","coordinates":[[[99.14945963585357,3.3192422971258955],[99.13698619465721,3.3048690776928717],[99.13747187892416,3.318615267312991],[99.14945963585357,3.3192422971258955]]]}},{"type":"Feature","properties":{"code":"1276021004","desa":"Rantau Laban","kecamatan":"Rambutan","kecCode":"127602"},"geometry":{"type":"Polygon","coordinates":[[[99.16695629159965,3.364634834512663],[99.15978105964824,3.3705145822585423],[99.16709424490351,3.373654647916622],[99.16695629159965,3.364634834512663]]]}},{"type":"Feature","properties":{"code":"1276021007","desa":"Karya Jaya","kecamatan":"Rambutan","kecCode":"127602"},"geometry":{"type":"Polygon","coordinates":[[[99.14218905598023,3.3467231452589106],[99.1575673109827,3.3444777980163325],[99.16116111699199,3.3363399155678177],[99.14875553234201,3.3332794525012215],[99.14218905598023,3.3467231452589106]]]}},{"type":"Feature","properties":{"code":"1276021009","desa":"Lalang","kecamatan":"Rambutan","kecCode":"127602"},"geometry":{"type":"Polygon","coordinates":[[[99.16937864880566,3.352636798345198],[99.165537739675,3.356761880647458],[99.15520924990705,3.3674349546391156],[99.170585255705,3.3642860990073102],[99.16937864880566,3.352636798345198]]]}},{"type":"Feature","properties":{"code":"1276021010","desa":"Tanjung Marulak","kecamatan":"Rambutan","kecCode":"127602"},"geometry":{"type":"Polygon","coordinates":[[[99.1575673109827,3.3444777980163325],[99.16480823121498,3.354578324923219],[99.1666866163943,3.3534772040044767],[99.16320768168924,3.337362686650751],[99.1575673109827,3.3444777980163325]]]}},{"type":"Feature","properties":{"code":"1276021011","desa":"Sri Padang","kecamatan":"Rambutan","kecCode":"127602"},"geometry":{"type":"Polygon","coordinates":[[[99.16457046575442,3.332332359368365],[99.1654705504256,3.3460715135921797],[99.16950812779794,3.344680907202277],[99.16457046575442,3.332332359368365]]]}},{"type":"Feature","properties":{"code":"1276021012","desa":"Tanjung Marulak Hilir","kecamatan":"Rambutan","kecCode":"127602"},"geometry":{"type":"Polygon","coordinates":[[[99.16800554681856,3.352872945025726],[99.17503431068496,3.3491827379923076],[99.18696890329231,3.3569922087143746],[99.19252767401296,3.352228200367187],[99.1857612217031,3.354250515742558],[99.17077969093003,3.3419720943437508],[99.16567842421993,3.3441387895782526],[99.16800554681856,3.352872945025726]]]}},{"type":"Feature","properties":{"code":"1276021013","desa":"Mekar Sentosa","kecamatan":"Rambutan","kecCode":"127602"},"geometry":{"type":"Polygon","coordinates":[[[99.16700775260574,3.3655218214566256],[99.16870945607661,3.3781311708849806],[99.17645603541774,3.3672009402511387],[99.16700775260574,3.3655218214566256]]]}},{"type":"Feature","properties":{"code":"1276031001","desa":"Bagelen","kecamatan":"Padang Hilir","kecCode":"127603"},"geometry":{"type":"Polygon","coordinates":[[[99.1825979265531,3.3062541361650464],[99.15977656393733,3.30928336847501],[99.15977163565252,3.3120387257459387],[99.16852090241775,3.313803473488917],[99.1825979265531,3.3062541361650464]]]}},{"type":"Feature","properties":{"code":"1276031002","desa":"Tambangan","kecamatan":"Padang Hilir","kecCode":"127603"},"geometry":{"type":"Polygon","coordinates":[[[99.19071236818132,3.341144173972437],[99.17934784772507,3.335271731419587],[99.18102740179324,3.3433650803397867],[99.1748641535579,3.346691281379535],[99.18693957370242,3.3542502882141028],[99.19323500069481,3.351353821019037],[99.19071236818132,3.341144173972437]]]}},{"type":"Feature","properties":{"code":"1276031004","desa":"Tebing Tinggi","kecamatan":"Padang Hilir","kecCode":"127603"},"geometry":{"type":"Polygon","coordinates":[[[99.1818270591715,3.333473640412392],[99.19386107273039,3.31235139753801],[99.1825979265531,3.3062541361650464],[99.16561574776858,3.3186163815730234],[99.17629209530399,3.32162644033698],[99.1818270591715,3.333473640412392]]]}},{"type":"Feature","properties":{"code":"1276031006","desa":"Satria","kecamatan":"Padang Hilir","kecCode":"127603"},"geometry":{"type":"Polygon","coordinates":[[[99.16519039002453,3.3329551830520505],[99.17368814429248,3.3349647757184546],[99.17056235986506,3.323472762884705],[99.16671884989505,3.3234783935400194],[99.16519039002453,3.3329551830520505]]]}},{"type":"Feature","properties":{"code":"1276031007","desa":"Damar Sari","kecamatan":"Padang Hilir","kecCode":"127603"},"geometry":{"type":"Polygon","coordinates":[[[99.18246761299004,3.33430536671465],[99.17629209530399,3.32162644033698],[99.17056235986506,3.323472762884705],[99.17263650676944,3.3360410061010155],[99.18246761299004,3.33430536671465]]]}},{"type":"Feature","properties":{"code":"1276031008","desa":"Tambangan Hulu","kecamatan":"Padang Hilir","kecCode":"127603"},"geometry":{"type":"Polygon","coordinates":[[[99.16929674394963,3.3373975866413335],[99.17486825896303,3.346683756752008],[99.18102740179324,3.3433650803397867],[99.17934784772507,3.335271731419587],[99.16929674394963,3.3373975866413335]]]}},{"type":"Feature","properties":{"code":"1276031009","desa":"Deblod Sundoro","kecamatan":"Padang Hilir","kecCode":"127603"},"geometry":{"type":"Polygon","coordinates":[[[99.15977163565252,3.3120387257459387],[99.15948219694586,3.317858961754745],[99.16852092939745,3.3139623441241497],[99.16618683255633,3.311957847915803],[99.15977163565252,3.3120387257459387]]]}},{"type":"Feature","properties":{"code":"1276041001","desa":"Durian","kecamatan":"Bajenis","kecCode":"127604"},"geometry":{"type":"Polygon","coordinates":[[[99.15477684237742,3.3284782688786048],[99.15161339794001,3.3219188117324507],[99.14085216969193,3.32260646754238],[99.1407547632218,3.3265117267585103],[99.15477684237742,3.3284782688786048]]]}},{"type":"Feature","properties":{"code":"1276041002","desa":"Pelita","kecamatan":"Bajenis","kecCode":"127604"},"geometry":{"type":"Polygon","coordinates":[[[99.13967415673699,3.326531204275406],[99.1477119329594,3.318634809581019],[99.13747187892416,3.318615267312991],[99.13967415673699,3.326531204275406]]]}},{"type":"Feature","properties":{"code":"1276041003","desa":"Bulian","kecamatan":"Bajenis","kecCode":"127604"},"geometry":{"type":"Polygon","coordinates":[[[99.13216572596752,3.3156601930989043],[99.12707516838435,3.3223357832979863],[99.14374752532807,3.338397670527027],[99.14885127776432,3.327993595450251],[99.13914191636637,3.326277213246791],[99.13216572596752,3.3156601930989043]]]}},{"type":"Feature","properties":{"code":"1276041004","desa":"Berohol","kecamatan":"Bajenis","kecCode":"127604"},"geometry":{"type":"Polygon","coordinates":[[[99.1355973932052,3.3467579157471854],[99.12416909372875,3.344510685324217],[99.12940160300161,3.3494478860101937],[99.14218905598023,3.3467231452589106],[99.14875553234201,3.3332794525012215],[99.1355973932052,3.3467579157471854]]]}},{"type":"Feature","properties":{"code":"1276041005","desa":"Bandar Sakti","kecamatan":"Bajenis","kecCode":"127604"},"geometry":{"type":"Polygon","coordinates":[[[99.14885127776432,3.327993595450251],[99.15558946438232,3.3372135907468237],[99.15399273068005,3.3271979220694674],[99.14885127776432,3.327993595450251]]]}},{"type":"Feature","properties":{"code":"1276041006","desa":"Pinang Mancung","kecamatan":"Bajenis","kecCode":"127604"},"geometry":{"type":"Polygon","coordinates":[[[99.13824814403665,3.3340350080248577],[99.11674391140245,3.338671273071463],[99.12725015756877,3.345644250185096],[99.13440661437379,3.34724658756135],[99.14211022140967,3.3396968194621786],[99.13824814403665,3.3340350080248577]]]}},{"type":"Feature","properties":{"code":"1276041007","desa":"Teluk Karang","kecamatan":"Bajenis","kecCode":"127604"},"geometry":{"type":"Polygon","coordinates":[[[99.12948500612815,3.3233891906856985],[99.12530486013122,3.3356420245736693],[99.13824814403665,3.3340350080248577],[99.13206073731322,3.330202453600124],[99.12948500612815,3.3233891906856985]]]}},{"type":"Feature","properties":{"code":"1276051001","desa":"Mandailing","kecamatan":"Tebing Tinggi Kota","kecCode":"127605"},"geometry":{"type":"Polygon","coordinates":[[[99.15629237809081,3.3268690516887123],[99.1538258983466,3.3238655795594716],[99.15081363803903,3.320915749292196],[99.15629237809081,3.3268690516887123]]]}},{"type":"Feature","properties":{"code":"1276051002","desa":"Pasar Baru","kecamatan":"Tebing Tinggi Kota","kecCode":"127605"},"geometry":{"type":"Polygon","coordinates":[[[99.15773092464252,3.3252299904967706],[99.15735900641305,3.3306114005150658],[99.16052938822075,3.3287861643712837],[99.15773092464252,3.3252299904967706]]]}},{"type":"Feature","properties":{"code":"1276051003","desa":"Pasar Gambir","kecamatan":"Tebing Tinggi Kota","kecCode":"127605"},"geometry":{"type":"Polygon","coordinates":[[[99.16142254901149,3.3184829392686543],[99.15646121861037,3.3209659251670596],[99.16052938822075,3.3287861643712837],[99.16142254901149,3.3184829392686543]]]}},{"type":"Feature","properties":{"code":"1276051004","desa":"Badak Bejuang","kecamatan":"Tebing Tinggi Kota","kecCode":"127605"},"geometry":{"type":"Polygon","coordinates":[[[99.16122767132003,3.3362680480451963],[99.16352179959142,3.332042294733899],[99.16052938822075,3.3287861643712837],[99.15765437704795,3.330458639873833],[99.16122767132003,3.3362680480451963]]]}},{"type":"Feature","properties":{"code":"1276051005","desa":"Bandar Utama","kecamatan":"Tebing Tinggi Kota","kecCode":"127605"},"geometry":{"type":"Polygon","coordinates":[[[99.15367670081913,3.332338648327441],[99.16122767132003,3.3362680480451963],[99.15652944657677,3.3286259762292993],[99.15367670081913,3.332338648327441]]]}},{"type":"Feature","properties":{"code":"1276051006","desa":"Rambung","kecamatan":"Tebing Tinggi Kota","kecCode":"127605"},"geometry":{"type":"Polygon","coordinates":[[[99.17053982285461,3.3234708563220097],[99.1687656367248,3.3187727754752854],[99.1612745197034,3.3178938302690884],[99.16219303058396,3.327690216352921],[99.17053982285461,3.3234708563220097]]]}},{"type":"Feature","properties":{"code":"1276051007","desa":"Tebing Tinggi Lama","kecamatan":"Tebing Tinggi Kota","kecCode":"127605"},"geometry":{"type":"Polygon","coordinates":[[[99.16052938822075,3.3287861643712837],[99.16893414269657,3.329578155028276],[99.1678975238517,3.3266600636346335],[99.16052938822075,3.3287861643712837]]]}}]}