{"type":"FeatureCollection","features":[{"type":"Feature","properties":{"code":"1277011001","desa":"Wek I","kecamatan":"Padangsidimpuan Utara","kecCode":"127701"},"geometry":{"type":"Polygon","coordinates":[[[99.2627697512231,1.3901026202876525],[99.27141956556055,1.387952878173147],[99.2646742913855,1.3798614007423957],[99.2627697512231,1.3901026202876525]]]}},{"type":"Feature","properties":{"code":"1277011002","desa":"Wek Ii","kecamatan":"Padangsidimpuan Utara","kecCode":"127701"},"geometry":{"type":"Polygon","coordinates":[[[99.26989537836909,1.3762332739098573],[99.26898219057568,1.3833872341889257],[99.27302213856092,1.3770405665313525],[99.26989537836909,1.3762332739098573]]]}},{"type":"Feature","properties":{"code":"1277011003","desa":"Wek Iii","kecamatan":"Padangsidimpuan Utara","kecCode":"127701"},"geometry":{"type":"Polygon","coordinates":[[[99.26691398009615,1.3760966210257588],[99.27011106187604,1.3770771581467554],[99.26884370757107,1.373856470066017],[99.26691398009615,1.3760966210257588]]]}},{"type":"Feature","properties":{"code":"1277011004","desa":"Wek Iv","kecamatan":"Padangsidimpuan Utara","kecCode":"127701"},"geometry":{"type":"Polygon","coordinates":[[[99.26838344893707,1.371241560818274],[99.27265272224535,1.375081544542311],[99.26960791996959,1.3703183293973598],[99.26838344893707,1.371241560818274]]]}},{"type":"Feature","properties":{"code":"1277011005","desa":"Tanobato","kecamatan":"Padangsidimpuan Utara","kecCode":"127701"},"geometry":{"type":"Polygon","coordinates":[[[99.26749172706161,1.3963077940105115],[99.26155241001578,1.3915757448710235],[99.25982018355467,1.3991930682433174],[99.26749172706161,1.3963077940105115]]]}},{"type":"Feature","properties":{"code":"1277011006","desa":"Tobat","kecamatan":"Padangsidimpuan Utara","kecCode":"127701"},"geometry":{"type":"Polygon","coordinates":[[[99.26866659238935,1.3903255577259974],[99.26362995635748,1.3912198228832309],[99.26806277227917,1.3942036664094908],[99.26866659238935,1.3903255577259974]]]}},{"type":"Feature","properties":{"code":"1277011007","desa":"Batang Ayumi Jae","kecamatan":"Padangsidimpuan Utara","kecCode":"127701"},"geometry":{"type":"Polygon","coordinates":[[[99.27256930562902,1.39056195621674],[99.26742483728644,1.3896639768594894],[99.27018009743357,1.3947633154174317],[99.27256930562902,1.39056195621674]]]}},{"type":"Feature","properties":{"code":"1277011008","desa":"Batang Ayumi Julu","kecamatan":"Padangsidimpuan Utara","kecCode":"127701"},"geometry":{"type":"Polygon","coordinates":[[[99.27141956556055,1.387952878173147],[99.26371742531897,1.4029986016377358],[99.26524094341487,1.4226368075543905],[99.27680293790529,1.3998373398584465],[99.27141956556055,1.387952878173147]]]}},{"type":"Feature","properties":{"code":"1277011009","desa":"Sadabuan","kecamatan":"Padangsidimpuan Utara","kecCode":"127701"},"geometry":{"type":"Polygon","coordinates":[[[99.25898298757488,1.3979768592838242],[99.25918508322508,1.3899568860495466],[99.25423287194957,1.3907933625708018],[99.25264737797418,1.3937715997234426],[99.25898298757488,1.3979768592838242]]]}},{"type":"Feature","properties":{"code":"1277011010","desa":"Panyanggar","kecamatan":"Padangsidimpuan Utara","kecCode":"127701"},"geometry":{"type":"Polygon","coordinates":[[[99.2403602987888,1.3750064412590128],[99.23398110984039,1.3861008080582433],[99.24484438595972,1.393843860249742],[99.25648652623225,1.3896786124264526],[99.25376763556801,1.382244820898476],[99.26471878804169,1.3821503624060931],[99.25465392643764,1.3722597291709344],[99.24516252742875,1.3789240112944332],[99.2403602987888,1.3750064412590128]]]}},{"type":"Feature","properties":{"code":"1277011011","desa":"Bonan Dolok","kecamatan":"Padangsidimpuan Utara","kecCode":"127701"},"geometry":{"type":"Polygon","coordinates":[[[99.2674579377337,1.3963729921608323],[99.25909355562315,1.3994049683022058],[99.25670314863146,1.407281579710006],[99.2640623620884,1.4055173454799288],[99.2674579377337,1.3963729921608323]]]}},{"type":"Feature","properties":{"code":"1277011012","desa":"Losung Batu","kecamatan":"Padangsidimpuan Utara","kecCode":"127701"},"geometry":{"type":"Polygon","coordinates":[[[99.2597101622942,1.399114357779336],[99.24936303587549,1.3919835406536991],[99.2423793163524,1.3970100530117924],[99.24553448342971,1.4060643482212933],[99.26154697091602,1.4162024011388057],[99.26551954978741,1.4069342408517733],[99.25670314863146,1.407281579710006],[99.2597101622942,1.399114357779336]]]}},{"type":"Feature","properties":{"code":"1277011013","desa":"Timbangan","kecamatan":"Padangsidimpuan Utara","kecCode":"127701"},"geometry":{"type":"Polygon","coordinates":[[[99.2628469553228,1.3903588227490988],[99.26565663344694,1.3835257900384432],[99.26182369230962,1.3819988311381206],[99.25850476228497,1.3867946278214585],[99.2628469553228,1.3903588227490988]]]}},{"type":"Feature","properties":{"code":"1277011014","desa":"Bincar","kecamatan":"Padangsidimpuan Utara","kecCode":"127701"},"geometry":{"type":"Polygon","coordinates":[[[99.27426894425645,1.3837635626932503],[99.26908662344897,1.385635460161252],[99.27340774806918,1.3880876991381554],[99.27426894425645,1.3837635626932503]]]}},{"type":"Feature","properties":{"code":"1277011015","desa":"Kantin","kecamatan":"Padangsidimpuan Utara","kecCode":"127701"},"geometry":{"type":"Polygon","coordinates":[[[99.27327108259442,1.3710146753561399],[99.27242639706064,1.377905567749284],[99.27461305724687,1.3751084711436596],[99.27327108259442,1.3710146753561399]]]}},{"type":"Feature","properties":{"code":"1277011016","desa":"Kayu Ombun","kecamatan":"Padangsidimpuan Utara","kecCode":"127701"},"geometry":{"type":"Polygon","coordinates":[[[99.26098133871784,1.393835281616731],[99.26182369230962,1.3819988311381206],[99.25376763556801,1.382244820898476],[99.25423287194957,1.3907933625708018],[99.26098133871784,1.393835281616731]]]}},{"type":"Feature","properties":{"code":"1277021001","desa":"Wek V","kecamatan":"Padangsidimpuan Selatan","kecCode":"127702"},"geometry":{"type":"Polygon","coordinates":[[[99.2747881390614,1.3701548074685241],[99.27536716306417,1.381736214711807],[99.27930642744974,1.3722693968829445],[99.2747881390614,1.3701548074685241]]]}},{"type":"Feature","properties":{"code":"1277021002","desa":"Wek Vi","kecamatan":"Padangsidimpuan Selatan","kecCode":"127702"},"geometry":{"type":"Polygon","coordinates":[[[99.25791541406515,1.3753329554159202],[99.26835004002237,1.3793304688859338],[99.2700957985823,1.3622990360505303],[99.25791541406515,1.3753329554159202]]]}},{"type":"Feature","properties":{"code":"1277021003","desa":"Losung","kecamatan":"Padangsidimpuan Selatan","kecCode":"127702"},"geometry":{"type":"Polygon","coordinates":[[[99.27930642744974,1.3722693968829445],[99.27536716306417,1.381736214711807],[99.2892230690894,1.3918442212798123],[99.28620349099837,1.3745023766486506],[99.27930642744974,1.3722693968829445]]]}},{"type":"Feature","properties":{"code":"1277021004","desa":"Sitamiang","kecamatan":"Padangsidimpuan Selatan","kecCode":"127702"},"geometry":{"type":"Polygon","coordinates":[[[99.27231438200317,1.3819906733878218],[99.27713869709326,1.3872187427019569],[99.27903369544875,1.3828026155043383],[99.27486273332852,1.3816012138823333],[99.27231438200317,1.3819906733878218]]]}},{"type":"Feature","properties":{"code":"1277021005","desa":"Ujung Padang","kecamatan":"Padangsidimpuan Selatan","kecCode":"127702"},"geometry":{"type":"Polygon","coordinates":[[[99.27072001171922,1.3481389460501547],[99.26471983665117,1.3518512764057533],[99.2755251874375,1.3608242342315202],[99.26935353863496,1.3663801657863215],[99.2724967483263,1.3730074875724594],[99.28017984722226,1.359959904807205],[99.27072001171922,1.3481389460501547]]]}},{"type":"Feature","properties":{"code":"1277021006","desa":"Aek Tampang","kecamatan":"Padangsidimpuan Selatan","kecCode":"127702"},"geometry":{"type":"Polygon","coordinates":[[[99.28778075257975,1.3548551334447865],[99.27072001171922,1.3481389460501547],[99.28017984722226,1.359959904807205],[99.27542971361044,1.370312469414888],[99.28106179976231,1.373021392889925],[99.28778075257975,1.3548551334447865]]]}},{"type":"Feature","properties":{"code":"1277021007","desa":"Padang Matinggi","kecamatan":"Padangsidimpuan Selatan","kecCode":"127702"},"geometry":{"type":"Polygon","coordinates":[[[99.28778075257975,1.3548551334447865],[99.2846505219041,1.364432184773997],[99.29280415958436,1.365988530820789],[99.29944561332444,1.3580229485838184],[99.28778075257975,1.3548551334447865]]]}},{"type":"Feature","properties":{"code":"1277021008","desa":"Silandit","kecamatan":"Padangsidimpuan Selatan","kecCode":"127702"},"geometry":{"type":"Polygon","coordinates":[[[99.28567922581567,1.3691426187081384],[99.2892230690894,1.3918442212798123],[99.29678844223287,1.3908271357108821],[99.29755629508703,1.3657557952687711],[99.28567922581567,1.3691426187081384]]]}},{"type":"Feature","properties":{"code":"1277021009","desa":"Sidangkal","kecamatan":"Padangsidimpuan Selatan","kecCode":"127702"},"geometry":{"type":"Polygon","coordinates":[[[99.26471983665117,1.3518512764057533],[99.25587341432669,1.356580644666201],[99.25791541406515,1.3753329554159202],[99.27553418875186,1.3611001417383088],[99.26471983665117,1.3518512764057533]]]}},{"type":"Feature","properties":{"code":"1277021010","desa":"Hanopan","kecamatan":"Padangsidimpuan Selatan","kecCode":"127702"},"geometry":{"type":"Polygon","coordinates":[[[99.24455676658158,1.3650742935196085],[99.24413112105445,1.3789903219061377],[99.25984600039266,1.3666180787354107],[99.25587341432669,1.356580644666201],[99.24455676658158,1.3650742935196085]]]}},{"type":"Feature","properties":{"code":"1277021011","desa":"Padang Matinggi Lestari","kecamatan":"Padangsidimpuan Selatan","kecCode":"127702"},"geometry":{"type":"Polygon","coordinates":[[[99.28127547598251,1.3729514517151533],[99.28619204982328,1.374507282450418],[99.2892002739735,1.3655654348721105],[99.2846505219041,1.364432184773997],[99.28127547598251,1.3729514517151533]]]}},{"type":"Feature","properties":{"code":"1277021012","desa":"Sitamiang Baru","kecamatan":"Padangsidimpuan Selatan","kecCode":"127702"},"geometry":{"type":"Polygon","coordinates":[[[99.27914398290851,1.3830499605430386],[99.27320635299087,1.3955106736206235],[99.28939688285992,1.3941554978214123],[99.27914398290851,1.3830499605430386]]]}},{"type":"Feature","properties":{"code":"1277031001","desa":"Batunadua Jae","kecamatan":"Padangsidimpuan Batunadua","kecCode":"127703"},"geometry":{"type":"Polygon","coordinates":[[[99.27493314664746,1.3960341545938832],[99.27032347185082,1.4108513378438559],[99.2743640115899,1.4209057771935742],[99.2887642008073,1.4131067260169976],[99.28987022393176,1.3965352793204648],[99.27493314664746,1.3960341545938832]]]}},{"type":"Feature","properties":{"code":"1277031002","desa":"Batunadua Julu","kecamatan":"Padangsidimpuan Batunadua","kecCode":"127703"},"geometry":{"type":"Polygon","coordinates":[[[99.28673737622898,1.4136707664144998],[99.2847380816972,1.4278586445667545],[99.29458160935381,1.4327142551593333],[99.30064657158208,1.4165470762051895],[99.28673737622898,1.4136707664144998]]]}},{"type":"Feature","properties":{"code":"1277032003","desa":"Purwodadi","kecamatan":"Padangsidimpuan Batunadua","kecCode":"127703"},"geometry":{"type":"Polygon","coordinates":[[[99.28987022393176,1.3965352793204648],[99.28673737622898,1.4136707664144998],[99.29092643720537,1.415718015493504],[99.29545268729173,1.4058899184153837],[99.28987022393176,1.3965352793204648]]]}},{"type":"Feature","properties":{"code":"1277032004","desa":"Gunung Hasahatan","kecamatan":"Padangsidimpuan Batunadua","kecCode":"127703"},"geometry":{"type":"Polygon","coordinates":[[[99.29277904331825,1.4124466344277438],[99.30064657158208,1.4165470762051895],[99.30333216125028,1.4108437601563022],[99.29545268729173,1.4058899184153837],[99.29277904331825,1.4124466344277438]]]}},{"type":"Feature","properties":{"code":"1277032005","desa":"Ujunggurap","kecamatan":"Padangsidimpuan Batunadua","kecCode":"127703"},"geometry":{"type":"Polygon","coordinates":[[[99.29359157179368,1.3967296345056164],[99.29385757956366,1.4040937861316842],[99.3050642905846,1.4101665382808037],[99.31095712886844,1.3972276745575622],[99.29359157179368,1.3967296345056164]]]}},{"type":"Feature","properties":{"code":"1277032006","desa":"Aek Tuhul","kecamatan":"Padangsidimpuan Batunadua","kecCode":"127703"},"geometry":{"type":"Polygon","coordinates":[[[99.29533605691351,1.3618926549014172],[99.29903445767417,1.3811122776674196],[99.3043366653049,1.3798889002118935],[99.30763838680218,1.3759947737034635],[99.29533605691351,1.3618926549014172]]]}},{"type":"Feature","properties":{"code":"1277032007","desa":"Baruas","kecamatan":"Padangsidimpuan Batunadua","kecCode":"127703"},"geometry":{"type":"Polygon","coordinates":[[[99.32003268406116,1.4000863315558012],[99.33694803872106,1.3904047870988552],[99.32680826898648,1.3883164866664648],[99.28835754086786,1.3953685312748019],[99.32003268406116,1.4000863315558012]]]}},{"type":"Feature","properties":{"code":"1277032008","desa":"Siloting","kecamatan":"Padangsidimpuan Batunadua","kecCode":"127703"},"geometry":{"type":"Polygon","coordinates":[[[99.33694803872106,1.3904047870988552],[99.33925464778383,1.3790492472851976],[99.31269449225708,1.3787612259104436],[99.30945666759118,1.3740725573683914],[99.29903445767417,1.3811122776674196],[99.29678844223287,1.3908271357108821],[99.2892230690894,1.3918442212798123],[99.33694803872106,1.3904047870988552]]]}},{"type":"Feature","properties":{"code":"1277032009","desa":"Aek Bayur","kecamatan":"Padangsidimpuan Batunadua","kecCode":"127703"},"geometry":{"type":"Polygon","coordinates":[[[99.29673294057278,1.3658857419083352],[99.29272563887719,1.3640968590596703],[99.29288678569668,1.3654065093783088],[99.29673294057278,1.3658857419083352]]]}},{"type":"Feature","properties":{"code":"1277032010","desa":"Pudun Jae","kecamatan":"Padangsidimpuan Batunadua","kecCode":"127703"},"geometry":{"type":"Polygon","coordinates":[[[99.30583987041375,1.3391138878002968],[99.29533605691351,1.3618926549014172],[99.30182750643434,1.368956851149221],[99.30979750974733,1.3665780795887927],[99.30779325365579,1.3567665309356698],[99.31681273971621,1.3453079198224298],[99.30583987041375,1.3391138878002968]]]}},{"type":"Feature","properties":{"code":"1277032011","desa":"Pudun Julu","kecamatan":"Padangsidimpuan Batunadua","kecCode":"127703"},"geometry":{"type":"Polygon","coordinates":[[[99.30182750643434,1.368956851149221],[99.30280870635674,1.3736733725942702],[99.31253372764945,1.377896302034244],[99.3097797975996,1.3684164386398212],[99.30182750643434,1.368956851149221]]]}},{"type":"Feature","properties":{"code":"1277032012","desa":"Batang Bahal","kecamatan":"Padangsidimpuan Batunadua","kecCode":"127703"},"geometry":{"type":"Polygon","coordinates":[[[99.33925464778383,1.3790492472851976],[99.33922520757731,1.3706045701144287],[99.30747647555899,1.3665178933602433],[99.31269449225708,1.3787612259104436],[99.33925464778383,1.3790492472851976]]]}},{"type":"Feature","properties":{"code":"1277032013","desa":"Aek Najaji","kecamatan":"Padangsidimpuan Batunadua","kecCode":"127703"},"geometry":{"type":"Polygon","coordinates":[[[99.30308122701706,1.4096915748324828],[99.3040276006933,1.4151070538676065],[99.3115846146383,1.4177111865393088],[99.31146373856075,1.405908034358677],[99.30308122701706,1.4096915748324828]]]}},{"type":"Feature","properties":{"code":"1277032014","desa":"Simirik","kecamatan":"Padangsidimpuan Batunadua","kecCode":"127703"},"geometry":{"type":"Polygon","coordinates":[[[99.28784275004294,1.4554383776543598],[99.31728891635049,1.4266709450154138],[99.30332074705488,1.4130182147412826],[99.28532584171427,1.4431541871050173],[99.28784275004294,1.4554383776543598]]]}},{"type":"Feature","properties":{"code":"1277032015","desa":"Bargottopong","kecamatan":"Padangsidimpuan Batunadua","kecCode":"127703"},"geometry":{"type":"Polygon","coordinates":[[[99.31728891635049,1.4266709450154138],[99.32775111102501,1.4154588875374339],[99.33452003197395,1.3940770031946836],[99.30867872884032,1.3993786406493578],[99.30972212227817,1.4181120908171685],[99.31728891635049,1.4266709450154138]]]}},{"type":"Feature","properties":{"code":"1277041001","desa":"Hutaimbaru","kecamatan":"Padangsidimpuan Hutaimbaru","kecCode":"127704"},"geometry":{"type":"Polygon","coordinates":[[[99.23958604635902,1.3937854357930948],[99.22554747273773,1.4006513045502553],[99.2356731222169,1.4106843984912802],[99.24352942064633,1.4077122695339614],[99.23958604635902,1.3937854357930948]]]}},{"type":"Feature","properties":{"code":"1277041002","desa":"Lubuk Raya","kecamatan":"Padangsidimpuan Hutaimbaru","kecCode":"127704"},"geometry":{"type":"Polygon","coordinates":[[[99.22620049565641,1.443112712170946],[99.23377957626649,1.4485295779606577],[99.24802574489227,1.4326793443768533],[99.24741267255683,1.4224687836194212],[99.22620049565641,1.443112712170946]]]}},{"type":"Feature","properties":{"code":"1277041003","desa":"Sabungan Jae","kecamatan":"Padangsidimpuan Hutaimbaru","kecCode":"127704"},"geometry":{"type":"Polygon","coordinates":[[[99.2550086532268,1.4138309095903951],[99.24557731274284,1.4034814431471614],[99.23776856057066,1.4120818658089658],[99.24117685442836,1.4139950727357904],[99.2550086532268,1.4138309095903951]]]}},{"type":"Feature","properties":{"code":"1277041004","desa":"Lembah Lubuk Manik","kecamatan":"Padangsidimpuan Hutaimbaru","kecCode":"127704"},"geometry":{"type":"Polygon","coordinates":[[[99.26514100535319,1.4226130123924146],[99.25665608441085,1.4124888935706685],[99.24768026583165,1.4224646926034803],[99.25308378658754,1.4395075666139368],[99.2678304387238,1.4362282139576197],[99.26019344177399,1.429872242813496],[99.26514100535319,1.4226130123924146]]]}},{"type":"Feature","properties":{"code":"1277041005","desa":"Palopat Maria","kecamatan":"Padangsidimpuan Hutaimbaru","kecCode":"127704"},"geometry":{"type":"Polygon","coordinates":[[[99.22554747273773,1.4006513045502553],[99.21995389015994,1.4107652763213905],[99.22530891137723,1.422061820608943],[99.23776856057066,1.4120818658089658],[99.22554747273773,1.4006513045502553]]]}},{"type":"Feature","properties":{"code":"1277042006","desa":"Sabungan Sipabangun","kecamatan":"Padangsidimpuan Hutaimbaru","kecCode":"127704"},"geometry":{"type":"Polygon","coordinates":[[[99.22530891137723,1.422061820608943],[99.2388248970514,1.4297975478223897],[99.24572181131259,1.4177957551870777],[99.23776856057066,1.4120818658089658],[99.22530891137723,1.422061820608943]]]}},{"type":"Feature","properties":{"code":"1277042007","desa":"Singali","kecamatan":"Padangsidimpuan Hutaimbaru","kecCode":"127704"},"geometry":{"type":"Polygon","coordinates":[[[99.2461577567751,1.4218374622417567],[99.25316492342256,1.4203683873055368],[99.25459916402025,1.4148861444004621],[99.24226558628784,1.4131614911321997],[99.2461577567751,1.4218374622417567]]]}},{"type":"Feature","properties":{"code":"1277042008","desa":"Huta Padang","kecamatan":"Padangsidimpuan Hutaimbaru","kecCode":"127704"},"geometry":{"type":"Polygon","coordinates":[[[99.23075925983203,1.450099732198142],[99.23706373400415,1.459800538334674],[99.25215410972446,1.4364150975751602],[99.24284310032884,1.4335788876551645],[99.23075925983203,1.450099732198142]]]}},{"type":"Feature","properties":{"code":"1277042009","desa":"Partihaman Saroha","kecamatan":"Padangsidimpuan Hutaimbaru","kecCode":"127704"},"geometry":{"type":"Polygon","coordinates":[[[99.23398110984039,1.3861008080582433],[99.23217813101597,1.3932024286936195],[99.2424215674015,1.3979673831274075],[99.24673373027746,1.3940892645514524],[99.23398110984039,1.3861008080582433]]]}},{"type":"Feature","properties":{"code":"1277042010","desa":"Tinjoman Lama","kecamatan":"Padangsidimpuan Hutaimbaru","kecCode":"127704"},"geometry":{"type":"Polygon","coordinates":[[[99.22700835035518,1.4234200675929432],[99.22250416963179,1.4380377767166812],[99.22620049565641,1.443112712170946],[99.23891959926016,1.4287101334708907],[99.22700835035518,1.4234200675929432]]]}},{"type":"Feature","properties":{"code":"1277051001","desa":"Sihitang","kecamatan":"Padangsidimpuan Tenggara","kecCode":"127705"},"geometry":{"type":"Polygon","coordinates":[[[99.27949262038815,1.33867612930504],[99.27353108559116,1.3463666008345543],[99.2996086199419,1.3579216885188528],[99.30256022637343,1.3437017792132466],[99.29475489342366,1.3469145163878251],[99.27949262038815,1.33867612930504]]]}},{"type":"Feature","properties":{"code":"1277051002","desa":"Pijor Koling","kecamatan":"Padangsidimpuan Tenggara","kecCode":"127705"},"geometry":{"type":"Polygon","coordinates":[[[99.30006778769831,1.3153092604451013],[99.31034358438897,1.3317915240723945],[99.3186629275521,1.327585314827864],[99.31847251859193,1.3233908255483045],[99.30006778769831,1.3153092604451013]]]}},{"type":"Feature","properties":{"code":"1277052003","desa":"Palopat Pijor Koling","kecamatan":"Padangsidimpuan Tenggara","kecCode":"127705"},"geometry":{"type":"Polygon","coordinates":[[[99.28143745917146,1.336534474793725],[99.29475489342366,1.3469145163878251],[99.30605402057665,1.339021088557108],[99.31151362485393,1.345073388324217],[99.31842796707706,1.3420328155633792],[99.31161953441402,1.331397597634234],[99.28701442677442,1.3303025687230008],[99.28143745917146,1.336534474793725]]]}},{"type":"Feature","properties":{"code":"1277052004","desa":"Salambue","kecamatan":"Padangsidimpuan Tenggara","kecCode":"127705"},"geometry":{"type":"Polygon","coordinates":[[[99.29564701639674,1.3204976282882754],[99.29392143682492,1.3277600279202122],[99.30645672259969,1.3340182328654422],[99.31034358438897,1.3317915240723945],[99.29564701639674,1.3204976282882754]]]}},{"type":"Feature","properties":{"code":"1277052005","desa":"Purbatua Pijor Koling","kecamatan":"Padangsidimpuan Tenggara","kecCode":"127705"},"geometry":{"type":"Polygon","coordinates":[[[99.29159426836087,1.3251427471602595],[99.2885317197631,1.3316892909409472],[99.30540338355935,1.3335724757999345],[99.30056233838127,1.328641064949491],[99.29159426836087,1.3251427471602595]]]}},{"type":"Feature","properties":{"code":"1277052006","desa":"Sigulang","kecamatan":"Padangsidimpuan Tenggara","kecCode":"127705"},"geometry":{"type":"Polygon","coordinates":[[[99.29799113078609,1.317751220171094],[99.29836461203729,1.3242596183079096],[99.30971310477605,1.3307693609311775],[99.30773413672107,1.3260410430788572],[99.29799113078609,1.317751220171094]]]}},{"type":"Feature","properties":{"code":"1277052007","desa":"Manunggang Julu","kecamatan":"Padangsidimpuan Tenggara","kecCode":"127705"},"geometry":{"type":"Polygon","coordinates":[[[99.30475951034315,1.309781825707917],[99.30006778769831,1.3153092604451013],[99.30931053855055,1.3222495768798905],[99.32724786209923,1.3209126465262868],[99.32792085985983,1.3158922846317176],[99.31142937006945,1.3163587207083387],[99.30475951034315,1.309781825707917]]]}},{"type":"Feature","properties":{"code":"1277052008","desa":"Goti","kecamatan":"Padangsidimpuan Tenggara","kecCode":"127705"},"geometry":{"type":"Polygon","coordinates":[[[99.30695840220858,1.3071913447449246],[99.31150670277219,1.3163676437816856],[99.33742217029696,1.3185762177457239],[99.34209740207352,1.3106176421268032],[99.30695840220858,1.3071913447449246]]]}},{"type":"Feature","properties":{"code":"1277052009","desa":"Manegen","kecamatan":"Padangsidimpuan Tenggara","kecCode":"127705"},"geometry":{"type":"Polygon","coordinates":[[[99.32898743512207,1.3090703549510054],[99.31968666990393,1.3032172208426285],[99.30695840220858,1.3071913447449246],[99.31872947558493,1.3104336489303434],[99.32898743512207,1.3090703549510054]]]}},{"type":"Feature","properties":{"code":"1277052010","desa":"Huta Koje","kecamatan":"Padangsidimpuan Tenggara","kecCode":"127705"},"geometry":{"type":"Polygon","coordinates":[[[99.3156000084337,1.3276259147216631],[99.31134113758348,1.3312655375878353],[99.31544303087122,1.336551758864097],[99.31774248222985,1.334312257214898],[99.3156000084337,1.3276259147216631]]]}},{"type":"Feature","properties":{"code":"1277052011","desa":"Hutalimbong","kecamatan":"Padangsidimpuan Tenggara","kecCode":"127705"},"geometry":{"type":"Polygon","coordinates":[[[99.32044662491187,1.3378662223542857],[99.31515933163791,1.3282721756371132],[99.31837062360546,1.3394104662243473],[99.32044662491187,1.3378662223542857]]]}},{"type":"Feature","properties":{"code":"1277052012","desa":"Huta Padang","kecamatan":"Padangsidimpuan Tenggara","kecCode":"127705"},"geometry":{"type":"Polygon","coordinates":[[[99.32792085985983,1.3158922846317176],[99.32187192175184,1.324423240960795],[99.32699456174969,1.3303741124896837],[99.33742217029696,1.3185762177457239],[99.32792085985983,1.3158922846317176]]]}},{"type":"Feature","properties":{"code":"1277052013","desa":"Perkebunan Pijor Koling","kecamatan":"Padangsidimpuan Tenggara","kecCode":"127705"},"geometry":{"type":"Polygon","coordinates":[[[99.33945268839089,1.3619209071034435],[99.33343427687043,1.3359372413188384],[99.32099550274033,1.3292039515168284],[99.3153303359263,1.3478491835879],[99.33945268839089,1.3619209071034435]]]}},{"type":"Feature","properties":{"code":"1277052014","desa":"Labuhan Labo","kecamatan":"Padangsidimpuan Tenggara","kecCode":"127705"},"geometry":{"type":"Polygon","coordinates":[[[99.33922520757731,1.3706045701144287],[99.33945268839089,1.3619209071034435],[99.31828451621747,1.3490806729283062],[99.30779325365579,1.3567665309356698],[99.31103786460584,1.3679554164818657],[99.33922520757731,1.3706045701144287]]]}},{"type":"Feature","properties":{"code":"1277052015","desa":"Huta Lombang","kecamatan":"Padangsidimpuan Tenggara","kecCode":"127705"},"geometry":{"type":"Polygon","coordinates":[[[99.31847251859193,1.3233908255483045],[99.319606060971,1.3312772764385077],[99.32699456174969,1.3303741124896837],[99.32425542734615,1.3244789188879207],[99.31847251859193,1.3233908255483045]]]}},{"type":"Feature","properties":{"code":"1277052016","desa":"Manunggang Jae","kecamatan":"Padangsidimpuan Tenggara","kecCode":"127705"},"geometry":{"type":"Polygon","coordinates":[[[99.33742217029696,1.3185762177457239],[99.33205782041216,1.3208360395765129],[99.32581932859921,1.3321713158658732],[99.332949750031,1.3350872147122839],[99.33742217029696,1.3185762177457239]]]}},{"type":"Feature","properties":{"code":"1277052017","desa":"Labuhan Rasoki","kecamatan":"Padangsidimpuan Tenggara","kecCode":"127705"},"geometry":{"type":"Polygon","coordinates":[[[99.33986154717273,1.3498373355173476],[99.34841978804285,1.3206384944961582],[99.34179097157612,1.3114575027969673],[99.33238643178845,1.335634291198063],[99.33295717663246,1.3453618926349202],[99.33986154717273,1.3498373355173476]]]}},{"type":"Feature","properties":{"code":"1277052018","desa":"Tarutung Baru","kecamatan":"Padangsidimpuan Tenggara","kecCode":"127705"},"geometry":{"type":"Polygon","coordinates":[[[99.34743593422104,1.3108513534433068],[99.34209575811279,1.310283932494234],[99.34390028467043,1.320106317078618],[99.34841978804285,1.3206384944961582],[99.34743593422104,1.3108513534433068]]]}},{"type":"Feature","properties":{"code":"1277062001","desa":"Joring Lombang","kecamatan":"Padangsidimpuan Angkola Julu","kecCode":"127706"},"geometry":{"type":"Polygon","coordinates":[[[99.23840568707288,1.4618597169206162],[99.24570260629031,1.4636103803809908],[99.26293059856835,1.4437687909851953],[99.24649948656213,1.4487927087992285],[99.23840568707288,1.4618597169206162]]]}},{"type":"Feature","properties":{"code":"1277062002","desa":"Batu Layan","kecamatan":"Padangsidimpuan Angkola Julu","kecCode":"127706"},"geometry":{"type":"Polygon","coordinates":[[[99.23706373400415,1.459800538334674],[99.25856748100449,1.4440022118206646],[99.26048635186372,1.4378140056067787],[99.24316944361499,1.4456450861380012],[99.23706373400415,1.459800538334674]]]}},{"type":"Feature","properties":{"code":"1277062003","desa":"Simasom","kecamatan":"Padangsidimpuan Angkola Julu","kecCode":"127706"},"geometry":{"type":"Polygon","coordinates":[[[99.2726163491652,1.4686096037109486],[99.26310201564557,1.4516280625646005],[99.25224453475755,1.465254045202435],[99.26126496960273,1.464896929814289],[99.26070283306933,1.4730499739329284],[99.2726163491652,1.4686096037109486]]]}},{"type":"Feature","properties":{"code":"1277062004","desa":"Pintu Langit Jae","kecamatan":"Padangsidimpuan Angkola Julu","kecCode":"127706"},"geometry":{"type":"Polygon","coordinates":[[[99.24636009704089,1.474072810666327],[99.26070283306933,1.4730499739329284],[99.26126496960273,1.464896929814289],[99.24703630807919,1.468934557544141],[99.24636009704089,1.474072810666327]]]}},{"type":"Feature","properties":{"code":"1277062005","desa":"Mompang","kecamatan":"Padangsidimpuan Angkola Julu","kecCode":"127706"},"geometry":{"type":"Polygon","coordinates":[[[99.27324383493509,1.468066821487895],[99.28098589878026,1.4613698427128061],[99.27120669603225,1.43432273760303],[99.2603023883446,1.4415435292012475],[99.27324383493509,1.468066821487895]]]}},{"type":"Feature","properties":{"code":"1277062006","desa":"Rimba Soping","kecamatan":"Padangsidimpuan Angkola Julu","kecCode":"127706"},"geometry":{"type":"Polygon","coordinates":[[[99.27124901003384,1.417146452764421],[99.26019344177399,1.429872242813496],[99.26888715741643,1.4362710675523394],[99.28249605025258,1.4339698778067893],[99.28575192161395,1.4181890413079268],[99.27124901003384,1.417146452764421]]]}},{"type":"Feature","properties":{"code":"1277062007","desa":"Simatohir","kecamatan":"Padangsidimpuan Angkola Julu","kecCode":"127706"},"geometry":{"type":"Polygon","coordinates":[[[99.28098589878026,1.4613698427128061],[99.28784275004294,1.4554383776543598],[99.2893906856317,1.4290893398057618],[99.27120669603225,1.43432273760303],[99.28098589878026,1.4613698427128061]]]}},{"type":"Feature","properties":{"code":"1277062008","desa":"Joring Natobang","kecamatan":"Padangsidimpuan Angkola Julu","kecCode":"127706"},"geometry":{"type":"Polygon","coordinates":[[[99.24148362486943,1.4665812691732183],[99.24636009704089,1.474072810666327],[99.26419607868615,1.4475275002780374],[99.25133250259296,1.452694563181905],[99.24148362486943,1.4665812691732183]]]}}]}