{"type":"FeatureCollection","features":[{"type":"Feature","properties":{"code":"1303032001","desa":"Timbulun","kecamatan":"Tanjung Gadang","kecCode":"130303"},"geometry":{"type":"Polygon","coordinates":[[[101.07731767027433,-0.7237262509563087],[101.08440450066723,-0.749005701714096],[101.12312770897667,-0.7429879080346325],[101.12322091741146,-0.750633122980795],[101.10302285741896,-0.7520782390783743],[101.10184033975992,-0.7638003389603114],[101.06829622998708,-0.7547490061176836],[101.07293713194315,-0.7642560155480242],[101.06623634003512,-0.7675722242204148],[101.06060575575111,-0.7630466837041581],[101.06236741342546,-0.7544697279518394],[101.04848585064154,-0.7519097438987191],[101.03509130222186,-0.7366863152973415],[101.02154426925267,-0.7452113882615525],[101.02830030741329,-0.7372884617685526],[101.02648709340467,-0.7183561418190499],[101.03346025578622,-0.7119064316403113],[101.04612807465098,-0.7262134537756711],[101.07731767027433,-0.7237262509563087]]]}},{"type":"Feature","properties":{"code":"1303032002","desa":"Tanjung Gadang","kecamatan":"Tanjung Gadang","kecCode":"130303"},"geometry":{"type":"Polygon","coordinates":[[[101.07293713194315,-0.7642560155480242],[101.06829622998708,-0.7547490061176836],[101.10184033975992,-0.7638003389603114],[101.10302285741896,-0.7520782390783743],[101.12322091741146,-0.750633122980795],[101.12312770897667,-0.7429879080346325],[101.13150029380357,-0.7403714744359877],[101.14932811589988,-0.7483809579779063],[101.15825565527435,-0.7657045760490161],[101.15839763124575,-0.7814637379872553],[101.11998458741884,-0.7706436761029881],[101.09809746482618,-0.7750173696891515],[101.07293713194315,-0.7642560155480242]]]}},{"type":"Feature","properties":{"code":"1303032003","desa":"Taratak Baru","kecamatan":"Tanjung Gadang","kecCode":"130303"},"geometry":{"type":"Polygon","coordinates":[[[101.09831908655667,-0.7898570710637021],[101.0936461507493,-0.7969707821846732],[101.10059429758881,-0.805597539693847],[101.08911974687884,-0.8132828590073198],[101.09039871592807,-0.820200758940735],[101.08394882138104,-0.816233681226683],[101.08097910979814,-0.8311765258466396],[101.0690772866875,-0.8258834283541],[101.06229428325462,-0.7846918256896841],[101.08439139035043,-0.7762531685808081],[101.09831908655667,-0.7898570710637021]]]}},{"type":"Feature","properties":{"code":"1303032004","desa":"Pulasan","kecamatan":"Tanjung Gadang","kecCode":"130303"},"geometry":{"type":"Polygon","coordinates":[[[101.09809746482618,-0.7750173696891515],[101.11998458741884,-0.7706436761029881],[101.16004023127168,-0.7825805448811302],[101.18419913308361,-0.80642036450643],[101.19089984944854,-0.839049426651555],[101.16499303340186,-0.8372869820723539],[101.14219251077581,-0.8442474019520856],[101.13079653383299,-0.8365937441705753],[101.12150499475973,-0.8394960623547411],[101.10506186241507,-0.827786991850554],[101.09874685808107,-0.8323082282115236],[101.09805352485034,-0.8620769875990504],[101.08097910979814,-0.8311765258466396],[101.08394882138104,-0.816233681226683],[101.09039871592807,-0.820200758940735],[101.08911974687884,-0.8132828590073198],[101.10059429758881,-0.805597539693847],[101.0936461507493,-0.7969707821846732],[101.1006265328882,-0.7867828618597866],[101.09809746482618,-0.7750173696891515]]]}},{"type":"Feature","properties":{"code":"1303032005","desa":"Langki","kecamatan":"Tanjung Gadang","kecCode":"130303"},"geometry":{"type":"Polygon","coordinates":[[[101.20250469663449,-0.9507876312812552],[101.17513574302018,-0.9575097029400613],[101.14026328602188,-0.9581689788441977],[101.14685677262202,-0.9399520237161022],[101.14050655173605,-0.8844418723057558],[101.14516626031474,-0.842724114084304],[101.20018929220213,-0.8386912140904863],[101.23878303231118,-0.8599010716157265],[101.23000625978113,-0.9012427360558463],[101.20938407771307,-0.9104543316842002],[101.21699757357918,-0.9212061772934447],[101.20780552020862,-0.9237215855500348],[101.21119567743862,-0.9408792670127522],[101.20250469663449,-0.9507876312812552]]]}},{"type":"Feature","properties":{"code":"1303032006","desa":"Sibakur","kecamatan":"Tanjung Gadang","kecCode":"130303"},"geometry":{"type":"Polygon","coordinates":[[[101.1419250928688,-0.9615090375372697],[101.12659708119043,-0.978090660961909],[101.10161274113517,-0.9792899087076193],[101.08619383317891,-0.9895120743167145],[101.06343666776807,-0.9880558434979234],[101.05015927582996,-0.9702955470172474],[101.06664894089594,-0.9505698145826464],[101.06009141278855,-0.9301879898440045],[101.07378899676485,-0.9255024428488202],[101.09469312438824,-0.9020787827011826],[101.10091585288437,-0.8288879365022251],[101.10783005031664,-0.8271347720272464],[101.12179774656879,-0.8396187460695076],[101.1346998154442,-0.8379174679798771],[101.147513943214,-0.8538942748461393],[101.14050655173605,-0.8844418723057558],[101.14685677262202,-0.9399520237161022],[101.1419250928688,-0.9615090375372697]]]}},{"type":"Feature","properties":{"code":"1303032007","desa":"Tanjung Lolo","kecamatan":"Tanjung Gadang","kecCode":"130303"},"geometry":{"type":"Polygon","coordinates":[[[101.15839763124575,-0.7814637379872553],[101.15825565527435,-0.7657045760490161],[101.14794549458895,-0.747977684885825],[101.1587194005799,-0.735666671157222],[101.1815871349384,-0.735695784010484],[101.19759309334665,-0.7567720508432109],[101.20629647670108,-0.7587398457188264],[101.2194608688241,-0.7403742578377435],[101.25066929355312,-0.7563785875559372],[101.26389006597383,-0.7809698060384004],[101.25589980273377,-0.8193866089885936],[101.23879996204867,-0.859976897054603],[101.2078492110723,-0.8413384620596563],[101.190764390864,-0.8391644769208021],[101.18419913308361,-0.80642036450643],[101.15839763124575,-0.7814637379872553]]]}},{"type":"Feature","properties":{"code":"1303032008","desa":"Taratak Baru Utara","kecamatan":"Tanjung Gadang","kecCode":"130303"},"geometry":{"type":"Polygon","coordinates":[[[101.02096681007025,-0.7403189207536577],[101.02429285822888,-0.7458675201358507],[101.03509130222186,-0.7366863152973415],[101.04848585064154,-0.7519097438987191],[101.06236741342546,-0.7544697279518394],[101.06221432183355,-0.7734038267603214],[101.05629147587098,-0.777135219146038],[101.06733341040864,-0.8125516409368697],[101.03183233989063,-0.7841511388870955],[101.03183233989063,-0.7666505018618378],[101.0133013963424,-0.7496059551124729],[101.02096681007025,-0.7403189207536577]]]}},{"type":"Feature","properties":{"code":"1303032009","desa":"Sinyamu","kecamatan":"Tanjung Gadang","kecCode":"130303"},"geometry":{"type":"Polygon","coordinates":[[[101.06060575575111,-0.7630466837041581],[101.0951607385773,-0.7721016785861474],[101.09977190534919,-0.7887642940549271],[101.08439139035043,-0.7762531685808081],[101.05815882097288,-0.7854099001684488],[101.06060575575111,-0.7630466837041581]]]}},{"type":"Feature","properties":{"code":"1303042001","desa":"Muaro","kecamatan":"Sijunjung","kecCode":"130304"},"geometry":{"type":"Polygon","coordinates":[[[101.00891946406209,-0.6611699068261931],[100.96738865236449,-0.691983904159945],[100.93052065100727,-0.6915350183530008],[100.92534721640094,-0.6784119806696026],[100.91152870958234,-0.6800111812105007],[100.90974972467012,-0.6772744956639498],[100.91721726236682,-0.6763142922143982],[100.91298933538957,-0.674099414902128],[100.91884458470984,-0.658349741710857],[100.9523169807441,-0.6368423911511015],[100.99659450992874,-0.6492879452562201],[101.00891946406209,-0.6611699068261931]]]}},{"type":"Feature","properties":{"code":"1303042002","desa":"Kandang Baru","kecamatan":"Sijunjung","kecCode":"130304"},"geometry":{"type":"Polygon","coordinates":[[[100.93783209157782,-0.740564638019408],[100.92339687466608,-0.7279693827666995],[100.93585088690894,-0.7014950297872468],[100.94260375675805,-0.6997926509274325],[100.94820621744303,-0.7045575684890069],[100.94639619872565,-0.7334105986000284],[100.93783209157782,-0.740564638019408]]]}},{"type":"Feature","properties":{"code":"1303042003","desa":"Silokek","kecamatan":"Sijunjung","kecCode":"130304"},"geometry":{"type":"Polygon","coordinates":[[[101.00891946406209,-0.6611699068261931],[100.99659450992874,-0.6492879452562201],[100.9523272348141,-0.6371257963058176],[100.96138021972142,-0.6300989668890614],[100.95992903859434,-0.6040858042407986],[100.96630607366643,-0.5926725261531524],[100.98950478461819,-0.5889652967522064],[101.000423421204,-0.5981617343074829],[101.02806255004668,-0.5959124579269954],[101.05440394278783,-0.6043529487535693],[101.03492139780434,-0.6358194653848385],[101.01915061121178,-0.6427209949590634],[101.00891946406209,-0.6611699068261931]]]}},{"type":"Feature","properties":{"code":"1303042004","desa":"Pematang Panjang","kecamatan":"Sijunjung","kecCode":"130304"},"geometry":{"type":"Polygon","coordinates":[[[100.93052065100727,-0.6915350183530008],[100.94938211699115,-0.6885989674982199],[100.97565944742563,-0.7207542802797247],[100.97672981243096,-0.7432006849325358],[100.93783209157782,-0.740564638019408],[100.94557400793417,-0.7367065680298284],[100.94804089237333,-0.7031066868377396],[100.93585088690894,-0.7014950297872468],[100.93052065100727,-0.6915350183530008]]]}},{"type":"Feature","properties":{"code":"1303042005","desa":"Solok Ambah","kecamatan":"Sijunjung","kecCode":"130304"},"geometry":{"type":"Polygon","coordinates":[[[101.12312770897667,-0.7429879080346325],[101.08937572271151,-0.7500522769522538],[101.0779887443851,-0.7376961766122816],[101.07740610330909,-0.7101801425052994],[101.11135788385928,-0.6676988418812346],[101.1512171139787,-0.6784524582555347],[101.15070029428323,-0.6962030240716801],[101.16248473788039,-0.7256345547793658],[101.15098183334499,-0.7470579104587172],[101.12312770897667,-0.7429879080346325]]]}},{"type":"Feature","properties":{"code":"1303042006","desa":"Paru","kecamatan":"Sijunjung","kecCode":"130304"},"geometry":{"type":"Polygon","coordinates":[[[101.03492139780434,-0.6358194653848385],[101.05865393732938,-0.6010629067553895],[101.10886543529165,-0.5919098569921996],[101.1611034115932,-0.6287889181706801],[101.17957806297727,-0.6571653282822614],[101.17065200208827,-0.670943031944958],[101.15079071302101,-0.678489164984137],[101.06442093258003,-0.6537947528942916],[101.03492139780434,-0.6358194653848385]]]}},{"type":"Feature","properties":{"code":"1303042007","desa":"Durian Gadang","kecamatan":"Sijunjung","kecCode":"130304"},"geometry":{"type":"Polygon","coordinates":[[[101.05440394278783,-0.6043529487535693],[101.02806255004668,-0.5959124579269954],[100.99606745055245,-0.5966830411219688],[100.98950478461819,-0.5889652967522064],[100.9929135910894,-0.5831600569387188],[100.98293124228309,-0.5775847449938993],[100.98377701599655,-0.555540481186801],[100.97221390185011,-0.5447663539746161],[100.99173697568096,-0.5055618780126712],[100.99186583144302,-0.47443923245377195],[100.97485396064184,-0.42881996159218494],[100.98104013439473,-0.4051723576648585],[100.97884920962338,-0.3650927091526517],[101.00427743705416,-0.3251917046695271],[101.03805383631554,-0.3517885659958821],[101.0413888893858,-0.38527777751632514],[101.02853428492939,-0.3986662752822988],[101.04149508762828,-0.4241951305262282],[101.03762367978906,-0.44489875157833236],[101.05054707788537,-0.47248175909731027],[101.06624242844538,-0.4886438308014748],[101.06489585106273,-0.5018851707026001],[101.08860219963185,-0.5092240306948106],[101.11006665794996,-0.5009964084969585],[101.13463727928705,-0.52180949233048],[101.12356514371646,-0.5434103094303663],[101.12603096875425,-0.5749728637634708],[101.13836009124525,-0.6038230106479667],[101.17251176140871,-0.6313169556068579],[101.17448442161884,-0.6443858262241495],[101.10993564741226,-0.5921529662240027],[101.07693768962274,-0.5940766430580993],[101.05440394278783,-0.6043529487535693]]]}},{"type":"Feature","properties":{"code":"1303042008","desa":"Aie Angek","kecamatan":"Sijunjung","kecCode":"130304"},"geometry":{"type":"Polygon","coordinates":[[[101.07731767027433,-0.7237262509563087],[101.04612807465098,-0.7262134537756711],[101.03531158126451,-0.7117337645056695],[101.02645261609541,-0.7227927807538558],[101.01795366303115,-0.7180071212286417],[101.024758182744,-0.699791657176575],[101.01269068292873,-0.6851069611510693],[101.01413881355545,-0.6761500409353958],[101.00405135828362,-0.6781778250880625],[101.00177675159586,-0.66877266208068],[101.02153219855217,-0.6406214583970522],[101.0355272818586,-0.6358192252658539],[101.06442093258003,-0.6537947528942916],[101.11153955140922,-0.6677058143250597],[101.07890796573008,-0.7076923443347471],[101.07731767027433,-0.7237262509563087]]]}},{"type":"Feature","properties":{"code":"1303042009","desa":"Sijunjung","kecamatan":"Sijunjung","kecCode":"130304"},"geometry":{"type":"Polygon","coordinates":[[[101.02645261609541,-0.7227927807538558],[101.02830030741329,-0.7372884617685526],[101.01315708932826,-0.7498895068566453],[100.97672981243096,-0.7432006849325358],[100.97565944742563,-0.7207542802797247],[100.94938211699115,-0.6885989674982199],[100.96984534928349,-0.6911959379690988],[101.00177675159586,-0.66877266208068],[101.00405135828362,-0.6781778250880625],[101.01514453259414,-0.6776486055407768],[101.01269068292873,-0.6851069611510693],[101.02490740095584,-0.7006160198298736],[101.017096577645,-0.7159089057707382],[101.02645261609541,-0.7227927807538558]]]}},{"type":"Feature","properties":{"code":"1303052001","desa":"Palangki","kecamatan":"Iv Nagari","kecCode":"130305"},"geometry":{"type":"Polygon","coordinates":[[[100.92896273024586,-0.7191465541658871],[100.92339687466608,-0.7279693827666995],[100.90832315708809,-0.7300692295948047],[100.91622863674223,-0.737565461052318],[100.9051939138681,-0.7409844487446261],[100.88690231858719,-0.7098340968721759],[100.89441391856751,-0.7048126467979487],[100.92896273024586,-0.7191465541658871]]]}},{"type":"Feature","properties":{"code":"1303052002","desa":"Koto Baru","kecamatan":"Iv Nagari","kecCode":"130305"},"geometry":{"type":"Polygon","coordinates":[[[100.90160454871102,-0.8169860333651818],[100.88768615779003,-0.8278094281369848],[100.88448816229891,-0.8131747910744321],[100.85183346764045,-0.7850153334130869],[100.85045997984423,-0.7544648131568347],[100.84073609799258,-0.7422757196186675],[100.84998232742254,-0.7307203180710053],[100.89644030607529,-0.7329377530551808],[100.90405212470586,-0.7406582259680641],[100.91890060977538,-0.7404568524737027],[100.92058341399341,-0.7494932979391438],[100.88434424469119,-0.7606486729472961],[100.88500060409467,-0.7833477412292761],[100.90160454871102,-0.8169860333651818]]]}},{"type":"Feature","properties":{"code":"1303052003","desa":"Muaro Bodi","kecamatan":"Iv Nagari","kecCode":"130305"},"geometry":{"type":"Polygon","coordinates":[[[100.92101584400602,-0.6962372055039271],[100.88690231858719,-0.7098340968721759],[100.89644030607529,-0.7329377530551808],[100.84998232742254,-0.7307203180710053],[100.85600670144815,-0.7131725520739899],[100.87107187097011,-0.6992030311129743],[100.87367403682742,-0.6579792480079396],[100.90682288916508,-0.6598069896628382],[100.89772222130351,-0.6710277768599302],[100.90295804727612,-0.6774761893169532],[100.89927876430356,-0.6818325520679889],[100.91922160479326,-0.6828619655435317],[100.92101584400602,-0.6962372055039271]]]}},{"type":"Feature","properties":{"code":"1303052004","desa":"Mundam Sakti","kecamatan":"Iv Nagari","kecCode":"130305"},"geometry":{"type":"Polygon","coordinates":[[[100.92567729726947,-0.8084504850978323],[100.90160454871102,-0.8169860333651818],[100.89610400279751,-0.8113523734061099],[100.88385197558824,-0.7764559746952285],[100.88434424469119,-0.7606486729472961],[100.89003268595972,-0.7556165901884391],[100.92058341399341,-0.7494932979391438],[100.93035737189524,-0.7827689897217289],[100.92567729726947,-0.8084504850978323]]]}},{"type":"Feature","properties":{"code":"1303052005","desa":"Koto Tuo","kecamatan":"Iv Nagari","kecCode":"130305"},"geometry":{"type":"Polygon","coordinates":[[[100.92091894205561,-0.6776443166739582],[100.93596798223666,-0.7020325374864532],[100.92896273024586,-0.7191465541658871],[100.89441391856751,-0.7048126467979487],[100.92101584400602,-0.6962372055039271],[100.92091894205561,-0.6776443166739582]]]}},{"type":"Feature","properties":{"code":"1303062001","desa":"Sungai Lansek","kecamatan":"Kamang Baru","kecCode":"130306"},"geometry":{"type":"Polygon","coordinates":[[[101.3018272218489,-0.8238033495238332],[101.3431685769683,-0.8484522721060092],[101.34334769943683,-0.8737318793459049],[101.35347299997903,-0.8803868346003971],[101.34834952900762,-0.8942048036090783],[101.3410216218504,-0.8981839942917077],[101.32757711968837,-0.89091167064104],[101.27257706098264,-0.8881036445746094],[101.27773024195716,-0.8633950195991189],[101.3018272218489,-0.8238033495238332]]]}},{"type":"Feature","properties":{"code":"1303062002","desa":"Kamang","kecamatan":"Kamang Baru","kecCode":"130306"},"geometry":{"type":"Polygon","coordinates":[[[101.26061185455353,-0.8039440416851908],[101.26376968542267,-0.7805157005663447],[101.27120526660985,-0.7889234236948643],[101.28012398003774,-0.788428730919549],[101.33823349328117,-0.7584609281811108],[101.37471337782019,-0.7631332668333703],[101.3833277687616,-0.7532597899650024],[101.42375818619136,-0.738011285567041],[101.45444446903706,-0.7691666448646122],[101.49141449308445,-0.7883483791927579],[101.50580603442103,-0.8085470345138719],[101.53007247266652,-0.8098164626540711],[101.54775060710489,-0.8211332857543728],[101.52058891664522,-0.8479826380402148],[101.50491848090326,-0.8389777174096911],[101.496636110668,-0.8507138880842532],[101.47687249966617,-0.8341591660798875],[101.4542166671655,-0.8342083320161195],[101.45091618313539,-0.8492586609089288],[101.40259274975568,-0.802666563713365],[101.39580335843827,-0.8323138381824254],[101.38707439386825,-0.8354474278223878],[101.35849789266365,-0.8083531154999938],[101.32371453239983,-0.7958599719701835],[101.3209074173435,-0.8040548615435206],[101.33483369621815,-0.8310099830950807],[101.32734998601308,-0.8399619957103411],[101.26061185455353,-0.8039440416851908]]]}},{"type":"Feature","properties":{"code":"1303062003","desa":"Muaro Takuang","kecamatan":"Kamang Baru","kecCode":"130306"},"geometry":{"type":"Polygon","coordinates":[[[101.3410216218504,-0.8981839942917077],[101.35250928737378,-0.8851740076846562],[101.36116266572452,-0.8903944237681471],[101.42273888559117,-0.8757368647853644],[101.40581792185968,-0.8879599266165403],[101.42160480631678,-0.9071358045595623],[101.42065401696937,-0.9249374779482148],[101.39621202116791,-0.9403787772076017],[101.40319029799393,-0.9693621712435996],[101.39734407067236,-0.9748459465934534],[101.37598286082044,-0.9731832206412857],[101.35303764267314,-0.9550917892869836],[101.33656383535275,-0.9648615041764887],[101.31814571984914,-0.9630699692271365],[101.3190486805522,-0.9512471497727767],[101.34913073859273,-0.9165478896487227],[101.3410216218504,-0.8981839942917077]]]}},{"type":"Feature","properties":{"code":"1303062004","desa":"Aie Amo","kecamatan":"Kamang Baru","kecCode":"130306"},"geometry":{"type":"Polygon","coordinates":[[[101.24459339826677,-0.7535491971949979],[101.2194608688241,-0.7403742578377435],[101.21469389630634,-0.7531118559851666],[101.19759309334665,-0.7567720508432109],[101.1815871349384,-0.735695784010484],[101.1587194005799,-0.735666671157222],[101.15997682636946,-0.7201532534645052],[101.1785999090586,-0.7066240648583813],[101.21874087159404,-0.700645761309222],[101.22871977779556,-0.6804924749866138],[101.24476502578541,-0.6886650721651386],[101.25879291186344,-0.685569349379205],[101.30981013223186,-0.698687626051683],[101.34783572383962,-0.6835047379888105],[101.37499997556846,-0.7044444265811759],[101.39833235995052,-0.7063965471728935],[101.40555553206224,-0.7174999755409806],[101.39420846834622,-0.7407342591503425],[101.40804327537693,-0.7449435081033581],[101.37012613481335,-0.7633592259938161],[101.3378402170524,-0.7586921735565145],[101.31637300860751,-0.7331963207336302],[101.27484075259873,-0.707587726201252],[101.26266026555885,-0.7062125737614798],[101.24676749402471,-0.7301927739607548],[101.24459339826677,-0.7535491971949979]]]}},{"type":"Feature","properties":{"code":"1303062005","desa":"Sungai Batuang","kecamatan":"Kamang Baru","kecCode":"130306"},"geometry":{"type":"Polygon","coordinates":[[[101.15997682636946,-0.7201532534645052],[101.15037592590829,-0.6801646478195627],[101.17065200208827,-0.670943031944958],[101.17937871475596,-0.6571791553586921],[101.18968540585682,-0.6549867709900832],[101.21494947373928,-0.6661566808410934],[101.22871977779556,-0.6804924749866138],[101.21874087159404,-0.700645761309222],[101.1785999090586,-0.7066240648583813],[101.15997682636946,-0.7201532534645052]]]}},{"type":"Feature","properties":{"code":"1303062006","desa":"Kunangan Parik Rantang","kecamatan":"Kamang Baru","kecCode":"130306"},"geometry":{"type":"Polygon","coordinates":[[[101.36116266572452,-0.8903944237681471],[101.34070353524004,-0.8655808101384544],[101.3431685769683,-0.8484522721060092],[101.33261841780579,-0.8387576038424592],[101.3326086322826,-0.8220732643504861],[101.3209074173435,-0.8040548615435206],[101.32548995869467,-0.7951141462117615],[101.36738027168225,-0.8141575126486935],[101.38707439386825,-0.8354474278223878],[101.3952121558164,-0.83350588505657],[101.39900537479826,-0.8045027509016227],[101.40477575239913,-0.803317050543186],[101.45408772776648,-0.8577054703721804],[101.42570171466247,-0.9003635354422156],[101.41911811970549,-0.8952408199070799],[101.4144091984258,-0.8993510939723629],[101.40568574759924,-0.8896781830070793],[101.42273888559117,-0.8757368647853644],[101.36116266572452,-0.8903944237681471]]]}},{"type":"Feature","properties":{"code":"1303062007","desa":"Tanjung Kaliang","kecamatan":"Kamang Baru","kecCode":"130306"},"geometry":{"type":"Polygon","coordinates":[[[101.34783572383962,-0.6835047379888105],[101.30981013223186,-0.698687626051683],[101.25879291186344,-0.685569349379205],[101.24476502578541,-0.6886650721651386],[101.22871977779556,-0.6804924749866138],[101.25489074271366,-0.625184241160529],[101.27694446381598,-0.6219444802578965],[101.29332429378121,-0.6310053809877088],[101.3072139864364,-0.6287673200524391],[101.32258740578419,-0.6495036701317918],[101.33941961812091,-0.6515235366531706],[101.34547921499382,-0.6601079639729913],[101.36020739955187,-0.659518836087773],[101.34783572383962,-0.6835047379888105]]]}},{"type":"Feature","properties":{"code":"1303062008","desa":"Padang Tarok","kecamatan":"Kamang Baru","kecCode":"130306"},"geometry":{"type":"Polygon","coordinates":[[[101.17957806297727,-0.6571653282822614],[101.17251176140871,-0.6313169556068579],[101.13836009124525,-0.6038230106479667],[101.12603096875425,-0.5749728637634708],[101.12356514371646,-0.5434103094303663],[101.13463727928705,-0.52180949233048],[101.15219892364149,-0.5348856573488064],[101.1813373527367,-0.5425536656122509],[101.19861109622519,-0.5813888907343495],[101.20885464322726,-0.5878167303003371],[101.22307786205373,-0.5868067970396468],[101.25489074271366,-0.625184241160529],[101.22871977779556,-0.6804924749866138],[101.21494947373928,-0.6661566808410934],[101.18968540585682,-0.6549867709900832],[101.17957806297727,-0.6571653282822614]]]}},{"type":"Feature","properties":{"code":"1303062009","desa":"Siaur","kecamatan":"Kamang Baru","kecCode":"130306"},"geometry":{"type":"Polygon","coordinates":[[[101.2324978485969,-0.8802998917423728],[101.26061185455353,-0.8039440416851908],[101.3018272218489,-0.8238033495238332],[101.27773024195716,-0.8633950195991189],[101.27257706098264,-0.8881036445746094],[101.2611447568251,-0.8866123455920226],[101.25119966872977,-0.8733390123091667],[101.24228049664764,-0.8720174405774579],[101.2324978485969,-0.8802998917423728]]]}},{"type":"Feature","properties":{"code":"1303062010","desa":"Lubuk Tarantang","kecamatan":"Kamang Baru","kecCode":"130306"},"geometry":{"type":"Polygon","coordinates":[[[101.23257676320712,-0.9324698522594483],[101.20963526195783,-0.90993888075747],[101.23000625978113,-0.9012427360558463],[101.2324978485969,-0.8802998917423728],[101.24228049664764,-0.8720174405774579],[101.2678891946307,-0.8894924109515153],[101.33293930940168,-0.8922576077048887],[101.34748915929731,-0.9055463940384582],[101.34913073859273,-0.9165478896487227],[101.3190486805522,-0.9512471497727767],[101.31814571984914,-0.9630699692271365],[101.31091678128449,-0.9509658948970614],[101.30076361075209,-0.9580219432871167],[101.2939381620166,-0.9529662191504055],[101.2873767551332,-0.9619530661058209],[101.28367586414987,-0.9559543848184181],[101.27958050263815,-0.9589590683343436],[101.25801003223727,-0.9334392198005883],[101.23257676320712,-0.9324698522594483]]]}},{"type":"Feature","properties":{"code":"1303062011","desa":"Maloro","kecamatan":"Kamang Baru","kecCode":"130306"},"geometry":{"type":"Polygon","coordinates":[[[101.27120526660985,-0.7889234236948643],[101.25990952270637,-0.7659537979728293],[101.24459339826677,-0.7535491971949979],[101.24676749402471,-0.7301927739607548],[101.26266026555885,-0.7062125737614798],[101.27484075259873,-0.707587726201252],[101.31637300860751,-0.7331963207336302],[101.3378402170524,-0.7586921735565145],[101.28012398003774,-0.788428730919549],[101.27120526660985,-0.7889234236948643]]]}},{"type":"Feature","properties":{"code":"1303072001","desa":"Lubuak Tarok","kecamatan":"Lubuak Tarok","kecCode":"130307"},"geometry":{"type":"Polygon","coordinates":[[[101.035457614977,-0.8839123164120518],[101.00052530539857,-0.8780631968773197],[100.99333340091579,-0.8706296454683593],[100.99481818521114,-0.8543998170426033],[100.9537430456051,-0.8315050994510068],[100.95573981124335,-0.8173883621691813],[100.96681145578411,-0.8106843390045468],[100.96209998402706,-0.8043337664907034],[100.93085192167888,-0.8143458477720448],[100.92640018761864,-0.8018932546733073],[100.93700454082693,-0.7983442519929539],[100.94802388439479,-0.7840774709217576],[100.96356522875239,-0.7802307350878509],[100.98730833800941,-0.8010461769437689],[101.03364773295657,-0.8090859982155396],[101.03717317340327,-0.8147041169903744],[101.02712046703594,-0.8247349167607939],[101.03184086276563,-0.8475460801398191],[101.0233286545938,-0.8562577867101053],[101.035457614977,-0.8839123164120518]]]}},{"type":"Feature","properties":{"code":"1303072002","desa":"Lalan","kecamatan":"Lubuak Tarok","kecCode":"130307"},"geometry":{"type":"Polygon","coordinates":[[[101.0133013963424,-0.7496059551124729],[101.03183233989063,-0.7666505018618378],[101.02958866898193,-0.7769713905483845],[101.03672323808699,-0.7868915521234543],[101.0222920078699,-0.7985042845521816],[100.99263229304596,-0.8031402986877101],[100.95894780359833,-0.7802866009733057],[100.92848722630451,-0.8024484196615487],[100.93033450843086,-0.7818467106828539],[100.92055868983175,-0.7449229639905476],[100.90832315708809,-0.7300692295948047],[100.92339687466608,-0.7279693827666995],[100.93492268943059,-0.740093744003382],[101.0133013963424,-0.7496059551124729]]]}},{"type":"Feature","properties":{"code":"1303072003","desa":"Buluah Kasok","kecamatan":"Lubuak Tarok","kecCode":"130307"},"geometry":{"type":"Polygon","coordinates":[[[101.06009141278855,-0.9301879898440045],[101.04831757309756,-0.8903742106058613],[101.04313986581225,-0.8825505431862823],[101.03483932837236,-0.883621670815515],[101.0233286545938,-0.8562577867101053],[101.03462791394712,-0.8464775083838114],[101.04279136682817,-0.8492927542076016],[101.05631605074518,-0.8395607038246922],[101.08568045608826,-0.8357555841183857],[101.10070248962825,-0.8721671219400083],[101.09469312438824,-0.9020787827011826],[101.07378899676485,-0.9255024428488202],[101.06009141278855,-0.9301879898440045]]]}},{"type":"Feature","properties":{"code":"1303072004","desa":"Kampung Dalam","kecamatan":"Lubuak Tarok","kecCode":"130307"},"geometry":{"type":"Polygon","coordinates":[[[101.03184086276563,-0.8475460801398191],[101.02731393728844,-0.8219597950894008],[101.03718859857503,-0.8146027139332224],[101.05715572885384,-0.8281581060857588],[101.05631605074518,-0.8395607038246922],[101.04279136682817,-0.8492927542076016],[101.03184086276563,-0.8475460801398191]]]}},{"type":"Feature","properties":{"code":"1303072005","desa":"Silongo","kecamatan":"Lubuak Tarok","kecCode":"130307"},"geometry":{"type":"Polygon","coordinates":[[[101.06733341040864,-0.8125516409368697],[101.0690772866875,-0.8258834283541],[101.08704979261393,-0.8351603336486376],[101.05631605074518,-0.8395607038246922],[101.05715572885384,-0.8281581060857588],[101.03718859857503,-0.8146027139332224],[101.03968958890344,-0.8038774289013276],[101.05412409355216,-0.8104410957736821],[101.05521645237741,-0.8164837485132126],[101.06100006979743,-0.8097289936926945],[101.06733341040864,-0.8125516409368697]]]}},{"type":"Feature","properties":{"code":"1303072006","desa":"Latang","kecamatan":"Lubuak Tarok","kecCode":"130307"},"geometry":{"type":"Polygon","coordinates":[[[101.03672323808699,-0.7868915521234543],[101.06100006979743,-0.8097289936926945],[101.05913281192977,-0.8165755926763529],[101.0446535687073,-0.8049998196857469],[101.0390718149124,-0.804093042260918],[101.03718859857503,-0.8146027139332224],[101.01143774565547,-0.8020851340248607],[101.03672323808699,-0.7868915521234543]]]}},{"type":"Feature","properties":{"code":"1303082001","desa":"Limo Koto","kecamatan":"Koto Vii","kecCode":"130308"},"geometry":{"type":"Polygon","coordinates":[[[100.87898203789081,-0.6461206858982476],[100.87020846874589,-0.6815654030586125],[100.84751876058237,-0.6758517636920041],[100.83542048326876,-0.6573892900484058],[100.8192264343525,-0.6662739623282958],[100.79658421578898,-0.6607196945192705],[100.79719324477246,-0.6435933238529759],[100.80953397841046,-0.6230705753498403],[100.79962944344413,-0.5958368789023442],[100.83277618327428,-0.5978615954674938],[100.83812966844948,-0.6164430808939441],[100.82156141972382,-0.6233699398735311],[100.82988417761277,-0.6326058351835528],[100.84342257439236,-0.6352232148689593],[100.86174390575671,-0.6233746217441485],[100.88158976875286,-0.6238637728970107],[100.8831987008594,-0.6340969084363368],[100.89593171427724,-0.6374432605850355],[100.89315429843218,-0.6437662167174887],[100.87898203789081,-0.6461206858982476]]]}},{"type":"Feature","properties":{"code":"1303082002","desa":"Palaluar","kecamatan":"Koto Vii","kecCode":"130308"},"geometry":{"type":"Polygon","coordinates":[[[100.83812966844948,-0.6164430808939441],[100.83259566325931,-0.597821876010029],[100.84033284738308,-0.5863962619219742],[100.85237488559257,-0.5949111743457652],[100.86313331874771,-0.6190777158713924],[100.84763217588424,-0.632105663738354],[100.84435534042666,-0.6180340427455373],[100.83812966844948,-0.6164430808939441]]]}},{"type":"Feature","properties":{"code":"1303082003","desa":"Guguak","kecamatan":"Koto Vii","kecCode":"130308"},"geometry":{"type":"Polygon","coordinates":[[[100.83259566325931,-0.597821876010029],[100.81092462796924,-0.5981473559466729],[100.80385254825654,-0.592539066761671],[100.83458040226382,-0.5703646719539928],[100.88530666407131,-0.558863180266361],[100.87665405643963,-0.5706056857654919],[100.88090182695781,-0.5906521748972684],[100.8727783930085,-0.5836339744754562],[100.86377765871202,-0.5963377050539657],[100.84918691934091,-0.5951180723754458],[100.84033284738308,-0.5863962619219742],[100.83259566325931,-0.597821876010029]]]}},{"type":"Feature","properties":{"code":"1303082004","desa":"Padang Laweh","kecamatan":"Koto Vii","kecCode":"130308"},"geometry":{"type":"Polygon","coordinates":[[[100.9612326535642,-0.630415519255685],[100.93616038859112,-0.642570106706336],[100.93484687838075,-0.623088836083964],[100.92869748240291,-0.6232040293453882],[100.92080833263849,-0.6088694429893245],[100.9011703506312,-0.635966113334138],[100.9070413848521,-0.6601008449397293],[100.87428431496919,-0.6564519401706491],[100.87963384132875,-0.645533168698741],[100.89315429843218,-0.6437662167174887],[100.89593171427724,-0.6374432605850355],[100.88196224456196,-0.6310918292186409],[100.88368965065688,-0.6035352662644422],[100.89076920643379,-0.593417550615715],[100.90378410335376,-0.5988851417659741],[100.90970168558435,-0.590272264393203],[100.91880183093978,-0.5926441021806192],[100.94097639934141,-0.6087131210328453],[100.96320666455595,-0.614347226156395],[100.9612326535642,-0.630415519255685]]]}},{"type":"Feature","properties":{"code":"1303082005","desa":"Tanjung","kecamatan":"Koto Vii","kecCode":"130308"},"geometry":{"type":"Polygon","coordinates":[[[100.88158976875286,-0.6238637728970107],[100.86189743981504,-0.6235207939520898],[100.85237488559257,-0.5949111743457652],[100.86377765871202,-0.5963377050539657],[100.87245010358946,-0.5836812994994942],[100.88090182695781,-0.5906521748972684],[100.87665405643963,-0.5706056857654919],[100.88530666407131,-0.558863180266361],[100.89798125932771,-0.5627936420833428],[100.90970168558435,-0.590272264393203],[100.90378410335376,-0.5988851417659741],[100.88731059280968,-0.5947453474545391],[100.88158976875286,-0.6238637728970107]]]}},{"type":"Feature","properties":{"code":"1303082006","desa":"Bukit Bual","kecamatan":"Koto Vii","kecCode":"130308"},"geometry":{"type":"Polygon","coordinates":[[[100.84593111902598,-0.6318278190918529],[100.82988417761277,-0.6326058351835528],[100.82156141972382,-0.6233699398735311],[100.83998151733321,-0.615738744458768],[100.84593111902598,-0.6318278190918529]]]}},{"type":"Feature","properties":{"code":"1303082007","desa":"Padang Laweh Selatan","kecamatan":"Koto Vii","kecCode":"130308"},"geometry":{"type":"Polygon","coordinates":[[[100.93616038859112,-0.642570106706336],[100.9277249996091,-0.6569722213560848],[100.9174874088169,-0.6600830212761009],[100.9200832947083,-0.6660993409668513],[100.91298933538957,-0.674099414902128],[100.91721726236682,-0.6763142922143982],[100.90974972467012,-0.6772744956639498],[100.92091894205561,-0.6776443166739582],[100.91782728959782,-0.682801264902792],[100.89938014128056,-0.681983767673949],[100.90295804727612,-0.6774761893169532],[100.89772222130351,-0.6710277768599302],[100.9087289114102,-0.6556610430893146],[100.90123031742525,-0.6357462281947893],[100.92080833263849,-0.6088694429893245],[100.92869748240291,-0.6232040293453882],[100.93484687838075,-0.623088836083964],[100.93616038859112,-0.642570106706336]]]}},{"type":"Feature","properties":{"code":"1303092001","desa":"Silantai","kecamatan":"Sumpur Kudus","kecCode":"130309"},"geometry":{"type":"Polygon","coordinates":[[[100.98183881690794,-0.39032989087503805],[100.97494131988606,-0.42840183619645533],[100.9377346239538,-0.4185659231105262],[100.85026098955306,-0.42536538952521463],[100.8290897785705,-0.3996029569638125],[100.89570793777119,-0.4028852432086171],[100.94594257259172,-0.38857151213082414],[100.98183881690794,-0.39032989087503805]]]}},{"type":"Feature","properties":{"code":"1303092002","desa":"Sisawah","kecamatan":"Sumpur Kudus","kecCode":"130309"},"geometry":{"type":"Polygon","coordinates":[[[100.99330748785034,-0.5841002522714286],[100.96498325097632,-0.593577190171221],[100.95992903859434,-0.6040858042407986],[100.96320666455595,-0.614347226156395],[100.94097639934141,-0.6087131210328453],[100.90935955020313,-0.5899799253732829],[100.8963499700751,-0.561455914031114],[100.87729301486081,-0.5576378377921675],[100.88222761741065,-0.5400353975114663],[100.90451469279888,-0.5347428252230092],[100.92885635843423,-0.5078650093945098],[100.94879383266931,-0.5047469213686494],[100.97074593307842,-0.5182127815149178],[100.9842934184066,-0.5180013248217923],[100.97221390185011,-0.5447663539746161],[100.98377701599655,-0.555540481186801],[100.98293124228309,-0.5775847449938993],[100.99330748785034,-0.5841002522714286]]]}},{"type":"Feature","properties":{"code":"1303092003","desa":"Unggan","kecamatan":"Sumpur Kudus","kecCode":"130309"},"geometry":{"type":"Polygon","coordinates":[[[101.00427743705416,-0.3251917046695271],[100.98129786030806,-0.3547828335639491],[100.98183881690794,-0.39032989087503805],[100.94594257259172,-0.38857151213082414],[100.89570793777119,-0.4028852432086171],[100.83376136809272,-0.397113015708794],[100.83303915133581,-0.3693922770186248],[100.82457416926256,-0.35265401237813065],[100.84418703320505,-0.3494269777818073],[100.86083333319182,-0.3322222213067243],[100.87249999977524,-0.34499999936443904],[100.8897620475805,-0.34155970673288577],[100.89080938634419,-0.3314603786227023],[100.90130769869143,-0.32520752374428386],[100.94540878718584,-0.3173199352117095],[100.94850092707615,-0.3121220372529775],[100.96843913156073,-0.3179627454285229],[100.99411552870873,-0.31618531994277466],[101.00427743705416,-0.3251917046695271]]]}},{"type":"Feature","properties":{"code":"1303092004","desa":"Tanjung Bonai Aur","kecamatan":"Sumpur Kudus","kecCode":"130309"},"geometry":{"type":"Polygon","coordinates":[[[100.83455620690347,-0.5454769344028169],[100.82607328695268,-0.5380802956671613],[100.81393126391674,-0.5404105290181264],[100.81405555561945,-0.5274444437160443],[100.82161091121463,-0.515697378654191],[100.81858581578285,-0.5054912776348504],[100.83560254921832,-0.4917928968744667],[100.84184998388969,-0.4962853252523602],[100.83583987221238,-0.511469252032176],[100.84592407103912,-0.5381924708038566],[100.83455620690347,-0.5454769344028169]]]}},{"type":"Feature","properties":{"code":"1303092005","desa":"Sumpur Kudus","kecamatan":"Sumpur Kudus","kecCode":"130309"},"geometry":{"type":"Polygon","coordinates":[[[100.84421184370166,-0.42069407250277724],[100.85026098955306,-0.42536538952521463],[100.87588389502582,-0.4195966891664072],[100.9212410684206,-0.4218034734796132],[100.94031026160935,-0.45026491628908044],[100.88090368585648,-0.4718002087847635],[100.87055162665631,-0.46439165133408955],[100.86893234784965,-0.4519547244253414],[100.85842806939996,-0.4523402386050419],[100.84505269362698,-0.4706684038971548],[100.8484237429614,-0.4876029338827944],[100.83237616033158,-0.494901985384644],[100.82119837510497,-0.491777897082129],[100.81642968488211,-0.4872469525396912],[100.83948085395832,-0.4814200336690298],[100.83519828417353,-0.46783449714094455],[100.84930263510859,-0.4269107413599474],[100.84421184370166,-0.42069407250277724]]]}},{"type":"Feature","properties":{"code":"1303092006","desa":"Tamparungo","kecamatan":"Sumpur Kudus","kecCode":"130309"},"geometry":{"type":"Polygon","coordinates":[[[100.92885635843423,-0.5078650093945098],[100.90451469279888,-0.5347428252230092],[100.88829185928194,-0.5414637133739336],[100.87858211926941,-0.5365748980128875],[100.86922626787803,-0.5101494294818562],[100.88009939876831,-0.4982528197543635],[100.88335485374358,-0.47957790645871295],[100.92885635843423,-0.5078650093945098]]]}},{"type":"Feature","properties":{"code":"1303092007","desa":"Kumanis","kecamatan":"Sumpur Kudus","kecCode":"130309"},"geometry":{"type":"Polygon","coordinates":[[[100.84792666158619,-0.5665330069589639],[100.81326496520603,-0.5829483124625512],[100.80350121640805,-0.5657390171090713],[100.81393126391674,-0.5404105290181264],[100.82607328695268,-0.5380802956671613],[100.82901670505697,-0.545855173966502],[100.84318529456573,-0.5515240513768811],[100.83871148304854,-0.5623292519643264],[100.84792666158619,-0.5665330069589639]]]}},{"type":"Feature","properties":{"code":"1303092008","desa":"Manganti","kecamatan":"Sumpur Kudus","kecCode":"130309"},"geometry":{"type":"Polygon","coordinates":[[[100.97494131988606,-0.42840183619645533],[100.99186583144302,-0.47443923245377195],[100.99173697568096,-0.5055618780126712],[100.98566785858485,-0.5196798905331432],[100.96172663767425,-0.5139458572405442],[100.9356343076772,-0.4945322992729486],[100.93509546088688,-0.48224112189071694],[100.94608823758216,-0.47552235074390076],[100.9480004516596,-0.46613238088315306],[100.9212410684206,-0.4218034734796132],[100.94479689566026,-0.41935174711626555],[100.97494131988606,-0.42840183619645533]]]}},{"type":"Feature","properties":{"code":"1303092009","desa":"Sumpur Kudus Selatan","kecamatan":"Sumpur Kudus","kecCode":"130309"},"geometry":{"type":"Polygon","coordinates":[[[100.94452426438335,-0.5048169578715137],[100.92885635843423,-0.5078650093945098],[100.88335485374358,-0.47957790645871295],[100.8952705228164,-0.4744519065994112],[100.90658529997164,-0.45896198549371736],[100.94031026160935,-0.45026491628908044],[100.94754932564092,-0.47278591790687474],[100.93410892528674,-0.4884595786002106],[100.94452426438335,-0.5048169578715137]]]}},{"type":"Feature","properties":{"code":"1303092010","desa":"Tanjung Labuah","kecamatan":"Sumpur Kudus","kecCode":"130309"},"geometry":{"type":"Polygon","coordinates":[[[100.85853586843562,-0.506181081025787],[100.84505269362698,-0.4706684038971548],[100.85842806939996,-0.4523402386050419],[100.86893234784965,-0.4519547244253414],[100.87055162665631,-0.46439165133408955],[100.87984361808856,-0.4713100404986495],[100.89740848291524,-0.47111384889792957],[100.88402111198478,-0.4783953968948405],[100.88009939876831,-0.4982528197543635],[100.86922626787803,-0.5101494294818562],[100.85853586843562,-0.506181081025787]]]}},{"type":"Feature","properties":{"code":"1303092011","desa":"Tanjung Bonai Aur Selatan","kecamatan":"Sumpur Kudus","kecCode":"130309"},"geometry":{"type":"Polygon","coordinates":[[[100.87729301486081,-0.5576378377921675],[100.8562923414185,-0.5665303161873948],[100.83888274544238,-0.5627885663097036],[100.84318529456573,-0.5515240513768811],[100.83455620690347,-0.5454769344028169],[100.84592407103912,-0.5381924708038566],[100.83583987221238,-0.511469252032176],[100.84197921826637,-0.49890765210831206],[100.8369247100074,-0.4903526020423215],[100.8484237429614,-0.4876029338827944],[100.85853586843562,-0.506181081025787],[100.86922626787803,-0.5101494294818562],[100.88371591355859,-0.5419859721685918],[100.87729301486081,-0.5576378377921675]]]}},{"type":"Feature","properties":{"code":"1303102001","desa":"Batu Manjulur","kecamatan":"Kupitan","kecCode":"130310"},"geometry":{"type":"Polygon","coordinates":[[[100.85183346764045,-0.7850153334130869],[100.82728562343281,-0.7864972929361784],[100.81080426000862,-0.7951338314720052],[100.82181473266381,-0.7799403251137401],[100.8097158689922,-0.7710824040674041],[100.82253229722777,-0.7625745090535622],[100.81119729521906,-0.7404644202687414],[100.83476708443345,-0.7474373596105875],[100.84073609799258,-0.7404952921958211],[100.85045997984423,-0.7544648131568347],[100.85183346764045,-0.7850153334130869]]]}},{"type":"Feature","properties":{"code":"1303102002","desa":"Pamuatan","kecamatan":"Kupitan","kecCode":"130310"},"geometry":{"type":"Polygon","coordinates":[[[100.87020846874589,-0.6815654030586125],[100.86737405656754,-0.7037225821444174],[100.82770132695475,-0.6913103083508522],[100.79661782795046,-0.6964451908140076],[100.78905045021817,-0.6706685264811804],[100.79658421578898,-0.6607196945192705],[100.8192264343525,-0.6662739623282958],[100.83409723429997,-0.6571372415554699],[100.84751876058237,-0.6758517636920041],[100.87020846874589,-0.6815654030586125]]]}},{"type":"Feature","properties":{"code":"1303102003","desa":"Padang Sibusuk","kecamatan":"Kupitan","kecCode":"130310"},"geometry":{"type":"Polygon","coordinates":[[[100.86614145206642,-0.70385953809999],[100.84950128635535,-0.7232388256024628],[100.83645666144582,-0.7225124557772048],[100.83305556756044,-0.7085870771394542],[100.82377711542158,-0.710928714793259],[100.81869212374255,-0.7057750679756521],[100.80476655083572,-0.7228330416031963],[100.7998793920204,-0.7170323154870573],[100.80415154315926,-0.7073454065741424],[100.79364932415704,-0.6963548754983098],[100.82770132695475,-0.6913103083508522],[100.86614145206642,-0.70385953809999]]]}},{"type":"Feature","properties":{"code":"1303102004","desa":"Desa Kampung Baru","kecamatan":"Kupitan","kecCode":"130310"},"geometry":{"type":"Polygon","coordinates":[[[100.8118562392741,-0.7438964391374239],[100.82154878874563,-0.757285954036688],[100.82157838273622,-0.7662753847442908],[100.81177999834829,-0.7675876314056868],[100.80719895976426,-0.7573686179204189],[100.80693638740438,-0.7452839059939803],[100.8118562392741,-0.7438964391374239]]]}},{"type":"Feature","properties":{"code":"1303102004","desa":"Desa Kampung Baru","kecamatan":"Kupitan","kecCode":"130310"},"geometry":{"type":"Polygon","coordinates":[[[100.84950128635535,-0.7232388256024628],[100.83476708443345,-0.7474373596105875],[100.81119729521906,-0.7404644202687414],[100.80476655083572,-0.7228330416031963],[100.81708624843166,-0.7061452370233331],[100.83305556756044,-0.7085870771394542],[100.83645666144582,-0.7225124557772048],[100.84950128635535,-0.7232388256024628]]]}}]}