{"type":"FeatureCollection","features":[{"type":"Feature","properties":{"code":"1305012001","desa":"Lubuk Alung","kecamatan":"Lubuk Alung","kecCode":"130501"},"geometry":{"type":"Polygon","coordinates":[[[100.42657002108966,-0.6583929505378143],[100.42968902103154,-0.6774190445955774],[100.4410640095964,-0.6867749940026551],[100.44221602764758,-0.7124779831755503],[100.45804497789345,-0.7241520026029884],[100.42445164732571,-0.7432523995473751],[100.40949743795647,-0.7415977665943275],[100.36271529057824,-0.7168703691704708],[100.3257291147069,-0.7089646817817319],[100.31134722399526,-0.7184371032861934],[100.29884716196699,-0.7074261540026211],[100.29781601999339,-0.6970183188607834],[100.30684121764811,-0.6999346538783406],[100.30737876941475,-0.7059841153850389],[100.31281059093605,-0.7041239324859899],[100.3281328820269,-0.6710011479341409],[100.32449408383496,-0.6651150509749021],[100.29752727376473,-0.6668164873451887],[100.30379235763127,-0.6506779508989369],[100.31528466635432,-0.6598495572732073],[100.3307671276009,-0.6500562810454237],[100.32992340524099,-0.6568614923292934],[100.39988734732326,-0.6729004603353267],[100.42657002108966,-0.6583929505378143]]]}},{"type":"Feature","properties":{"code":"1305012002","desa":"Pungguang Kasiak Lubuk Alung","kecamatan":"Lubuk Alung","kecCode":"130501"},"geometry":{"type":"Polygon","coordinates":[[[100.25621223370769,-0.6794605254229802],[100.28598041666292,-0.6828384078025613],[100.28081299222588,-0.7037304754939715],[100.27356325144295,-0.7078511268363844],[100.26105002963521,-0.7031567458007707],[100.26767411926527,-0.6928702489878582],[100.25621223370769,-0.6794605254229802]]]}},{"type":"Feature","properties":{"code":"1305012003","desa":"Pasie Laweh Lubuk Alung","kecamatan":"Lubuk Alung","kecCode":"130501"},"geometry":{"type":"Polygon","coordinates":[[[100.36063229434494,-0.6656164311089655],[100.32992340524099,-0.6568614923292934],[100.3307671276009,-0.6500562810454237],[100.31528466635432,-0.6598495572732073],[100.29789385991376,-0.6464990954338141],[100.30984156193857,-0.640679940410302],[100.31551890377442,-0.6261696436137248],[100.33354597336802,-0.6282271764403804],[100.36063229434494,-0.6656164311089655]]]}},{"type":"Feature","properties":{"code":"1305012004","desa":"Aie Tajun Lubuk Alung","kecamatan":"Lubuk Alung","kecCode":"130501"},"geometry":{"type":"Polygon","coordinates":[[[100.2626148922635,-0.7039096222440541],[100.28864254841494,-0.7096259919523286],[100.28599993824662,-0.7264939028588093],[100.27406681872877,-0.7400267705914203],[100.25321903003423,-0.7160677889964351],[100.2626148922635,-0.7039096222440541]]]}},{"type":"Feature","properties":{"code":"1305012005","desa":"Sikabu Lubuk Alung","kecamatan":"Lubuk Alung","kecCode":"130501"},"geometry":{"type":"Polygon","coordinates":[[[100.3212377969868,-0.685461733805316],[100.31011312931751,-0.7064367324791484],[100.29425497988346,-0.6923505262814157],[100.31082975768722,-0.6844283839972618],[100.3212377969868,-0.685461733805316]]]}},{"type":"Feature","properties":{"code":"1305012006","desa":"Sungai Abang Lubuk Alung","kecamatan":"Lubuk Alung","kecCode":"130501"},"geometry":{"type":"Polygon","coordinates":[[[100.282173206928,-0.6810816712203815],[100.27493981402124,-0.6781311376833878],[100.28548314283285,-0.6537957106722283],[100.29429147257343,-0.6673439370266606],[100.282173206928,-0.6810816712203815]]]}},{"type":"Feature","properties":{"code":"1305012007","desa":"Singguliang Lubuk Alung","kecamatan":"Lubuk Alung","kecCode":"130501"},"geometry":{"type":"Polygon","coordinates":[[[100.30379235763127,-0.6506779508989369],[100.30301908726112,-0.6634443957002485],[100.294167717766,-0.6708821046750125],[100.28602573080292,-0.6521842631637125],[100.29767426435588,-0.6463004127109464],[100.30379235763127,-0.6506779508989369]]]}},{"type":"Feature","properties":{"code":"1305012008","desa":"Salibutan Lubuk Alung","kecamatan":"Lubuk Alung","kecCode":"130501"},"geometry":{"type":"Polygon","coordinates":[[[100.30828652170565,-0.6681962065423528],[100.32524302844308,-0.6655097139577312],[100.32667286506074,-0.678396300090422],[100.3212377969868,-0.685461733805316],[100.29440932243233,-0.6903185548853195],[100.30828652170565,-0.6681962065423528]]]}},{"type":"Feature","properties":{"code":"1305012009","desa":"Nagari Balah Hilia Lubuk Alung","kecamatan":"Lubuk Alung","kecCode":"130501"},"geometry":{"type":"Polygon","coordinates":[[[100.29352836544177,-0.686400091823052],[100.2988945499436,-0.7068577671816252],[100.27030672807308,-0.7092646839247604],[100.28081299222588,-0.7037304754939715],[100.28474000784512,-0.6743806158184791],[100.30658661058368,-0.6676223086758666],[100.29352836544177,-0.686400091823052]]]}},{"type":"Feature","properties":{"code":"1305022001","desa":"Katapiang","kecamatan":"Batang Anai","kecCode":"130502"},"geometry":{"type":"Polygon","coordinates":[[[100.10185893344311,-0.8739280169872928],[100.0988054599041,-0.8735879077789961],[100.10118670640145,-0.8721540377035651],[100.10185893344311,-0.8739280169872928]]]}},{"type":"Feature","properties":{"code":"1305022001","desa":"Katapiang","kecamatan":"Batang Anai","kecCode":"130502"},"geometry":{"type":"Polygon","coordinates":[[[100.25321903003423,-0.7160677889964351],[100.29377215995726,-0.76077575974271],[100.30745180066015,-0.7669807347154052],[100.31428836141879,-0.7864327342038985],[100.29106588498269,-0.816634304016795],[100.26904088283055,-0.7829778069047079],[100.22484724420502,-0.7373947238627523],[100.2337348276003,-0.738225933054754],[100.25321903003423,-0.7160677889964351]]]}},{"type":"Feature","properties":{"code":"1305022002","desa":"Kasang","kecamatan":"Batang Anai","kecCode":"130502"},"geometry":{"type":"Polygon","coordinates":[[[100.2978340118302,-0.8057189041031708],[100.3140749370088,-0.7881415000488963],[100.30837636307876,-0.7765236765580198],[100.31508649534554,-0.7688132769514192],[100.38176956581287,-0.7682902258540989],[100.36559747384439,-0.801374775729194],[100.2978340118302,-0.8057189041031708]]]}},{"type":"Feature","properties":{"code":"1305022003","desa":"Sungai Buluah","kecamatan":"Batang Anai","kecCode":"130502"},"geometry":{"type":"Polygon","coordinates":[[[100.39824986084243,-0.7356004990411812],[100.42044098576292,-0.7443803535380339],[100.38391290655545,-0.7573619287630571],[100.3079926754217,-0.7583400134327992],[100.31146725920671,-0.7501968195885992],[100.30305152400871,-0.7502137097559185],[100.31186736128973,-0.7451873457860093],[100.31006110803378,-0.7302475561631174],[100.3157988195599,-0.7263905302863851],[100.3198498588839,-0.7390875878953083],[100.31468027157733,-0.7427087485792743],[100.33161271785269,-0.7547410309298308],[100.37588943944615,-0.7470540029044269],[100.39824986084243,-0.7356004990411812]]]}},{"type":"Feature","properties":{"code":"1305022004","desa":"Buayan Lubuk Alung","kecamatan":"Batang Anai","kecCode":"130502"},"geometry":{"type":"Polygon","coordinates":[[[100.2988945499436,-0.7068577671816252],[100.31185817921163,-0.716476519174701],[100.28599993824662,-0.7264939028588093],[100.28865837738225,-0.7103032929682463],[100.2988945499436,-0.7068577671816252]]]}},{"type":"Feature","properties":{"code":"1305022005","desa":"Sungai Buluah Timur","kecamatan":"Batang Anai","kecCode":"130502"},"geometry":{"type":"Polygon","coordinates":[[[100.34633312057711,-0.7148263756372495],[100.37060802504038,-0.719365992342179],[100.39824986084243,-0.7356004990411812],[100.37588943944615,-0.7470540029044269],[100.3272759324384,-0.7528470119381154],[100.31468027157733,-0.7427087485792743],[100.3198498588839,-0.7390875878953083],[100.3165495574162,-0.7246911848398402],[100.34633312057711,-0.7148263756372495]]]}},{"type":"Feature","properties":{"code":"1305022006","desa":"Sungai Buluah Barat","kecamatan":"Batang Anai","kecCode":"130502"},"geometry":{"type":"Polygon","coordinates":[[[100.27406681872877,-0.7400267705914203],[100.28599993824662,-0.7264939028588093],[100.30284513859232,-0.721637980201565],[100.29984145601844,-0.7317965169772891],[100.31013080908963,-0.7328656301251208],[100.31186736128973,-0.7451873457860093],[100.30305152400871,-0.7502137097559185],[100.3121245287241,-0.753972992816181],[100.30218101444234,-0.7562971467501723],[100.30203493666305,-0.7657988690661646],[100.27406681872877,-0.7400267705914203]]]}},{"type":"Feature","properties":{"code":"1305022007","desa":"Sungai Buluah Utara","kecamatan":"Batang Anai","kecCode":"130502"},"geometry":{"type":"Polygon","coordinates":[[[100.30894399536913,-0.7178653799804606],[100.3257291147069,-0.7089646817817319],[100.34633312057711,-0.7148263756372495],[100.3165495574162,-0.7246911848398402],[100.31013080908963,-0.7328656301251208],[100.29984145601844,-0.7317965169772891],[100.30894399536913,-0.7178653799804606]]]}},{"type":"Feature","properties":{"code":"1305022008","desa":"Sungai Buluah Selatan","kecamatan":"Batang Anai","kecCode":"130502"},"geometry":{"type":"Polygon","coordinates":[[[100.30837636307876,-0.7765236765580198],[100.30218101444234,-0.7562971467501723],[100.38391290655545,-0.7573619287630571],[100.38176956581287,-0.7682902258540989],[100.32158673843732,-0.7679394228073658],[100.30837636307876,-0.7765236765580198]]]}},{"type":"Feature","properties":{"code":"1305032001","desa":"Kapalo Koto","kecamatan":"Nan Sabaris","kecCode":"130503"},"geometry":{"type":"Polygon","coordinates":[[[100.20763977535539,-0.6361300894205928],[100.21443828759698,-0.6398792029471249],[100.21299957557,-0.6476679496917158],[100.20441177398425,-0.6512474007185463],[100.20763977535539,-0.6361300894205928]]]}},{"type":"Feature","properties":{"code":"1305032002","desa":"Pauh Kambar","kecamatan":"Nan Sabaris","kecCode":"130503"},"geometry":{"type":"Polygon","coordinates":[[[100.2042804765628,-0.6695435888166993],[100.21706089234635,-0.6441306660769],[100.23060051759983,-0.651652689191392],[100.21714600058748,-0.672072548957256],[100.2042804765628,-0.6695435888166993]]]}},{"type":"Feature","properties":{"code":"1305032003","desa":"Padang Bintungan","kecamatan":"Nan Sabaris","kecCode":"130503"},"geometry":{"type":"Polygon","coordinates":[[[100.19330219693887,-0.6544964309335032],[100.21153675541701,-0.6517101378836297],[100.20430446238112,-0.6635074273837811],[100.20670952022823,-0.6721961463832545],[100.19304847660595,-0.6665363305417655],[100.19330219693887,-0.6544964309335032]]]}},{"type":"Feature","properties":{"code":"1305032004","desa":"Kurai Taji","kecamatan":"Nan Sabaris","kecCode":"130503"},"geometry":{"type":"Polygon","coordinates":[[[100.17380734383391,-0.6223393923529251],[100.20449465460467,-0.6293419904365485],[100.18775552389837,-0.640709702574046],[100.19330219693887,-0.6544964309335032],[100.17181157104721,-0.6446215843975532],[100.1771223006537,-0.6308421477412693],[100.17380734383391,-0.6223393923529251]]]}},{"type":"Feature","properties":{"code":"1305032005","desa":"Sunua","kecamatan":"Nan Sabaris","kecCode":"130503"},"geometry":{"type":"Polygon","coordinates":[[[100.19330219693887,-0.6544964309335032],[100.18777016126398,-0.6788289243561367],[100.17321489924824,-0.6613216881057132],[100.17592703060801,-0.6551885455821127],[100.16854113156802,-0.6443442047005432],[100.19330219693887,-0.6544964309335032]]]}},{"type":"Feature","properties":{"code":"1305032006","desa":"Padang Kandang Pulau Air Padang Bintungan","kecamatan":"Nan Sabaris","kecCode":"130503"},"geometry":{"type":"Polygon","coordinates":[[[100.21299957557,-0.6476679496917158],[100.21443828759698,-0.6398792029471249],[100.20763977535539,-0.6361300894205928],[100.2059498314196,-0.6250051114975808],[100.21754121665388,-0.6253961124411378],[100.21834566921733,-0.6451288982584555],[100.21299957557,-0.6476679496917158]]]}},{"type":"Feature","properties":{"code":"1305032007","desa":"Sunua Tengah","kecamatan":"Nan Sabaris","kecCode":"130503"},"geometry":{"type":"Polygon","coordinates":[[[100.17250737471561,-0.6524258381521618],[100.17300082462837,-0.6608622316674823],[100.18424335384775,-0.6776940806593049],[100.15882095582252,-0.6593423099621918],[100.16450793389407,-0.6500031634881416],[100.17250737471561,-0.6524258381521618]]]}},{"type":"Feature","properties":{"code":"1305032008","desa":"Sunua Barat","kecamatan":"Nan Sabaris","kecCode":"130503"},"geometry":{"type":"Polygon","coordinates":[[[100.15882095582252,-0.6593423099621918],[100.17902378761777,-0.6772316249820637],[100.16908127967736,-0.685912242888569],[100.1532184168965,-0.6662396990576926],[100.15882095582252,-0.6593423099621918]]]}},{"type":"Feature","properties":{"code":"1305032009","desa":"Kurai Taji Timur","kecamatan":"Nan Sabaris","kecCode":"130503"},"geometry":{"type":"Polygon","coordinates":[[[100.20449465460467,-0.6293419904365485],[100.20373934639376,-0.6510613130009334],[100.19330219693887,-0.6544964309335032],[100.18775552389837,-0.640709702574046],[100.20449465460467,-0.6293419904365485]]]}},{"type":"Feature","properties":{"code":"1305042002","desa":"Sicincin","kecamatan":"2 X 11 Enam Lingkuang","kecCode":"130504"},"geometry":{"type":"Polygon","coordinates":[[[100.301734935419,-0.568755543797132],[100.31899807859851,-0.5923769693590534],[100.24973154457517,-0.5790151949476099],[100.2736809529137,-0.5494876571149806],[100.301734935419,-0.568755543797132]]]}},{"type":"Feature","properties":{"code":"1305042003","desa":"Lubuk Pandan","kecamatan":"2 X 11 Enam Lingkuang","kecCode":"130504"},"geometry":{"type":"Polygon","coordinates":[[[100.2791519938695,-0.5856128049319013],[100.31899807859851,-0.5923769693590534],[100.32245578930332,-0.6051704981430297],[100.31167110403827,-0.6189383371422376],[100.28368846475092,-0.6099608071632299],[100.26544482042219,-0.6287519281556692],[100.26062327074743,-0.6272214618993502],[100.2598968082911,-0.6214181583262718],[100.26795872141793,-0.6233905901063305],[100.2614202283609,-0.6195822184515603],[100.26607915722741,-0.6171017623461537],[100.26251630408422,-0.6100475036070229],[100.2730993046892,-0.6059231128835352],[100.2791519938695,-0.5856128049319013]]]}},{"type":"Feature","properties":{"code":"1305042004","desa":"Sungai Asam","kecamatan":"2 X 11 Enam Lingkuang","kecCode":"130504"},"geometry":{"type":"Polygon","coordinates":[[[100.25015044428761,-0.5802699704336813],[100.2789769408332,-0.5848775857777175],[100.2730993046892,-0.6059231128835352],[100.2460853728417,-0.6008731668910263],[100.25015044428761,-0.5802699704336813]]]}},{"type":"Feature","properties":{"code":"1305052001","desa":"Balah Aie","kecamatan":"Vii Koto Sungai Sarik","kecCode":"130505"},"geometry":{"type":"Polygon","coordinates":[[[100.21021269615902,-0.6256405166967027],[100.20870403666203,-0.6234899768835072],[100.21222662176126,-0.6233081879253196],[100.21021269615902,-0.6256405166967027]]]}},{"type":"Feature","properties":{"code":"1305052001","desa":"Balah Aie","kecamatan":"Vii Koto Sungai Sarik","kecCode":"130505"},"geometry":{"type":"Polygon","coordinates":[[[100.18580267665226,-0.5789699131832999],[100.19560094232969,-0.5914221366607343],[100.19505432269887,-0.6032209613035597],[100.20363423093504,-0.6140939339010231],[100.18227297521769,-0.6154943680821362],[100.17513257041183,-0.6078831529052241],[100.18942320691554,-0.6005120027549917],[100.18754926258843,-0.5852570843922805],[100.17867661603303,-0.5841080880644531],[100.18580267665226,-0.5789699131832999]]]}},{"type":"Feature","properties":{"code":"1305052002","desa":"Sungai Sariak","kecamatan":"Vii Koto Sungai Sarik","kecCode":"130505"},"geometry":{"type":"Polygon","coordinates":[[[100.24841801637842,-0.5782374684376147],[100.24493302563866,-0.6055035863441238],[100.24133552341573,-0.6127721553252699],[100.23267614298963,-0.6132845710401241],[100.22804736209615,-0.5857679334880593],[100.20916900144834,-0.5746674593928893],[100.22225426222451,-0.5654046078038997],[100.24841801637842,-0.5782374684376147]]]}},{"type":"Feature","properties":{"code":"1305052003","desa":"Lurah Ampalu","kecamatan":"Vii Koto Sungai Sarik","kecCode":"130505"},"geometry":{"type":"Polygon","coordinates":[[[100.17867661603303,-0.5841080880644531],[100.16921094303063,-0.600582649897547],[100.14180300470495,-0.5848292822913411],[100.15301164836893,-0.56951421367292],[100.16040632659076,-0.535241760999674],[100.17847332788182,-0.549260184395534],[100.19985702258356,-0.5555707002062026],[100.19121827530326,-0.5640266413854144],[100.16828788967445,-0.5659159964929359],[100.1666019045543,-0.5755779744001676],[100.17867661603303,-0.5841080880644531]]]}},{"type":"Feature","properties":{"code":"1305052004","desa":"Lareh Nan Panjang","kecamatan":"Vii Koto Sungai Sarik","kecCode":"130505"},"geometry":{"type":"Polygon","coordinates":[[[100.19013121258546,-0.5873054899993745],[100.18580267665226,-0.5789699131832999],[100.1775248264097,-0.5834429036144707],[100.17749959143305,-0.5755791534113008],[100.18594298258262,-0.5707813089717265],[100.18261104476397,-0.5637471761606236],[100.20195126933567,-0.5697311733176742],[100.19013121258546,-0.5873054899993745]]]}},{"type":"Feature","properties":{"code":"1305052005","desa":"Lareh Nan Panjang Selatan","kecamatan":"Vii Koto Sungai Sarik","kecCode":"130505"},"geometry":{"type":"Polygon","coordinates":[[[100.16921094303063,-0.600582649897547],[100.18754926258843,-0.5852570843922805],[100.18942320691554,-0.6005120027549917],[100.17716107672236,-0.606530808171814],[100.16921094303063,-0.600582649897547]]]}},{"type":"Feature","properties":{"code":"1305052006","desa":"Lareh Nan Panjang Barat","kecamatan":"Vii Koto Sungai Sarik","kecCode":"130505"},"geometry":{"type":"Polygon","coordinates":[[[100.1775248264097,-0.5834429036144707],[100.1665804889984,-0.5754774607724623],[100.17449213530385,-0.5625641647750282],[100.18588570835881,-0.5697187168080384],[100.1772429168272,-0.5759669149968514],[100.1775248264097,-0.5834429036144707]]]}},{"type":"Feature","properties":{"code":"1305052007","desa":"Bisati Sungai Sariak","kecamatan":"Vii Koto Sungai Sarik","kecCode":"130505"},"geometry":{"type":"Polygon","coordinates":[[[100.20078820581114,-0.5892469086587592],[100.19055089920471,-0.588881597748812],[100.19013121258546,-0.5873054899993745],[100.20551714420088,-0.5824384391310886],[100.2332895004102,-0.5954308637773207],[100.23133080307417,-0.607050500301317],[100.21296746257838,-0.6023982749865524],[100.20078820581114,-0.5892469086587592]]]}},{"type":"Feature","properties":{"code":"1305052008","desa":"Ambuang Kapua Sungai Sariak","kecamatan":"Vii Koto Sungai Sarik","kecCode":"130505"},"geometry":{"type":"Polygon","coordinates":[[[100.21809268992574,-0.5663997049488048],[100.20042440576178,-0.5745118398068868],[100.20146847009384,-0.5688010360027359],[100.19121827530326,-0.5640266413854144],[100.19898246876595,-0.5541653674178727],[100.21212789868366,-0.5508163586718563],[100.21809268992574,-0.5663997049488048]]]}},{"type":"Feature","properties":{"code":"1305052009","desa":"Lareh Nan Panjang Sungai Sariak","kecamatan":"Vii Koto Sungai Sarik","kecCode":"130505"},"geometry":{"type":"Polygon","coordinates":[[[100.21147783723244,-0.5688554809593146],[100.20916900144834,-0.5746674593928893],[100.22062850739972,-0.5783266380169827],[100.2332895004102,-0.5954308637773207],[100.20551714420088,-0.5824384391310886],[100.19460535055651,-0.5871064880172325],[100.19494864966049,-0.5747010202929742],[100.21147783723244,-0.5688554809593146]]]}},{"type":"Feature","properties":{"code":"1305052010","desa":"Limpato Sungai Sariak","kecamatan":"Vii Koto Sungai Sarik","kecCode":"130505"},"geometry":{"type":"Polygon","coordinates":[[[100.22725200707453,-0.6253071083369496],[100.21021269615902,-0.6256405166967027],[100.2084003778752,-0.6097078233753617],[100.21540183382761,-0.5997839116272712],[100.23697229883258,-0.6144350584439197],[100.22725200707453,-0.6253071083369496]]]}},{"type":"Feature","properties":{"code":"1305052011","desa":"Balah Aie Utara","kecamatan":"Vii Koto Sungai Sarik","kecCode":"130505"},"geometry":{"type":"Polygon","coordinates":[[[100.21125666965962,-0.6149617643860743],[100.19505432269887,-0.6032209613035597],[100.19715796107111,-0.5890969224260768],[100.21296746257838,-0.6023982749865524],[100.21125666965962,-0.6149617643860743]]]}},{"type":"Feature","properties":{"code":"1305052012","desa":"Balah Aie Timur","kecamatan":"Vii Koto Sungai Sarik","kecCode":"130505"},"geometry":{"type":"Polygon","coordinates":[[[100.20356780071347,-0.6284649868666728],[100.18387168113321,-0.6185430041644224],[100.17707897761278,-0.620191751054761],[100.18227297521769,-0.6154943680821362],[100.21125666965962,-0.6149617643860743],[100.21222662176126,-0.6233081879253196],[100.20356780071347,-0.6284649868666728]]]}},{"type":"Feature","properties":{"code":"1305062001","desa":"Campago","kecamatan":"V Koto Kampung Dalam","kecCode":"130506"},"geometry":{"type":"Polygon","coordinates":[[[100.13056056361916,-0.5098996355892216],[100.13762245671109,-0.525381325200253],[100.13339724478709,-0.552808468517581],[100.12208333277965,-0.5500277773447494],[100.11011424127928,-0.5602705023550195],[100.10764352932546,-0.5513989619756461],[100.12367526230354,-0.5327355510088952],[100.1246114115874,-0.5142099458570465],[100.13056056361916,-0.5098996355892216]]]}},{"type":"Feature","properties":{"code":"1305062002","desa":"Sikucua","kecamatan":"V Koto Kampung Dalam","kecCode":"130506"},"geometry":{"type":"Polygon","coordinates":[[[100.13254804465656,-0.5163543945619686],[100.11596282482458,-0.4977953831934846],[100.12493599040369,-0.48828053976882496],[100.14134107692922,-0.4893087580453234],[100.14264772980897,-0.48399542490747705],[100.14404654970855,-0.49320879220023484],[100.15888122658735,-0.5011625501508951],[100.13254804465656,-0.5163543945619686]]]}},{"type":"Feature","properties":{"code":"1305062003","desa":"Campago Barat","kecamatan":"V Koto Kampung Dalam","kecCode":"130506"},"geometry":{"type":"Polygon","coordinates":[[[100.12998043704759,-0.5098464424889363],[100.12456477634339,-0.5143123867319239],[100.12367526230354,-0.5327355510088952],[100.10429828963441,-0.5502336888181589],[100.10975757285375,-0.535048851025103],[100.10297011867607,-0.5240571445353056],[100.11953147229968,-0.5128367368521927],[100.11996994125985,-0.505022497025593],[100.12998043704759,-0.5098464424889363]]]}},{"type":"Feature","properties":{"code":"1305062004","desa":"Campago Selatan","kecamatan":"V Koto Kampung Dalam","kecCode":"130506"},"geometry":{"type":"Polygon","coordinates":[[[100.10764352932546,-0.5513989619756461],[100.11011424127928,-0.5602705023550195],[100.0933710861068,-0.565508035235072],[100.09226718538234,-0.5722370199823875],[100.09402874862792,-0.5560754402073371],[100.10764352932546,-0.5513989619756461]]]}},{"type":"Feature","properties":{"code":"1305062005","desa":"Sikucua Utara","kecamatan":"V Koto Kampung Dalam","kecCode":"130506"},"geometry":{"type":"Polygon","coordinates":[[[100.18011168760437,-0.41400759960782485],[100.16828915142327,-0.4648729837810497],[100.17242474590535,-0.47201077155179194],[100.16700775690254,-0.47698344419698385],[100.14583433178903,-0.4744155263246699],[100.1450611018884,-0.46511472154683026],[100.16335697704288,-0.452662003442224],[100.16845366260651,-0.4255252512132462],[100.17587572968125,-0.4113650344085615],[100.18011168760437,-0.41400759960782485]]]}},{"type":"Feature","properties":{"code":"1305062006","desa":"Sikucua Timur","kecamatan":"V Koto Kampung Dalam","kecCode":"130506"},"geometry":{"type":"Polygon","coordinates":[[[100.16999104644968,-0.47487201320159994],[100.17584249343638,-0.4234084170910151],[100.18011168760437,-0.41400759960782485],[100.18917623959184,-0.4159811384533536],[100.18380187125938,-0.4373002501171699],[100.20276388684395,-0.4686093943837812],[100.1882098344164,-0.49029927404372325],[100.18687165130575,-0.4828577600373956],[100.17688786178546,-0.48329016846583195],[100.16999104644968,-0.47487201320159994]]]}},{"type":"Feature","properties":{"code":"1305062007","desa":"Sikucua Tengah","kecamatan":"V Koto Kampung Dalam","kecCode":"130506"},"geometry":{"type":"Polygon","coordinates":[[[100.15888122658735,-0.5011625501508951],[100.14330527092157,-0.4912298502278483],[100.1562874217272,-0.47676176221217476],[100.16999104644968,-0.47487201320159994],[100.17646599520957,-0.4822062219001597],[100.15888122658735,-0.5011625501508951]]]}},{"type":"Feature","properties":{"code":"1305062008","desa":"Sikucua Barat","kecamatan":"V Koto Kampung Dalam","kecCode":"130506"},"geometry":{"type":"Polygon","coordinates":[[[100.14330527092157,-0.4912298502278483],[100.14264772980897,-0.48399542490747705],[100.14134107692922,-0.4893087580453234],[100.13131911208738,-0.48822526743593897],[100.14244383101804,-0.4697779824423598],[100.13987499403578,-0.44629204694111685],[100.17301487473672,-0.4088390609164965],[100.16358469257955,-0.4523025830917131],[100.14503416179718,-0.46520970344456924],[100.14583433178903,-0.4744155263246699],[100.1568512435901,-0.47706965320818534],[100.14330527092157,-0.4912298502278483]]]}},{"type":"Feature","properties":{"code":"1305072001","desa":"Kuranji Hulu","kecamatan":"Sungai Garingging","kecCode":"130507"},"geometry":{"type":"Polygon","coordinates":[[[100.10809615271533,-0.4129129268280973],[100.10278471624173,-0.42035383109407326],[100.11521027123706,-0.4249187106545642],[100.10103671477265,-0.45185756347023126],[100.09973103226139,-0.48197613305289166],[100.08622005041508,-0.47390097921659813],[100.06655621739559,-0.47683291387442983],[100.06525955238645,-0.46165788678554154],[100.08213525144076,-0.44315374665228985],[100.08855049420997,-0.4191915131088527],[100.09699475500399,-0.4117156701813649],[100.10809615271533,-0.4129129268280973]]]}},{"type":"Feature","properties":{"code":"1305072002","desa":"Malai Iii Koto","kecamatan":"Sungai Garingging","kecCode":"130507"},"geometry":{"type":"Polygon","coordinates":[[[100.10809615271533,-0.4129129268280973],[100.09402344442645,-0.4133384329598529],[100.08648498709255,-0.42602822944254504],[100.08337501724334,-0.41981105066971186],[100.07031687282544,-0.42502419843241196],[100.05385060901845,-0.40124202085364574],[100.13170035988378,-0.3996166482426435],[100.10809615271533,-0.4129129268280973]]]}},{"type":"Feature","properties":{"code":"1305072003","desa":"Batu Gadang Kuranji Hulu","kecamatan":"Sungai Garingging","kecCode":"130507"},"geometry":{"type":"Polygon","coordinates":[[[100.08337501724334,-0.41981105066971186],[100.08213525144076,-0.44315374665228985],[100.06525955238645,-0.46165788678554154],[100.06525990941735,-0.48035146101369697],[100.04688040630576,-0.48166102409811073],[100.04223823540627,-0.45901489260966094],[100.05336952208584,-0.44482040354111185],[100.05068159687823,-0.439636782319813],[100.07499684672716,-0.42278859984093825],[100.08337501724334,-0.41981105066971186]]]}},{"type":"Feature","properties":{"code":"1305072004","desa":"Sungai Sirah Kuranji Hulu","kecamatan":"Sungai Garingging","kecCode":"130507"},"geometry":{"type":"Polygon","coordinates":[[[100.13131911208738,-0.48822526743593897],[100.12493599040369,-0.48828053976882496],[100.13091392793545,-0.48228541889738813],[100.12452535456151,-0.47871686405650604],[100.09973103226139,-0.48197613305289166],[100.10103671477265,-0.45185756347023126],[100.11521027123706,-0.4249187106545642],[100.10278471624173,-0.42035383109407326],[100.12022925987253,-0.4036735781214784],[100.12950108400787,-0.4029093756164071],[100.12799820175566,-0.3937279792223105],[100.15520558676847,-0.38332005145034304],[100.17301487473672,-0.4088390609164965],[100.13987499403578,-0.44629204694111685],[100.14244383101804,-0.4697779824423598],[100.13131911208738,-0.48822526743593897]]]}},{"type":"Feature","properties":{"code":"1305082001","desa":"Kuranji Hilir","kecamatan":"Sungai Limau","kecCode":"130508"},"geometry":{"type":"Polygon","coordinates":[[[100.06655621739559,-0.47683291387442983],[100.08622005041508,-0.47390097921659813],[100.10437136674521,-0.48287000430703125],[100.11606575493072,-0.47871989836903744],[100.10801796026072,-0.4855740417653541],[100.1135741850007,-0.5015413302070904],[100.10434959865512,-0.4996856843878062],[100.097518197307,-0.5070822241979773],[100.09529503004165,-0.4909132582910163],[100.08584458166217,-0.5037636880801762],[100.07888453229536,-0.5239843021476084],[100.08659691041913,-0.5350650711975312],[100.07634448890711,-0.5442936766030189],[100.04334386462772,-0.5081296331076101],[100.06655621739559,-0.47683291387442983]]]}},{"type":"Feature","properties":{"code":"1305082002","desa":"Pilubang","kecamatan":"Sungai Limau","kecCode":"130508"},"geometry":{"type":"Polygon","coordinates":[[[100.13091392793545,-0.48228541889738813],[100.11589155804904,-0.49811849341647124],[100.11953147229968,-0.5128367368521927],[100.10287743544534,-0.5242582005689913],[100.10975757285375,-0.535048851025103],[100.10439299004452,-0.5500752705419414],[100.08935086385134,-0.5650892794146114],[100.07634448890711,-0.5442936766030189],[100.08659691041913,-0.5350650711975312],[100.07888453229536,-0.5239843021476084],[100.08584458166217,-0.5037636880801762],[100.09529503004165,-0.4909132582910163],[100.097518197307,-0.5070822241979773],[100.10434959865512,-0.4996856843878062],[100.1135741850007,-0.5015413302070904],[100.10896826757151,-0.48159140128334893],[100.12452535456151,-0.47871686405650604],[100.13091392793545,-0.48228541889738813]]]}},{"type":"Feature","properties":{"code":"1305082003","desa":"Guguak Kuranji Hilir","kecamatan":"Sungai Limau","kecCode":"130508"},"geometry":{"type":"Polygon","coordinates":[[[100.05068159687823,-0.439636782319813],[100.05336952208584,-0.44482040354111185],[100.04223823540627,-0.45901489260966094],[100.0450077057411,-0.47179412756905503],[100.0246581009906,-0.49032432286064137],[100.00155903761951,-0.4697469018724598],[100.02773601180759,-0.4465782984500801],[100.05068159687823,-0.439636782319813]]]}},{"type":"Feature","properties":{"code":"1305082004","desa":"Koto Tinggi Kuranji Hilir","kecamatan":"Sungai Limau","kecCode":"130508"},"geometry":{"type":"Polygon","coordinates":[[[100.0435628486466,-0.4732125176141924],[100.04688040630576,-0.48166102409811073],[100.06370077636979,-0.4816059649045551],[100.04334386462772,-0.5081296331076101],[100.0246581009906,-0.49032432286064137],[100.0435628486466,-0.4732125176141924]]]}},{"type":"Feature","properties":{"code":"1305092001","desa":"Iii Koto Aur Malintang","kecamatan":"Iv Koto Aur Malintang","kecCode":"130509"},"geometry":{"type":"Polygon","coordinates":[[[100.10696695406175,-0.3458749147084755],[100.10790174267136,-0.35207066803297704],[100.12628066841819,-0.35392801716826466],[100.15107658701493,-0.3480844824233922],[100.15755713225593,-0.36752124739644687],[100.0688634173129,-0.3768464408888828],[100.05274667501908,-0.3841544046722102],[100.0293390983208,-0.3832685005120503],[100.02733597987162,-0.37480873001951287],[100.00330516040485,-0.3751299291831329],[99.99407909197656,-0.38289661915521633],[99.98457628686621,-0.37174716168624955],[99.99571402887938,-0.35976016199930827],[100.04623403387363,-0.3638909415065779],[100.03611615004036,-0.35456216691375797],[100.06022108533489,-0.34483109049661126],[100.07208807500471,-0.34541171169463775],[100.07251577008678,-0.3501841745681929],[100.10696695406175,-0.3458749147084755]]]}},{"type":"Feature","properties":{"code":"1305092002","desa":"Iii Koto Aur Malintang Utara","kecamatan":"Iv Koto Aur Malintang","kecCode":"130509"},"geometry":{"type":"Polygon","coordinates":[[[100.10696695406175,-0.3458749147084755],[100.07251577008678,-0.3501841745681929],[100.07208807500471,-0.34541171169463775],[100.06022108533489,-0.34483109049661126],[100.06708779136851,-0.32541553603400764],[100.10243657878516,-0.3210222776967496],[100.10696695406175,-0.3458749147084755]]]}},{"type":"Feature","properties":{"code":"1305092003","desa":"Iii Koto Aur Malintang Timur","kecamatan":"Iv Koto Aur Malintang","kecCode":"130509"},"geometry":{"type":"Polygon","coordinates":[[[100.1398761523626,-0.3474467929463773],[100.1265088902731,-0.3539136307134962],[100.10790174267136,-0.35207066803297704],[100.10838044370257,-0.33760505405225777],[100.12862265591087,-0.3365319272300519],[100.1398761523626,-0.3474467929463773]]]}},{"type":"Feature","properties":{"code":"1305092004","desa":"Iii Koto Aur Malintang Selatan","kecamatan":"Iv Koto Aur Malintang","kecCode":"130509"},"geometry":{"type":"Polygon","coordinates":[[[100.15520558676847,-0.38332005145034304],[100.09702879074615,-0.4034002183939882],[100.08907560835269,-0.39745642452968005],[100.05915820358831,-0.40044567927662067],[100.07194939235062,-0.39427885984039296],[100.07491139404566,-0.3761851280203082],[100.15755713225593,-0.36752124739644687],[100.15520558676847,-0.38332005145034304]]]}},{"type":"Feature","properties":{"code":"1305092004","desa":"Iii Koto Aur Malintang Selatan","kecamatan":"Iv Koto Aur Malintang","kecCode":"130509"},"geometry":{"type":"Polygon","coordinates":[[[99.99878037441482,-0.37818940119671896],[100.02733597987162,-0.37480873001951287],[100.0293390983208,-0.3832685005120503],[100.00116910866751,-0.38158326273047694],[99.99878037441482,-0.37818940119671896]]]}},{"type":"Feature","properties":{"code":"1305092005","desa":"Balai Baiak Malai Iii Koto","kecamatan":"Iv Koto Aur Malintang","kecCode":"130509"},"geometry":{"type":"Polygon","coordinates":[[[100.07194939235062,-0.39427885984039296],[100.03513348871955,-0.40530486467430904],[100.03266858458754,-0.41307667358740474],[100.0104858890126,-0.42355952837564254],[99.97981409964102,-0.40549907057192525],[99.98676353430972,-0.39857667852494805],[99.99906131902468,-0.39939344370557145],[99.99377404373718,-0.3847527191321692],[99.99742467790662,-0.38004795542356273],[100.05274667501908,-0.3841544046722102],[100.0738133110355,-0.37835363718726445],[100.07194939235062,-0.39427885984039296]]]}},{"type":"Feature","properties":{"code":"1305102001","desa":"Tapakih","kecamatan":"Ulakan Tapakih","kecCode":"130510"},"geometry":{"type":"Polygon","coordinates":[[[100.25881931256129,-0.708015155982837],[100.23175198166865,-0.7390455086168045],[100.2007715539641,-0.7183234928315675],[100.21382375296388,-0.7049095559428961],[100.21883531229984,-0.6828439683107504],[100.23744218830643,-0.6891828838122074],[100.25881931256129,-0.708015155982837]]]}},{"type":"Feature","properties":{"code":"1305102002","desa":"Ulakan","kecamatan":"Ulakan Tapakih","kecCode":"130510"},"geometry":{"type":"Polygon","coordinates":[[[100.20700765627839,-0.6865068296586514],[100.20270079760377,-0.7101941998082208],[100.1989064967375,-0.7158393468078191],[100.1829881107128,-0.6998380792812077],[100.2025705712749,-0.6887786376536792],[100.20209952257494,-0.6838363315166607],[100.20700765627839,-0.6865068296586514]]]}},{"type":"Feature","properties":{"code":"1305102003","desa":"Padang Toboh Ulakan","kecamatan":"Ulakan Tapakih","kecCode":"130510"},"geometry":{"type":"Polygon","coordinates":[[[100.21284078497433,-0.6719414008234443],[100.22629550073685,-0.662355617077225],[100.22280102304882,-0.6839153522467357],[100.21537859444662,-0.6919964146289215],[100.20874331725037,-0.6871764945310259],[100.21284078497433,-0.6719414008234443]]]}},{"type":"Feature","properties":{"code":"1305102004","desa":"Sungai Gimba Ulakan","kecamatan":"Ulakan Tapakih","kecCode":"130510"},"geometry":{"type":"Polygon","coordinates":[[[100.21537859444662,-0.6919964146289215],[100.21212928004228,-0.6986704966646794],[100.20513040784209,-0.6949585755005928],[100.20700765627839,-0.6865068296586514],[100.21537859444662,-0.6919964146289215]]]}},{"type":"Feature","properties":{"code":"1305102005","desa":"Seulayat Ulakan","kecamatan":"Ulakan Tapakih","kecCode":"130510"},"geometry":{"type":"Polygon","coordinates":[[[100.20513040784209,-0.6949585755005928],[100.21382375296388,-0.7049095559428961],[100.20036409632603,-0.7179577025829548],[100.20513040784209,-0.6949585755005928]]]}},{"type":"Feature","properties":{"code":"1305102006","desa":"Manggopoh Palak Gadang Ulakan","kecamatan":"Ulakan Tapakih","kecCode":"130510"},"geometry":{"type":"Polygon","coordinates":[[[100.16908127967736,-0.685912242888569],[100.18808402106076,-0.6788138328328925],[100.18685347510785,-0.6999571495200191],[100.16908127967736,-0.685912242888569]]]}},{"type":"Feature","properties":{"code":"1305102007","desa":"Sandi Ulakan","kecamatan":"Ulakan Tapakih","kecCode":"130510"},"geometry":{"type":"Polygon","coordinates":[[[100.19403065768876,-0.6690039758045775],[100.20875149568502,-0.6777058536841932],[100.18953600798045,-0.696017987661584],[100.18808402106076,-0.6788138328328925],[100.19403065768876,-0.6690039758045775]]]}},{"type":"Feature","properties":{"code":"1305102008","desa":"Kampuang Gelapuang Ulakan","kecamatan":"Ulakan Tapakih","kecCode":"130510"},"geometry":{"type":"Polygon","coordinates":[[[100.2042804765628,-0.6695435888166993],[100.21284078497433,-0.6719414008234443],[100.20874331725037,-0.6871764945310259],[100.20209952257494,-0.6838363315166607],[100.20875149568502,-0.6777058536841932],[100.2042804765628,-0.6695435888166993]]]}},{"type":"Feature","properties":{"code":"1305112001","desa":"Sintuak","kecamatan":"Sintuak Toboh Gadang","kecCode":"130511"},"geometry":{"type":"Polygon","coordinates":[[[100.27493981402124,-0.6781311376833878],[100.24831659263668,-0.6765187261016691],[100.25345548877982,-0.6687193808467896],[100.24974154593565,-0.6480082036908597],[100.28602573080292,-0.6521842631637125],[100.27493981402124,-0.6781311376833878]]]}},{"type":"Feature","properties":{"code":"1305112002","desa":"Toboh Gadang","kecamatan":"Sintuak Toboh Gadang","kecCode":"130511"},"geometry":{"type":"Polygon","coordinates":[[[100.2258370002774,-0.6687046850252629],[100.22923246170882,-0.6529089485588373],[100.24616776243238,-0.6496693018701227],[100.23939477025249,-0.66941854168364],[100.2258370002774,-0.6687046850252629]]]}},{"type":"Feature","properties":{"code":"1305112003","desa":"Toboh Gadang Selatan","kecamatan":"Sintuak Toboh Gadang","kecCode":"130511"},"geometry":{"type":"Polygon","coordinates":[[[100.25644143042774,-0.6789978638009164],[100.26767411926527,-0.6928702489878582],[100.25881931256129,-0.708015155982837],[100.23738626036766,-0.6900496378087485],[100.24170660257771,-0.6735821293584269],[100.25644143042774,-0.6789978638009164]]]}},{"type":"Feature","properties":{"code":"1305112004","desa":"Toboh Gadang Barat","kecamatan":"Sintuak Toboh Gadang","kecCode":"130511"},"geometry":{"type":"Polygon","coordinates":[[[100.23744218830643,-0.6891828838122074],[100.2226238386193,-0.6857222781936773],[100.22816830922015,-0.6670377430513675],[100.24170660257771,-0.6735821293584269],[100.23744218830643,-0.6891828838122074]]]}},{"type":"Feature","properties":{"code":"1305112005","desa":"Toboh Gadang Timur","kecamatan":"Sintuak Toboh Gadang","kecCode":"130511"},"geometry":{"type":"Polygon","coordinates":[[[100.24974154593565,-0.6480082036908597],[100.25345548877982,-0.6687193808467896],[100.24869007478718,-0.6780820652766573],[100.23939477025249,-0.66941854168364],[100.24974154593565,-0.6480082036908597]]]}},{"type":"Feature","properties":{"code":"1305122001","desa":"Koto Baru","kecamatan":"Padang Sago","kecCode":"130512"},"geometry":{"type":"Polygon","coordinates":[[[100.23278531259217,-0.5668942520339446],[100.21456354337288,-0.5646065350319242],[100.21298985299939,-0.5516837287039315],[100.20824637796801,-0.5529820754438545],[100.21503402370128,-0.538046766243385],[100.24307439856472,-0.5446832062556551],[100.23463498691517,-0.5446248492481373],[100.23278531259217,-0.5668942520339446]]]}},{"type":"Feature","properties":{"code":"1305122002","desa":"Koto Dalam","kecamatan":"Padang Sago","kecCode":"130512"},"geometry":{"type":"Polygon","coordinates":[[[100.21968854588975,-0.5107606689982742],[100.2106245137104,-0.5442700532115611],[100.19968377538599,-0.5428219459688287],[100.21182712761993,-0.5059721064614847],[100.21968854588975,-0.5107606689982742]]]}},{"type":"Feature","properties":{"code":"1305122003","desa":"Batu Kalang","kecamatan":"Padang Sago","kecCode":"130512"},"geometry":{"type":"Polygon","coordinates":[[[100.24307439856472,-0.5446832062556551],[100.21476495643765,-0.5379004960093111],[100.21386554266068,-0.5245625428402558],[100.22979239040656,-0.5314219499684966],[100.23838555105239,-0.5275910889673563],[100.24031142763033,-0.5188961835315289],[100.24307439856472,-0.5446832062556551]]]}},{"type":"Feature","properties":{"code":"1305122004","desa":"Koto Dalam Barat","kecamatan":"Padang Sago","kecCode":"130512"},"geometry":{"type":"Polygon","coordinates":[[[100.18235009657974,-0.5470327732319812],[100.16682734390685,-0.5388493814909399],[100.17503147762066,-0.5181870510118832],[100.20957814801318,-0.5147940780083687],[100.20241673774234,-0.5347622496798583],[100.1910664445608,-0.5299540441509234],[100.18235009657974,-0.5470327732319812]]]}},{"type":"Feature","properties":{"code":"1305122005","desa":"Koto Dalam Selatan","kecamatan":"Padang Sago","kecCode":"130512"},"geometry":{"type":"Polygon","coordinates":[[[100.20824637796801,-0.5529820754438545],[100.18235009657974,-0.5470327732319812],[100.1910664445608,-0.5299540441509234],[100.20365022267968,-0.5361368373454304],[100.1998264492313,-0.54299423269027],[100.21301066241222,-0.5427738241454667],[100.20824637796801,-0.5529820754438545]]]}},{"type":"Feature","properties":{"code":"1305122006","desa":"Batu Kalang Utara","kecamatan":"Padang Sago","kecCode":"130512"},"geometry":{"type":"Polygon","coordinates":[[[100.21386554266068,-0.5245625428402558],[100.21968854588975,-0.5107606689982742],[100.22897038577474,-0.52205139557142],[100.23591847685628,-0.5138115273053409],[100.24587236481783,-0.5172724117137455],[100.22979239040656,-0.5314219499684966],[100.21386554266068,-0.5245625428402558]]]}},{"type":"Feature","properties":{"code":"1305132001","desa":"Malai V Suku","kecamatan":"Batang Gasan","kecCode":"130513"},"geometry":{"type":"Polygon","coordinates":[[[100.02494300261752,-0.4500191846341832],[100.00155903761951,-0.4697469018724598],[99.97741577232011,-0.4500212908463968],[99.99951019673823,-0.4405062091014257],[100.00224122825016,-0.4485157861727953],[100.02494300261752,-0.4500191846341832]]]}},{"type":"Feature","properties":{"code":"1305132002","desa":"Gasan Gadang","kecamatan":"Batang Gasan","kecCode":"130513"},"geometry":{"type":"Polygon","coordinates":[[[99.97989168505329,-0.4060238861391504],[100.00273955158912,-0.42112930660104386],[100.01805678129544,-0.4186384786145481],[100.004900181798,-0.43800280319677826],[99.97741577232011,-0.4500212908463968],[99.96214077837429,-0.43401605820894684],[99.96886449490057,-0.42023249995972545],[99.97922419024421,-0.41692129871251293],[99.97989168505329,-0.4060238861391504]]]}},{"type":"Feature","properties":{"code":"1305132003","desa":"Malai V Suku Timur","kecamatan":"Batang Gasan","kecCode":"130513"},"geometry":{"type":"Polygon","coordinates":[[[100.05385060901845,-0.40124202085364574],[100.06197295478808,-0.41919572643260955],[100.06930455905818,-0.4214596275881852],[100.06864013543397,-0.4299704543918587],[100.03315158257952,-0.44799046608593],[100.00063629542876,-0.44740905708175466],[99.99951019673823,-0.4405062091014257],[100.0190862802077,-0.41564375419085564],[100.05385060901845,-0.40124202085364574]]]}},{"type":"Feature","properties":{"code":"1305142001","desa":"Kudu Gantiang","kecamatan":"V Koto Timur","kecCode":"130514"},"geometry":{"type":"Polygon","coordinates":[[[100.16696815435688,-0.5369253728070335],[100.16040632659076,-0.535241760999674],[100.1587671044184,-0.5409218988214549],[100.14845210807839,-0.5358186428166902],[100.16279994236349,-0.504693254325605],[100.17924847064045,-0.4946680780159664],[100.18859367855549,-0.5048888370852955],[100.17114308068868,-0.5232631007261653],[100.16696815435688,-0.5369253728070335]]]}},{"type":"Feature","properties":{"code":"1305142002","desa":"Limau Puruik","kecamatan":"V Koto Timur","kecCode":"130514"},"geometry":{"type":"Polygon","coordinates":[[[100.1587671044184,-0.5409218988214549],[100.15251758601784,-0.5703273581830786],[100.1456374980721,-0.5751866937675101],[100.13208169041775,-0.5700183960944725],[100.1372556817044,-0.5279962920045981],[100.1587671044184,-0.5409218988214549]]]}},{"type":"Feature","properties":{"code":"1305142003","desa":"Gunung Padang Alai","kecamatan":"V Koto Timur","kecCode":"130514"},"geometry":{"type":"Polygon","coordinates":[[[100.1718758842647,-0.4879615781184222],[100.18687165130575,-0.4828577600373956],[100.18445635377776,-0.4905482018892183],[100.19090000163385,-0.48956533642343497],[100.20280189938818,-0.46846579333754845],[100.18380187125938,-0.4373002501171699],[100.18917623959184,-0.4159811384533536],[100.21400791523313,-0.4152819749185656],[100.22167579130478,-0.4480416114299768],[100.24409439164293,-0.4587301852365924],[100.23882743833565,-0.48329567861200073],[100.22385111373795,-0.4885860655478341],[100.2263748344311,-0.49774908519526556],[100.21857478140112,-0.5085694204734157],[100.21182712761993,-0.5059721064614847],[100.21026335676855,-0.5154146102194751],[100.19236845334149,-0.5184878778332711],[100.18034190775289,-0.5170927955176043],[100.18859367855549,-0.5048888370852955],[100.1718758842647,-0.4879615781184222]]]}},{"type":"Feature","properties":{"code":"1305142004","desa":"Kudu Gantiang Barat","kecamatan":"V Koto Timur","kecCode":"130514"},"geometry":{"type":"Polygon","coordinates":[[[100.14845210807839,-0.5358186428166902],[100.13167181000608,-0.5163761968263489],[100.14072915122937,-0.5152786561085999],[100.1718758842647,-0.4879615781184222],[100.17924847064045,-0.4946680780159664],[100.16279994236349,-0.504693254325605],[100.14845210807839,-0.5358186428166902]]]}},{"type":"Feature","properties":{"code":"1305152001","desa":"Kayu Tanam","kecamatan":"2 X 11 Kayu Tanam","kecCode":"130515"},"geometry":{"type":"Polygon","coordinates":[[[100.30998073382386,-0.5768357122530393],[100.301734935419,-0.568755543797132],[100.31033914603483,-0.560007861647043],[100.30581303084675,-0.5507952569794162],[100.31444652428775,-0.5326406833249925],[100.3411544699029,-0.5420458076615314],[100.33598207131558,-0.5600028101551054],[100.32724386441286,-0.5605651688204462],[100.31928430942338,-0.5759868080004887],[100.30998073382386,-0.5768357122530393]]]}},{"type":"Feature","properties":{"code":"1305152002","desa":"Guguak","kecamatan":"2 X 11 Kayu Tanam","kecCode":"130515"},"geometry":{"type":"Polygon","coordinates":[[[100.39331213404778,-0.4911077070056522],[100.38352226264237,-0.5030075345073478],[100.38345972288795,-0.5241051521447121],[100.39215603397382,-0.5326101882138218],[100.39003080198,-0.5420767254541439],[100.34100420398089,-0.5420446691198036],[100.3146015566166,-0.5348128014713386],[100.3079505134055,-0.48244829601232425],[100.3141863756008,-0.45487360542361405],[100.31966573888279,-0.47816985771779935],[100.33192717569864,-0.48941694828599874],[100.35475084507549,-0.480469249718545],[100.37505074969238,-0.49171465135995535],[100.39331213404778,-0.4911077070056522]]]}},{"type":"Feature","properties":{"code":"1305152003","desa":"Anduriang","kecamatan":"2 X 11 Kayu Tanam","kecCode":"130515"},"geometry":{"type":"Polygon","coordinates":[[[100.39003080198,-0.5420767254541439],[100.40255880774282,-0.5644031821297586],[100.41185933284196,-0.5612511482940019],[100.41750608873507,-0.5688504294674027],[100.41674404370269,-0.6208033305149064],[100.39569911642114,-0.6316994444671863],[100.4020624584158,-0.6531046797067183],[100.42360976677736,-0.6596071998746302],[100.40550362609156,-0.6728147972126305],[100.385586985551,-0.6659001896972324],[100.36219029064942,-0.6667059570685218],[100.34046602988342,-0.6322640028742393],[100.31551890377442,-0.6261696436137248],[100.31459553025957,-0.6199578625718564],[100.3219441506021,-0.6181265892792794],[100.32425778067208,-0.6097512480396156],[100.30998073382386,-0.5768357122530393],[100.31928430942338,-0.5759868080004887],[100.32724386441286,-0.5605651688204462],[100.33598207131558,-0.5600028101551054],[100.3411544699029,-0.5420458076615314],[100.39003080198,-0.5420767254541439]]]}},{"type":"Feature","properties":{"code":"1305152004","desa":"Kapalo Hilalang","kecamatan":"2 X 11 Kayu Tanam","kecCode":"130515"},"geometry":{"type":"Polygon","coordinates":[[[100.301734935419,-0.568755543797132],[100.2736809529137,-0.5494876571149806],[100.28293037403762,-0.5056076040420551],[100.29477673685699,-0.4999851955010267],[100.30814935530856,-0.47811693441410447],[100.31461054983708,-0.5325059298091472],[100.30581303084675,-0.5507952569794162],[100.31033914603483,-0.560007861647043],[100.301734935419,-0.568755543797132]]]}},{"type":"Feature","properties":{"code":"1305162001","desa":"Sungai Durian","kecamatan":"Patamuan","kecCode":"130516"},"geometry":{"type":"Polygon","coordinates":[[[100.25704170900774,-0.5680152596610848],[100.25015044428761,-0.5802699704336813],[100.23629025659011,-0.5736308783207476],[100.23488201269481,-0.5443082159425383],[100.24307439856472,-0.5446832062556551],[100.23979323197216,-0.5555337920294295],[100.25704170900774,-0.5680152596610848]]]}},{"type":"Feature","properties":{"code":"1305162002","desa":"Tandikek","kecamatan":"Patamuan","kecCode":"130516"},"geometry":{"type":"Polygon","coordinates":[[[100.31343110426212,-0.44200222592746385],[100.31426638828327,-0.46126762778270464],[100.30275378995549,-0.48973339633127533],[100.29058139141812,-0.48704716634877665],[100.25001348833189,-0.519254146081057],[100.2386449775837,-0.5149476381469126],[100.2450180763232,-0.4902064640087067],[100.245504648221,-0.49953593827410187],[100.25158951784202,-0.5000775234994779],[100.27953996679611,-0.4931080510440355],[100.31343110426212,-0.44200222592746385]]]}},{"type":"Feature","properties":{"code":"1305162003","desa":"Tandikek Utara","kecamatan":"Patamuan","kecCode":"130516"},"geometry":{"type":"Polygon","coordinates":[[[100.31597777835185,-0.43330277711667203],[100.29456589889719,-0.476741571532927],[100.27953996679611,-0.4931080510440355],[100.245504648221,-0.49953593827410187],[100.24767227335677,-0.4882028131630893],[100.23678288272389,-0.4850769064313784],[100.24428774138619,-0.47233794850906663],[100.2635531666454,-0.47901347125879584],[100.28363812699801,-0.4710559811216582],[100.29021610119219,-0.4549098418067831],[100.31597777835185,-0.43330277711667203]]]}},{"type":"Feature","properties":{"code":"1305162004","desa":"Tandikek Selatan","kecamatan":"Patamuan","kecCode":"130516"},"geometry":{"type":"Polygon","coordinates":[[[100.2736809529137,-0.5494876571149806],[100.26622824863483,-0.5400265661689984],[100.24493445825868,-0.5425816165413879],[100.24353311666003,-0.5213007161719505],[100.29058139141812,-0.48704716634877665],[100.29975744944682,-0.4869496654499185],[100.29477673685699,-0.4999851955010267],[100.28220939564716,-0.507240294436551],[100.2736809529137,-0.5494876571149806]]]}},{"type":"Feature","properties":{"code":"1305162005","desa":"Tandikek Barat","kecamatan":"Patamuan","kecCode":"130516"},"geometry":{"type":"Polygon","coordinates":[[[100.21968854588975,-0.5107606689982742],[100.22762412765144,-0.49516634199913423],[100.22385111373795,-0.4885860655478341],[100.23636827007965,-0.4845301060374367],[100.2450180763232,-0.4902064640087067],[100.24142291233761,-0.5083683248695253],[100.23102671441141,-0.5218834642666221],[100.21968854588975,-0.5107606689982742]]]}},{"type":"Feature","properties":{"code":"1305162006","desa":"Kampuang Tanjuang Koto Mambang Sungai Durian","kecamatan":"Patamuan","kecCode":"130516"},"geometry":{"type":"Polygon","coordinates":[[[100.27245113900891,-0.551716797674868],[100.25704170900774,-0.5680152596610848],[100.23979323197216,-0.5555337920294295],[100.24436324936454,-0.5428851961875774],[100.25974298824838,-0.539721594372281],[100.26674178670412,-0.5402562044559426],[100.27245113900891,-0.551716797674868]]]}},{"type":"Feature","properties":{"code":"1305172001","desa":"Pakandangan","kecamatan":"Enam Lingkung","kecCode":"130517"},"geometry":{"type":"Polygon","coordinates":[[[100.26563858475292,-0.6065215847248986],[100.2614202283609,-0.6195822184515603],[100.26795872141793,-0.6233905901063305],[100.25930329800882,-0.6248525262241954],[100.26959039468102,-0.6276149179920267],[100.26196893172089,-0.6381970498401475],[100.27538901639008,-0.6402358057217401],[100.27910554298647,-0.6517476692905141],[100.24784745859341,-0.6465209066913521],[100.24783079955182,-0.6266693267270895],[100.25438137230252,-0.6257944311680324],[100.25650578501403,-0.6121630768797315],[100.26563858475292,-0.6065215847248986]]]}},{"type":"Feature","properties":{"code":"1305172002","desa":"Koto Tinggi","kecamatan":"Enam Lingkung","kecCode":"130517"},"geometry":{"type":"Polygon","coordinates":[[[100.22923246170882,-0.6529089485588373],[100.22753695456686,-0.6466777295702497],[100.23796384365652,-0.639661084975557],[100.22725200707453,-0.6253071083369496],[100.23968403988657,-0.6123000184462175],[100.24911681658789,-0.6424482818441746],[100.24616776243238,-0.6496693018701227],[100.22923246170882,-0.6529089485588373]]]}},{"type":"Feature","properties":{"code":"1305172003","desa":"Toboh Ketek","kecamatan":"Enam Lingkung","kecCode":"130517"},"geometry":{"type":"Polygon","coordinates":[[[100.2460853728417,-0.6008731668910263],[100.26471102129663,-0.6055182992527804],[100.25650578501403,-0.6121630768797315],[100.25382720556114,-0.6262497138527321],[100.24013843494089,-0.6209532214194646],[100.2460853728417,-0.6008731668910263]]]}},{"type":"Feature","properties":{"code":"1305172004","desa":"Parit Malintang","kecamatan":"Enam Lingkung","kecCode":"130517"},"geometry":{"type":"Polygon","coordinates":[[[100.32259196644615,-0.6071137091512363],[100.30801614233114,-0.6425672990228871],[100.28146649808048,-0.6544714423711556],[100.27538901639008,-0.6402358057217401],[100.26196893172089,-0.6381970498401475],[100.28368846475092,-0.6099608071632299],[100.31167110403827,-0.6189383371422376],[100.32259196644615,-0.6071137091512363]]]}},{"type":"Feature","properties":{"code":"1305172005","desa":"Gadur","kecamatan":"Enam Lingkung","kecCode":"130517"},"geometry":{"type":"Polygon","coordinates":[[[100.22753695456686,-0.6466777295702497],[100.2156388726359,-0.6422501620969531],[100.22032845939093,-0.6221493242359931],[100.23047624388361,-0.6263028134235371],[100.23774842095293,-0.6388667147124879],[100.22753695456686,-0.6466777295702497]]]}}]}