{"type":"FeatureCollection","features":[{"type":"Feature","properties":{"code":"1311012001","desa":"Lubuk Gadang","kecamatan":"Sangir","kecCode":"131101"},"geometry":{"type":"Polygon","coordinates":[[[101.24760202531324,-1.4351197444784172],[101.24520555958895,-1.4634076460124184],[101.25729537428214,-1.493841733741597],[101.25156721085811,-1.5033378757643803],[101.26362239535734,-1.5249377962403639],[101.27674921740254,-1.5332861982881834],[101.26650679455297,-1.5533929941578628],[101.25850135525343,-1.5530856742312913],[101.26507144958777,-1.57512198353506],[101.28500143786611,-1.5716020793187937],[101.28094855673055,-1.583880691373428],[101.28765817008855,-1.5945578518841559],[101.30461300858353,-1.5804900395201258],[101.31348194903278,-1.5805548572571608],[101.3005900344026,-1.6134618018205367],[101.30381498887073,-1.6336300537614012],[101.29348247823383,-1.6404549062388238],[101.2972990930787,-1.6524478657330233],[101.29247014737946,-1.6695789668334209],[101.26599133822974,-1.6959594638665272],[101.2597946855763,-1.688404059716311],[101.26487998392416,-1.677269754924327],[101.25490449964298,-1.6246513528650912],[101.25945164907438,-1.617575083218794],[101.24623676901172,-1.6061399111359411],[101.2467294464069,-1.5851634051981611],[101.23767329228866,-1.5728553403465648],[101.23709617574798,-1.5590250290420564],[101.21671308743906,-1.547464630861085],[101.19891390964925,-1.5532911063660395],[101.19701133090824,-1.5337091035805877],[101.18133788963195,-1.5254862531854783],[101.19169913720548,-1.514549404441009],[101.18339615720697,-1.4931905652256818],[101.1865573002792,-1.4838798750998345],[101.20117698343108,-1.477079422128813],[101.18085016660193,-1.4599502114033418],[101.1993930180734,-1.4385608123256683],[101.19665681635904,-1.431295874806803],[101.21465392863597,-1.4175505098655166],[101.24760202531324,-1.4351197444784172]]]}},{"type":"Feature","properties":{"code":"1311012002","desa":"Lubuk Gadang Timur","kecamatan":"Sangir","kecCode":"131101"},"geometry":{"type":"Polygon","coordinates":[[[101.26984662122464,-1.6954252440887108],[101.29247014737946,-1.6695789668334209],[101.2972990930787,-1.6524478657330233],[101.29348247823383,-1.6404549062388238],[101.30381498887073,-1.6336300537614012],[101.3005900344026,-1.6134618018205367],[101.31348194903278,-1.5805548572571608],[101.28408257624993,-1.5937007862839732],[101.28508801200222,-1.5716882460618646],[101.27077506241926,-1.5718324811300874],[101.26830154278201,-1.5777957408201337],[101.25850135525343,-1.5530856742312913],[101.2626914540474,-1.5564246213622668],[101.26966175478623,-1.5496260003103426],[101.27321395725839,-1.5556937684165872],[101.28010080181058,-1.5544812970395223],[101.28615288484782,-1.547094730710682],[101.3019004473478,-1.5471520319141516],[101.3075242777233,-1.5383053748763742],[101.33227789221104,-1.535854393151659],[101.34931097622064,-1.546802067035544],[101.36020753265153,-1.5247137589311608],[101.37222697359603,-1.5211871080008492],[101.37337294820304,-1.5144320788870205],[101.38421988004346,-1.5192512741314077],[101.38698896726707,-1.5301436073338905],[101.41223840767645,-1.535675527889425],[101.40434234842068,-1.5471443705896823],[101.39842835988094,-1.5844867211172804],[101.38301513743869,-1.5996634488242178],[101.37917233343647,-1.6316273525998974],[101.38475661972228,-1.6605751991336786],[101.40295080763372,-1.6790369155482945],[101.40135276721651,-1.6859044120784272],[101.39114245735857,-1.6897139249729471],[101.37318888935583,-1.6752722203679251],[101.3365027776811,-1.6807055545429659],[101.33056282661323,-1.6952158405477689],[101.31042280257032,-1.7009527309865657],[101.26984662122464,-1.6954252440887108]]]}},{"type":"Feature","properties":{"code":"1311012003","desa":"Lubuk Gadang Selatan","kecamatan":"Sangir","kecCode":"131101"},"geometry":{"type":"Polygon","coordinates":[[[101.18133788963195,-1.5254862531854783],[101.19701133090824,-1.5337091035805877],[101.19891390964925,-1.5532911063660395],[101.21671308743906,-1.547464630861085],[101.23655145908263,-1.5581670704151513],[101.23767329228866,-1.5728553403465648],[101.2467294464069,-1.5851634051981611],[101.24623676901172,-1.6061399111359411],[101.25945164907438,-1.617575083218794],[101.25490449964298,-1.6246513528650912],[101.26487998392416,-1.677269754924327],[101.2597946855763,-1.688404059716311],[101.26599133822974,-1.6959594638665272],[101.23914783780253,-1.7222490987961183],[101.2283333328171,-1.7236111094428563],[101.22623410472022,-1.7184059386666157],[101.21594805216091,-1.7250833958581049],[101.20000000019989,-1.7147222202418135],[101.19101111806873,-1.6760186162965793],[101.16917726411951,-1.7106048649146959],[101.13844770679628,-1.6854266040745338],[101.14679650365575,-1.6659899308322248],[101.14831996509442,-1.6094910521745227],[101.1598344133276,-1.5894645972398023],[101.15289895592213,-1.578334894278757],[101.15752449925627,-1.5560178544039993],[101.16768953094714,-1.532186670068752],[101.18133788963195,-1.5254862531854783]]]}},{"type":"Feature","properties":{"code":"1311012004","desa":"Lubuk Gadang Utara","kecamatan":"Sangir","kecCode":"131101"},"geometry":{"type":"Polygon","coordinates":[[[101.26854159341984,-1.549626009303529],[101.27674921740254,-1.5332861982881834],[101.26362239535734,-1.5249377962403639],[101.25156721085811,-1.5033378757643803],[101.25729537428214,-1.493841733741597],[101.24520555958895,-1.4634076460124184],[101.24760202531324,-1.4351197444784172],[101.25960858077144,-1.4348199195018112],[101.27869418658746,-1.4558568373979166],[101.29060556589423,-1.459429567791121],[101.29099751832086,-1.4876111847479139],[101.2992608858812,-1.49832023341966],[101.32123308074215,-1.509361907141667],[101.32946036300541,-1.5032058319057728],[101.34481342080277,-1.5124596785831879],[101.35942054492227,-1.5108585121243303],[101.37222697359603,-1.5211871080008492],[101.36254320960148,-1.5217335001026036],[101.34931097622064,-1.546802067035544],[101.33227789221104,-1.535854393151659],[101.3075242777233,-1.5383053748763742],[101.3019004473478,-1.5471520319141516],[101.28615288484782,-1.547094730710682],[101.28010080181058,-1.5544812970395223],[101.26854159341984,-1.549626009303529]]]}},{"type":"Feature","properties":{"code":"1311022001","desa":"Pasir Talang","kecamatan":"Sungai Pagu","kecCode":"131102"},"geometry":{"type":"Polygon","coordinates":[[[100.97830509010787,-1.4896351845533167],[100.9772883705619,-1.4813188433364233],[101.0152182482236,-1.4537584043040568],[101.03139340957823,-1.450598055336606],[101.03004383025859,-1.4678175993642495],[100.97830509010787,-1.4896351845533167]]]}},{"type":"Feature","properties":{"code":"1311022002","desa":"Koto Baru","kecamatan":"Sungai Pagu","kecCode":"131102"},"geometry":{"type":"Polygon","coordinates":[[[101.20261459378855,-1.4257831439851],[101.16178713376928,-1.471576350925168],[101.12416831541547,-1.4651701499468623],[101.0646218294339,-1.4962860002286134],[101.0512093863042,-1.4891349429610417],[101.0612168252963,-1.4748610230714114],[101.12884384127032,-1.4491301989817686],[101.1777438506982,-1.4391786159935953],[101.20261459378855,-1.4257831439851]]]}},{"type":"Feature","properties":{"code":"1311022004","desa":"Sako Pasia Talang","kecamatan":"Sungai Pagu","kecCode":"131102"},"geometry":{"type":"Polygon","coordinates":[[[101.007492580818,-1.551485432275467],[100.98783592888509,-1.5294227404601701],[101.03816533336351,-1.495485323019991],[101.04704460702304,-1.4822777724466623],[101.05817669409919,-1.4812986652477562],[101.007492580818,-1.551485432275467]]]}},{"type":"Feature","properties":{"code":"1311022005","desa":"Pasar Muara Labuh","kecamatan":"Sungai Pagu","kecCode":"131102"},"geometry":{"type":"Polygon","coordinates":[[[101.0882138606812,-1.468300822186181],[101.0612168252963,-1.4748610230714114],[101.05920301570666,-1.480763666656995],[101.04927351556034,-1.4841492661190894],[101.0654933957037,-1.4703701658091852],[101.0882138606812,-1.468300822186181]]]}},{"type":"Feature","properties":{"code":"1311022006","desa":"Pulakek Koto Baru","kecamatan":"Sungai Pagu","kecCode":"131102"},"geometry":{"type":"Polygon","coordinates":[[[101.0646218294339,-1.4962860002286134],[101.12416831541547,-1.4651701499468623],[101.16178713376928,-1.471576350925168],[101.16490369744774,-1.4818031021774112],[101.13317832621887,-1.4754580281185135],[101.12619874537585,-1.4887826830126576],[101.0887628095561,-1.5122594571203392],[101.07472225203037,-1.511445974465151],[101.0646218294339,-1.4962860002286134]]]}},{"type":"Feature","properties":{"code":"1311022007","desa":"Bomas","kecamatan":"Sungai Pagu","kecCode":"131102"},"geometry":{"type":"Polygon","coordinates":[[[101.0512093863042,-1.4891349429610417],[101.06197093471093,-1.4912501574042925],[101.07472225203037,-1.511445974465151],[101.06782406522846,-1.5097214273169672],[101.05266720622664,-1.5230015082132349],[101.05013198500318,-1.5161291085793382],[101.05648040724503,-1.507721738884347],[101.0512093863042,-1.4891349429610417]]]}},{"type":"Feature","properties":{"code":"1311022008","desa":"Sako Utara Pasia Talang","kecamatan":"Sungai Pagu","kecCode":"131102"},"geometry":{"type":"Polygon","coordinates":[[[100.98783592888509,-1.5294227404601701],[100.97876104458658,-1.5191677217174464],[100.98157116607649,-1.5052647856612236],[100.9754443628671,-1.4967754373658528],[101.0279375029135,-1.4831163434889931],[101.03274171455853,-1.4767679212541325],[101.04704460702304,-1.4822777724466623],[101.03816533336351,-1.495485323019991],[100.98783592888509,-1.5294227404601701]]]}},{"type":"Feature","properties":{"code":"1311022009","desa":"Sako Selatan Pasia Talang","kecamatan":"Sungai Pagu","kecCode":"131102"},"geometry":{"type":"Polygon","coordinates":[[[101.01394162100905,-1.5906521996644154],[101.0203041976806,-1.565444376310005],[101.007492580818,-1.551485432275467],[101.05033753674796,-1.4970481594739926],[101.05648040724503,-1.507721738884347],[101.05013198500318,-1.5161291085793382],[101.05259588908906,-1.5249496043388027],[101.0367332025753,-1.5427158111640469],[101.03482968134477,-1.5636545545691203],[101.01394162100905,-1.5906521996644154]]]}},{"type":"Feature","properties":{"code":"1311022010","desa":"Pasir Talang Barat","kecamatan":"Sungai Pagu","kecCode":"131102"},"geometry":{"type":"Polygon","coordinates":[[[100.9754443628671,-1.4967754373658528],[100.97830509010787,-1.4896351845533167],[101.01854261734798,-1.4759022689270582],[101.03274690274742,-1.4639572432979173],[101.04401354458945,-1.4710434603453448],[101.0279375029135,-1.4831163434889931],[100.9754443628671,-1.4967754373658528]]]}},{"type":"Feature","properties":{"code":"1311022011","desa":"Pasir Talang Timur","kecamatan":"Sungai Pagu","kecCode":"131102"},"geometry":{"type":"Polygon","coordinates":[[[101.03274690274742,-1.4639572432979173],[101.03139340957823,-1.450598055336606],[101.04383950239115,-1.433796224815167],[101.04912733076178,-1.408249373237632],[101.07601182138853,-1.4058754760026904],[101.07255304498709,-1.3854000804024582],[101.0790813145511,-1.3734714080453996],[101.1524337770972,-1.3624188471307215],[101.20219570037135,-1.3697786964001237],[101.19932080970766,-1.3944810692888743],[101.2109372959195,-1.4079711922447404],[101.07067890280916,-1.4486546599673669],[101.0529072002072,-1.4571893367917612],[101.04401354458945,-1.4710434603453448],[101.03274690274742,-1.4639572432979173]]]}},{"type":"Feature","properties":{"code":"1311022012","desa":"Pasir Talang Selatan","kecamatan":"Sungai Pagu","kecCode":"131102"},"geometry":{"type":"Polygon","coordinates":[[[101.20261459378855,-1.4257831439851],[101.0882138606812,-1.468300822186181],[101.0654933957037,-1.4703701658091852],[101.05099945216305,-1.4833475106233491],[101.0354869778418,-1.4820868697588563],[101.05097749881257,-1.4590055239570263],[101.07067890280916,-1.4486546599673669],[101.2109372959195,-1.4079711922447404],[101.20261459378855,-1.4257831439851]]]}},{"type":"Feature","properties":{"code":"1311032001","desa":"Pakan Rabaa","kecamatan":"Koto Parik Gadang Diateh","kecCode":"131103"},"geometry":{"type":"Polygon","coordinates":[[[100.97569573956679,-1.482726016137672],[100.94524773299655,-1.4712455380088725],[100.96159224028968,-1.4558950019275252],[101.00099844861955,-1.441875033496279],[101.01562025057416,-1.421143901283354],[101.03320266656988,-1.4089320441054782],[101.04080441009552,-1.4130175112714862],[101.04459275565118,-1.430215887056844],[101.034044485065,-1.4482574707888753],[101.0152182482236,-1.4537584043040568],[100.97569573956679,-1.482726016137672]]]}},{"type":"Feature","properties":{"code":"1311032002","desa":"Pakan Rabaa Timur","kecamatan":"Koto Parik Gadang Diateh","kecCode":"131103"},"geometry":{"type":"Polygon","coordinates":[[[100.94322647342307,-1.2851436417302693],[100.97302497881975,-1.2985500207165346],[100.9786679683521,-1.3119480153233996],[100.9928549876676,-1.3095109973721348],[101.00508098220159,-1.29987699017911],[101.00464297369433,-1.2587659577766825],[101.02731702915763,-1.275353035589632],[101.07450998055123,-1.2843990255599964],[101.09461700307229,-1.3016170254516457],[101.10645999703132,-1.2935980225859107],[101.11891699502335,-1.2992549812812637],[101.12181299817138,-1.2933449731474689],[101.18143998696587,-1.3030308658264913],[101.15613101683302,-1.344717018274059],[101.1524337770972,-1.3624188471307215],[101.0790813145511,-1.3734714080453996],[101.07255304498709,-1.3854000804024582],[101.07601182138853,-1.4058754760026904],[101.06593420020322,-1.4105639601837008],[101.05186356125444,-1.4056362680299412],[101.04506417127453,-1.4176466689758143],[101.0257262327795,-1.406871151411736],[101.00678699522369,-1.374811504911888],[100.98034930397728,-1.3621745121229354],[100.95772004104712,-1.3287782365424232],[100.95583156457506,-1.304863351405188],[100.94322647342307,-1.2851436417302693]]]}},{"type":"Feature","properties":{"code":"1311032003","desa":"Pakan Rabaa Utara","kecamatan":"Koto Parik Gadang Diateh","kecCode":"131103"},"geometry":{"type":"Polygon","coordinates":[[[100.93267071957807,-1.4207635240311474],[100.916756272584,-1.4014214234952092],[100.90514787487456,-1.4015945744651253],[100.8940747455531,-1.393350294125021],[100.89662470036967,-1.3779508313271538],[100.90652958787022,-1.370576461603966],[100.88814740477898,-1.3377883300733653],[100.8946951806381,-1.3326931625711183],[100.89539702775066,-1.302913975544383],[100.91027599624027,-1.2904290302342716],[100.93880499795232,-1.283565031167584],[100.95477690533,-1.3020600836517453],[100.96025845936047,-1.333552989089945],[100.99216815923323,-1.3704546160573476],[100.96237881073357,-1.388803642023755],[100.93267071957807,-1.4207635240311474]]]}},{"type":"Feature","properties":{"code":"1311032004","desa":"Pakan Rabaa Tengah","kecamatan":"Koto Parik Gadang Diateh","kecCode":"131103"},"geometry":{"type":"Polygon","coordinates":[[[100.93498145383109,-1.4616976939617103],[100.94006151362798,-1.4313385179602345],[100.93267071957807,-1.4207635240311474],[100.96237881073357,-1.388803642023755],[100.9915563729283,-1.370602589607366],[101.00678699522369,-1.374811504911888],[101.0257262327795,-1.406871151411736],[101.03320266656988,-1.4089320441054782],[101.01562025057416,-1.421143901283354],[101.00099844861955,-1.441875033496279],[100.96159224028968,-1.4558950019275252],[100.94524773299655,-1.4712455380088725],[100.93498145383109,-1.4616976939617103]]]}},{"type":"Feature","properties":{"code":"1311042001","desa":"Lubuk Malako","kecamatan":"Sangir Jujuan","kecCode":"131104"},"geometry":{"type":"Polygon","coordinates":[[[101.41223840767645,-1.535675527889425],[101.38356194322915,-1.526983217896996],[101.37773568265567,-1.5009657286101588],[101.35710283372883,-1.4839398760679938],[101.33448677644361,-1.4517422780630513],[101.34755411642936,-1.4467796202681416],[101.35320911281036,-1.4341812722467833],[101.34840366909413,-1.4293070978486073],[101.3864390777013,-1.427314827024135],[101.40943647091642,-1.4416962194954281],[101.42956770678431,-1.4333430141685441],[101.42467740303977,-1.492963856930015],[101.43490796922747,-1.5130525404536177],[101.41398456193804,-1.524783490563839],[101.41223840767645,-1.535675527889425]]]}},{"type":"Feature","properties":{"code":"1311042002","desa":"Bidar Alam","kecamatan":"Sangir Jujuan","kecCode":"131104"},"geometry":{"type":"Polygon","coordinates":[[[101.39706219256618,-1.4357902232373068],[101.3864390777013,-1.427314827024135],[101.34840366909413,-1.4293070978486073],[101.3618255137365,-1.3998679471850348],[101.3607554257224,-1.3876788860223113],[101.41316316344925,-1.3977899853588789],[101.41800955869422,-1.4078222690106783],[101.40026283296343,-1.4200820906304956],[101.39706219256618,-1.4357902232373068]]]}},{"type":"Feature","properties":{"code":"1311042004","desa":"Padang Air Dingin","kecamatan":"Sangir Jujuan","kecCode":"131104"},"geometry":{"type":"Polygon","coordinates":[[[101.24760202531324,-1.4351197444784172],[101.2181243368687,-1.4180255578500034],[101.20180242504193,-1.4252664861681767],[101.21071759604028,-1.4075665944512095],[101.3021845575713,-1.4321610549898272],[101.32534355805882,-1.450543127444044],[101.34102303558467,-1.4542830561946352],[101.35710283372883,-1.4839398760679938],[101.37773568265567,-1.5009657286101588],[101.38275997189525,-1.518379910210016],[101.37337294820304,-1.5144320788870205],[101.36997031198034,-1.5209482228846978],[101.35942054492227,-1.5108585121243303],[101.34481342080277,-1.5124596785831879],[101.32946036300541,-1.5032058319057728],[101.32123308074215,-1.509361907141667],[101.2992608858812,-1.49832023341966],[101.29099751832086,-1.4876111847479139],[101.29060556589423,-1.459429567791121],[101.27869418658746,-1.4558568373979166],[101.25960858077144,-1.4348199195018112],[101.24760202531324,-1.4351197444784172]]]}},{"type":"Feature","properties":{"code":"1311042005","desa":"Padang Limau Sundai","kecamatan":"Sangir Jujuan","kecCode":"131104"},"geometry":{"type":"Polygon","coordinates":[[[101.20219570037135,-1.3697786964001237],[101.1524337770972,-1.3624188471307215],[101.17085552496256,-1.3191289579618293],[101.29576389728605,-1.3540359398946695],[101.35909353523851,-1.3843209101361829],[101.36206229443938,-1.3990066898448368],[101.34694047842036,-1.423140134520742],[101.20219570037135,-1.3697786964001237]]]}},{"type":"Feature","properties":{"code":"1311042006","desa":"Padang Gantiang","kecamatan":"Sangir Jujuan","kecCode":"131104"},"geometry":{"type":"Polygon","coordinates":[[[101.21071759604028,-1.4075665944512095],[101.19932080970766,-1.3944810692888743],[101.20219570037135,-1.3697786964001237],[101.35031577435359,-1.4235017734987334],[101.35320911281036,-1.4341812722467833],[101.34178324689941,-1.450696131801549],[101.32534355805882,-1.450543127444044],[101.29434326073294,-1.4287882744641847],[101.21071759604028,-1.4075665944512095]]]}},{"type":"Feature","properties":{"code":"1311052001","desa":"Abai","kecamatan":"Sangir Batang Hari","kecCode":"131105"},"geometry":{"type":"Polygon","coordinates":[[[101.46870235403048,-1.279679925758654],[101.52568349419795,-1.3042458813857047],[101.51423180605309,-1.3402499849520835],[101.50084515368098,-1.343468926549424],[101.47980884280388,-1.3321424843004708],[101.46180456742688,-1.356998933538656],[101.44380703876391,-1.3662301343876178],[101.38316980104553,-1.3641058970462914],[101.32745166156496,-1.3504387839146756],[101.33236648892239,-1.3228928122761163],[101.35401034040494,-1.3022166286401016],[101.37017463794922,-1.303140476096644],[101.37684165401917,-1.310557120251209],[101.41387279869076,-1.3023116123365628],[101.42001785633907,-1.3092926986368485],[101.45406500459636,-1.3014735943773112],[101.45875692509208,-1.2819250454726117],[101.46870235403048,-1.279679925758654]]]}},{"type":"Feature","properties":{"code":"1311052002","desa":"Dusun Tangah","kecamatan":"Sangir Batang Hari","kecCode":"131105"},"geometry":{"type":"Polygon","coordinates":[[[101.41104378334397,-1.1843706774415745],[101.43309979501959,-1.2064193533227392],[101.45014625284732,-1.2109879183049101],[101.44467349328714,-1.220398686786633],[101.44711600879684,-1.2412998727043552],[101.46796928605373,-1.2593878182864278],[101.41602170084087,-1.281659986487615],[101.37950066872092,-1.2801020837144104],[101.36185567699795,-1.2664876735526434],[101.3662483040161,-1.1957358067262],[101.37016019303854,-1.1850597775627214],[101.41104378334397,-1.1843706774415745]]]}},{"type":"Feature","properties":{"code":"1311052003","desa":"Lubuk Ulang Aling","kecamatan":"Sangir Batang Hari","kecCode":"131105"},"geometry":{"type":"Polygon","coordinates":[[[101.44138115981274,-1.056970686766516],[101.44116386831791,-1.0865303987447021],[101.41617024725917,-1.1186209999091947],[101.40866408727787,-1.1397256115741867],[101.36548661241727,-1.1062949333282865],[101.34253949670045,-1.0717652088995329],[101.34866946102686,-1.0601350368176716],[101.34431504800114,-1.0435739889820754],[101.35980533874545,-1.0406472515063725],[101.37628072617463,-1.047621451697782],[101.40384202319085,-1.038027466134461],[101.41683388037933,-1.0277481935755788],[101.42262667807881,-1.0079701152020555],[101.42890369684817,-1.0047102526530416],[101.45044376656665,-1.00936804746921],[101.45680882536703,-1.0164469449344857],[101.4557916048987,-1.043328905738316],[101.44138115981274,-1.056970686766516]]]}},{"type":"Feature","properties":{"code":"1311052004","desa":"Ranah Pantai Cermin","kecamatan":"Sangir Batang Hari","kecCode":"131105"},"geometry":{"type":"Polygon","coordinates":[[[101.42585243564145,-1.3947498892386947],[101.3661823270528,-1.3907585127422943],[101.32332059606868,-1.3665326771154407],[101.32742395974799,-1.3499454689007366],[101.38316980104553,-1.3641058970462914],[101.44204879401667,-1.366274467367077],[101.42585243564145,-1.3947498892386947]]]}},{"type":"Feature","properties":{"code":"1311052005","desa":"Sitapus","kecamatan":"Sangir Batang Hari","kecCode":"131105"},"geometry":{"type":"Polygon","coordinates":[[[101.46796928605373,-1.2593878182864278],[101.46870235403048,-1.279679925758654],[101.45875692509208,-1.2819250454726117],[101.45361371939772,-1.3016653604142767],[101.37684165401917,-1.310557120251209],[101.33776226201881,-1.2922976595659887],[101.3439701193256,-1.2661592744167165],[101.4057223949726,-1.283391730010865],[101.46796928605373,-1.2593878182864278]]]}},{"type":"Feature","properties":{"code":"1311052006","desa":"Lubuk Ulang Aling Selatan","kecamatan":"Sangir Batang Hari","kecCode":"131105"},"geometry":{"type":"Polygon","coordinates":[[[101.17085552496256,-1.3191289579618293],[101.19199799810917,-1.2806940075919258],[101.20568796842507,-1.2929050176083927],[101.21539199774257,-1.2817239543654149],[101.23540700432983,-1.2869030412050089],[101.24085497137985,-1.295066022832252],[101.24859302874535,-1.2866129882617792],[101.25265496875187,-1.2915289793364033],[101.26257202497901,-1.2631060257116284],[101.23140996389878,-1.2489959883789403],[101.24507097424612,-1.213411026442166],[101.21165499358312,-1.1645340100354005],[101.19769302871038,-1.1619649868963402],[101.17689503188029,-1.1351939700572327],[101.16659896716867,-1.1027659963213376],[101.17648852122835,-1.0995637083696794],[101.19796077666858,-1.1070447349894479],[101.21453189333226,-1.1348017415391194],[101.23232759704104,-1.151063737815107],[101.25767335574083,-1.143170680505173],[101.26326773871523,-1.1667144406154224],[101.27445146126598,-1.1733069109742684],[101.29274464295099,-1.174079911546871],[101.29549073900647,-1.1484926768123116],[101.31101697025701,-1.1449928013972999],[101.33805176367805,-1.180602400261517],[101.37016019303854,-1.1850597775627214],[101.36292771384296,-1.2310185182149191],[101.36443791567733,-1.2716051451409882],[101.3439701193256,-1.2661592744167165],[101.33764522424774,-1.2890449772041646],[101.33981918690601,-1.296390434622924],[101.35769217655273,-1.3015954552123599],[101.33236648892239,-1.3228928122761163],[101.32332059606868,-1.3665326771154407],[101.2558163285608,-1.340926182499864],[101.17085552496256,-1.3191289579618293]]]}},{"type":"Feature","properties":{"code":"1311052007","desa":"Lubuk Ulang Aling Tengah","kecamatan":"Sangir Batang Hari","kecCode":"131105"},"geometry":{"type":"Polygon","coordinates":[[[101.40866408727787,-1.1397256115741867],[101.40275008704691,-1.1553979484655672],[101.40869779027088,-1.184837602749404],[101.34411393441057,-1.1838500374266294],[101.31101697025701,-1.1449928013972999],[101.35071392400845,-1.1314626415233948],[101.34179746967753,-1.1021218973760425],[101.34253949670045,-1.0717652088995329],[101.36548661241727,-1.1062949333282865],[101.40866408727787,-1.1397256115741867]]]}},{"type":"Feature","properties":{"code":"1311062001","desa":"Alam Pauh Duo","kecamatan":"Pauh Duo","kecCode":"131106"},"geometry":{"type":"Polygon","coordinates":[[[101.13902115140506,-1.6847463568796355],[101.12376693809374,-1.6775743445091265],[101.13654010084501,-1.6282402099011686],[101.12193343987639,-1.5839379611005475],[101.13181774279467,-1.5741500844022747],[101.08165817258663,-1.5128939638967454],[101.12619874537585,-1.4887826830126576],[101.13317832621887,-1.4754580281185135],[101.16490369744774,-1.4818031021774112],[101.16173115996516,-1.4716509847623729],[101.18901497655997,-1.436118570212538],[101.1934565275967,-1.4354840625368892],[101.19853258720916,-1.4285044790036716],[101.20503072498802,-1.4258643239874733],[101.18085016660193,-1.4599502114033418],[101.20117698343108,-1.477079422128813],[101.18708769344238,-1.482847171004972],[101.18335107239415,-1.491881642458602],[101.19169913720548,-1.514549404441009],[101.16843953495663,-1.5312268946965455],[101.15752449925627,-1.5560178544039993],[101.15289895592213,-1.578334894278757],[101.1598344133276,-1.5894645972398023],[101.1475854833834,-1.6132840499190015],[101.14679650365575,-1.6659899308322248],[101.13902115140506,-1.6847463568796355]]]}},{"type":"Feature","properties":{"code":"1311062002","desa":"Kapau Alam Pauh Duo","kecamatan":"Pauh Duo","kecCode":"131106"},"geometry":{"type":"Polygon","coordinates":[[[101.01349914197186,-1.5965416879671097],[101.03482968134477,-1.5636545545691203],[101.04054024773431,-1.5363707380045286],[101.06442609288995,-1.5122699054439266],[101.08667421864031,-1.5437668182611968],[101.02970342517301,-1.6160541965408812],[101.01349914197186,-1.5965416879671097]]]}},{"type":"Feature","properties":{"code":"1311062003","desa":"Luak Kapau Alam Pauh Duo","kecamatan":"Pauh Duo","kecCode":"131106"},"geometry":{"type":"Polygon","coordinates":[[[101.06532886113808,-1.635330455911337],[101.02970342517301,-1.6160541965408812],[101.08667421864031,-1.5437668182611968],[101.06442609288995,-1.5122699054439266],[101.08165817258663,-1.5128939638967454],[101.0796367996986,-1.5306973253129645],[101.1072073417455,-1.5567115509601197],[101.13523577091415,-1.618968689746926],[101.13314028669492,-1.6512000878717377],[101.12376693809374,-1.6775743445091265],[101.06537828787775,-1.6578772743672736],[101.05935550565215,-1.6433696485570517],[101.06532886113808,-1.635330455911337]]]}},{"type":"Feature","properties":{"code":"1311062004","desa":"Pauh Duo Nan Batigo","kecamatan":"Pauh Duo","kecCode":"131106"},"geometry":{"type":"Polygon","coordinates":[[[101.08030702934599,-1.5176278332640543],[101.13181774279467,-1.5741500844022747],[101.12694867294294,-1.5822637580004653],[101.11684890505296,-1.579281943344761],[101.1072073417455,-1.5567115509601197],[101.0796367996986,-1.5306973253129645],[101.08030702934599,-1.5176278332640543]]]}},{"type":"Feature","properties":{"code":"1311072001","desa":"Sungai Kunyit","kecamatan":"Sangir Balai Janggo","kecCode":"131107"},"geometry":{"type":"Polygon","coordinates":[[[101.65713979256742,-1.3913046503358502],[101.62638109181397,-1.4127778581342516],[101.60937389389015,-1.4373446024667589],[101.58215523857348,-1.4476702737480105],[101.56069090076453,-1.4442519011919739],[101.55736720433303,-1.4623574959692225],[101.54629391043566,-1.4725688166537674],[101.51864185923448,-1.4656174151754766],[101.50618639998241,-1.4705100499573218],[101.47262416167574,-1.4678120883186887],[101.43720481075349,-1.478006060181683],[101.44089079367522,-1.4245128551937545],[101.4217053730046,-1.4087765989879777],[101.44188880912127,-1.410062788692417],[101.4583339694372,-1.4020061474004033],[101.46521658807511,-1.3731913330801993],[101.48959361325471,-1.373490844193405],[101.48939621026693,-1.3573361424333323],[101.51210594183577,-1.3464393602846363],[101.51348406563716,-1.335365164379557],[101.54233020337625,-1.3338558942445402],[101.55125318138926,-1.32493291534211],[101.58697008110443,-1.3253255278706857],[101.5968602152268,-1.3488879830875975],[101.61197312076297,-1.349639793834286],[101.64649715971619,-1.3674328966839204],[101.64663799894451,-1.3732231232151888],[101.67211671161698,-1.3886037245317815],[101.65713979256742,-1.3913046503358502]]]}},{"type":"Feature","properties":{"code":"1311072002","desa":"Talao Sungai Kunyit","kecamatan":"Sangir Balai Janggo","kecCode":"131107"},"geometry":{"type":"Polygon","coordinates":[[[101.54629391043566,-1.4725688166537674],[101.52698981522786,-1.4857820995058577],[101.54088110777694,-1.5141785869821862],[101.52579056568213,-1.52886581010278],[101.50972920363988,-1.5730202778083173],[101.48712908414002,-1.580087277242862],[101.4409508836764,-1.6269935912660398],[101.43138544977874,-1.6415915845525968],[101.42667411741665,-1.6774940809159316],[101.41191111110895,-1.672552775724315],[101.40242402974525,-1.6787164295470594],[101.38475661972228,-1.6605751991336786],[101.37917233343647,-1.6316273525998974],[101.3818141324163,-1.604264472137685],[101.40219585375569,-1.575252209863804],[101.40434234842068,-1.5471443705896823],[101.41209997863113,-1.5399317421375516],[101.41340326175117,-1.525621215344098],[101.43490796922747,-1.5130525404536177],[101.42467740303977,-1.492963856930015],[101.42775243242886,-1.4795919390651755],[101.47262416167574,-1.4678120883186887],[101.50618639998241,-1.4705100499573218],[101.51864185923448,-1.4656174151754766],[101.54629391043566,-1.4725688166537674]]]}},{"type":"Feature","properties":{"code":"1311072003","desa":"Sungai Kunyit Barat","kecamatan":"Sangir Balai Janggo","kecCode":"131107"},"geometry":{"type":"Polygon","coordinates":[[[101.42775243242886,-1.4795919390651755],[101.4239801613554,-1.4616242004648297],[101.42956770678431,-1.4333430141685441],[101.40943647091642,-1.4416962194954281],[101.39926588501264,-1.4389033407102216],[101.39472518821691,-1.4295070495147517],[101.41976737986072,-1.407011030164013],[101.44089079367522,-1.4245128551937545],[101.43720481075349,-1.478006060181683],[101.42775243242886,-1.4795919390651755]]]}},{"type":"Feature","properties":{"code":"1311072004","desa":"Talunan Maju","kecamatan":"Sangir Balai Janggo","kecCode":"131107"},"geometry":{"type":"Polygon","coordinates":[[[101.41800955869422,-1.4078222690106783],[101.41296677579612,-1.3974757640349247],[101.42585243564145,-1.3947498892386947],[101.43760150080867,-1.371008744127313],[101.46180456742688,-1.356998933538656],[101.47980884280388,-1.3321424843004708],[101.50084515368098,-1.343468926549424],[101.51423180605309,-1.3402499849520835],[101.50031852687856,-1.3558120712560746],[101.48939621026693,-1.3573361424333323],[101.48959361325471,-1.373490844193405],[101.46521658807511,-1.3731913330801993],[101.4583339694372,-1.4020061474004033],[101.44188880912127,-1.410062788692417],[101.41800955869422,-1.4078222690106783]]]}}]}