{"type":"FeatureCollection","features":[{"type":"Feature","properties":{"code":"1372011001","desa":"Tanah Garam","kecamatan":"Lubuk Sikarah","kecCode":"137201"},"geometry":{"type":"Polygon","coordinates":[[[100.64210499964605,-0.797023998667382],[100.60681675189163,-0.8066091987536108],[100.59767300020883,-0.7971929992660401],[100.59160970082705,-0.8072309018819784],[100.56134000014094,-0.8190469989040394],[100.54146600005588,-0.8089919992767578],[100.56492180020096,-0.7912456935491277],[100.5643702001247,-0.7998464993220877],[100.5707859995743,-0.7867419984647105],[100.61274600012784,-0.7813199993447673],[100.62266499978993,-0.770292998961384],[100.64272348859815,-0.7858093601351279],[100.64210499964605,-0.797023998667382]]]}},{"type":"Feature","properties":{"code":"1372011002","desa":"Vi Suku","kecamatan":"Lubuk Sikarah","kecCode":"137201"},"geometry":{"type":"Polygon","coordinates":[[[100.62904099974241,-0.7719479988378285],[100.6327418169813,-0.764622518959],[100.63890471897764,-0.7685759026962643],[100.65400081708411,-0.7926209008475588],[100.6460236515703,-0.7938050040100881],[100.62904099974241,-0.7719479988378285]]]}},{"type":"Feature","properties":{"code":"1372011003","desa":"Sinapa Piliang","kecamatan":"Lubuk Sikarah","kecCode":"137201"},"geometry":{"type":"Polygon","coordinates":[[[100.64557793227584,-0.7946908614054673],[100.65444532229382,-0.7908644997125162],[100.65810001690232,-0.7943658940824724],[100.65367345486612,-0.7974018820995352],[100.64557793227584,-0.7946908614054673]]]}},{"type":"Feature","properties":{"code":"1372011004","desa":"Ix Korong","kecamatan":"Lubuk Sikarah","kecCode":"137201"},"geometry":{"type":"Polygon","coordinates":[[[100.64141224108208,-0.8035162737585536],[100.64557793227584,-0.7946908614054673],[100.66010170992604,-0.8025249456723301],[100.65555624402549,-0.8008231540698186],[100.64141224108208,-0.8035162737585536]]]}},{"type":"Feature","properties":{"code":"1372011005","desa":"Kampai Tabu Karambia","kecamatan":"Lubuk Sikarah","kecCode":"137201"},"geometry":{"type":"Polygon","coordinates":[[[100.66716054802093,-0.8107819622111996],[100.65832100011413,-0.8062909988289213],[100.65479300019689,-0.8076749987989958],[100.65321899955723,-0.8056669988320252],[100.64163999978621,-0.8050159984893114],[100.64141224108208,-0.8035162737585536],[100.66424330288616,-0.8010685691633824],[100.66716054802093,-0.8107819622111996]]]}},{"type":"Feature","properties":{"code":"1372011006","desa":"Aro Iv Korong","kecamatan":"Lubuk Sikarah","kecCode":"137201"},"geometry":{"type":"Polygon","coordinates":[[[100.67041736367047,-0.7884518075232202],[100.67263961632528,-0.7944949638830828],[100.66416972934957,-0.8010819303909588],[100.65356151535174,-0.7981865792547217],[100.67041736367047,-0.7884518075232202]]]}},{"type":"Feature","properties":{"code":"1372011007","desa":"Simpang Rumbio","kecamatan":"Lubuk Sikarah","kecCode":"137201"},"geometry":{"type":"Polygon","coordinates":[[[100.67814075758997,-0.8066965157295731],[100.66716054802093,-0.8107819622111996],[100.66331853542215,-0.7971495350316252],[100.67330899971063,-0.7906569991370513],[100.67814075758997,-0.8066965157295731]]]}},{"type":"Feature","properties":{"code":"1372021001","desa":"Koto Panjang","kecamatan":"Tanjung Harapan","kecCode":"137202"},"geometry":{"type":"Polygon","coordinates":[[[100.65575593758649,-0.79398169381231],[100.65726759991986,-0.7912954368500781],[100.65815771290816,-0.7939893335530642],[100.65575593758649,-0.79398169381231]]]}},{"type":"Feature","properties":{"code":"1372021002","desa":"Pasar Pandan Air Mati","kecamatan":"Tanjung Harapan","kecCode":"137202"},"geometry":{"type":"Polygon","coordinates":[[[100.67042499981396,-0.7862209987209169],[100.65916053972717,-0.7942794827237211],[100.655402670397,-0.7911079560826698],[100.66190574365521,-0.7856884885543093],[100.67042499981396,-0.7862209987209169]]]}},{"type":"Feature","properties":{"code":"1372021003","desa":"Tanjung Paku","kecamatan":"Tanjung Harapan","kecCode":"137202"},"geometry":{"type":"Polygon","coordinates":[[[100.67369799966303,-0.7677339987664881],[100.67057799967499,-0.7860699989522976],[100.65637370528229,-0.7888917855452888],[100.66151806390758,-0.765048765232819],[100.67369799966303,-0.7677339987664881]]]}},{"type":"Feature","properties":{"code":"1372021004","desa":"Nan Balimo","kecamatan":"Tanjung Harapan","kecCode":"137202"},"geometry":{"type":"Polygon","coordinates":[[[100.65200311884894,-0.7848645323946064],[100.64537242369845,-0.7851774155273146],[100.64740580163652,-0.7793387766917174],[100.65200311884894,-0.7848645323946064]]]}},{"type":"Feature","properties":{"code":"1372021004","desa":"Nan Balimo","kecamatan":"Tanjung Harapan","kecCode":"137202"},"geometry":{"type":"Polygon","coordinates":[[[100.66175532844572,-0.7663595064290148],[100.65627096763109,-0.7882006385671961],[100.64639088972785,-0.7705154957318933],[100.647278547567,-0.74909283073182],[100.66175532844572,-0.7663595064290148]]]}},{"type":"Feature","properties":{"code":"1372021005","desa":"Kampung Jawa","kecamatan":"Tanjung Harapan","kecCode":"137202"},"geometry":{"type":"Polygon","coordinates":[[[100.6284716020828,-0.768061280944439],[100.63227599963771,-0.7530499988162638],[100.64184857325313,-0.7462902320739601],[100.647278547567,-0.74909283073182],[100.64639088972785,-0.7705154957318933],[100.65544936499623,-0.7902924256711498],[100.63890471897764,-0.7685759026962643],[100.6284716020828,-0.768061280944439]]]}},{"type":"Feature","properties":{"code":"1372021006","desa":"Laing","kecamatan":"Tanjung Harapan","kecCode":"137202"},"geometry":{"type":"Polygon","coordinates":[[[100.6825887432759,-0.7438639583231491],[100.68534099968747,-0.7622229991397288],[100.67667400020503,-0.7679079986964586],[100.6623976692171,-0.7656827108322054],[100.64159498422121,-0.7469998601200564],[100.6825887432759,-0.7438639583231491]]]}}]}