{"type":"FeatureCollection","features":[{"type":"Feature","properties":{"code":"1403011001","desa":"Bengkalis Kota","kecamatan":"Bengkalis","kecCode":"140301"},"geometry":{"type":"Polygon","coordinates":[[[102.11875677970168,1.476187537677002],[102.11128250428418,1.4636996201075267],[102.10494844601402,1.4685518564437463],[102.11338217125024,1.4785075124614704],[102.11875677970168,1.476187537677002]]]}},{"type":"Feature","properties":{"code":"1403011002","desa":"Damon","kecamatan":"Bengkalis","kecCode":"140301"},"geometry":{"type":"Polygon","coordinates":[[[102.11338217125024,1.4785075124614704],[102.10654122179999,1.4699860673623106],[102.10191444729395,1.471481537400547],[102.10908846426128,1.4813799254896922],[102.11338217125024,1.4785075124614704]]]}},{"type":"Feature","properties":{"code":"1403011003","desa":"Rimba Sekampung","kecamatan":"Bengkalis","kecCode":"140301"},"geometry":{"type":"Polygon","coordinates":[[[102.11175783735439,1.4639747541973716],[102.11875677970168,1.476187537677002],[102.12166785188991,1.4752778896162106],[102.11936905164048,1.45977995645032],[102.11175783735439,1.4639747541973716]]]}},{"type":"Feature","properties":{"code":"1403012004","desa":"Kelapapati","kecamatan":"Bengkalis","kecCode":"140301"},"geometry":{"type":"Polygon","coordinates":[[[102.10908846426128,1.4813799254896922],[102.09952505923417,1.4721518246037462],[102.07959401515171,1.487190596309017],[102.09278391924254,1.4926666527777988],[102.10908846426128,1.4813799254896922]]]}},{"type":"Feature","properties":{"code":"1403012005","desa":"Pedekik","kecamatan":"Bengkalis","kecCode":"140301"},"geometry":{"type":"Polygon","coordinates":[[[102.10353605894204,1.4849332026477085],[102.09278391924254,1.4926666527777988],[102.08074686957241,1.4900982582648397],[102.09128455333949,1.5205777194891397],[102.13232162104605,1.5734854685238269],[102.13233683757504,1.541211890396544],[102.10353605894204,1.4849332026477085]]]}},{"type":"Feature","properties":{"code":"1403012006","desa":"Pangkalan Batang","kecamatan":"Bengkalis","kecCode":"140301"},"geometry":{"type":"Polygon","coordinates":[[[102.09128455333949,1.5205777194891397],[102.07959401515171,1.487190596309017],[102.06965490215208,1.4953446593595578],[102.08010396942272,1.5078770663906047],[102.06264824272226,1.5141778794157004],[102.07685483308416,1.529561595983891],[102.09593006701901,1.595517051890263],[102.13228212102314,1.5834866877935838],[102.13232162104605,1.5734854685238269],[102.09128455333949,1.5205777194891397]]]}},{"type":"Feature","properties":{"code":"1403012007","desa":"Sebauk","kecamatan":"Bengkalis","kecCode":"140301"},"geometry":{"type":"Polygon","coordinates":[[[102.09565880001365,1.5955338332396092],[102.07685483308416,1.529561595983891],[102.05516884026979,1.50896743591431],[102.04302793059456,1.5221401917177086],[102.06379730560121,1.5301326277110199],[102.08630154388116,1.598362855777846],[102.09565880001365,1.5955338332396092]]]}},{"type":"Feature","properties":{"code":"1403012008","desa":"Teluk Latak","kecamatan":"Bengkalis","kecCode":"140301"},"geometry":{"type":"Polygon","coordinates":[[[102.08017797913048,1.6000593935409653],[102.06031472684322,1.5626146507019163],[102.03255475519784,1.5319108535934138],[102.02302309533961,1.5459744904052215],[102.06494519756285,1.5876674381302909],[102.07167724540862,1.6025982372307785],[102.08017797913048,1.6000593935409653]]]}},{"type":"Feature","properties":{"code":"1403012009","desa":"Meskom","kecamatan":"Bengkalis","kecCode":"140301"},"geometry":{"type":"Polygon","coordinates":[[[102.04614491785371,1.5696422283546834],[102.02946028876136,1.5492386454183333],[102.02302309533961,1.5459744904052215],[102.01816151863926,1.5514104586944428],[102.013070220914,1.565863057686667],[102.02422011456667,1.5742164536698617],[102.03133130579516,1.5674883799356958],[102.04614491785371,1.5696422283546834]]]}},{"type":"Feature","properties":{"code":"1403012010","desa":"Senggoro","kecamatan":"Bengkalis","kecCode":"140301"},"geometry":{"type":"Polygon","coordinates":[[[102.11936905164048,1.45977995645032],[102.12166785188991,1.4752778896162106],[102.1355545596952,1.4960041654901126],[102.15094204983579,1.4941910486102894],[102.12730521436418,1.4558880989314722],[102.11936905164048,1.45977995645032]]]}},{"type":"Feature","properties":{"code":"1403012011","desa":"Air Putih","kecamatan":"Bengkalis","kecCode":"140301"},"geometry":{"type":"Polygon","coordinates":[[[102.12667585620585,1.455661728780857],[102.15094204983579,1.4941910486102894],[102.17017729834372,1.4963330673470814],[102.15124225522595,1.473899764917076],[102.14556262101819,1.4483537793866288],[102.12667585620585,1.455661728780857]]]}},{"type":"Feature","properties":{"code":"1403012012","desa":"Sungai Alam","kecamatan":"Bengkalis","kecCode":"140301"},"geometry":{"type":"Polygon","coordinates":[[[102.14556262101819,1.4483537793866288],[102.15124225522595,1.473899764917076],[102.17017729834372,1.4963330673470814],[102.18941065377874,1.4950389788971432],[102.17391699956993,1.459599998511813],[102.1566880773929,1.4547341329499652],[102.15289134026317,1.4461951672587972],[102.14556262101819,1.4483537793866288]]]}},{"type":"Feature","properties":{"code":"1403012013","desa":"Penampi","kecamatan":"Bengkalis","kecCode":"140301"},"geometry":{"type":"Polygon","coordinates":[[[102.19754899489025,1.4918254826948116],[102.18683747756761,1.4599397785682675],[102.18708741085538,1.4375206476549995],[102.15643462056134,1.4451192489409856],[102.17256695799874,1.4536055773128838],[102.19333834928545,1.4936455162605053],[102.19754899489025,1.4918254826948116]]]}},{"type":"Feature","properties":{"code":"1403012014","desa":"Temeran","kecamatan":"Bengkalis","kecCode":"140301"},"geometry":{"type":"Polygon","coordinates":[[[102.22202770731292,1.479284954785703],[102.24528026427281,1.4705203096231487],[102.24593656701897,1.4329925980302245],[102.21988006781093,1.4326291145426888],[102.22202770731292,1.479284954785703]]]}},{"type":"Feature","properties":{"code":"1403012015","desa":"Penebal","kecamatan":"Bengkalis","kecCode":"140301"},"geometry":{"type":"Polygon","coordinates":[[[102.24593656701897,1.4329925980302245],[102.24528026427281,1.4705203096231487],[102.30499539741969,1.4799405830395878],[102.29314593283857,1.4296501777175235],[102.27236209133751,1.435463456570761],[102.24593656701897,1.4329925980302245]]]}},{"type":"Feature","properties":{"code":"1403012016","desa":"Pematang Duku","kecamatan":"Bengkalis","kecCode":"140301"},"geometry":{"type":"Polygon","coordinates":[[[102.29314593283857,1.4296501777175235],[102.30499539741969,1.4799405830395878],[102.34547162541526,1.480965679769276],[102.32331661996606,1.4250342823153883],[102.30929049116331,1.4138992211935903],[102.29314593283857,1.4296501777175235]]]}},{"type":"Feature","properties":{"code":"1403012017","desa":"Ketam Putih","kecamatan":"Bengkalis","kecCode":"140301"},"geometry":{"type":"Polygon","coordinates":[[[102.31715960223391,1.4061947804947947],[102.30913193888789,1.4163118126588499],[102.30969182531756,1.4177388559806308],[102.31659702143541,1.423877864782074],[102.39418532589211,1.4364548862803983],[102.37371497906308,1.3845103750079368],[102.34774878527827,1.4206972325052507],[102.3248701205597,1.4156105483077284],[102.31715960223391,1.4061947804947947]]]}},{"type":"Feature","properties":{"code":"1403012018","desa":"Kelemantan","kecamatan":"Bengkalis","kecCode":"140301"},"geometry":{"type":"Polygon","coordinates":[[[102.45685600000445,1.335199998689953],[102.42914022644037,1.302712962878041],[102.40195871042619,1.320586921974146],[102.43128599984908,1.3628999999132634],[102.45685600000445,1.335199998689953]]]}},{"type":"Feature","properties":{"code":"1403012019","desa":"Sekodi","kecamatan":"Bengkalis","kecCode":"140301"},"geometry":{"type":"Polygon","coordinates":[[[102.50365061378487,1.309398843119801],[102.5084673358989,1.2576502815305473],[102.50139957922725,1.2512209787675668],[102.45609063107783,1.2829071539091774],[102.47563099977089,1.32629999836512],[102.50365061378487,1.309398843119801]]]}},{"type":"Feature","properties":{"code":"1403012020","desa":"Wonosari","kecamatan":"Bengkalis","kecCode":"140301"},"geometry":{"type":"Polygon","coordinates":[[[102.11875677970168,1.476187537677002],[102.10353605894204,1.4849332026477085],[102.13233683757504,1.541211890396544],[102.13228212102314,1.5834866877935838],[102.15463153471761,1.5766702619637232],[102.15436989855202,1.560207807703138],[102.13840378460701,1.4963130646261993],[102.11875677970168,1.476187537677002]]]}},{"type":"Feature","properties":{"code":"1403012021","desa":"Kuala Alam","kecamatan":"Bengkalis","kecCode":"140301"},"geometry":{"type":"Polygon","coordinates":[[[102.15289134026317,1.4461951672587972],[102.1566880773929,1.4547341329499652],[102.17391699956993,1.459599998511813],[102.18941065377874,1.4950389788971432],[102.19333834928545,1.4936455162605053],[102.17256695799874,1.4536055773128838],[102.15289134026317,1.4461951672587972]]]}},{"type":"Feature","properties":{"code":"1403012022","desa":"Kelebuk","kecamatan":"Bengkalis","kecCode":"140301"},"geometry":{"type":"Polygon","coordinates":[[[102.18708741085538,1.4375206476549995],[102.18683747756761,1.4599397785682675],[102.19754899489025,1.4918254826948116],[102.20702209269545,1.4867778956239346],[102.1995883659104,1.4349747011196252],[102.18708741085538,1.4375206476549995]]]}},{"type":"Feature","properties":{"code":"1403012023","desa":"Palkun","kecamatan":"Bengkalis","kecCode":"140301"},"geometry":{"type":"Polygon","coordinates":[[[102.42914022644037,1.302712962878041],[102.45685600000445,1.335199998689953],[102.47563099977089,1.32629999836512],[102.45609063107783,1.2829071539091774],[102.42914022644037,1.302712962878041]]]}},{"type":"Feature","properties":{"code":"1403012024","desa":"Sungai Batang","kecamatan":"Bengkalis","kecCode":"140301"},"geometry":{"type":"Polygon","coordinates":[[[102.31715960223391,1.4061947804947947],[102.3248701205597,1.4156105483077284],[102.34774878527827,1.4206972325052507],[102.37371497906308,1.3845103750079368],[102.36089054596198,1.363996877830602],[102.31715960223391,1.4061947804947947]]]}},{"type":"Feature","properties":{"code":"1403012025","desa":"Prapat Tunggal","kecamatan":"Bengkalis","kecCode":"140301"},"geometry":{"type":"Polygon","coordinates":[[[102.02422011456667,1.5742164536698617],[102.013070220914,1.565863057686667],[101.99918953766706,1.5831914259770228],[102.00237801473365,1.5963379485563907],[102.00923964319502,1.601293207628821],[102.02422011456667,1.5742164536698617]]]}},{"type":"Feature","properties":{"code":"1403012026","desa":"Simpang Ayam","kecamatan":"Bengkalis","kecCode":"140301"},"geometry":{"type":"Polygon","coordinates":[[[102.07167724540862,1.6025982372307785],[102.04614491785371,1.5696422283546834],[102.03133130579516,1.5674883799356958],[102.00923964319502,1.601293207628821],[102.03286028277591,1.607005117599163],[102.07167724540862,1.6025982372307785]]]}},{"type":"Feature","properties":{"code":"1403012027","desa":"Senderak","kecamatan":"Bengkalis","kecCode":"140301"},"geometry":{"type":"Polygon","coordinates":[[[102.08630154388116,1.598362855777846],[102.06379730560121,1.5301326277110199],[102.04302793059456,1.5221401917177086],[102.03255475519784,1.5319108535934138],[102.06031472684322,1.5626146507019163],[102.08017797913048,1.6000593935409653],[102.08630154388116,1.598362855777846]]]}},{"type":"Feature","properties":{"code":"1403012028","desa":"Kelemantan Barat","kecamatan":"Bengkalis","kecCode":"140301"},"geometry":{"type":"Polygon","coordinates":[[[102.36089054596198,1.363996877830602],[102.39480599929749,1.430193998657518],[102.40324999928811,1.3942220008880015],[102.43128599984908,1.3628999999132634],[102.40195871042619,1.320586921974146],[102.36089054596198,1.363996877830602]]]}},{"type":"Feature","properties":{"code":"1403012029","desa":"Damai","kecamatan":"Bengkalis","kecCode":"140301"},"geometry":{"type":"Polygon","coordinates":[[[102.22202770731292,1.479284954785703],[102.22118901126389,1.4341546444202762],[102.19963375739205,1.4349477835114888],[102.20600121828164,1.4885224832645523],[102.22202770731292,1.479284954785703]]]}},{"type":"Feature","properties":{"code":"1403012030","desa":"Pangkalan Batang Barat","kecamatan":"Bengkalis","kecCode":"140301"},"geometry":{"type":"Polygon","coordinates":[[[102.06264824272226,1.5141778794157004],[102.08010396942272,1.5078770663906047],[102.06930721795378,1.4950765651626736],[102.05516884026979,1.50896743591431],[102.06264824272226,1.5141778794157004]]]}},{"type":"Feature","properties":{"code":"1403012031","desa":"Pematang Duku Timur","kecamatan":"Bengkalis","kecCode":"140301"},"geometry":{"type":"Polygon","coordinates":[[[102.32331661996606,1.4250342823153883],[102.34547162541526,1.480965679769276],[102.38388899857846,1.4475000008085583],[102.39222199974559,1.4472219987807098],[102.39418532589211,1.4364548862803983],[102.32331661996606,1.4250342823153883]]]}},{"type":"Feature","properties":{"code":"1403022001","desa":"Bantan Tengah","kecamatan":"Bantan","kecCode":"140302"},"geometry":{"type":"Polygon","coordinates":[[[102.29462806593256,1.5325500395423934],[102.29840181279347,1.516180175882266],[102.31974378344893,1.5141343855036111],[102.32967328179659,1.4935559213017182],[102.25378787960705,1.5104909953773435],[102.25513561801444,1.524609503424346],[102.27169597159188,1.523625014682318],[102.29462806593256,1.5325500395423934]]]}},{"type":"Feature","properties":{"code":"1403022002","desa":"Bantan Air","kecamatan":"Bantan","kecCode":"140302"},"geometry":{"type":"Polygon","coordinates":[[[102.33694302080379,1.4820370987789062],[102.32912049281656,1.4820680507456925],[102.32786726326366,1.50207289766959],[102.31974378344893,1.5141343855036111],[102.29840181279347,1.516180175882266],[102.29741675657812,1.5237407592281285],[102.31570584095186,1.5350015149948986],[102.31703158284131,1.5494594748458415],[102.33540151626704,1.5515334823529159],[102.34168947978571,1.5455806242216787],[102.33448299999054,1.5299999983937478],[102.33694302080379,1.4820370987789062]]]}},{"type":"Feature","properties":{"code":"1403022003","desa":"Bantan Tua","kecamatan":"Bantan","kecCode":"140302"},"geometry":{"type":"Polygon","coordinates":[[[102.15906364826877,1.4963889988830184],[102.13840378460701,1.4963130646261993],[102.15196819877343,1.552557610512818],[102.16191745072985,1.5525511237028886],[102.17494499931233,1.5366610825280917],[102.18931798223916,1.5333511906936874],[102.15906364826877,1.4963889988830184]]]}},{"type":"Feature","properties":{"code":"1403022004","desa":"Telukpambang","kecamatan":"Bantan","kecCode":"140302"},"geometry":{"type":"Polygon","coordinates":[[[102.48374716539944,1.483660322909565],[102.49618874631362,1.4686243049284138],[102.48688115344255,1.4416296051128639],[102.4662982465669,1.4443398595844748],[102.45523866823002,1.452235917932182],[102.45684039586763,1.4574302347906178],[102.44562337142149,1.4615298410978605],[102.45053255463374,1.4843872395226714],[102.47548457485328,1.4788444839351405],[102.48374716539944,1.483660322909565]]]}},{"type":"Feature","properties":{"code":"1403022005","desa":"Selat Baru","kecamatan":"Bantan","kecCode":"140302"},"geometry":{"type":"Polygon","coordinates":[[[102.2650517578324,1.5612819318734439],[102.2545624009341,1.545151678183089],[102.23751313991954,1.5448883243126943],[102.22798253226811,1.5131967442455083],[102.19829870931807,1.5339197618756695],[102.21286923192957,1.5508007318377317],[102.214218084597,1.5623937025638728],[102.22672265942327,1.5575963041879974],[102.233059062226,1.5651858376097725],[102.2650517578324,1.5612819318734439]]]}},{"type":"Feature","properties":{"code":"1403022006","desa":"Teluk Lancar","kecamatan":"Bantan","kecCode":"140302"},"geometry":{"type":"Polygon","coordinates":[[[102.45685600000445,1.335199998689953],[102.42028849271979,1.374701715876603],[102.43411743077485,1.3802552138658961],[102.46854585290883,1.380033924884893],[102.47671632679709,1.3876654503508785],[102.49355754044818,1.3899353185082524],[102.50365061378487,1.309398843119801],[102.45685600000445,1.335199998689953]]]}},{"type":"Feature","properties":{"code":"1403022007","desa":"Kembung Luar","kecamatan":"Bantan","kecCode":"140302"},"geometry":{"type":"Polygon","coordinates":[[[102.42028849271979,1.374701715876603],[102.4167614865534,1.3787859743537623],[102.43166602456745,1.4055064519919864],[102.4295370028305,1.413149874589363],[102.45913945692047,1.4204700646559467],[102.45837394590092,1.4392243062500758],[102.47212812241496,1.438822549414918],[102.471808908954,1.4434693149455742],[102.49220818685842,1.4369960461264362],[102.49355754044818,1.3899353185082524],[102.47671632679709,1.3876654503508785],[102.46854585290883,1.380033924884893],[102.43411743077485,1.3802552138658961],[102.42028849271979,1.374701715876603]]]}},{"type":"Feature","properties":{"code":"1403022008","desa":"Jangkang","kecamatan":"Bantan","kecCode":"140302"},"geometry":{"type":"Polygon","coordinates":[[[102.15196819877343,1.552557610512818],[102.15463153471761,1.5766702619637232],[102.18385758835704,1.5695018558746459],[102.18752530155149,1.5532578847103147],[102.21006563502112,1.5480949074264643],[102.18932373879954,1.5337712028670631],[102.17494499931233,1.5366610825280917],[102.16191745072985,1.5525511237028886],[102.15196819877343,1.552557610512818]]]}},{"type":"Feature","properties":{"code":"1403022009","desa":"Muntai","kecamatan":"Bantan","kecCode":"140302"},"geometry":{"type":"Polygon","coordinates":[[[102.45957957973388,1.5185091205048178],[102.42652290430861,1.5004579778786924],[102.41584388398809,1.5022473337707611],[102.42815276723648,1.5281360068658278],[102.45957957973388,1.5185091205048178]]]}},{"type":"Feature","properties":{"code":"1403022010","desa":"Resam Lapis","kecamatan":"Bantan","kecCode":"140302"},"geometry":{"type":"Polygon","coordinates":[[[102.19754899489025,1.4918254826948116],[102.19227800002972,1.5201999997336166],[102.19831774436847,1.5353855102197],[102.22798253226811,1.5131967442455083],[102.21811460780299,1.503105721374356],[102.21563971759895,1.4831630814555756],[102.19754899489025,1.4918254826948116]]]}},{"type":"Feature","properties":{"code":"1403022011","desa":"Berancah","kecamatan":"Bantan","kecCode":"140302"},"geometry":{"type":"Polygon","coordinates":[[[102.23722199969558,1.4699999987601078],[102.21563971759895,1.4831630814555756],[102.21811460780299,1.503105721374356],[102.22733484862442,1.5110074274644085],[102.23751313991954,1.5448883243126943],[102.25766268058828,1.5476008153983396],[102.25683551384793,1.5050931610407225],[102.23722199969558,1.4699999987601078]]]}},{"type":"Feature","properties":{"code":"1403022012","desa":"Ulu Pulau","kecamatan":"Bantan","kecCode":"140302"},"geometry":{"type":"Polygon","coordinates":[[[102.32912049281656,1.4820680507456925],[102.23722199969558,1.4699999987601078],[102.25590351403599,1.5020994006902684],[102.25378787960705,1.5104909953773435],[102.32967328179659,1.4935559213017182],[102.32912049281656,1.4820680507456925]]]}},{"type":"Feature","properties":{"code":"1403022013","desa":"Mentayan","kecamatan":"Bantan","kecCode":"140302"},"geometry":{"type":"Polygon","coordinates":[[[102.29339665663048,1.529692640695686],[102.25566584030634,1.524004241701593],[102.25792273304774,1.5514228306678497],[102.2650517578324,1.5612819318734439],[102.26763362778972,1.5585313140297734],[102.28049943060432,1.553216231710497],[102.28060744188002,1.54013428854784],[102.29089955407125,1.5400216997230614],[102.29339665663048,1.529692640695686]]]}},{"type":"Feature","properties":{"code":"1403022013","desa":"Mentayan","kecamatan":"Bantan","kecCode":"140302"},"geometry":{"type":"Polygon","coordinates":[[[102.27876050599264,1.5551617009163423],[102.27769084515643,1.5554631869407827],[102.27748628536386,1.5558477604296486],[102.27876050599264,1.5551617009163423]]]}},{"type":"Feature","properties":{"code":"1403022013","desa":"Mentayan","kecamatan":"Bantan","kecCode":"140302"},"geometry":{"type":"Polygon","coordinates":[[[102.27519568243486,1.55644258731876],[102.27681656293407,1.5557271055854183],[102.27480293590685,1.5560475592111143],[102.27519568243486,1.55644258731876]]]}},{"type":"Feature","properties":{"code":"1403022013","desa":"Mentayan","kecamatan":"Bantan","kecCode":"140302"},"geometry":{"type":"Polygon","coordinates":[[[102.2709829989663,1.5579948441482336],[102.27423270007908,1.5568438225471364],[102.27457704239661,1.5560875340760043],[102.2709829989663,1.5579948441482336]]]}},{"type":"Feature","properties":{"code":"1403022014","desa":"Pambang Pesisir","kecamatan":"Bantan","kecCode":"140302"},"geometry":{"type":"Polygon","coordinates":[[[102.4802417879282,1.4898796942295964],[102.46081829243029,1.4916776395465121],[102.46410010023948,1.5153936441101208],[102.46814742626275,1.5100645044879608],[102.4802417879282,1.4898796942295964]]]}},{"type":"Feature","properties":{"code":"1403022015","desa":"Suka Maju","kecamatan":"Bantan","kecCode":"140302"},"geometry":{"type":"Polygon","coordinates":[[[102.3925155753336,1.4458522134948053],[102.36983166599867,1.4617039462485197],[102.3716919999859,1.5042999985671373],[102.38857799987481,1.509499998241576],[102.40818299924611,1.5054000007292803],[102.41949200005581,1.5151999984900826],[102.41584388398809,1.5022473337707611],[102.43229034832098,1.5035890710006456],[102.43905599933497,1.4831999986255457],[102.4370063814394,1.4655374152835998],[102.42787634981374,1.4666385622827154],[102.3925155753336,1.4458522134948053]]]}},{"type":"Feature","properties":{"code":"1403022016","desa":"Pambang Baru","kecamatan":"Bantan","kecCode":"140302"},"geometry":{"type":"Polygon","coordinates":[[[102.48374716539944,1.483660322909565],[102.47548457485328,1.4788444839351405],[102.45053255463374,1.4843872395226714],[102.44481476758749,1.461831694944999],[102.4370063814394,1.4655374152835998],[102.43905599933497,1.4831999986255457],[102.43211141740807,1.505424997385572],[102.4598436287805,1.518409216617414],[102.46410010023948,1.5153936441101208],[102.46081829243029,1.4916776395465121],[102.4802417879282,1.4898796942295964],[102.48374716539944,1.483660322909565]]]}},{"type":"Feature","properties":{"code":"1403022017","desa":"Kembung Baru","kecamatan":"Bantan","kecCode":"140302"},"geometry":{"type":"Polygon","coordinates":[[[102.40324999928811,1.3942220008880015],[102.3925155753336,1.4458522134948053],[102.42832524281577,1.4667565776167215],[102.455752844818,1.4582153276475023],[102.45523866823002,1.452235917932182],[102.47285385642037,1.440095561353477],[102.45837394590092,1.4392243062500758],[102.45913945692047,1.4204700646559467],[102.4295370028305,1.413149874589363],[102.43166602456745,1.4055064519919864],[102.4167614865534,1.3787859743537623],[102.40324999928811,1.3942220008880015]]]}},{"type":"Feature","properties":{"code":"1403022018","desa":"Pasiran","kecamatan":"Bantan","kecCode":"140302"},"geometry":{"type":"Polygon","coordinates":[[[102.19333834928545,1.4936455162605053],[102.15906364826877,1.4963889988830184],[102.18714065701577,1.5325896223028503],[102.19712611657707,1.5344861998658015],[102.19333834928545,1.4936455162605053]]]}},{"type":"Feature","properties":{"code":"1403022019","desa":"Bantan Sari","kecamatan":"Bantan","kecCode":"140302"},"geometry":{"type":"Polygon","coordinates":[[[102.35166699923268,1.4791669979076183],[102.33694302080379,1.4820370987789062],[102.33448299999054,1.5299999983937478],[102.34271699929013,1.5383999981445693],[102.34072949666897,1.5493949664755446],[102.35372541699445,1.5474363275976344],[102.35166699923268,1.4791669979076183]]]}},{"type":"Feature","properties":{"code":"1403022020","desa":"Bantan Timur","kecamatan":"Bantan","kecCode":"140302"},"geometry":{"type":"Polygon","coordinates":[[[102.36983166599867,1.4617039462485197],[102.35166699923268,1.4791669979076183],[102.35372541699445,1.5474363275976344],[102.37941410517685,1.5408566240144255],[102.36983166599867,1.4617039462485197]]]}},{"type":"Feature","properties":{"code":"1403022021","desa":"Teluk Papal","kecamatan":"Bantan","kecCode":"140302"},"geometry":{"type":"Polygon","coordinates":[[[102.29741675657812,1.5237407592281285],[102.29089955407125,1.5400216997230614],[102.28060744188002,1.54013428854784],[102.28049943060432,1.553216231710497],[102.31703158284131,1.5494594748458415],[102.31570584095186,1.5350015149948986],[102.30784559359932,1.5282317343015892],[102.29741675657812,1.5237407592281285]]]}},{"type":"Feature","properties":{"code":"1403022021","desa":"Teluk Papal","kecamatan":"Bantan","kecCode":"140302"},"geometry":{"type":"Polygon","coordinates":[[[102.31404995703996,1.5511262720289405],[102.3184444015879,1.5498975517010705],[102.31384832184261,1.550440537170919],[102.31404995703996,1.5511262720289405]]]}},{"type":"Feature","properties":{"code":"1403022021","desa":"Teluk Papal","kecamatan":"Bantan","kecCode":"140302"},"geometry":{"type":"Polygon","coordinates":[[[102.31059284528361,1.5517494230658098],[102.31277811601727,1.5505711690938897],[102.31009828201019,1.551602901920968],[102.31059284528361,1.5517494230658098]]]}},{"type":"Feature","properties":{"code":"1403022022","desa":"Muntai Barat","kecamatan":"Bantan","kecCode":"140302"},"geometry":{"type":"Polygon","coordinates":[[[102.42815276723648,1.5281360068658278],[102.42664699995913,1.5167999985282612],[102.40818299924611,1.5054000007292803],[102.38857799987481,1.509499998241576],[102.3716919999859,1.5042999985671373],[102.37941410517685,1.5408566240144255],[102.42815276723648,1.5281360068658278]]]}},{"type":"Feature","properties":{"code":"1403022023","desa":"Deluk","kecamatan":"Bantan","kecCode":"140302"},"geometry":{"type":"Polygon","coordinates":[[[102.23222821096324,1.5644262531234312],[102.22710886788002,1.5576157933960368],[102.21360637743241,1.562029518504455],[102.21006563502112,1.5480949074264643],[102.18752530155149,1.5532578847103147],[102.18385758835704,1.5695018558746459],[102.23222821096324,1.5644262531234312]]]}},{"type":"Feature","properties":{"code":"1403031010","desa":"Sungai Pakning","kecamatan":"Bukit Batu","kecCode":"140303"},"geometry":{"type":"Polygon","coordinates":[[[101.98365665233268,1.3603452625048897],[102.11047575485225,1.3597544573839708],[102.11336822636264,1.354230301574988],[102.15431182303229,1.359612651384609],[102.15914654237906,1.3562825095157776],[102.15792366764322,1.341583572725605],[101.98387784058991,1.3414993395248762],[101.98365665233268,1.3603452625048897]]]}},{"type":"Feature","properties":{"code":"1403032001","desa":"Sejangat","kecamatan":"Bukit Batu","kecCode":"140303"},"geometry":{"type":"Polygon","coordinates":[[[102.15625233697585,1.3328809843814948],[102.15461761321234,1.323524912666608],[101.98384659004813,1.3252522279280052],[101.98388244871607,1.3302007852525675],[102.15625233697585,1.3328809843814948]]]}},{"type":"Feature","properties":{"code":"1403032002","desa":"Dompas","kecamatan":"Bukit Batu","kecCode":"140303"},"geometry":{"type":"Polygon","coordinates":[[[101.96365863933482,1.3249707059537241],[102.11646514704898,1.3252640980797081],[102.15461761321234,1.323524912666608],[102.15077986609799,1.2958476274188526],[102.11187233094336,1.2965875509267129],[102.10678588685926,1.3101003358987062],[102.04742368905208,1.3036321275647573],[102.04503313457154,1.2973494439727438],[101.93541959164087,1.2970485739839233],[101.96377475709942,1.3184224309780384],[101.96365863933482,1.3249707059537241]]]}},{"type":"Feature","properties":{"code":"1403032003","desa":"Pangkalan Jambi","kecamatan":"Bukit Batu","kecCode":"140303"},"geometry":{"type":"Polygon","coordinates":[[[102.11187233094336,1.2965875509267129],[102.15002914982544,1.2963787481328946],[102.15142238403585,1.2772610860037694],[102.11494921383517,1.2728352038599655],[102.11187233094336,1.2965875509267129]]]}},{"type":"Feature","properties":{"code":"1403032004","desa":"Sungai Selari","kecamatan":"Bukit Batu","kecCode":"140303"},"geometry":{"type":"Polygon","coordinates":[[[102.15914654237906,1.3562825095157776],[102.13622438734562,1.3588348340430647],[102.13891341782004,1.3815063875672222],[102.1487054727794,1.379052894036072],[102.15914654237906,1.3562825095157776]]]}},{"type":"Feature","properties":{"code":"1403032005","desa":"Buruk Bakul","kecamatan":"Bukit Batu","kecCode":"140303"},"geometry":{"type":"Polygon","coordinates":[[[102.06016252558015,1.35953602375045],[101.98365665233268,1.3603452625048897],[101.98343126244288,1.3801985853553598],[102.01524637072349,1.43421054807725],[102.03166610720511,1.4436313404024876],[102.08324310338655,1.4069117685925407],[102.06016252558015,1.35953602375045]]]}},{"type":"Feature","properties":{"code":"1403032006","desa":"Bukit Batu","kecamatan":"Bukit Batu","kecCode":"140303"},"geometry":{"type":"Polygon","coordinates":[[[101.98343126244288,1.3801985853553598],[101.98384659004813,1.3252522279280052],[101.96365863933482,1.3249707059537241],[101.96377475709942,1.3184224309780384],[101.93541959164087,1.2970485739839233],[101.87998415944143,1.296984499986209],[101.88001210227672,1.347459310394204],[101.96410414189266,1.410931200339472],[101.99634069406783,1.469607118233492],[102.03128523082881,1.443368399320903],[102.01524637072349,1.43421054807725],[101.98343126244288,1.3801985853553598]]]}},{"type":"Feature","properties":{"code":"1403032007","desa":"Sukajadi","kecamatan":"Bukit Batu","kecCode":"140303"},"geometry":{"type":"Polygon","coordinates":[[[101.99634069406783,1.469607118233492],[101.96410414189266,1.410931200339472],[101.88001210227672,1.347459310394204],[101.87998415944143,1.296984499986209],[101.77603198009189,1.2968925002402818],[101.79280343602981,1.3089917389157293],[101.78439393942881,1.3237101145519277],[101.79590626256402,1.3325828941971143],[101.78573988458804,1.3407273551861714],[101.79279165940761,1.3483400155736305],[101.78819436557757,1.3598309941866265],[101.80561783899212,1.356263161501263],[101.80763558131706,1.3651567955253732],[101.81421205724068,1.366307615678324],[101.81850925809584,1.3559491020553367],[101.82892926467387,1.354329566044377],[101.83154667134185,1.3670358866704253],[101.8225523087421,1.3731273060471865],[101.82823922026385,1.380908145053029],[101.84629933005009,1.3800277438444888],[101.85555543403608,1.390592551152757],[101.870683499444,1.3934957120016784],[101.88785249529649,1.3888701767665332],[101.89178782604738,1.3971841284848447],[101.9061588754318,1.398191171324464],[101.92646158593351,1.4195328847500581],[101.92314147869631,1.4276187917800833],[101.93232273840376,1.440116330296755],[101.93135380793194,1.4664464356175724],[101.94519105842068,1.469820213491412],[101.94930829594112,1.4632390655970529],[101.96848690065,1.4617393489601436],[101.97832891744564,1.483206359530367],[101.99634069406783,1.469607118233492]]]}},{"type":"Feature","properties":{"code":"1403032016","desa":"Batang Duku","kecamatan":"Bukit Batu","kecCode":"140303"},"geometry":{"type":"Polygon","coordinates":[[[102.13622438734562,1.3588348340430647],[102.11336822636264,1.354230301574988],[102.11047575485225,1.3597544573839708],[102.06016252558015,1.35953602375045],[102.08324310338655,1.4069117685925407],[102.13891341782004,1.3815063875672222],[102.13622438734562,1.3588348340430647]]]}},{"type":"Feature","properties":{"code":"1403032017","desa":"Pakning Asal","kecamatan":"Bukit Batu","kecCode":"140303"},"geometry":{"type":"Polygon","coordinates":[[[101.98387784058991,1.3414993395248762],[102.1021281010311,1.3421839277473016],[102.1575290586192,1.3397093648992497],[102.15625233697585,1.3328809843814948],[101.98759082205885,1.3301480391153264],[101.98387784058991,1.3414993395248762]]]}},{"type":"Feature","properties":{"code":"1403091001","desa":"Air Jamban","kecamatan":"Mandau","kecCode":"140309"},"geometry":{"type":"Polygon","coordinates":[[[101.1796113738659,1.307005061874458],[101.22853837464633,1.301423363843697],[101.2284825249486,1.2866779689760521],[101.20585064139402,1.2873148994253611],[101.17273124455136,1.2741250340200452],[101.1696800426999,1.2652641227278778],[101.157177217055,1.2643274869118277],[101.156977283375,1.2783234245586688],[101.16766534188206,1.293081984601771],[101.18410646604065,1.2877282772999394],[101.1796113738659,1.307005061874458]]]}},{"type":"Feature","properties":{"code":"1403091002","desa":"Babussalam","kecamatan":"Mandau","kecCode":"140309"},"geometry":{"type":"Polygon","coordinates":[[[101.1696800426999,1.2652641227278778],[101.17273124455136,1.2741250340200452],[101.20585064139402,1.2873148994253611],[101.22861654281927,1.2866812829778347],[101.20758526544766,1.2850020436742389],[101.1696800426999,1.2652641227278778]]]}},{"type":"Feature","properties":{"code":"1403091003","desa":"Batang Serosa","kecamatan":"Mandau","kecCode":"140309"},"geometry":{"type":"Polygon","coordinates":[[[101.21038335220997,1.259846809975163],[101.20445935871247,1.2541678331781339],[101.19381611971822,1.2676455230066834],[101.20119626489578,1.2713229362845768],[101.21038335220997,1.259846809975163]]]}},{"type":"Feature","properties":{"code":"1403091004","desa":"Balik Alam","kecamatan":"Mandau","kecCode":"140309"},"geometry":{"type":"Polygon","coordinates":[[[101.20119626489578,1.2713229362845768],[101.19411840164298,1.2624177396769134],[101.1858109807922,1.263409371733974],[101.19771574558524,1.2751388019899048],[101.20119626489578,1.2713229362845768]]]}},{"type":"Feature","properties":{"code":"1403091006","desa":"Duri Barat","kecamatan":"Mandau","kecCode":"140309"},"geometry":{"type":"Polygon","coordinates":[[[101.17481627684975,1.2646493299900874],[101.17891204755301,1.2712000745040521],[101.1964234305969,1.2780119794419063],[101.1858109807922,1.263409371733974],[101.17481627684975,1.2646493299900874]]]}},{"type":"Feature","properties":{"code":"1403091007","desa":"Duri Timur","kecamatan":"Mandau","kecCode":"140309"},"geometry":{"type":"Polygon","coordinates":[[[101.1964234305969,1.2780119794419063],[101.20758526544766,1.2850020436742389],[101.2286874930334,1.2845745284570178],[101.22875876070826,1.2782609126832873],[101.1964234305969,1.2780119794419063]]]}},{"type":"Feature","properties":{"code":"1403091008","desa":"Gajah Sakti","kecamatan":"Mandau","kecCode":"140309"},"geometry":{"type":"Polygon","coordinates":[[[101.21038335220997,1.259846809975163],[101.19950070559314,1.2751722369848975],[101.22875876070826,1.2782609126832873],[101.22939434577249,1.2647001461822314],[101.21889973233687,1.2689851603195705],[101.21038335220997,1.259846809975163]]]}},{"type":"Feature","properties":{"code":"1403091009","desa":"Talang Mandi","kecamatan":"Mandau","kecCode":"140309"},"geometry":{"type":"Polygon","coordinates":[[[101.21121794285385,1.2575306716985566],[101.21889973233687,1.2689851603195705],[101.22843304335031,1.2606931349721004],[101.25087025066158,1.260954755848901],[101.2573108570105,1.2713311120212574],[101.27022290296462,1.2608362584782777],[101.37826479428486,1.2566239320452595],[101.35808687460963,1.214680283911048],[101.31327040870246,1.2438493465807383],[101.26754658620602,1.2386722346523262],[101.21121794285385,1.2575306716985566]]]}},{"type":"Feature","properties":{"code":"1403091010","desa":"Pematang Pudu","kecamatan":"Mandau","kecCode":"140309"},"geometry":{"type":"Polygon","coordinates":[[[101.13772344228312,1.2638368671660984],[101.19332770241158,1.262636408033523],[101.2046572374416,1.2540986645210168],[101.21121794285385,1.2575306716985566],[101.21958067201045,1.2290269148873583],[101.19855880334613,1.2184284108814067],[101.19586224284829,1.2048878197710828],[101.16083220034584,1.194067059113531],[101.14191097441199,1.1765606709237748],[101.1361456330146,1.1664392572627553],[101.14029117759583,1.1487610706834304],[101.06590141901533,1.1413526814059418],[101.04059055041363,1.1609641927462506],[101.06041469658106,1.1826799441029245],[101.1181522358371,1.2088727319405812],[101.13667881767338,1.238123579856323],[101.13772344228312,1.2638368671660984]]]}},{"type":"Feature","properties":{"code":"1403092011","desa":"Harapan Baru","kecamatan":"Mandau","kecCode":"140309"},"geometry":{"type":"Polygon","coordinates":[[[101.22973698837137,1.260426635273201],[101.22441442368675,1.3371985548761718],[101.26877412032944,1.3370664948297784],[101.28844058656388,1.3432542351948644],[101.29287125130726,1.334651445517374],[101.28806371756654,1.3067406198243838],[101.31546229844639,1.306959532796614],[101.31373411263924,1.283599155243223],[101.3189561079381,1.2786398815972144],[101.30788261798847,1.2602377686504898],[101.26989572690631,1.260877899786961],[101.2573108570105,1.2713311120212574],[101.25095353058106,1.260966653879554],[101.22973698837137,1.260426635273201]]]}},{"type":"Feature","properties":{"code":"1403092021","desa":"Bathin Betuah","kecamatan":"Mandau","kecCode":"140309"},"geometry":{"type":"Polygon","coordinates":[[[101.37826479428486,1.2566239320452595],[101.30788261798847,1.2602377686504898],[101.3189561079381,1.2786398815972144],[101.31373411263924,1.283599155243223],[101.31546229844639,1.306959532796614],[101.28806371756654,1.3067406198243838],[101.29287125130726,1.334651445517374],[101.28844058656388,1.3432542351948644],[101.41373262136345,1.3653795818776335],[101.41184708927182,1.3448348035816136],[101.39310407569258,1.3368183997565084],[101.3817292004423,1.314123536704304],[101.3880095116297,1.293141579975742],[101.37826479428486,1.2566239320452595]]]}},{"type":"Feature","properties":{"code":"1403122001","desa":"Lubuk Muda","kecamatan":"Siak Kecil","kecCode":"140312"},"geometry":{"type":"Polygon","coordinates":[[[102.08291811627811,1.2432337840232297],[102.0815856186814,1.2370471848978752],[102.09497722541869,1.2293472498025309],[102.0789766188759,1.218132414318758],[102.0753482060549,1.2249763540072158],[102.0677812546013,1.224437984757433],[102.06674124441297,1.2422390538017498],[102.07384123728332,1.2469622841892203],[102.08291811627811,1.2432337840232297]]]}},{"type":"Feature","properties":{"code":"1403122001","desa":"Lubuk Muda","kecamatan":"Siak Kecil","kecCode":"140312"},"geometry":{"type":"Polygon","coordinates":[[[102.15142238403585,1.2772610860037694],[102.14417723609061,1.256973745837746],[102.14772551392139,1.2451994861764937],[102.1275642658782,1.2452617615301111],[102.14018642436405,1.2770320106924458],[102.15142238403585,1.2772610860037694]]]}},{"type":"Feature","properties":{"code":"1403122001","desa":"Lubuk Muda","kecamatan":"Siak Kecil","kecCode":"140312"},"geometry":{"type":"Polygon","coordinates":[[[102.10355720829858,1.2656167855725737],[102.09234426857319,1.2617561992798882],[102.09609440823043,1.2685757241734452],[102.10355720829858,1.2656167855725737]]]}},{"type":"Feature","properties":{"code":"1403122002","desa":"Tanjung Belit","kecamatan":"Siak Kecil","kecCode":"140312"},"geometry":{"type":"Polygon","coordinates":[[[102.04503313457154,1.2973494439727438],[102.04742368905208,1.3036321275647573],[102.10678588685926,1.3101003358987062],[102.11494921383517,1.2728352038599655],[102.14018642436405,1.2770320106924458],[102.1275642658782,1.2452617615301111],[102.11270227658883,1.2477052267212019],[102.08778525528537,1.2389699183431309],[102.07849389877447,1.245829499040623],[102.08337811770605,1.2545075547786235],[102.07248970373688,1.260967791521969],[102.08100460357964,1.2766347189912115],[102.05942380086775,1.2975159588453382],[102.04503313457154,1.2973494439727438]],[[102.1002117914411,1.2612371321792117],[102.09609440823043,1.2685757241734452],[102.09234426857319,1.2617561992798882],[102.1002117914411,1.2612371321792117]]]}},{"type":"Feature","properties":{"code":"1403122003","desa":"Sungai Siput","kecamatan":"Siak Kecil","kecCode":"140312"},"geometry":{"type":"Polygon","coordinates":[[[102.14874089167886,1.2358813064966419],[102.14417723609061,1.256973745837746],[102.15198531826785,1.2678214277007078],[102.16380017513801,1.2286727546714091],[102.16857065860904,1.2285086158077023],[102.164021756399,1.2006030916181878],[102.15266435137873,1.2063183155901887],[102.1383666938679,1.2033982510841086],[102.13016518977174,1.2168071247897316],[102.1351939999032,1.2190999985043172],[102.13557652383759,1.234365708731712],[102.14874089167886,1.2358813064966419]]]}},{"type":"Feature","properties":{"code":"1403122004","desa":"Sepotong","kecamatan":"Siak Kecil","kecCode":"140312"},"geometry":{"type":"Polygon","coordinates":[[[102.13232689197251,1.1776635203395274],[102.1180121446448,1.1624200269640081],[102.12014418090928,1.1576435648053376],[102.09899031874829,1.1509910431161685],[102.09307599566074,1.1786700487669564],[102.10147758362365,1.1758181195969217],[102.12183747481963,1.1887092032391775],[102.13232689197251,1.1776635203395274]]]}},{"type":"Feature","properties":{"code":"1403122005","desa":"Lubuk Gaung","kecamatan":"Siak Kecil","kecCode":"140312"},"geometry":{"type":"Polygon","coordinates":[[[101.64188567278563,1.2967100313946784],[101.90834373877259,1.2970154159801648],[102.01537397732726,1.1406787411564896],[102.03490430958628,1.153113560953782],[102.05608042187401,1.1554562391232466],[102.06350910166377,1.1802644855989874],[102.06568953584348,1.1764755410989844],[102.07891894805105,1.1841200806543188],[102.0761916253433,1.1891874770919089],[102.08573607625897,1.1944156012646565],[102.07371766683688,1.2150720780566377],[102.08927889160763,1.2239896547315001],[102.09388633428692,1.200692075037954],[102.10485564856941,1.20059689708792],[102.10930920735409,1.190360454741405],[102.11505599933496,1.1962000000936261],[102.12183747481963,1.1887092032391775],[102.10147758362365,1.1758181195969217],[102.09315898779708,1.1787115470834144],[102.07945329283524,1.17262012500871],[102.07035423386087,1.1771696540412169],[102.06453407159017,1.164204981573944],[102.08332705599888,1.1524793950204322],[102.08210428378572,1.1414463682799605],[102.06757148773403,1.1430645211336108],[102.06230336081148,1.1532010227206206],[102.0474364882034,1.1451917577139918],[102.03132063264115,1.1504344464072662],[102.01976180286499,1.1115637772045117],[101.9966757293015,1.09804837250743],[101.98960844297534,1.0806162269497592],[101.9771711374381,1.0793942452420473],[101.98039427437628,1.0959568983675045],[101.97556872721502,1.1083300957189224],[101.9638617799972,1.1087012917923522],[101.95735157331649,1.0951764352205067],[101.9474339810934,1.105769796003721],[101.94210081520055,1.092154519794866],[101.93073650968222,1.0910266548370857],[101.94145836021521,1.080390463841554],[101.93303506891333,1.05629128423497],[101.91011111073925,1.0890833314136472],[101.89234503069866,1.1647729690959356],[101.87911000042622,1.1836929989103646],[101.85684199965861,1.2015189989604207],[101.77699996537615,1.2119722795431767],[101.71275001789905,1.211777818238052],[101.7053517720667,1.2007773577474636],[101.67586865891154,1.226039389536648],[101.64188567278563,1.2967100313946784]]]}},{"type":"Feature","properties":{"code":"1403122006","desa":"Langkat","kecamatan":"Siak Kecil","kecCode":"140312"},"geometry":{"type":"Polygon","coordinates":[[[102.09307599566074,1.1786700487669564],[102.097631944059,1.171036515114798],[102.09386178639237,1.161051006101887],[102.10238152728574,1.148942982848719],[102.1016336339851,1.129519218475129],[102.0824540643037,1.1409609574074755],[102.08332705599888,1.1524793950204322],[102.06453407159017,1.164204981573944],[102.0708110903596,1.1774932606899304],[102.07945329283524,1.17262012500871],[102.09307599566074,1.1786700487669564]]]}},{"type":"Feature","properties":{"code":"1403122007","desa":"Sadar Jaya","kecamatan":"Siak Kecil","kecCode":"140312"},"geometry":{"type":"Polygon","coordinates":[[[102.07052384959604,1.142292379413507],[102.06531499968753,1.0930839988060805],[102.0405482613932,1.0871950896668325],[102.01898976456602,1.1089291134487045],[102.0290165326869,1.14525242867708],[102.0478523464087,1.1448526791287366],[102.06217670029451,1.1526858649728786],[102.07052384959604,1.142292379413507]]]}},{"type":"Feature","properties":{"code":"1403122008","desa":"Sungai Linau","kecamatan":"Siak Kecil","kecCode":"140312"},"geometry":{"type":"Polygon","coordinates":[[[101.90834373877259,1.2970154159801648],[101.99581454840272,1.2977703941390364],[102.06350910166377,1.1802644855989874],[102.05608042187401,1.1554562391232466],[102.03490430958628,1.153113560953782],[102.01537397732726,1.1406787411564896],[101.90834373877259,1.2970154159801648]]]}},{"type":"Feature","properties":{"code":"1403122009","desa":"Bandar Jaya","kecamatan":"Siak Kecil","kecCode":"140312"},"geometry":{"type":"Polygon","coordinates":[[[101.97633114007009,1.0798483570094073],[101.96402657356758,1.0806617362425222],[101.9643882530155,1.0689262328648337],[102.01379381633159,1.0215004182680576],[101.97895628990089,0.9800161618210669],[101.96118210067344,0.9987854184959674],[101.95916699965737,1.0661999992390994],[101.96679699808304,1.109015816187784],[101.97729042171561,1.1059701047007686],[101.97633114007009,1.0798483570094073]]]}},{"type":"Feature","properties":{"code":"1403122010","desa":"Muara Dua","kecamatan":"Siak Kecil","kecCode":"140312"},"geometry":{"type":"Polygon","coordinates":[[[102.01898976456602,1.1089291134487045],[102.0406432558816,1.088382113827316],[102.03315100031845,1.0665589987069577],[102.03328900038713,1.0322169987619083],[102.02025600011437,1.0322489984389178],[102.01379381633159,1.0215004182680576],[101.96300340678188,1.0715959890661708],[101.96402657356758,1.0806617362425222],[101.99013356161463,1.0804257982046732],[101.99643913385898,1.0965466458857198],[102.01898976456602,1.1089291134487045]]]}},{"type":"Feature","properties":{"code":"1403122011","desa":"Tanjung Damai","kecamatan":"Siak Kecil","kecCode":"140312"},"geometry":{"type":"Polygon","coordinates":[[[101.99581454840272,1.2977703941390364],[102.0263738128013,1.2974343579602736],[102.0677812546013,1.224437984757433],[102.0753482060549,1.2249763540072158],[102.0789766188759,1.218132414318758],[102.07371766683688,1.2150720780566377],[102.08573607625897,1.1944156012646565],[102.0761916253433,1.1891874770919089],[102.07891894805105,1.1841200806543188],[102.06568953584348,1.1764755410989844],[101.99581454840272,1.2977703941390364]]]}},{"type":"Feature","properties":{"code":"1403122012","desa":"Sumber Jaya","kecamatan":"Siak Kecil","kecCode":"140312"},"geometry":{"type":"Polygon","coordinates":[[[102.0263738128013,1.2974343579602736],[102.05942380086775,1.2975159588453382],[102.08100460357964,1.2766347189912115],[102.07248970373688,1.260967791521969],[102.08337811770605,1.2545075547786235],[102.07795294667119,1.2448683584974323],[102.06674124441297,1.2422390538017498],[102.06749880182832,1.225892658849774],[102.0263738128013,1.2974343579602736]]]}},{"type":"Feature","properties":{"code":"1403122013","desa":"Lubuk Garam","kecamatan":"Siak Kecil","kecCode":"140312"},"geometry":{"type":"Polygon","coordinates":[[[102.09376736207417,1.200846739543938],[102.0949486719437,1.2297565168761264],[102.0815856186814,1.2370471848978752],[102.08387941870029,1.2423676595521227],[102.08778525528537,1.2389699183431309],[102.11417992296516,1.2474910747599077],[102.11605589436407,1.2390668949371957],[102.10707969357304,1.2356656886403679],[102.12061280863429,1.2214762375738495],[102.11455593041192,1.2162392020189428],[102.13116699855817,1.2057999985241092],[102.10930920735409,1.190360454741405],[102.10526015733046,1.2003946422579603],[102.09376736207417,1.200846739543938]]]}},{"type":"Feature","properties":{"code":"1403122014","desa":"Liang Banir","kecamatan":"Siak Kecil","kecCode":"140312"},"geometry":{"type":"Polygon","coordinates":[[[102.11653192440882,1.2435912537442784],[102.12866775831048,1.238279803786787],[102.13566699923268,1.2248999988676017],[102.12757821796043,1.2080524764910736],[102.11497008889853,1.2154853102411014],[102.12061280863429,1.2214762375738495],[102.10709735805672,1.2355159928886708],[102.11653192440882,1.2435912537442784]]]}},{"type":"Feature","properties":{"code":"1403122015","desa":"Tanjung Datuk","kecamatan":"Siak Kecil","kecCode":"140312"},"geometry":{"type":"Polygon","coordinates":[[[102.12036485565363,1.2449559030019568],[102.1451336282144,1.2455240721869707],[102.14874089167886,1.2358813064966419],[102.14001778799057,1.2383654642115411],[102.13272779894885,1.2294740470163261],[102.12036485565363,1.2449559030019568]]]}},{"type":"Feature","properties":{"code":"1403122016","desa":"Koto Raja","kecamatan":"Siak Kecil","kecCode":"140312"},"geometry":{"type":"Polygon","coordinates":[[[102.13016518977174,1.2168071247897316],[102.1383666938679,1.2033982510841086],[102.14813400038388,1.2044649990149785],[102.14912763343358,1.1873115452651999],[102.13413329991192,1.1760636812799916],[102.11505599933496,1.1962000000936261],[102.13116699855817,1.2057999985241092],[102.13016518977174,1.2168071247897316]]]}},{"type":"Feature","properties":{"code":"1403122017","desa":"Sungai Nibung","kecamatan":"Siak Kecil","kecCode":"140312"},"geometry":{"type":"Polygon","coordinates":[[[101.9322550050645,1.0567739296921774],[101.9373894828384,1.058161542238912],[101.94145836021521,1.080390463841554],[101.93135041029325,1.0924115010692383],[101.94210081520055,1.092154519794866],[101.94875696026554,1.1063789392003955],[101.95898864341119,1.0955761847689067],[101.96325263769916,1.1081587739700294],[101.96718350691339,1.1099957201860597],[101.97293228459732,1.1092818797154846],[101.97764361785875,1.1068262781734426],[101.98037523842656,1.096137736742323],[101.9771711374381,1.0793942452420473],[101.98984463282365,1.080745836343575],[101.99062934976473,1.0843852047016653],[101.9966757293015,1.09804837250743],[102.01976180286499,1.1115637772045117],[102.02054051683142,1.123546257798185],[102.02562182398805,1.1310981527937018],[102.02768005559015,1.1437449877630579],[102.03132063264115,1.1504344464072662],[102.03448055623271,1.1502440887085807],[102.0474364882034,1.1451917577139918],[102.0549127547199,1.1504646429435557],[102.0624508873986,1.1531629517204918],[102.06757148773403,1.1430645211336108],[102.07831237421675,1.143640348945152],[102.1016336339851,1.129519218475129],[102.08941284832433,1.1178995801523908],[102.0769969997118,1.1226639985902884],[102.07025600001445,1.1132869987520768],[102.07052384959604,1.142292379413507],[102.06713549730539,1.1429110401354428],[102.06226236161876,1.1526192395984702],[102.04756681075973,1.1448050897041022],[102.03288077742599,1.1488977631376323],[102.02026963383662,1.110521818186475],[101.99643913385898,1.0965466458857198],[101.99040719923289,1.0806280521353406],[101.9837090180568,1.0778797752269185],[101.97785554399819,1.0777370069530265],[101.97607689543241,1.0807240241867488],[101.97712385827948,1.1062794346120741],[101.96346575274237,1.1073501917206436],[101.96118210067344,0.9987854184959674],[101.9322550050645,1.0567739296921774]]]}},{"type":"Feature","properties":{"code":"1403131001","desa":"Titian Antui","kecamatan":"Pinggir","kecCode":"140313"},"geometry":{"type":"Polygon","coordinates":[[[101.22129447585944,1.2535893082997633],[101.26754658620602,1.2386722346523262],[101.3032267036495,1.2450414573067063],[101.32040165391328,1.2417006935452055],[101.3537985788414,1.2203081495383468],[101.36217888524742,1.2005573026362268],[101.3559697985674,1.196390231887193],[101.34973388601007,1.2125092800247788],[101.28196088758494,1.2176654530380464],[101.22409374343157,1.2311225735727351],[101.22129447585944,1.2535893082997633]]]}},{"type":"Feature","properties":{"code":"1403131012","desa":"Balai Raja","kecamatan":"Pinggir","kecCode":"140313"},"geometry":{"type":"Polygon","coordinates":[[[101.2133435057982,1.2540693987829952],[101.22095213003684,1.2548004900489904],[101.22672899624625,1.2230376405084986],[101.24752627991391,1.208785146067337],[101.25441088335565,1.1956158040904503],[101.22128397627453,1.173653140269051],[101.20856182486834,1.1805081955779266],[101.15117880555749,1.1677540678912957],[101.1416816257065,1.140082011301962],[101.1361456330146,1.1664392572627553],[101.14191097441199,1.1765606709237748],[101.16083220034584,1.194067059113531],[101.19586224284829,1.2048878197710828],[101.19855880334613,1.2184284108814067],[101.21958067201045,1.2290269148873583],[101.2133435057982,1.2540693987829952]]]}},{"type":"Feature","properties":{"code":"1403132003","desa":"Balai Pungut","kecamatan":"Pinggir","kecCode":"140313"},"geometry":{"type":"Polygon","coordinates":[[[101.30183870978867,1.0461558060764762],[101.27461627462145,1.0659677061535335],[101.27993313220833,1.0826757211977371],[101.3009889970446,1.0900503148520824],[101.30912168321917,1.0871228336370873],[101.30183870978867,1.0461558060764762]]]}},{"type":"Feature","properties":{"code":"1403132005","desa":"Muara Basung","kecamatan":"Pinggir","kecCode":"140313"},"geometry":{"type":"Polygon","coordinates":[[[101.36787152455126,1.1607840270643572],[101.39318614062796,1.1619051318182623],[101.38148321787628,1.138271639153031],[101.38945598030932,1.1391424616825072],[101.3818031184192,1.1297601531462205],[101.38624441494785,1.111070116850895],[101.37934026833875,1.1025009087579913],[101.38131855740556,1.0857880436699612],[101.35054988137199,1.0860393807992057],[101.35217149841598,1.092720449667966],[101.33824939059694,1.1097037337003823],[101.31947534591052,1.1157617279746639],[101.31324635903229,1.1042558610852196],[101.27985603962458,1.111191680909727],[101.27659240171799,1.1264107522958422],[101.2621450538512,1.1265871210400547],[101.25461597464755,1.135161687293709],[101.26012929992731,1.1495990148982367],[101.28006836866035,1.1540060445540052],[101.28230298429537,1.1593911067188722],[101.30843021068573,1.1619130701339715],[101.32462718689521,1.1520531901154754],[101.33003304229112,1.1626396899707752],[101.32611325542246,1.1696939100391412],[101.33280807493274,1.1743510645380155],[101.34816902787837,1.1746932862538244],[101.3484332675813,1.1667050797721554],[101.36787152455126,1.1607840270643572]]]}},{"type":"Feature","properties":{"code":"1403132007","desa":"Pinggir","kecamatan":"Pinggir","kecCode":"140313"},"geometry":{"type":"Polygon","coordinates":[[[101.22128397627453,1.173653140269051],[101.25514191166997,1.196088926626453],[101.28212399672515,1.1706362871271114],[101.28218074394624,1.1554084410558292],[101.26012929992731,1.1495990148982367],[101.25073123256038,1.1242943687339357],[101.2382964703059,1.1136930021859428],[101.23783703635017,1.0936632917054685],[101.21658818959334,1.1080323077067449],[101.20766349567384,1.1223817328765902],[101.22218104641819,1.1486206559351864],[101.22128397627453,1.173653140269051]]]}},{"type":"Feature","properties":{"code":"1403132008","desa":"Semunai","kecamatan":"Pinggir","kecCode":"140313"},"geometry":{"type":"Polygon","coordinates":[[[101.22409374343157,1.2311225735727351],[101.28196088758494,1.2176654530380464],[101.34973388601007,1.2125092800247788],[101.3559697985674,1.196390231887193],[101.38804878772146,1.1654371570970468],[101.36787152455126,1.1607840270643572],[101.3517319853429,1.1644636409832605],[101.34898114806155,1.1740324797035704],[101.34231897843819,1.1757135302417354],[101.32611325542246,1.1696939100391412],[101.33003304229112,1.1626396899707752],[101.32462718689521,1.1520531901154754],[101.30843021068573,1.1619130701339715],[101.28230298429537,1.1593911067188722],[101.28189610042477,1.170923494615444],[101.22409374343157,1.2311225735727351]]]}},{"type":"Feature","properties":{"code":"1403132011","desa":"Tengganau","kecamatan":"Pinggir","kecCode":"140313"},"geometry":{"type":"Polygon","coordinates":[[[101.30183870978867,1.0461558060764762],[101.30881235330752,1.088175745498303],[101.27993313220833,1.0826757211977371],[101.2746430249557,1.0654873746519555],[101.23527101874258,1.092686690917057],[101.2382964703059,1.1136930021859428],[101.25461597464755,1.135161687293709],[101.2621450538512,1.1265871210400547],[101.27659240171799,1.1264107522958422],[101.27985603962458,1.111191680909727],[101.31324635903229,1.1042558610852196],[101.31947534591052,1.1157617279746639],[101.335988050708,1.111469630776891],[101.35217149841598,1.092720449667966],[101.35658070263736,1.0295067065187364],[101.33962801711937,1.0282094938239545],[101.32222049677858,1.0412492524873314],[101.30183870978867,1.0461558060764762]]]}},{"type":"Feature","properties":{"code":"1403132014","desa":"Sungai Meranti","kecamatan":"Pinggir","kecCode":"140313"},"geometry":{"type":"Polygon","coordinates":[[[101.187930186429,1.123046594469944],[101.22512814544761,1.1063340810168316],[101.2363232929856,1.0918041745030496],[101.22670322437436,1.046754359756149],[101.20425970292301,1.0499712428052423],[101.16904658273364,1.0390344192418797],[101.16437046602425,1.0477194519202984],[101.14692425774837,1.0512426422593124],[101.14678382231563,1.0735192018500448],[101.13477784602082,1.073890163200457],[101.13397200040752,1.0971999988548253],[101.17421288571613,1.0973826403703384],[101.1820456353978,1.1212888488484618],[101.187930186429,1.123046594469944]]]}},{"type":"Feature","properties":{"code":"1403132015","desa":"Pangkalan Libut","kecamatan":"Pinggir","kecCode":"140313"},"geometry":{"type":"Polygon","coordinates":[[[101.2363232929856,1.0918041745030496],[101.28234652856952,1.0609326898062033],[101.27616632811362,1.0450665625039468],[101.248461991228,1.0189913853053387],[101.23132176198976,1.0067824014614752],[101.1929834680127,0.9995694177772156],[101.16985559216191,1.0122862496793144],[101.13433615658839,1.020034873170877],[101.11367302928691,1.0193039177024545],[101.0788571792155,1.002965553696386],[100.9960942764298,1.071967616814195],[101.14656967035403,1.0737761840237603],[101.14692425774837,1.0512426422593124],[101.16437046602425,1.0477194519202984],[101.16904658273364,1.0390344192418797],[101.20425970292301,1.0499712428052423],[101.22670322437436,1.046754359756149],[101.2363232929856,1.0918041745030496]]]}},{"type":"Feature","properties":{"code":"1403132016","desa":"Buluh Apo","kecamatan":"Pinggir","kecCode":"140313"},"geometry":{"type":"Polygon","coordinates":[[[100.99153420643852,1.2007285110706254],[101.06590141901533,1.1413526814059418],[101.14029117759583,1.1487610706834304],[101.1416816257065,1.140082011301962],[101.15117880555749,1.1677540678912957],[101.20856182486834,1.1805081955779266],[101.22128397627453,1.173653140269051],[101.22500213873774,1.159482131599636],[101.20765245199914,1.122889141166299],[101.21658818959334,1.1080323077067449],[101.1820456353978,1.1212888488484618],[101.17421288571613,1.0973826403703384],[101.13397200040752,1.0971999988548253],[101.13477784602082,1.073890163200457],[100.9960942764298,1.071967616814195],[100.98402777755996,1.0820277767514141],[100.98378663964178,1.1018348339791852],[100.99088170063003,1.1170366248922317],[100.99153420643852,1.2007285110706254]]]}},{"type":"Feature","properties":{"code":"1403142001","desa":"Paritsatuapi-Api","kecamatan":"Bandar Laksamana","kecCode":"140314"},"geometry":{"type":"Polygon","coordinates":[[[101.97832891744564,1.483206359530367],[101.96819274230124,1.465367949735402],[101.9459914199681,1.4908635570435365],[101.95624909172226,1.500032464552382],[101.97832891744564,1.483206359530367]]]}},{"type":"Feature","properties":{"code":"1403142002","desa":"Temiang","kecamatan":"Bandar Laksamana","kecCode":"140314"},"geometry":{"type":"Polygon","coordinates":[[[101.96819274230124,1.465367949735402],[101.93118819777713,1.466352210049639],[101.93232273840376,1.440116330296755],[101.92314147869631,1.4276187917800833],[101.92646158593351,1.4195328847500581],[101.90377822338637,1.3965743278836777],[101.89218588307209,1.3973831565472805],[101.88785249529649,1.3888701767665332],[101.85824422439153,1.3914253620372683],[101.84629933005009,1.3800277438444888],[101.82823922026385,1.380908145053029],[101.8225523087421,1.3731273060471865],[101.83154667134185,1.3670358866704253],[101.82892926467387,1.354329566044377],[101.81850925809584,1.3559491020553367],[101.81421205724068,1.366307615678324],[101.80763558131706,1.3651567955253732],[101.80561783899212,1.356263161501263],[101.78819436557757,1.3598309941866265],[101.79279165940761,1.3483400155736305],[101.78573988458804,1.3407273551861714],[101.79590626256402,1.3325828941971143],[101.78439393942881,1.3237101145519277],[101.79280343602981,1.3089917389157293],[101.77899281806418,1.2977720659786725],[101.64188567278563,1.2967100313946784],[101.9459914199681,1.4908635570435365],[101.96819274230124,1.465367949735402]]]}},{"type":"Feature","properties":{"code":"1403142003","desa":"Api-Api","kecamatan":"Bandar Laksamana","kecCode":"140314"},"geometry":{"type":"Polygon","coordinates":[[[101.95624909172226,1.500032464552382],[101.92140682856234,1.4744367096406787],[101.64188567278563,1.2967100313946784],[101.63086343969603,1.3285695013977592],[101.92953919727618,1.5242668985974124],[101.95624909172226,1.500032464552382]]]}},{"type":"Feature","properties":{"code":"1403142004","desa":"Tenggayun","kecamatan":"Bandar Laksamana","kecCode":"140314"},"geometry":{"type":"Polygon","coordinates":[[[101.92953919727618,1.5242668985974124],[101.63086343969603,1.3285695013977592],[101.59365055642807,1.3508816264774424],[101.56602343443397,1.3550349960551658],[101.89599510728846,1.5469902575679897],[101.92953919727618,1.5242668985974124]]]}},{"type":"Feature","properties":{"code":"1403142005","desa":"Sepahat","kecamatan":"Bandar Laksamana","kecCode":"140314"},"geometry":{"type":"Polygon","coordinates":[[[101.89599510728846,1.5469902575679897],[101.89203193532563,1.5438870856975773],[101.72745651530602,1.448593637569281],[101.72874285160138,1.5873842667992928],[101.7551974617935,1.6016277203560563],[101.78546616063488,1.639268033364349],[101.84104506707627,1.58725076963633],[101.89599510728846,1.5469902575679897]]]}},{"type":"Feature","properties":{"code":"1403142006","desa":"Bukitkerikil","kecamatan":"Bandar Laksamana","kecCode":"140314"},"geometry":{"type":"Polygon","coordinates":[[[101.65229243504791,1.4050091286997153],[101.56602343443397,1.3550349960551658],[101.49635942974396,1.3533499003664171],[101.46550348080102,1.374085311553609],[101.47303792356138,1.393272521853827],[101.4350678183252,1.4472429026223066],[101.44932524196639,1.494308268943612],[101.5066432214076,1.4933102759817487],[101.52647344969,1.4835729906450652],[101.54894864886114,1.4829126904131693],[101.65229243504791,1.4050091286997153]]]}},{"type":"Feature","properties":{"code":"1403142007","desa":"Tanjungleban","kecamatan":"Bandar Laksamana","kecCode":"140314"},"geometry":{"type":"Polygon","coordinates":[[[101.72745651530602,1.448593637569281],[101.65229243504791,1.4050091286997153],[101.54894864886114,1.4829126904131693],[101.52647344969,1.4835729906450652],[101.50712654135685,1.492896385493502],[101.52808540082066,1.5955543350842376],[101.5980444829666,1.6001720156406805],[101.61111100007264,1.5796109982863704],[101.61827272060964,1.5454943225802151],[101.64068057135137,1.5478585952706825],[101.64229774484511,1.562215803173567],[101.62425432377808,1.588621603531651],[101.6421669996074,1.6098609983902685],[101.71853055604038,1.622686109565993],[101.72508068992198,1.6714829478153477],[101.76661732742774,1.6561331797550405],[101.78464566956204,1.635882440197487],[101.7551974617935,1.6016277203560563],[101.72874285160138,1.5873842667992928],[101.72745651530602,1.448593637569281]]]}},{"type":"Feature","properties":{"code":"1403152001","desa":"Tasikserai","kecamatan":"Talang Muandau","kecCode":"140315"},"geometry":{"type":"Polygon","coordinates":[[[101.62923483761772,1.3323695732093657],[101.67200715260805,1.2329780781984794],[101.49097281624256,1.12204788564773],[101.48858232381524,1.148873100129904],[101.45093586120112,1.1745412216878346],[101.44690401340955,1.1585656109198559],[101.43992289742386,1.160664817430645],[101.42813733057339,1.1550503301181734],[101.42771095209882,1.1490810242860534],[101.41012740655462,1.1469003445938386],[101.40338639336746,1.1369827505830818],[101.39823723955703,1.142022449700338],[101.38148321787628,1.138271639153031],[101.39318614062796,1.1619051318182623],[101.3559697985674,1.196390231887193],[101.36142519941346,1.208032967498006],[101.37523879233645,1.2013817102556281],[101.40102012328013,1.2064306930743167],[101.41756224040512,1.215731639945158],[101.41798048541112,1.229218410228396],[101.44346507964973,1.2482294001724321],[101.46308338179267,1.2518319035212562],[101.46847859641015,1.2598916339845114],[101.5257499999626,1.2824999984438032],[101.5275273364175,1.326522429485167],[101.51878959086696,1.3339284040829953],[101.50507896042575,1.329556591878493],[101.4922434818513,1.3389552617807394],[101.4909260469995,1.347346753945006],[101.46652915669529,1.3566213192036713],[101.46550348080102,1.374085311553609],[101.49635942974396,1.3533499003664171],[101.59365055642807,1.3508816264774424],[101.62923483761772,1.3323695732093657]]]}},{"type":"Feature","properties":{"code":"1403152002","desa":"Tasikserai Barat","kecamatan":"Talang Muandau","kecCode":"140315"},"geometry":{"type":"Polygon","coordinates":[[[101.35808687460963,1.214680283911048],[101.3797520193403,1.256547567912431],[101.3880095116297,1.293141579975742],[101.38155074167342,1.3130527795957454],[101.38513288077786,1.3231364999718975],[101.39310407569258,1.3368183997565084],[101.41184708927182,1.3448348035816136],[101.41373262136345,1.3653795818776335],[101.4452424817552,1.3951294330192694],[101.46550348080102,1.374085311553609],[101.46652915669529,1.3566213192036713],[101.4909260469995,1.347346753945006],[101.4922434818513,1.3389552617807394],[101.50507896042575,1.329556591878493],[101.51878959086696,1.3339284040829953],[101.5275273364175,1.326522429485167],[101.5257499999626,1.2824999984438032],[101.46847859641015,1.2598916339845114],[101.46308338179267,1.2518319035212562],[101.44346507964973,1.2482294001724321],[101.41798048541112,1.229218410228396],[101.41756224040512,1.215731639945158],[101.39803000697928,1.2051734030837862],[101.37489349583818,1.20141504182858],[101.35808687460963,1.214680283911048]]]}},{"type":"Feature","properties":{"code":"1403152003","desa":"Kualapenaso","kecamatan":"Talang Muandau","kecCode":"140315"},"geometry":{"type":"Polygon","coordinates":[[[101.35054988137199,1.0860393807992057],[101.38131855740556,1.0857880436699612],[101.36655138543813,1.0545974066664476],[101.37591694501107,1.0467737401461843],[101.3753687398755,1.0249185812820452],[101.36476228225358,1.0319742474602451],[101.35658070263736,1.0295067065187364],[101.35054988137199,1.0860393807992057]]]}},{"type":"Feature","properties":{"code":"1403152004","desa":"Beringin","kecamatan":"Talang Muandau","kecCode":"140315"},"geometry":{"type":"Polygon","coordinates":[[[101.53275380674283,1.0732048672115868],[101.53017334242587,1.064483414688266],[101.51652490729867,1.0624019068353188],[101.51620724606761,1.0343845222718615],[101.50054181505276,1.0191531427643472],[101.50080457177364,0.979582792916707],[101.48798002625726,0.966875397600822],[101.45616790822243,0.9850323832369394],[101.45513498559114,1.0044229725195657],[101.43993396807821,1.0074056649136225],[101.43337016989749,1.0161471012720062],[101.4225161792783,1.013974968736575],[101.41700821215932,1.0226826328542722],[101.43084083024019,1.0415083309807567],[101.4580202238543,1.0463433965611915],[101.48876837106354,1.0728264801590883],[101.48457286284741,1.0981803956815777],[101.50270415667153,1.0976852577419127],[101.50286724872461,1.0849784523812607],[101.52231048793874,1.0839137611999055],[101.53275380674283,1.0732048672115868]]]}},{"type":"Feature","properties":{"code":"1403152005","desa":"Kotopaitberingin","kecamatan":"Talang Muandau","kecCode":"140315"},"geometry":{"type":"Polygon","coordinates":[[[101.38131855740556,1.0857880436699612],[101.38476071163755,1.1336621307361228],[101.3929143852907,1.1413215001119807],[101.40349346934818,1.1370327196138885],[101.40692941106352,1.1449967757013668],[101.42771095209882,1.1490810242860534],[101.42813733057339,1.1550503301181734],[101.44004781865196,1.160688611693306],[101.44690401340955,1.1585656109198559],[101.44447653276585,1.146372284272652],[101.46344541827148,1.125890862315446],[101.45307588524395,1.111152420106543],[101.48603118279289,1.0968208078084432],[101.48394915423012,1.0784573171463379],[101.48894088171635,1.0731596052323638],[101.4580202238543,1.0463433965611915],[101.43084083024019,1.0415083309807567],[101.41700821215932,1.0226826328542722],[101.39348154903432,1.0205193037822844],[101.37599722569148,1.0240461669525458],[101.37591694501107,1.0467737401461843],[101.36655138543813,1.0541024800674228],[101.38131855740556,1.0857880436699612]]]}},{"type":"Feature","properties":{"code":"1403152006","desa":"Melibur","kecamatan":"Talang Muandau","kecCode":"140315"},"geometry":{"type":"Polygon","coordinates":[[[101.48798002625726,0.966875397600822],[101.50080457177364,0.979582792916707],[101.50054181505276,1.0191531427643472],[101.51620724606761,1.0343845222718615],[101.51743148237703,1.063679677086763],[101.53017334242587,1.064483414688266],[101.54029728589109,1.0766259422303632],[101.5506021495696,1.0669061828817474],[101.56841219656569,1.0679645761108234],[101.57877032259239,1.0552783382454203],[101.5895047474462,1.061035362706136],[101.5989975323103,1.0340271829525],[101.547525513092,0.9216684775878805],[101.52591240403426,0.9301829043777602],[101.51887182757287,0.9509819048280225],[101.48798002625726,0.966875397600822]]]}},{"type":"Feature","properties":{"code":"1403152007","desa":"Tasikserai Timur","kecamatan":"Talang Muandau","kecCode":"140315"},"geometry":{"type":"Polygon","coordinates":[[[101.67200715260805,1.2329780781984794],[101.68889291867332,1.211545724801949],[101.66382117260905,1.1669512898664167],[101.642867540005,1.1520287978036667],[101.64226920396067,1.1426904049615285],[101.60086908084344,1.124181985853866],[101.54953081509511,1.0690891720329967],[101.54029728589109,1.0766259422303632],[101.53262267479663,1.0732620047384065],[101.52115882871702,1.0843135098489778],[101.50286724872461,1.0849784523812607],[101.50270415667153,1.0976852577419127],[101.4785894187667,1.0975822350057438],[101.45307588524395,1.111152420106543],[101.46352156207048,1.1253673804428144],[101.44407202490407,1.1472764779453202],[101.45093586120112,1.1745412216878346],[101.48858232381524,1.148873100129904],[101.49097281624256,1.12204788564773],[101.67200715260805,1.2329780781984794]],[[101.51642306986882,1.1199479371961885],[101.5061245482094,1.1199232759870263],[101.50617379508465,1.1126634430202162],[101.51640677235476,1.1126141664673825],[101.51642306986882,1.1199479371961885]]]}},{"type":"Feature","properties":{"code":"1403152008","desa":"Tasiktebingserai","kecamatan":"Talang Muandau","kecCode":"140315"},"geometry":{"type":"Polygon","coordinates":[[[101.68889291867332,1.211545724801949],[101.7053517720667,1.2007773577474636],[101.5989975323103,1.0340271829525],[101.5895047474462,1.061035362706136],[101.57877032259239,1.0552783382454203],[101.57701437381432,1.0631899728508463],[101.5610135352465,1.0713383647765267],[101.54978837373453,1.0673535218547892],[101.60086908084344,1.124181985853866],[101.64226920396067,1.1426904049615285],[101.642867540005,1.1520287978036667],[101.66382117260905,1.1669512898664167],[101.68889291867332,1.211545724801949]]]}},{"type":"Feature","properties":{"code":"1403152009","desa":"Seraiwangi","kecamatan":"Talang Muandau","kecCode":"140315"},"geometry":{"type":"Polygon","coordinates":[[[101.51642306986882,1.1199479371961885],[101.51640677235476,1.1126141664673825],[101.50617379508465,1.1126634430202162],[101.5061245482094,1.1199232759870263],[101.51642306986882,1.1199479371961885]]]}},{"type":"Feature","properties":{"code":"1403162001","desa":"Petani","kecamatan":"Bathin Solapan","kecCode":"140316"},"geometry":{"type":"Polygon","coordinates":[[[101.16106567783885,1.2871860148850998],[101.157177217055,1.2643274869118277],[101.13086568000715,1.2641071593060738],[101.12709332169948,1.2735857744414774],[101.08692956944411,1.2775455244794989],[101.07689619130622,1.2873936179833076],[100.97906820263552,1.2609951614890782],[100.98728613914408,1.2701144839776664],[100.98832192701536,1.2980871704368475],[100.97907831731055,1.3205288554476637],[100.9680568981074,1.3297302545626597],[100.9698121274278,1.3431868004305751],[100.97345253720488,1.3487912486111158],[101.01412266442945,1.3495250441385251],[101.07182328022024,1.3780527867680192],[101.09178129856814,1.3631799633624895],[101.09388674098038,1.349707693747917],[101.10433451772387,1.338746864581161],[101.11680268259776,1.334455269205127],[101.14922199859642,1.2794999985970537],[101.16106567783885,1.2871860148850998]]]}},{"type":"Feature","properties":{"code":"1403162002","desa":"Airkulim","kecamatan":"Bathin Solapan","kecCode":"140316"},"geometry":{"type":"Polygon","coordinates":[[[101.12403798566459,1.3175776249360427],[101.11680268259776,1.334455269205127],[101.09395336455617,1.3495934798482037],[101.09178129856814,1.3631799633624895],[101.06788470921204,1.3788816631186847],[101.07728841892542,1.3865821575923742],[101.12652799976746,1.3933999998543534],[101.13539085180643,1.3588019458358909],[101.15448001534048,1.3369983109302865],[101.13801907821795,1.3190110435517797],[101.12403798566459,1.3175776249360427]]]}},{"type":"Feature","properties":{"code":"1403162003","desa":"Buluhmanis","kecamatan":"Bathin Solapan","kecCode":"140316"},"geometry":{"type":"Polygon","coordinates":[[[101.13772344228312,1.2638368671660984],[101.13667881767338,1.238123579856323],[101.1181522358371,1.2088727319405812],[101.06041469658106,1.1826799441029245],[101.04059055041363,1.1609641927462506],[100.99153420643852,1.2007285110706254],[100.98997883165782,1.233011477220602],[100.97906820263552,1.2609951614890782],[101.07689619130622,1.2873936179833076],[101.0866678739233,1.2776215945340124],[101.12709332169948,1.2735857744414774],[101.1306977765812,1.2642222689305456],[101.13772344228312,1.2638368671660984]]]}},{"type":"Feature","properties":{"code":"1403162004","desa":"Bumbung","kecamatan":"Bathin Solapan","kecCode":"140316"},"geometry":{"type":"Polygon","coordinates":[[[101.28844058656388,1.3432542351948644],[101.26877412032944,1.3370664948297784],[101.22441442368675,1.3371985548761718],[101.18228102844675,1.4157109468222078],[101.17184209743492,1.4247043471374237],[101.17674211925345,1.4294559313503912],[101.28485244088749,1.4296217438524566],[101.34028779934255,1.4673905421019033],[101.4350678183252,1.4472429026223066],[101.47303792356138,1.393272521853827],[101.46550348080102,1.374085311553609],[101.4452424817552,1.3951294330192694],[101.41373262136345,1.3653795818776335],[101.38310198406934,1.3639188697370837],[101.38647194522417,1.3969246497931498],[101.37861972432086,1.3971031094610868],[101.3779072948858,1.4299549885355656],[101.30206958824095,1.428355278978386],[101.27713591509045,1.4033042164497296],[101.26362692164521,1.3762659255952865],[101.27131733922391,1.3763039965954666],[101.28844058656388,1.3432542351948644]]]}},{"type":"Feature","properties":{"code":"1403162005","desa":"Pamesi","kecamatan":"Bathin Solapan","kecCode":"140316"},"geometry":{"type":"Polygon","coordinates":[[[101.38647194522417,1.3969246497931498],[101.38341179242036,1.3581296819227617],[101.3381389997151,1.3558999990716682],[101.28844058656388,1.3432542351948644],[101.27131733922391,1.3763039965954666],[101.26362692164521,1.3762659255952865],[101.29757716705267,1.4263926974726309],[101.3779072948858,1.4299549885355656],[101.37861972432086,1.3971031094610868],[101.38647194522417,1.3969246497931498]]]}},{"type":"Feature","properties":{"code":"1403162006","desa":"Kesumboampai","kecamatan":"Bathin Solapan","kecCode":"140316"},"geometry":{"type":"Polygon","coordinates":[[[101.26681780529753,1.4296450983466142],[101.17674211925345,1.4294559313503912],[101.17184209743492,1.4247043471374237],[101.15526498858837,1.438561213623194],[101.17726119444863,1.4519010139998343],[101.20929269759995,1.4566331323871446],[101.20895744922694,1.4653734086201753],[101.24269952586245,1.4809210895836467],[101.25598437228102,1.4635267668131815],[101.26563430378013,1.465207225597485],[101.26681780529753,1.4296450983466142]]]}},{"type":"Feature","properties":{"code":"1403162007","desa":"Bathinsobanga","kecamatan":"Bathin Solapan","kecCode":"140316"},"geometry":{"type":"Polygon","coordinates":[[[101.34028779934255,1.4673905421019033],[101.3015615117544,1.4442844379641397],[101.29128888157669,1.4315488677879042],[101.26681780529753,1.4296450983466142],[101.26448869339855,1.4901131411453552],[101.27709755270996,1.4900003211948094],[101.27736955086414,1.4674484179720844],[101.31713627222126,1.4746794105803371],[101.34028779934255,1.4673905421019033]]]}},{"type":"Feature","properties":{"code":"1403162008","desa":"Sebangar","kecamatan":"Bathin Solapan","kecCode":"140316"},"geometry":{"type":"Polygon","coordinates":[[[101.22853837464633,1.301423363843697],[101.1966800287604,1.302691500557504],[101.18982084735426,1.318800446610543],[101.19672663792407,1.3189467833944017],[101.19668047662275,1.3254767400792786],[101.18338012229486,1.3321194007022255],[101.1791827515828,1.3451755027451795],[101.15847787325531,1.3596604710356988],[101.13501953342478,1.359887946453133],[101.17184209743492,1.4247043471374237],[101.18228102844675,1.4157109468222078],[101.2286470936885,1.3293354458896798],[101.22853837464633,1.301423363843697]]]}},{"type":"Feature","properties":{"code":"1403162009","desa":"Boncahmahang","kecamatan":"Bathin Solapan","kecCode":"140316"},"geometry":{"type":"Polygon","coordinates":[[[101.13686796308609,1.3668662889218681],[101.12652799976746,1.3933999998543534],[101.07728841892542,1.3865821575923742],[101.10739658968095,1.407164983506171],[101.10529236585005,1.4107220117364687],[101.12415922776619,1.4138969351169346],[101.15526498858837,1.438561213623194],[101.17184209743492,1.4247043471374237],[101.13686796308609,1.3668662889218681]]]}},{"type":"Feature","properties":{"code":"1403162010","desa":"Balaimakam","kecamatan":"Bathin Solapan","kecCode":"140316"},"geometry":{"type":"Polygon","coordinates":[[[101.12640197057452,1.3168802744344954],[101.13801907821795,1.3190110435517797],[101.15694565871526,1.3370099769358645],[101.17466506843823,1.3276930482129214],[101.18077730982503,1.3092165325548508],[101.12640197057452,1.3168802744344954]]]}},{"type":"Feature","properties":{"code":"1403162011","desa":"Tambusaibatangdui","kecamatan":"Bathin Solapan","kecCode":"140316"},"geometry":{"type":"Polygon","coordinates":[[[101.17864340207142,1.297288290973038],[101.18391016022575,1.2875141271373012],[101.16697577501208,1.2941955728220336],[101.16838953085221,1.2973337247227237],[101.17864340207142,1.297288290973038]]]}},{"type":"Feature","properties":{"code":"1403162012","desa":"Simpangpadang","kecamatan":"Bathin Solapan","kecCode":"140316"},"geometry":{"type":"Polygon","coordinates":[[[101.17864340207142,1.297288290973038],[101.14922199859642,1.2794999985970537],[101.12403798566459,1.3175776249360427],[101.1796113738659,1.307005061874458],[101.17864340207142,1.297288290973038]]]}},{"type":"Feature","properties":{"code":"1403162013","desa":"Pematangobo","kecamatan":"Bathin Solapan","kecCode":"140316"},"geometry":{"type":"Polygon","coordinates":[[[101.1966800287604,1.302691500557504],[101.1796113738659,1.307005061874458],[101.17466506843823,1.3276930482129214],[101.15303957301795,1.3373447909359426],[101.13501953342478,1.359887946453133],[101.15847787325531,1.3596604710356988],[101.1791827515828,1.3451755027451795],[101.18338012229486,1.3321194007022255],[101.19668047662275,1.3254767400792786],[101.19672663792407,1.3189467833944017],[101.18982084735426,1.318800446610543],[101.1966800287604,1.302691500557504]]]}},{"type":"Feature","properties":{"code":"1403101001","desa":"Batu Panjang","kecamatan":"Rupat","kecCode":"140310"},"geometry":{"type":"Polygon","coordinates":[[[101.52982708635102,1.7031662577170754],[101.470334949998,1.721563519720749],[101.54961885242818,1.8743339896329312],[101.59984544820895,1.8709079953225205],[101.52982708635102,1.7031662577170754]]]}},{"type":"Feature","properties":{"code":"1403101002","desa":"Pergam","kecamatan":"Rupat","kecCode":"140310"},"geometry":{"type":"Polygon","coordinates":[[[101.68731770304964,1.7351671515078235],[101.64114365565523,1.7109241882924926],[101.61600116981822,1.6886800339729529],[101.6107446450494,1.8037002964207183],[101.62851149221166,1.8696380716558536],[101.67030379438467,1.8546935273171443],[101.65928010799063,1.8012698417216273],[101.67833344433308,1.7455508137725257],[101.68731770304964,1.7351671515078235]]]}},{"type":"Feature","properties":{"code":"1403101003","desa":"Terkul","kecamatan":"Rupat","kecCode":"140310"},"geometry":{"type":"Polygon","coordinates":[[[101.52982708635102,1.7031662577170754],[101.59984544820895,1.8709079953225205],[101.62851149221166,1.8696380716558536],[101.6107446450494,1.8037002964207183],[101.61600116981822,1.6886800339729529],[101.52982708635102,1.7031662577170754]]]}},{"type":"Feature","properties":{"code":"1403101004","desa":"Tanjung Kapal","kecamatan":"Rupat","kecCode":"140310"},"geometry":{"type":"Polygon","coordinates":[[[101.43185101531218,1.7500000036458587],[101.43012850782446,1.7463726493308978],[101.43197443287386,1.7544503518459178],[101.43185101531218,1.7500000036458587]]]}},{"type":"Feature","properties":{"code":"1403101004","desa":"Tanjung Kapal","kecamatan":"Rupat","kecCode":"140310"},"geometry":{"type":"Polygon","coordinates":[[[101.41164854324576,1.7532768229119824],[101.40902687738854,1.7543114749384032],[101.41183910239272,1.7566019888320186],[101.41164854324576,1.7532768229119824]]]}},{"type":"Feature","properties":{"code":"1403101004","desa":"Tanjung Kapal","kecamatan":"Rupat","kecCode":"140310"},"geometry":{"type":"Polygon","coordinates":[[[101.41573262815831,1.7533102381219023],[101.4145476571487,1.7556801810377942],[101.41534001742792,1.7561370384353907],[101.41573262815831,1.7533102381219023]]]}},{"type":"Feature","properties":{"code":"1403101004","desa":"Tanjung Kapal","kecamatan":"Rupat","kecCode":"140310"},"geometry":{"type":"Polygon","coordinates":[[[101.4169675690981,1.7544737953729614],[101.41633225293116,1.7565082336094862],[101.41641077543699,1.7566010328526398],[101.4169675690981,1.7544737953729614]]]}},{"type":"Feature","properties":{"code":"1403101004","desa":"Tanjung Kapal","kecamatan":"Rupat","kecCode":"140310"},"geometry":{"type":"Polygon","coordinates":[[[101.4166257430836,1.7456464512761065],[101.4176980794029,1.7551138932345058],[101.41558097008577,1.76720333559499],[101.41967155260011,1.752965635001339],[101.4166257430836,1.7456464512761065]]]}},{"type":"Feature","properties":{"code":"1403101004","desa":"Tanjung Kapal","kecamatan":"Rupat","kecCode":"140310"},"geometry":{"type":"Polygon","coordinates":[[[101.38034826356159,1.7632355366246644],[101.37187689270449,1.786096519747218],[101.38068447600783,1.7910539497831073],[101.38149963500024,1.7728421243878512],[101.38034826356159,1.7632355366246644]]]}},{"type":"Feature","properties":{"code":"1403101004","desa":"Tanjung Kapal","kecamatan":"Rupat","kecCode":"140310"},"geometry":{"type":"Polygon","coordinates":[[[101.4011464528466,1.82823772555257],[101.41146005613672,1.79763673264497],[101.41114632584231,1.766954412246103],[101.40548748036298,1.7575389466053335],[101.39353081659397,1.7933306842642882],[101.39374051421345,1.822175761670729],[101.4011464528466,1.82823772555257]]]}},{"type":"Feature","properties":{"code":"1403101004","desa":"Tanjung Kapal","kecamatan":"Rupat","kecCode":"140310"},"geometry":{"type":"Polygon","coordinates":[[[101.38183201183794,1.8004568213179462],[101.38059939744431,1.791354467237637],[101.37211683992028,1.787784504058364],[101.3734097943266,1.8024869320167942],[101.38183201183794,1.8004568213179462]]]}},{"type":"Feature","properties":{"code":"1403101004","desa":"Tanjung Kapal","kecamatan":"Rupat","kecCode":"140310"},"geometry":{"type":"Polygon","coordinates":[[[101.54961885242818,1.8743339896329312],[101.470334949998,1.721563519720749],[101.45432091297984,1.726359033117662],[101.42830392908314,1.7802477671358234],[101.42085284178529,1.8185811525707873],[101.42805834401742,1.8246568410063115],[101.44514522097523,1.8236502019623344],[101.43384880887548,1.8554011849486698],[101.46821695035203,1.971227740871435],[101.57774110876522,1.9285066144398118],[101.56836851559454,1.87230244181744],[101.54961885242818,1.8743339896329312]]]}},{"type":"Feature","properties":{"code":"1403102005","desa":"Sungai Cingam","kecamatan":"Rupat","kecCode":"140310"},"geometry":{"type":"Polygon","coordinates":[[[101.77676222419733,1.9875266588141367],[101.7850900389742,1.9387981420603821],[101.77432814163052,1.9334479789867065],[101.77373589129843,1.9181817669375145],[101.76151818761434,1.9030773717025724],[101.7261423539865,1.907826938736193],[101.73185687829238,1.9402743863918843],[101.74264993444699,1.9566638669638818],[101.73882879331421,1.9949417327524677],[101.76655763762494,1.9948387001237526],[101.76897998044183,1.9852146259427204],[101.77676222419733,1.9875266588141367]]]}},{"type":"Feature","properties":{"code":"1403102006","desa":"Teluk Lecah","kecamatan":"Rupat","kecCode":"140310"},"geometry":{"type":"Polygon","coordinates":[[[101.7037682727876,1.842726935945267],[101.62851149221166,1.8696380716558536],[101.6379142684288,1.886987313210957],[101.66020410293709,1.8769694960534677],[101.66704244165543,1.8815521102447086],[101.67679400463965,1.8779954759173938],[101.68601264556717,1.888986918905953],[101.71473633521379,1.8760056098801015],[101.72030427542204,1.8855710428678631],[101.73862017578057,1.8826443062915217],[101.74387069038009,1.905444283903176],[101.76151818761434,1.9030773717025724],[101.75040703135949,1.879589569208453],[101.74519389887938,1.8382653012535475],[101.7037682727876,1.842726935945267]]]}},{"type":"Feature","properties":{"code":"1403102007","desa":"Makeruh","kecamatan":"Rupat","kecCode":"140310"},"geometry":{"type":"Polygon","coordinates":[[[101.77676222419733,1.9875266588141367],[101.76897998044183,1.9852146259427204],[101.76655763762494,1.9948387001237526],[101.75631167864111,1.9966375726417116],[101.71172816862014,1.9905390729024843],[101.71665903358756,1.998169257479408],[101.70221192943704,2.0108829723314368],[101.71448043042756,2.013690734896512],[101.70587629895208,2.0325360670221224],[101.72298113357249,2.036394601061983],[101.71104575765567,2.0466548358726238],[101.7380667051144,2.0413978128852097],[101.77676222419733,1.9875266588141367]]]}},{"type":"Feature","properties":{"code":"1403102008","desa":"Hutan Panjang","kecamatan":"Rupat","kecCode":"140310"},"geometry":{"type":"Polygon","coordinates":[[[101.71288143223238,2.020648278744449],[101.71444235942737,2.0135479693205545],[101.70219289258796,2.0110257388067807],[101.71665903358756,1.998169257479408],[101.71408299933101,1.9785999980871924],[101.70555477063624,1.9783148491470366],[101.69504811258037,1.9588104632499157],[101.68729140957095,1.9800571767914166],[101.65578313468397,1.9714906756577812],[101.65780686199713,1.9644891540625815],[101.64430719901809,1.9594477102605101],[101.63726839781837,1.9470760318639817],[101.62490570003808,1.9570026343837343],[101.63025377669048,1.975953137725865],[101.65889852025055,2.0039544370154365],[101.65598368170161,2.0078210613564154],[101.71288143223238,2.020648278744449]]]}},{"type":"Feature","properties":{"code":"1403102009","desa":"Pangkalan Nyirih","kecamatan":"Rupat","kecCode":"140310"},"geometry":{"type":"Polygon","coordinates":[[[101.73882879331421,1.9949417327524677],[101.74264993444699,1.9566638669638818],[101.73185687829238,1.9402743863918843],[101.71625172793493,1.9441295830476522],[101.7027818334149,1.9361945417872692],[101.70956903668178,1.953769345901785],[101.71890732431365,1.9598262232181314],[101.71172816862014,1.9905390729024843],[101.73882879331421,1.9949417327524677]]]}},{"type":"Feature","properties":{"code":"1403102010","desa":"Sukarjo Mesim","kecamatan":"Rupat","kecCode":"140310"},"geometry":{"type":"Polygon","coordinates":[[[101.68731770304964,1.7351671515078235],[101.67833344433308,1.7455508137725257],[101.65928010799063,1.8012698417216273],[101.67030379438467,1.8546935273171443],[101.7037682727876,1.842726935945267],[101.6941774582232,1.8028401902126774],[101.72524322529468,1.7606111584150597],[101.70734745492113,1.7423160126309702],[101.68731770304964,1.7351671515078235]]]}},{"type":"Feature","properties":{"code":"1403102011","desa":"Darul Aman","kecamatan":"Rupat","kecCode":"140310"},"geometry":{"type":"Polygon","coordinates":[[[101.4064327946378,1.8358691368047424],[101.40345019487063,1.8415787508059354],[101.40338023481006,1.8441657909628673],[101.40605124017266,1.8412361846498109],[101.4064327946378,1.8358691368047424]]]}},{"type":"Feature","properties":{"code":"1403102011","desa":"Darul Aman","kecamatan":"Rupat","kecCode":"140310"},"geometry":{"type":"Polygon","coordinates":[[[101.35977138933822,1.8886396825704699],[101.36697617121335,1.8817560989675834],[101.36711723167497,1.8703047525777299],[101.35376925105015,1.8833008194782932],[101.35977138933822,1.8886396825704699]]]}},{"type":"Feature","properties":{"code":"1403102011","desa":"Darul Aman","kecamatan":"Rupat","kecCode":"140310"},"geometry":{"type":"Polygon","coordinates":[[[101.46821695035203,1.971227740871435],[101.43384880887548,1.8554011849486698],[101.44514522097523,1.8236502019623344],[101.42805834401742,1.8246568410063115],[101.42085284178529,1.8185811525707873],[101.40913252164857,1.8583482192236538],[101.38304211260343,1.9097309249141305],[101.39894475779441,1.949726470627787],[101.39655689768271,1.9964783980356555],[101.46821695035203,1.971227740871435]]]}},{"type":"Feature","properties":{"code":"1403102012","desa":"Parit Kebumen","kecamatan":"Rupat","kecCode":"140310"},"geometry":{"type":"Polygon","coordinates":[[[101.70680399730668,1.910806024848839],[101.74387069038009,1.905444283903176],[101.73862017578057,1.8826443062915217],[101.72030427542204,1.8855710428678631],[101.71473633521379,1.8760056098801015],[101.68601264556717,1.888986918905953],[101.70680399730668,1.910806024848839]]]}},{"type":"Feature","properties":{"code":"1403102013","desa":"Sri Tanjung","kecamatan":"Rupat","kecCode":"140310"},"geometry":{"type":"Polygon","coordinates":[[[101.7037682727876,1.842726935945267],[101.74519389887938,1.8382653012535475],[101.73683095118751,1.7777003034441397],[101.72834944407164,1.7611906266822965],[101.6941774582232,1.8028401902126774],[101.7037682727876,1.842726935945267]]]}},{"type":"Feature","properties":{"code":"1403102014","desa":"Pancur Jaya","kecamatan":"Rupat","kecCode":"140310"},"geometry":{"type":"Polygon","coordinates":[[[101.73185687829238,1.9402743863918843],[101.7261423539865,1.907826938736193],[101.70680399730668,1.910806024848839],[101.70015340465598,1.906703833890019],[101.70127373329622,1.9000666249573255],[101.69161236331996,1.9000155983238014],[101.69182293058383,1.9154708595580192],[101.70877804966733,1.9262235883015946],[101.70188596656419,1.9269424865593385],[101.70014398066024,1.9361142395232807],[101.71625172793493,1.9441295830476522],[101.73185687829238,1.9402743863918843]]]}},{"type":"Feature","properties":{"code":"1403102015","desa":"Pangkalan Pinang","kecamatan":"Rupat","kecCode":"140310"},"geometry":{"type":"Polygon","coordinates":[[[101.69504811258037,1.9588104632499157],[101.70555477063624,1.9783148491470366],[101.71408299933101,1.9785999980871924],[101.71890732431365,1.9598262232181314],[101.69604507761831,1.9317115607875],[101.69046901203535,1.935786326021198],[101.70079688666702,1.9551461009334907],[101.69504811258037,1.9588104632499157]]]}},{"type":"Feature","properties":{"code":"1403102016","desa":"Dungun Baru","kecamatan":"Rupat","kecCode":"140310"},"geometry":{"type":"Polygon","coordinates":[[[101.62851149221166,1.8696380716558536],[101.56836851559454,1.87230244181744],[101.57774110876522,1.9285066144398118],[101.61768601729591,1.990986784194813],[101.63207699655618,1.9803077629867372],[101.6246201643891,1.9577640633795896],[101.63578854720372,1.947024026768105],[101.64430719901809,1.9594477102605101],[101.65747227642447,1.9640717634129818],[101.65578313468397,1.9714906756577812],[101.68853962270549,1.9795995378830598],[101.68870922495084,1.964587802496332],[101.70079688666702,1.9551461009334907],[101.69049930659776,1.9353027182893972],[101.69604507761831,1.9317115607875],[101.70014398066024,1.9361142395232807],[101.70188596656419,1.9269424865593385],[101.7087976629818,1.926386202814448],[101.69182293058383,1.9154708595580192],[101.68733487470477,1.8904194346024525],[101.67638832226332,1.877891720233741],[101.65731523231214,1.8773179096015544],[101.64055248361028,1.8879401359244372],[101.62851149221166,1.8696380716558536]]]}},{"type":"Feature","properties":{"code":"1403112004","desa":"Kador","kecamatan":"Rupat Utara","kecCode":"140311"},"geometry":{"type":"Polygon","coordinates":[[[101.67174999956292,2.0635999976437613],[101.72298113357249,2.036394601061983],[101.70598099532674,2.032726422922095],[101.71200352933948,2.0202180529705736],[101.65598368170161,2.0078210613564154],[101.64344331925382,2.025680522481934],[101.67174999956292,2.0635999976437613]]]}},{"type":"Feature","properties":{"code":"1403112005","desa":"Titi Akar","kecamatan":"Rupat Utara","kecCode":"140311"},"geometry":{"type":"Polygon","coordinates":[[[101.57774110876522,1.9285066144398118],[101.39808911582007,1.9984190279896106],[101.3979043069383,2.0067073391371326],[101.42918134004685,2.0459011923076758],[101.47410604385891,2.065731427762764],[101.50790887239663,2.0495903992949134],[101.51873603623913,2.0355290008955884],[101.51652283526066,2.0277612254417092],[101.55495959780723,2.046734335941423],[101.56360909558332,2.0431994661069317],[101.56475648392467,2.0484163838277394],[101.57763023135014,2.042576717066977],[101.60777497393593,2.0431128622933064],[101.60930338524311,2.0363212820336205],[101.63384898564226,2.0391854491780106],[101.65598368170161,2.0078210613564154],[101.60603287291882,2.0125331329560003],[101.60749240155313,2.0033314100849955],[101.60036115544301,2.0007982761907517],[101.60588351261407,1.9963682050047982],[101.5740463250779,1.9654946995310056],[101.59099659591622,1.9425690992201057],[101.57774110876522,1.9285066144398118]]]}},{"type":"Feature","properties":{"code":"1403112005","desa":"Titi Akar","kecamatan":"Rupat Utara","kecCode":"140311"},"geometry":{"type":"Polygon","coordinates":[[[101.55511606095752,2.09921949354747],[101.55288725584221,2.0895554714811855],[101.54268321425899,2.09356070653032],[101.55009429161832,2.099066865106625],[101.55511606095752,2.09921949354747]]]}},{"type":"Feature","properties":{"code":"1403112006","desa":"Hutan Ayu","kecamatan":"Rupat Utara","kecCode":"140311"},"geometry":{"type":"Polygon","coordinates":[[[101.60603287291882,2.0125331329560003],[101.65889852025055,2.0039544370154365],[101.63239584489241,1.9782544111083777],[101.61768601729591,1.990986784194813],[101.59318708631501,1.9559230468319417],[101.59099659591622,1.9425690992201057],[101.57418909155336,1.964281174148425],[101.60588351261407,1.9963682050047982],[101.60036115544301,2.0007982761907517],[101.60749240155313,2.0033314100849955],[101.60603287291882,2.0125331329560003]]]}},{"type":"Feature","properties":{"code":"1403112001","desa":"Tanjung Medang","kecamatan":"Rupat Utara","kecCode":"140311"},"geometry":{"type":"Polygon","coordinates":[[[101.63854697836041,2.032572587591073],[101.5954316889214,2.0933786702585766],[101.63515154300939,2.1089009120994304],[101.65345152356899,2.1241618415309254],[101.65731519543999,2.1073641757698116],[101.63854697836041,2.032572587591073]]]}},{"type":"Feature","properties":{"code":"1403112001","desa":"Tanjung Medang","kecamatan":"Rupat Utara","kecCode":"140311"},"geometry":{"type":"Polygon","coordinates":[[[101.6344848396037,2.1098653549531416],[101.62844357361212,2.1081858278664463],[101.6354763088846,2.111995486451136],[101.6344848396037,2.1098653549531416]]]}},{"type":"Feature","properties":{"code":"1403112001","desa":"Tanjung Medang","kecamatan":"Rupat Utara","kecCode":"140311"},"geometry":{"type":"Polygon","coordinates":[[[101.63491626057703,2.114900651889008],[101.63633613090774,2.1206786134662776],[101.64121078824734,2.1220072997346944],[101.64091155592365,2.1179186067004356],[101.63491626057703,2.114900651889008]]]}},{"type":"Feature","properties":{"code":"1403112001","desa":"Tanjung Medang","kecamatan":"Rupat Utara","kecCode":"140311"},"geometry":{"type":"Polygon","coordinates":[[[101.6344570712369,2.1150386276757294],[101.62516617877617,2.1160280536958602],[101.6285470945728,2.121020753343742],[101.64003959575079,2.1237288053757446],[101.63577190884654,2.120409113629025],[101.6344570712369,2.1150386276757294]]]}},{"type":"Feature","properties":{"code":"1403112002","desa":"Teluk Rhu","kecamatan":"Rupat Utara","kecCode":"140311"},"geometry":{"type":"Polygon","coordinates":[[[101.64108317804629,2.0290026450961127],[101.65731519543999,2.1073641757698116],[101.65345152356899,2.1241618415309254],[101.65570655921037,2.125813732451179],[101.68646935277847,2.1080800100373116],[101.64108317804629,2.0290026450961127]]]}},{"type":"Feature","properties":{"code":"1403112003","desa":"Tanjung Punak","kecamatan":"Rupat Utara","kecCode":"140311"},"geometry":{"type":"Polygon","coordinates":[[[101.68732136958562,2.0843280649673663],[101.65759665940837,2.044640151064993],[101.64344331925382,2.025680522481934],[101.65114083608078,2.049188483279735],[101.68646935277847,2.1080800100373116],[101.70672947498537,2.0941633503266224],[101.7149388562433,2.0796436529165074],[101.68732136958562,2.0843280649673663]]]}},{"type":"Feature","properties":{"code":"1403112007","desa":"Suka Damai","kecamatan":"Rupat Utara","kecCode":"140311"},"geometry":{"type":"Polygon","coordinates":[[[101.60930338524311,2.0363212820336205],[101.60777497393593,2.0431128622933064],[101.57763023135014,2.042576717066977],[101.56475648392467,2.0484163838277394],[101.57331145126248,2.0691995714988],[101.5838444774407,2.075817557422809],[101.5954316889214,2.0933786702585766],[101.63384898564226,2.0391854491780106],[101.60930338524311,2.0363212820336205]]]}},{"type":"Feature","properties":{"code":"1403112007","desa":"Suka Damai","kecamatan":"Rupat Utara","kecCode":"140311"},"geometry":{"type":"Polygon","coordinates":[[[101.57361140034591,2.073577719427178],[101.57929725606357,2.0756521145421125],[101.5710164020853,2.0698876598826326],[101.57361140034591,2.073577719427178]]]}},{"type":"Feature","properties":{"code":"1403112007","desa":"Suka Damai","kecamatan":"Rupat Utara","kecCode":"140311"},"geometry":{"type":"Polygon","coordinates":[[[101.57255960544148,2.0770337510938934],[101.57664964116805,2.0768728929570095],[101.57102600774415,2.0747427677541728],[101.57255960544148,2.0770337510938934]]]}},{"type":"Feature","properties":{"code":"1403112007","desa":"Suka Damai","kecamatan":"Rupat Utara","kecCode":"140311"},"geometry":{"type":"Polygon","coordinates":[[[101.5743990859491,2.1025170358915375],[101.57549326140496,2.1026607673394615],[101.5761560869339,2.1004561638821904],[101.5743990859491,2.1025170358915375]]]}},{"type":"Feature","properties":{"code":"1403112008","desa":"Putri Sembilan","kecamatan":"Rupat Utara","kecCode":"140311"},"geometry":{"type":"Polygon","coordinates":[[[101.72153517031194,2.0446763660443428],[101.69849435962702,2.0479037028129197],[101.69989379826023,2.0550666653056906],[101.67174999956292,2.0635999976437613],[101.68732136958562,2.0843280649673663],[101.7149388562433,2.0796436529165074],[101.72153517031194,2.0446763660443428]]]}}]}