{"type":"FeatureCollection","features":[{"type":"Feature","properties":{"code":"1410011001","desa":"Selat Panjang Kota","kecamatan":"Tebing Tinggi","kecCode":"141001"},"geometry":{"type":"Polygon","coordinates":[[[102.74740785508851,1.0138408276589916],[102.72922043277681,1.0074673880834657],[102.70731864044296,1.007385469737751],[102.70753667477777,1.0141627516761909],[102.73295748909692,1.0223753515985727],[102.74740785508851,1.0138408276589916]]]}},{"type":"Feature","properties":{"code":"1410011002","desa":"Selatpanjang Barat","kecamatan":"Tebing Tinggi","kecCode":"141001"},"geometry":{"type":"Polygon","coordinates":[[[102.70753667477777,1.0141627516761909],[102.70732525675525,1.0073615801469258],[102.68831122258489,1.0075653170596695],[102.68911800798975,1.0090430479705468],[102.70753667477777,1.0141627516761909]]]}},{"type":"Feature","properties":{"code":"1410011003","desa":"Selatpanjang Selatan","kecamatan":"Tebing Tinggi","kecCode":"141001"},"geometry":{"type":"Polygon","coordinates":[[[102.69356750903334,1.0085187755938547],[102.70732525675525,1.0073615801469258],[102.70723116068955,1.002092130327581],[102.69433210634169,1.0016054702967558],[102.69356750903334,1.0085187755938547]]]}},{"type":"Feature","properties":{"code":"1410011004","desa":"Selatpanjang Timur","kecamatan":"Tebing Tinggi","kecCode":"141001"},"geometry":{"type":"Polygon","coordinates":[[[102.70732525675525,1.0073615801469258],[102.72740805243971,1.0087983559319529],[102.72873813355808,1.0025051053059346],[102.72508031290619,0.9956667998700824],[102.70823596241979,0.9931555123070028],[102.70732525675525,1.0073615801469258]]]}},{"type":"Feature","properties":{"code":"1410012005","desa":"Banglas","kecamatan":"Tebing Tinggi","kecCode":"141001"},"geometry":{"type":"Polygon","coordinates":[[[102.72918070972202,1.0074888252231045],[102.74740785508851,1.0138408276589916],[102.74871848566964,1.0075005011211984],[102.77492334513632,1.0053945002323637],[102.79765832607097,0.9790860568816687],[102.82560976337992,0.9716904667555247],[102.82018714282242,0.9622739857802237],[102.73982676359434,0.9668872452694592],[102.70823324107128,0.9931540041439536],[102.72508031290619,0.9956667998700824],[102.72918070972202,1.0074888252231045]]]}},{"type":"Feature","properties":{"code":"1410012006","desa":"Alah Air","kecamatan":"Tebing Tinggi","kecCode":"141001"},"geometry":{"type":"Polygon","coordinates":[[[102.67332177058329,1.001944521902384],[102.69385069385446,1.007014293449437],[102.69273433662038,0.9782792220151016],[102.67981103565086,0.9782564781605447],[102.67332177058329,1.001944521902384]]]}},{"type":"Feature","properties":{"code":"1410012007","desa":"Alah Air Timur","kecamatan":"Tebing Tinggi","kecCode":"141001"},"geometry":{"type":"Polygon","coordinates":[[[102.69435740876746,1.0016052382716976],[102.70660526582041,1.002030747101335],[102.70823596241979,0.9931555123070028],[102.70104928479672,0.9898755894805314],[102.70410817495235,0.9783135239564874],[102.69273433662038,0.9782792220151016],[102.69435740876746,1.0016052382716976]]]}},{"type":"Feature","properties":{"code":"1410012008","desa":"Sesap","kecamatan":"Tebing Tinggi","kecCode":"141001"},"geometry":{"type":"Polygon","coordinates":[[[102.67981103565086,0.9782564781605447],[102.70410817495235,0.9783135239564874],[102.70999755624229,0.9595435631124002],[102.65243561681035,0.9526447557860055],[102.64784743760923,0.958261231499549],[102.67981103565086,0.9782564781605447]]]}},{"type":"Feature","properties":{"code":"1410012016","desa":"Banglas Barat","kecamatan":"Tebing Tinggi","kecCode":"141001"},"geometry":{"type":"Polygon","coordinates":[[[102.70823324107128,0.9931540041439536],[102.73982676359434,0.9668872452694592],[102.82018714282242,0.9622739857802237],[102.82202900923146,0.9519455131109115],[102.77281683163153,0.930844799107664],[102.71915523842357,0.945663191945719],[102.7055277548021,0.9663059468818935],[102.70104928479672,0.9898755894805314],[102.70823324107128,0.9931540041439536]]]}},{"type":"Feature","properties":{"code":"1410022001","desa":"Segomeng","kecamatan":"Rangsang Barat","kecCode":"141002"},"geometry":{"type":"Polygon","coordinates":[[[102.66838764827138,1.0830951883818947],[102.69597193555643,1.073155331653976],[102.70500687736556,1.0471945940849927],[102.67779259455266,1.0429514586773492],[102.68887442121762,1.054663521225958],[102.66730422960654,1.0713874389819016],[102.66838764827138,1.0830951883818947]]]}},{"type":"Feature","properties":{"code":"1410022002","desa":"Bantar","kecamatan":"Rangsang Barat","kecCode":"141002"},"geometry":{"type":"Polygon","coordinates":[[[102.6760769102213,1.0218581002291458],[102.65635488207221,1.0134813191748295],[102.65064914504205,1.010346138634207],[102.65024152102943,1.0275280082626408],[102.66636825209319,1.0361570338620316],[102.6760769102213,1.0218581002291458]]]}},{"type":"Feature","properties":{"code":"1410022003","desa":"Anak Setatah","kecamatan":"Rangsang Barat","kecCode":"141002"},"geometry":{"type":"Polygon","coordinates":[[[102.66719919328818,1.071555385575138],[102.68887442121762,1.054663521225958],[102.67197821042612,1.0370245972484484],[102.65304564044402,1.0298121756404872],[102.66719919328818,1.071555385575138]]]}},{"type":"Feature","properties":{"code":"1410022004","desa":"Lemang","kecamatan":"Rangsang Barat","kecCode":"141002"},"geometry":{"type":"Polygon","coordinates":[[[102.69897193360792,1.0449642889029889],[102.71933456234024,1.0560340241707196],[102.7256956497345,1.05708638025096],[102.72461669800225,1.0385879957786772],[102.70290870057613,1.0310159658618951],[102.69897193360792,1.0449642889029889]]]}},{"type":"Feature","properties":{"code":"1410022005","desa":"Bokor","kecamatan":"Rangsang Barat","kecCode":"141002"},"geometry":{"type":"Polygon","coordinates":[[[102.77247599756929,1.0875024104926294],[102.7808239400728,1.031220068798697],[102.78809839782285,1.0258534040648313],[102.78581315575256,1.0199975360175124],[102.76848182957286,1.0222076801978517],[102.74005742441067,1.0394204910012403],[102.74397892538718,1.088883633356269],[102.77247599756929,1.0875024104926294]]]}},{"type":"Feature","properties":{"code":"1410022006","desa":"Sungai Cina","kecamatan":"Rangsang Barat","kecCode":"141002"},"geometry":{"type":"Polygon","coordinates":[[[102.70500687736556,1.0471945940849927],[102.69597193555643,1.073155331653976],[102.66826903039151,1.085807616514959],[102.7122191649825,1.076842744493712],[102.71517564124292,1.0650228928021002],[102.72541903086362,1.064099788185557],[102.7256956497345,1.05708638025096],[102.70500687736556,1.0471945940849927]]]}},{"type":"Feature","properties":{"code":"1410022007","desa":"Melai","kecamatan":"Rangsang Barat","kecCode":"141002"},"geometry":{"type":"Polygon","coordinates":[[[102.7385300554178,1.1101466363177637],[102.70870405864542,1.1131581321982467],[102.6904100990469,1.1202301444538934],[102.71704057975899,1.1421985027825283],[102.73925729308968,1.1198230321559668],[102.7385300554178,1.1101466363177637]]]}},{"type":"Feature","properties":{"code":"1410022011","desa":"Telaga Baru","kecamatan":"Rangsang Barat","kecCode":"141002"},"geometry":{"type":"Polygon","coordinates":[[[102.72578238574857,1.0391602218054652],[102.72614776141012,1.077896312860076],[102.73184851439748,1.090774491230942],[102.74397892538718,1.088883633356269],[102.74005742441067,1.0394204910012403],[102.72578238574857,1.0391602218054652]]]}},{"type":"Feature","properties":{"code":"1410022012","desa":"Bina Maju","kecamatan":"Rangsang Barat","kecCode":"141002"},"geometry":{"type":"Polygon","coordinates":[[[102.72541903086362,1.064099788185557],[102.71517564124292,1.0650228928021002],[102.7122191649825,1.076842744493712],[102.66894909142745,1.0858002087992713],[102.67750248585111,1.1042284497492743],[102.73184851439748,1.090774491230942],[102.72541903086362,1.064099788185557]]]}},{"type":"Feature","properties":{"code":"1410022015","desa":"Sialang Pasung","kecamatan":"Rangsang Barat","kecCode":"141002"},"geometry":{"type":"Polygon","coordinates":[[[102.6675510773204,1.0363086802432426],[102.69820232797512,1.0465682342670088],[102.70290870057613,1.0310159658618951],[102.6760769102213,1.0218581002291458],[102.6675510773204,1.0363086802432426]]]}},{"type":"Feature","properties":{"code":"1410022016","desa":"Permai","kecamatan":"Rangsang Barat","kecCode":"141002"},"geometry":{"type":"Polygon","coordinates":[[[102.65024152102943,1.0275280082626408],[102.65064914504205,1.010346138634207],[102.6255173512448,1.0104184018584716],[102.622913265335,1.0187765300742113],[102.65024152102943,1.0275280082626408]]]}},{"type":"Feature","properties":{"code":"1410022017","desa":"Mekar Baru","kecamatan":"Rangsang Barat","kecCode":"141002"},"geometry":{"type":"Polygon","coordinates":[[[102.6904100990469,1.1202301444538934],[102.72578246488887,1.1112314660176927],[102.71865270625743,1.0926911326686408],[102.6786107923542,1.1032037757009476],[102.6904100990469,1.1202301444538934]]]}},{"type":"Feature","properties":{"code":"1410032001","desa":"Tanjung Samak","kecamatan":"Rangsang","kecCode":"141003"},"geometry":{"type":"Polygon","coordinates":[[[103.07589997230593,0.8580540190184954],[103.07668547165724,0.8521997634555805],[103.09191228172648,0.8507945601696504],[103.08701404326352,0.8290144164552959],[103.07129455939646,0.8322161180489601],[103.05719401978824,0.8480373116245659],[103.0653327377157,0.8592976150322269],[103.07589997230593,0.8580540190184954]]]}},{"type":"Feature","properties":{"code":"1410032002","desa":"Tanjung Medang","kecamatan":"Rangsang","kecCode":"141003"},"geometry":{"type":"Polygon","coordinates":[[[103.11719354014978,0.9389824989935711],[103.1561059037645,0.8876181934326112],[103.12627049198966,0.8842002030884267],[103.1239228108891,0.8779838948592921],[103.10047793480892,0.8904660549690238],[103.09198048541111,0.8866046413000058],[103.05138191993973,0.9317410841422019],[103.07166916659882,0.9406414343033138],[103.11719354014978,0.9389824989935711]]]}},{"type":"Feature","properties":{"code":"1410032004","desa":"Gemala Sari","kecamatan":"Rangsang","kecCode":"141003"},"geometry":{"type":"Polygon","coordinates":[[[103.0514839839987,0.9318240888689786],[103.02794312417593,0.8674266616413748],[102.95249644635395,0.907473317625047],[102.93925950592153,0.9233963657175033],[102.98390803063114,0.9768962823456198],[102.9992839482956,0.9748552322935187],[103.0514839839987,0.9318240888689786]]]}},{"type":"Feature","properties":{"code":"1410032007","desa":"Topang","kecamatan":"Rangsang","kecCode":"141003"},"geometry":{"type":"Polygon","coordinates":[[[103.09743736024603,0.7989260874756451],[103.10868805441027,0.7936944487523568],[103.11422167199264,0.7391082635090402],[103.10804117476043,0.7252701667737506],[103.09277673435884,0.7178282678575821],[103.08105516596322,0.7252731929924328],[103.07607371862728,0.7416762659175954],[103.08143987614943,0.7787090706963162],[103.09743736024603,0.7989260874756451]]]}},{"type":"Feature","properties":{"code":"1410032007","desa":"Topang","kecamatan":"Rangsang","kecCode":"141003"},"geometry":{"type":"Polygon","coordinates":[[[103.08110807217984,0.8226349622139935],[103.10521270170489,0.8173811057395916],[103.10840871239225,0.8068437835116541],[103.08242911601093,0.796261208297813],[103.07533729707863,0.8179957968539432],[103.08110807217984,0.8226349622139935]]]}},{"type":"Feature","properties":{"code":"1410032008","desa":"Penyagun","kecamatan":"Rangsang","kecCode":"141003"},"geometry":{"type":"Polygon","coordinates":[[[102.98390803063114,0.9768962823456198],[102.95601503576535,0.9420319273785568],[102.93925950592153,0.9233963657175033],[102.92746753589812,0.9374119769333507],[102.92311137638897,0.9721233050598979],[102.9332164655675,1.0130101679527304],[102.98390803063114,0.9768962823456198]]]}},{"type":"Feature","properties":{"code":"1410032010","desa":"Repan","kecamatan":"Rangsang","kecCode":"141003"},"geometry":{"type":"Polygon","coordinates":[[[102.9332164655675,1.0130101679527304],[102.92311137638897,0.9721233050598979],[102.92746753589812,0.9374119769333507],[102.89473832431429,0.9605653971017578],[102.90810404856308,0.9704812428303576],[102.90341202104797,0.9895044419704688],[102.91616261171521,1.0185429257770866],[102.9332164655675,1.0130101679527304]]]}},{"type":"Feature","properties":{"code":"1410032011","desa":"Tanjung Bakau","kecamatan":"Rangsang","kecCode":"141003"},"geometry":{"type":"Polygon","coordinates":[[[103.11646238233311,0.8792946774244007],[103.12665827156206,0.8775032800713387],[103.1291339864444,0.8663714780926439],[103.12423473894209,0.8324643705035333],[103.0986016684323,0.8278439605048078],[103.11646238233311,0.8792946774244007]]]}},{"type":"Feature","properties":{"code":"1410032012","desa":"Teluk Samak","kecamatan":"Rangsang","kecCode":"141003"},"geometry":{"type":"Polygon","coordinates":[[[103.0653327377157,0.8592976150322269],[103.05719401978824,0.8480373116245659],[103.02794312417593,0.8674266616413748],[103.05138191993973,0.9317410841422019],[103.0642084565551,0.9166867208907293],[103.0653327377157,0.8592976150322269]]]}},{"type":"Feature","properties":{"code":"1410032013","desa":"Sungai Gayung Kiri","kecamatan":"Rangsang","kecCode":"141003"},"geometry":{"type":"Polygon","coordinates":[[[103.11719354014978,0.9389824989935711],[103.07166916659882,0.9406414343033138],[103.0514839839987,0.9318240888689786],[102.9992839482956,0.9748552322935187],[102.97335523555574,0.9845825234642387],[103.02169730108965,1.0485566514964917],[103.11719354014978,0.9389824989935711]]]}},{"type":"Feature","properties":{"code":"1410032014","desa":"Citra Damai","kecamatan":"Rangsang","kecCode":"141003"},"geometry":{"type":"Polygon","coordinates":[[[103.09191228172648,0.8507945601696504],[103.07668547165724,0.8521997634555805],[103.07877823722593,0.8956590291396228],[103.09198048541111,0.8866046413000058],[103.10047793480892,0.8904660549690238],[103.09191228172648,0.8507945601696504]]]}},{"type":"Feature","properties":{"code":"1410032016","desa":"Dwi Tunggal","kecamatan":"Rangsang","kecCode":"141003"},"geometry":{"type":"Polygon","coordinates":[[[103.08701404326352,0.8290144164552959],[103.09637451627094,0.8676438730963066],[103.10047793480892,0.8904660549690238],[103.11582419463093,0.8756388658620595],[103.0986016684323,0.8278439605048078],[103.08701404326352,0.8290144164552959]]]}},{"type":"Feature","properties":{"code":"1410032017","desa":"Wonosari","kecamatan":"Rangsang","kecCode":"141003"},"geometry":{"type":"Polygon","coordinates":[[[103.07589997230593,0.8580540190184954],[103.06395807360626,0.8622201463787196],[103.0642084565551,0.9166867208907293],[103.0822194480691,0.895529041131196],[103.07589997230593,0.8580540190184954]]]}},{"type":"Feature","properties":{"code":"1410032018","desa":"Tebun","kecamatan":"Rangsang","kecCode":"141003"},"geometry":{"type":"Polygon","coordinates":[[[102.91616261171521,1.0185429257770866],[102.90539963608437,1.0012082424474436],[102.9042923260301,0.9671541739449238],[102.89473832431429,0.9605653971017578],[102.86153149987888,0.9744314294777827],[102.86182630394086,0.9884068994541033],[102.89387470355477,1.0258915560039708],[102.91616261171521,1.0185429257770866]]]}},{"type":"Feature","properties":{"code":"1410032020","desa":"Tanjung Gemuk","kecamatan":"Rangsang","kecCode":"141003"},"geometry":{"type":"Polygon","coordinates":[[[103.1291339864444,0.8663714780926439],[103.12627049198966,0.8842002030884267],[103.15742441240677,0.886511754822562],[103.15214644420308,0.8478022099561838],[103.12423473894209,0.8324643705035333],[103.1291339864444,0.8663714780926439]]]}},{"type":"Feature","properties":{"code":"1410042001","desa":"Alai","kecamatan":"Tebing Tinggi Barat","kecCode":"141004"},"geometry":{"type":"Polygon","coordinates":[[[102.6351882819137,0.9900102548628444],[102.63578867830493,0.9820397893071716],[102.61424193381828,0.9825602692428039],[102.61719914122745,0.9947818651791254],[102.6351882819137,0.9900102548628444]]]}},{"type":"Feature","properties":{"code":"1410042002","desa":"Tenan","kecamatan":"Tebing Tinggi Barat","kecCode":"141004"},"geometry":{"type":"Polygon","coordinates":[[[102.63718874376559,0.9547031339753188],[102.54984838259683,0.8535537143781995],[102.52882686556745,0.8625280301801637],[102.53761099994772,0.8733572579547096],[102.52428134300963,0.8956729155713176],[102.58046571082393,0.946782294808728],[102.62636966662689,0.9589342139709623],[102.63718874376559,0.9547031339753188]]]}},{"type":"Feature","properties":{"code":"1410042003","desa":"Insit","kecamatan":"Tebing Tinggi Barat","kecCode":"141004"},"geometry":{"type":"Polygon","coordinates":[[[102.67332177058329,1.001944521902384],[102.67981103565086,0.9782564781605447],[102.67136617590836,0.9715514081849793],[102.66075942870474,0.9762246299715643],[102.65838728244715,0.9951846760197136],[102.67332177058329,1.001944521902384]]]}},{"type":"Feature","properties":{"code":"1410042004","desa":"Tanjung","kecamatan":"Tebing Tinggi Barat","kecCode":"141004"},"geometry":{"type":"Polygon","coordinates":[[[102.54984838259683,0.8535537143781995],[102.62981574370166,0.9446223049195523],[102.6418811615864,0.9376018193204737],[102.63802107441313,0.9190903919805673],[102.61566617035753,0.8897035800615409],[102.621463243434,0.8528714311181225],[102.63644567442837,0.8474175402399039],[102.63763312307026,0.8412897846552347],[102.59593198427369,0.8383482569292056],[102.54984838259683,0.8535537143781995]]]}},{"type":"Feature","properties":{"code":"1410042005","desa":"Tanjung Peranap","kecamatan":"Tebing Tinggi Barat","kecCode":"141004"},"geometry":{"type":"Polygon","coordinates":[[[102.51187647601859,0.911708476046168],[102.53761099994772,0.8733572579547096],[102.52882686556745,0.8625280301801637],[102.43032944674661,0.9158850868034927],[102.44037779230133,0.9356028080772923],[102.47476113411909,0.9278239700630073],[102.49726432468889,0.9397602947513644],[102.51127136088466,0.9309713175316302],[102.51601143198207,0.9219954414058759],[102.51187647601859,0.911708476046168]]]}},{"type":"Feature","properties":{"code":"1410042006","desa":"Kundur","kecamatan":"Tebing Tinggi Barat","kecCode":"141004"},"geometry":{"type":"Polygon","coordinates":[[[102.58046571082393,0.946782294808728],[102.52428134300963,0.8956729155713176],[102.51187647601859,0.911708476046168],[102.51601143198207,0.9219954414058759],[102.51127136088466,0.9309713175316302],[102.49726432468889,0.9397602947513644],[102.53018285075801,0.9622056579892027],[102.55978268692155,0.9714385360737674],[102.57180460459885,0.9835693652347085],[102.58509270836184,0.9745866839389679],[102.58046571082393,0.946782294808728]]]}},{"type":"Feature","properties":{"code":"1410042007","desa":"Mekong","kecamatan":"Tebing Tinggi Barat","kecCode":"141004"},"geometry":{"type":"Polygon","coordinates":[[[102.61719914122745,0.9947818651791254],[102.61408542839983,0.9820124858898993],[102.59855830142452,0.9821719051115764],[102.58407147961513,0.9742572011199737],[102.57180460459885,0.9835693652347085],[102.59141358706744,1.0020729927544476],[102.60769629205032,1.0034094320781948],[102.61719914122745,0.9947818651791254]]]}},{"type":"Feature","properties":{"code":"1410042008","desa":"Batang Malas","kecamatan":"Tebing Tinggi Barat","kecCode":"141004"},"geometry":{"type":"Polygon","coordinates":[[[102.61315877056084,0.9556419470500293],[102.58046571082393,0.946782294808728],[102.5804352283032,0.9659962581410532],[102.59855830142452,0.9821719051115764],[102.60910505755243,0.9820737845798256],[102.61315877056084,0.9556419470500293]]]}},{"type":"Feature","properties":{"code":"1410042009","desa":"Mantiasa","kecamatan":"Tebing Tinggi Barat","kecCode":"141004"},"geometry":{"type":"Polygon","coordinates":[[[102.67136617590836,0.9715514081849793],[102.63924533590357,0.9544937798971117],[102.62641995941368,0.958650816010807],[102.63600200109153,0.964905767208848],[102.63875753643121,0.9761593454863671],[102.65551688389712,0.9783146642968307],[102.67136617590836,0.9715514081849793]]]}},{"type":"Feature","properties":{"code":"1410042010","desa":"Gogok Darussalam","kecamatan":"Tebing Tinggi Barat","kecCode":"141004"},"geometry":{"type":"Polygon","coordinates":[[[102.63875753643121,0.9761593454863671],[102.6351882819137,0.9900102548628444],[102.65838728244715,0.9951846760197136],[102.66365706592092,0.9838155843221597],[102.66075942870474,0.9762246299715643],[102.63875753643121,0.9761593454863671]]]}},{"type":"Feature","properties":{"code":"1410042011","desa":"Maini Darul Aman","kecamatan":"Tebing Tinggi Barat","kecCode":"141004"},"geometry":{"type":"Polygon","coordinates":[[[102.64784743760923,0.958261231499549],[102.65243561681035,0.9526447557860055],[102.6418811615864,0.9376018193204737],[102.62880439580628,0.9461640666607073],[102.64784743760923,0.958261231499549]]]}},{"type":"Feature","properties":{"code":"1410042012","desa":"Mengkikip","kecamatan":"Tebing Tinggi Barat","kecCode":"141004"},"geometry":{"type":"Polygon","coordinates":[[[102.52882686556745,0.8625280301801637],[102.59593198427369,0.8383482569292056],[102.59603927159513,0.8252968862196232],[102.57137828997615,0.7825314915601183],[102.57064733540625,0.7676089203570801],[102.51777319127977,0.7833437907074958],[102.43767119626874,0.8251145693593822],[102.41230266493608,0.8549545559521878],[102.40768109210876,0.884305486720258],[102.43032944674661,0.9158850868034927],[102.52882686556745,0.8625280301801637]]]}},{"type":"Feature","properties":{"code":"1410042013","desa":"Alai Selatan","kecamatan":"Tebing Tinggi Barat","kecCode":"141004"},"geometry":{"type":"Polygon","coordinates":[[[102.60910505755243,0.9820737845798256],[102.63578867830493,0.9820397893071716],[102.63600200109153,0.964905767208848],[102.62198053077691,0.9558045903412304],[102.61148696774944,0.956969604494005],[102.60910505755243,0.9820737845798256]]]}},{"type":"Feature","properties":{"code":"1410042014","desa":"Tanjung Darul Takzim","kecamatan":"Tebing Tinggi Barat","kecCode":"141004"},"geometry":{"type":"Polygon","coordinates":[[[102.65243561681035,0.9526447557860055],[102.68518318085914,0.95888399852588],[102.70302007531626,0.9551314468911869],[102.69401943095203,0.943041860639229],[102.69469933100935,0.9330257746768265],[102.67996567407663,0.9203840352661653],[102.67776990465745,0.8936906164297511],[102.63787501731825,0.8315155749541518],[102.6388755697518,0.8452401088989164],[102.621463243434,0.8528714311181225],[102.61574177456333,0.8903873615921011],[102.63802107441313,0.9190903919805673],[102.64363900343731,0.9454921417920068],[102.65243561681035,0.9526447557860055]]]}},{"type":"Feature","properties":{"code":"1410051001","desa":"Teluk Belitung","kecamatan":"Merbau","kecCode":"141005"},"geometry":{"type":"Polygon","coordinates":[[[102.43933655903503,1.0628535661514253],[102.45547755784308,1.0306455845742601],[102.43367354070142,1.0224076372600173],[102.36110274999197,1.0145793554190035],[102.35257597640025,1.0494831528524198],[102.42633104384264,1.0529111076848479],[102.43933655903503,1.0628535661514253]]]}},{"type":"Feature","properties":{"code":"1410052002","desa":"Meranti Bunting","kecamatan":"Merbau","kecCode":"141005"},"geometry":{"type":"Polygon","coordinates":[[[102.44576230138914,0.9658543298338808],[102.48167170638418,0.9585653318531364],[102.48203871521456,0.9438835226514223],[102.47315447639801,0.9410786235277164],[102.44963641528841,0.9495931996050562],[102.44576230138914,0.9658543298338808]]]}},{"type":"Feature","properties":{"code":"1410052003","desa":"Lukit","kecamatan":"Merbau","kecCode":"141005"},"geometry":{"type":"Polygon","coordinates":[[[102.35257597640025,1.0494831528524198],[102.36110274999197,1.0145793554190035],[102.3835179526914,0.9897408863266169],[102.39665316631061,0.9622614735126105],[102.40011701758634,0.9164074373289233],[102.39277481840321,0.9133715806129199],[102.36369748475119,0.9277488460952853],[102.33219830470807,0.96174227690954],[102.27585414535258,1.0059134135489685],[102.23649391576168,1.1014536851087289],[102.24955627799989,1.171489411898055],[102.23602225822071,1.2255696268677814],[102.2252399165889,1.2420024079974714],[102.23413853376637,1.2490802091891517],[102.29002435993631,1.2454779720396116],[102.31779137956858,1.2350779583015574],[102.32677779755738,1.2255866852083197],[102.36711570892288,1.1504137862818673],[102.36455473831056,1.0883292031140694],[102.35408537873728,1.0711726916694133],[102.35257597640025,1.0494831528524198]]]}},{"type":"Feature","properties":{"code":"1410052004","desa":"Bagan Melibur","kecamatan":"Merbau","kecCode":"141005"},"geometry":{"type":"Polygon","coordinates":[[[102.43933655903503,1.0628535661514253],[102.42633104384264,1.0529111076848479],[102.35257597640025,1.0494831528524198],[102.35408537873728,1.0711726916694133],[102.36125420481778,1.0806638127771762],[102.43282516524924,1.084016836096755],[102.44103497818172,1.0794177193460754],[102.43933655903503,1.0628535661514253]]]}},{"type":"Feature","properties":{"code":"1410052018","desa":"Pelantai","kecamatan":"Merbau","kecCode":"141005"},"geometry":{"type":"Polygon","coordinates":[[[102.48167170638418,0.9585653318531364],[102.46314526843945,0.9587308080087334],[102.4616516069362,0.984874560311921],[102.47257113744809,0.984368673675103],[102.48167170638418,0.9585653318531364]]]}},{"type":"Feature","properties":{"code":"1410052018","desa":"Pelantai","kecamatan":"Merbau","kecCode":"141005"},"geometry":{"type":"Polygon","coordinates":[[[102.37407517133212,1.018368299435514],[102.45117681455837,0.9985534248845596],[102.45272102065866,0.9862180997831721],[102.3835179526914,0.9897408863266169],[102.36110274999197,1.0145793554190035],[102.37407517133212,1.018368299435514]]]}},{"type":"Feature","properties":{"code":"1410052019","desa":"Tanjung Kulim","kecamatan":"Merbau","kecCode":"141005"},"geometry":{"type":"Polygon","coordinates":[[[102.40011701758634,0.9164074373289233],[102.39992547637966,0.9207283155300927],[102.39762067585355,0.9499840836366743],[102.42628972179328,0.9374303105125723],[102.41846546440973,0.9215465151294449],[102.40011701758634,0.9164074373289233]]]}},{"type":"Feature","properties":{"code":"1410052021","desa":"Mekar Sari","kecamatan":"Merbau","kecCode":"141005"},"geometry":{"type":"Polygon","coordinates":[[[102.3805613820022,1.0202627730682694],[102.43367354070142,1.0224076372600173],[102.45246044479374,1.0328136728584474],[102.468359767889,1.0093582027907142],[102.47257113744809,0.984368673675103],[102.45272102065866,0.9862180997831721],[102.45117681455837,0.9985534248845596],[102.3805613820022,1.0202627730682694]]]}},{"type":"Feature","properties":{"code":"1410052023","desa":"Mayang Sari","kecamatan":"Merbau","kecCode":"141005"},"geometry":{"type":"Polygon","coordinates":[[[102.36125420481778,1.0806638127771762],[102.36491469375817,1.0970554220442679],[102.4105448518635,1.0907392441020254],[102.42409779068053,1.095117963099815],[102.43669432388401,1.0862897718416185],[102.36125420481778,1.0806638127771762]]]}},{"type":"Feature","properties":{"code":"1410052026","desa":"Sungai Anak Kamal","kecamatan":"Merbau","kecCode":"141005"},"geometry":{"type":"Polygon","coordinates":[[[102.46314526843945,0.9587308080087334],[102.44576230138914,0.9658543298338808],[102.43960578368001,0.9752537119991493],[102.39665316631061,0.9622614735126105],[102.3835179526914,0.9897408863266169],[102.4616516069362,0.984874560311921],[102.46314526843945,0.9587308080087334]]]}},{"type":"Feature","properties":{"code":"1410052027","desa":"Sungai Tengah","kecamatan":"Merbau","kecCode":"141005"},"geometry":{"type":"Polygon","coordinates":[[[102.43960578368001,0.9752537119991493],[102.44963641528841,0.9495931996050562],[102.43683571529607,0.9480567969239048],[102.42628972179328,0.9374303105125723],[102.39762067585355,0.9499840836366743],[102.40009458040059,0.9645651921517762],[102.43960578368001,0.9752537119991493]]]}},{"type":"Feature","properties":{"code":"1410062001","desa":"Kuala Merbau","kecamatan":"Pulaumerbau","kecCode":"141006"},"geometry":{"type":"Polygon","coordinates":[[[102.54680469098376,1.114941255788524],[102.53913527077617,1.109549684330657],[102.52543820570867,1.1126004572021322],[102.5120966597331,1.1031129486710312],[102.47837487809817,1.1199417345720533],[102.48606577411623,1.1264744521755876],[102.52207768743538,1.1250137103574818],[102.53442554460327,1.1301415457329818],[102.54680469098376,1.114941255788524]]]}},{"type":"Feature","properties":{"code":"1410062002","desa":"Renak Dungun","kecamatan":"Pulaumerbau","kecCode":"141006"},"geometry":{"type":"Polygon","coordinates":[[[102.5120966597331,1.1031129486710312],[102.52610305741023,1.1127907933170478],[102.53878425728772,1.1097890272017938],[102.55012928493863,1.0844114927843524],[102.54036525555216,1.0770261522316174],[102.54117017756168,1.0648691285174663],[102.52882545902774,1.0525754609124796],[102.52260297964385,1.0290353835260866],[102.51747901494463,1.029510469282133],[102.497305294204,1.0675207202121333],[102.5036394549969,1.0877393863481457],[102.51913778478098,1.099599164341279],[102.5120966597331,1.1031129486710312]]]}},{"type":"Feature","properties":{"code":"1410062003","desa":"Baran Melintang","kecamatan":"Pulaumerbau","kecCode":"141006"},"geometry":{"type":"Polygon","coordinates":[[[102.46391548561121,1.0544102892251555],[102.46355975877589,1.0547641832417565],[102.46360631577892,1.054875682088237],[102.46391548561121,1.0544102892251555]]]}},{"type":"Feature","properties":{"code":"1410062003","desa":"Baran Melintang","kecamatan":"Pulaumerbau","kecCode":"141006"},"geometry":{"type":"Polygon","coordinates":[[[102.49765346043893,1.0720836842166286],[102.5178717380903,1.0290005752663163],[102.48141056844304,1.0220007515912208],[102.45986779985913,1.0648131664045855],[102.46632757525748,1.091604167978226],[102.4722078823879,1.079610072640293],[102.49765346043893,1.0720836842166286]]]}},{"type":"Feature","properties":{"code":"1410062004","desa":"Teluk Ketapang","kecamatan":"Pulaumerbau","kecCode":"141006"},"geometry":{"type":"Polygon","coordinates":[[[102.5160912054448,0.953555644011911],[102.5000000236822,0.9454253302579854],[102.49100703074991,0.9751407643448885],[102.51877213662488,0.9863262144808081],[102.50845673558996,0.9800033257974747],[102.5160912054448,0.953555644011911]]]}},{"type":"Feature","properties":{"code":"1410062005","desa":"Semukut","kecamatan":"Pulaumerbau","kecCode":"141006"},"geometry":{"type":"Polygon","coordinates":[[[102.60984844884689,1.0416964160925533],[102.60191356405976,1.0257503192754516],[102.60761556800412,1.005346482730394],[102.58548800896449,1.0004929567663614],[102.56198897121413,0.9743627626423205],[102.54582700021594,0.9683854663338233],[102.53274524589642,0.9961683535733077],[102.53395303360566,1.0064648229683462],[102.56533246262312,1.0221237482700412],[102.57695129426685,1.0205721614354766],[102.59200907226095,1.0296718049590952],[102.59152347882554,1.0361862771169768],[102.60308083281426,1.0351218890071614],[102.60984844884689,1.0416964160925533]]]}},{"type":"Feature","properties":{"code":"1410062006","desa":"Centai","kecamatan":"Pulaumerbau","kecCode":"141006"},"geometry":{"type":"Polygon","coordinates":[[[102.61386987079793,1.0467395937874384],[102.60308083281426,1.0351218890071614],[102.58624282434693,1.0349765432762135],[102.56057884323906,1.0506213429265465],[102.56944594277608,1.0598257403812872],[102.573954302649,1.0791959492276946],[102.57810694018319,1.0822007010921573],[102.59900214922986,1.0630541761213337],[102.61386987079793,1.0467395937874384]]]}},{"type":"Feature","properties":{"code":"1410062007","desa":"Tanjungbunga","kecamatan":"Pulaumerbau","kecCode":"141006"},"geometry":{"type":"Polygon","coordinates":[[[102.53913527077617,1.109549684330657],[102.54680469098376,1.114941255788524],[102.57810694018319,1.0822007010921573],[102.56057884323906,1.0506213429265465],[102.54399913355324,1.0507598232330067],[102.5398321770134,1.056991375870096],[102.54036525555216,1.0770261522316174],[102.55015724036438,1.0839599117092864],[102.53913527077617,1.109549684330657]]]}},{"type":"Feature","properties":{"code":"1410062008","desa":"Batang Meranti","kecamatan":"Pulaumerbau","kecCode":"141006"},"geometry":{"type":"Polygon","coordinates":[[[102.52336455972669,1.0059577681121876],[102.52882545902774,1.0525754609124796],[102.53868155381069,1.0616758301889517],[102.54399913355324,1.0507598232330067],[102.57395694755513,1.0454361002275174],[102.59216181941247,1.0304265672806832],[102.57695129426685,1.0205721614354766],[102.56533246262312,1.0221237482700412],[102.5456330002628,1.0097584298790991],[102.52336455972669,1.0059577681121876]]]}},{"type":"Feature","properties":{"code":"1410062009","desa":"Pangkalan Balai","kecamatan":"Pulaumerbau","kecCode":"141006"},"geometry":{"type":"Polygon","coordinates":[[[102.47837487809817,1.1199417345720533],[102.51913778478098,1.099599164341279],[102.5036394549969,1.0877393863481457],[102.49765346043893,1.0720836842166286],[102.4683335256717,1.0855640198506165],[102.47837487809817,1.1199417345720533]]]}},{"type":"Feature","properties":{"code":"1410062010","desa":"Padang Kamal","kecamatan":"Pulaumerbau","kecCode":"141006"},"geometry":{"type":"Polygon","coordinates":[[[102.5160912054448,0.953555644011911],[102.50845673558996,0.9800033257974747],[102.51841658965394,0.9847664725939631],[102.52336455972669,1.0059577681121876],[102.53395303360566,1.0064648229683462],[102.53274524589642,0.9961683535733077],[102.54582700021594,0.9683854663338233],[102.5160912054448,0.953555644011911]]]}},{"type":"Feature","properties":{"code":"1410062011","desa":"Ketapang Permai","kecamatan":"Pulaumerbau","kecCode":"141006"},"geometry":{"type":"Polygon","coordinates":[[[102.47905079955484,1.0232764318182335],[102.52260297964385,1.0290353835260866],[102.52339098540573,1.0050882100295533],[102.51877213662488,0.9863262144808081],[102.49100703074991,0.9751407643448885],[102.47905079955484,1.0232764318182335]]]}},{"type":"Feature","properties":{"code":"1410072001","desa":"Lukun","kecamatan":"Tebing Tinggi Timur","kecCode":"141007"},"geometry":{"type":"Polygon","coordinates":[[[102.74703571382719,0.9400122380235917],[102.77281683163153,0.930844799107664],[102.82202900923146,0.9519455131109115],[102.89475923355185,0.8321782772752752],[102.89373178869111,0.8240278492845492],[102.73911227740972,0.8644056950004053],[102.73572787494152,0.8993060741106622],[102.74703571382719,0.9400122380235917]]]}},{"type":"Feature","properties":{"code":"1410072002","desa":"Sungai Tohor","kecamatan":"Tebing Tinggi Timur","kecCode":"141007"},"geometry":{"type":"Polygon","coordinates":[[[102.89475923355185,0.8321782772752752],[102.82018714282242,0.9622739857802237],[102.87661953376454,0.916248458775118],[102.89829880864318,0.865678614308781],[102.93125344519039,0.869766413416869],[102.94454627129346,0.8867341868419385],[102.96738815104236,0.873619618074242],[102.96320244004062,0.8629173583846945],[102.96764237229768,0.8555012070586532],[102.94299270504933,0.8115770116623363],[102.89475923355185,0.8321782772752752]]]}},{"type":"Feature","properties":{"code":"1410072003","desa":"Nipah Sendanu","kecamatan":"Tebing Tinggi Timur","kecCode":"141007"},"geometry":{"type":"Polygon","coordinates":[[[102.94299270504933,0.8115770116623363],[102.96764237229768,0.8555012070586532],[102.96320244004062,0.8629173583846945],[102.96738815104236,0.873619618074242],[102.9950566103743,0.8606003531616653],[102.96457463730972,0.8029387050593837],[102.94299270504933,0.8115770116623363]]]}},{"type":"Feature","properties":{"code":"1410072004","desa":"Tanjung Sari","kecamatan":"Tebing Tinggi Timur","kecCode":"141007"},"geometry":{"type":"Polygon","coordinates":[[[103.05051295001272,0.7560624859495721],[102.99763341534992,0.7893792641590619],[103.02676738200915,0.840104987216136],[103.04932733418916,0.8195756844539458],[103.05613295737015,0.7807779682555993],[103.05051295001272,0.7560624859495721]]]}},{"type":"Feature","properties":{"code":"1410072005","desa":"Tanjung Gadai","kecamatan":"Tebing Tinggi Timur","kecCode":"141007"},"geometry":{"type":"Polygon","coordinates":[[[103.02132587568865,0.7697365535384089],[103.05051295001272,0.7560624859495721],[103.04879231041684,0.720485478516312],[103.02331375512573,0.686983739439767],[102.99517672832344,0.689076519395261],[102.98817013364481,0.6954735544832318],[103.02092760642398,0.7383663542981437],[103.02132587568865,0.7697365535384089]]]}},{"type":"Feature","properties":{"code":"1410072006","desa":"Teluk Buntal","kecamatan":"Tebing Tinggi Timur","kecCode":"141007"},"geometry":{"type":"Polygon","coordinates":[[[102.94299270504933,0.8115770116623363],[103.00534001083287,0.7863292701005422],[103.02136238456643,0.7726075528324157],[103.02092760642398,0.7383663542981437],[102.98817013364481,0.6954735544832318],[102.93429072103999,0.7621956860298531],[102.94555781164378,0.7709657783859295],[102.94299270504933,0.8115770116623363]]]}},{"type":"Feature","properties":{"code":"1410072007","desa":"Kepau Baru","kecamatan":"Tebing Tinggi Timur","kecCode":"141007"},"geometry":{"type":"Polygon","coordinates":[[[102.88688752613847,0.7738040828269351],[102.90048584204806,0.7693240812810809],[102.90778769494624,0.7644639641858154],[102.88688752613847,0.7738040828269351]]]}},{"type":"Feature","properties":{"code":"1410072007","desa":"Kepau Baru","kecamatan":"Tebing Tinggi Timur","kecCode":"141007"},"geometry":{"type":"Polygon","coordinates":[[[102.83141113791373,0.7748182204181592],[102.84501335238434,0.7737800304588216],[102.82358730590948,0.7741164065813126],[102.83141113791373,0.7748182204181592]]]}},{"type":"Feature","properties":{"code":"1410072007","desa":"Kepau Baru","kecamatan":"Tebing Tinggi Timur","kecCode":"141007"},"geometry":{"type":"Polygon","coordinates":[[[102.59593198427369,0.8383482569292056],[102.63534297339957,0.8414354001828473],[102.63787501731825,0.8315155749541518],[102.66127171761576,0.8662388056079863],[102.73911227740972,0.8644056950004053],[102.89373178869111,0.8240278492845492],[102.89475923355185,0.8321782772752752],[102.94299270504933,0.8115770116623363],[102.94555781164378,0.7709657783859295],[102.93400131560827,0.7629967895170947],[102.91438674205453,0.7764446677190864],[102.84421548555626,0.7943142309288834],[102.65739784023822,0.789628533746969],[102.60035874955673,0.7690657087555102],[102.57064733540625,0.7676089203570801],[102.57137828997615,0.7825314915601183],[102.59603927159513,0.8252968862196232],[102.59593198427369,0.8383482569292056]]]}},{"type":"Feature","properties":{"code":"1410072008","desa":"Sungai Tohor Barat","kecamatan":"Tebing Tinggi Timur","kecCode":"141007"},"geometry":{"type":"Polygon","coordinates":[[[102.82018714282242,0.9622739857802237],[102.82560976337992,0.9716904667555247],[102.8796096743471,0.9516682098562563],[102.91265257395717,0.9251323846177041],[102.94557975060508,0.8860096714186749],[102.9283877159204,0.8685134464674334],[102.89829880864318,0.865678614308781],[102.87661953376454,0.916248458775118],[102.82018714282242,0.9622739857802237]]]}},{"type":"Feature","properties":{"code":"1410072009","desa":"Sendanu Darul Ihsan","kecamatan":"Tebing Tinggi Timur","kecCode":"141007"},"geometry":{"type":"Polygon","coordinates":[[[102.96457463730972,0.8029387050593837],[102.9950566103743,0.8606003531616653],[103.02676738200915,0.840104987216136],[102.99763341534992,0.7893792641590619],[102.96457463730972,0.8029387050593837]]]}},{"type":"Feature","properties":{"code":"1410072010","desa":"Batin Suir","kecamatan":"Tebing Tinggi Timur","kecCode":"141007"},"geometry":{"type":"Polygon","coordinates":[[[102.69401943095203,0.943041860639229],[102.70958971639237,0.9592761299172295],[102.71862394324046,0.9459121908376159],[102.74703571382719,0.9400122380235917],[102.73572787494152,0.8993060741106622],[102.73911227740972,0.8644056950004053],[102.66127171761576,0.8662388056079863],[102.67776990465745,0.8936906164297511],[102.67996567407663,0.9203840352661653],[102.69469933100935,0.9330257746768265],[102.69401943095203,0.943041860639229]]]}},{"type":"Feature","properties":{"code":"1410082001","desa":"Tanjung Padang","kecamatan":"Tasik Putri Puyu","kecCode":"141008"},"geometry":{"type":"Polygon","coordinates":[[[102.25431149637852,1.249695391333404],[102.23413853376637,1.2490802091891517],[102.2252399165889,1.2420024079974714],[102.20584700793314,1.276722371414378],[102.22707275290524,1.327721510856338],[102.22944890744115,1.354343716876744],[102.20973563958812,1.406090157864668],[102.21378240803176,1.4144062958348333],[102.24226477719775,1.411913842773302],[102.27259458227422,1.4184921578032386],[102.30341691995494,1.4016229455776026],[102.28130504778977,1.3748398670311526],[102.31930530459618,1.3283343538639947],[102.31618601057595,1.307626082417427],[102.29808983797568,1.2800339000148508],[102.25431149637852,1.249695391333404]]]}},{"type":"Feature","properties":{"code":"1410082002","desa":"Putri Puyu","kecamatan":"Tasik Putri Puyu","kecCode":"141008"},"geometry":{"type":"Polygon","coordinates":[[[102.31930530459618,1.3283343538639947],[102.28130504778977,1.3748398670311526],[102.30341691995494,1.4016229455776026],[102.34157105256207,1.362210561647092],[102.31930530459618,1.3283343538639947]]]}},{"type":"Feature","properties":{"code":"1410082003","desa":"Mekar Delima","kecamatan":"Tasik Putri Puyu","kecCode":"141008"},"geometry":{"type":"Polygon","coordinates":[[[102.31618601057595,1.307626082417427],[102.31630545763083,1.3237513835412456],[102.34157105256207,1.362210561647092],[102.37737307041094,1.3222201168883139],[102.35935943309141,1.310975053391978],[102.34754537931586,1.289229659481321],[102.3087572075791,1.296765095984198],[102.31618601057595,1.307626082417427]]]}},{"type":"Feature","properties":{"code":"1410082003","desa":"Mekar Delima","kecamatan":"Tasik Putri Puyu","kecCode":"141008"},"geometry":{"type":"Polygon","coordinates":[[[102.37480811040602,1.3300100120671468],[102.37436270587426,1.329708190595634],[102.37365649974771,1.3308295741394227],[102.37480811040602,1.3300100120671468]]]}},{"type":"Feature","properties":{"code":"1410082004","desa":"Dedap","kecamatan":"Tasik Putri Puyu","kecCode":"141008"},"geometry":{"type":"Polygon","coordinates":[[[102.33096336466757,1.2177865530466712],[102.31779137956858,1.2350779583015574],[102.25431149637852,1.249695391333404],[102.29426754391208,1.276629667499271],[102.3087572075791,1.296765095984198],[102.34754537931586,1.289229659481321],[102.35935943309141,1.310975053391978],[102.37670898133449,1.3206455433823125],[102.37393975291728,1.325739830448353],[102.39124427300486,1.3100460429275023],[102.34616411328322,1.2219712199308628],[102.33096336466757,1.2177865530466712]]]}},{"type":"Feature","properties":{"code":"1410082005","desa":"Kudap","kecamatan":"Tasik Putri Puyu","kecCode":"141008"},"geometry":{"type":"Polygon","coordinates":[[[102.3395802206507,1.201728353937936],[102.33096336466757,1.2177865530466712],[102.34616411328322,1.2219712199308628],[102.39124427300486,1.3100460429275023],[102.38745300555182,1.31311849395687],[102.43791920320871,1.2788968952471382],[102.38165940925438,1.2087079527595617],[102.3395802206507,1.201728353937936]]]}},{"type":"Feature","properties":{"code":"1410082006","desa":"Bandul","kecamatan":"Tasik Putri Puyu","kecCode":"141008"},"geometry":{"type":"Polygon","coordinates":[[[102.42747930902294,1.2601121999106455],[102.42991716244715,1.2730773364280588],[102.43791920320871,1.2788968952471382],[102.48068968807873,1.2436920326720176],[102.48597936005949,1.2319835773041035],[102.4851393950671,1.198577392993338],[102.47918037837184,1.2030385249640476],[102.47956588265941,1.216800534557784],[102.46667005597835,1.2123969538020332],[102.45320889657336,1.2208966236165024],[102.4469650555929,1.2391000268606593],[102.42747930902294,1.2601121999106455]]]}},{"type":"Feature","properties":{"code":"1410082007","desa":"Selat Akar","kecamatan":"Tasik Putri Puyu","kecCode":"141008"},"geometry":{"type":"Polygon","coordinates":[[[102.38165940925438,1.2087079527595617],[102.42747930902294,1.2601121999106455],[102.4469650555929,1.2391000268606593],[102.45320889657336,1.2208966236165024],[102.46667005597835,1.2123969538020332],[102.47956588265941,1.216800534557784],[102.48354708872722,1.1945223435968166],[102.45968471407836,1.139947868425724],[102.38165940925438,1.2087079527595617]]]}},{"type":"Feature","properties":{"code":"1410082008","desa":"Tanjung Pisang","kecamatan":"Tasik Putri Puyu","kecCode":"141008"},"geometry":{"type":"Polygon","coordinates":[[[102.35221732856688,1.2026705025980795],[102.38165940925438,1.2087079527595617],[102.4589447590934,1.1416523076323681],[102.45727152905788,1.1247310219624114],[102.44708243240835,1.120099130319081],[102.4337475522078,1.1545602931330796],[102.41258441174125,1.1718030999239708],[102.3675330483116,1.1802759429618424],[102.3678748275613,1.1919119660328863],[102.3568819078738,1.1945302989996913],[102.35221732856688,1.2026705025980795]]]}},{"type":"Feature","properties":{"code":"1410082009","desa":"Mengkopot","kecamatan":"Tasik Putri Puyu","kecCode":"141008"},"geometry":{"type":"Polygon","coordinates":[[[102.36711442199305,1.1503825861022086],[102.3395802206507,1.201728353937936],[102.35221732856688,1.2026705025980795],[102.3568819078738,1.1945302989996913],[102.36722274983008,1.1927375886363887],[102.3675330483116,1.1802759429618424],[102.3985594385673,1.1778619035880833],[102.43335690559677,1.1550622776115222],[102.44708243240835,1.120099130319081],[102.4554667983541,1.1227383743220742],[102.44815278931979,1.0995874497722935],[102.4167512225909,1.1247230108016464],[102.41638550608627,1.1390525222834307],[102.36711442199305,1.1503825861022086]]]}},{"type":"Feature","properties":{"code":"1410082010","desa":"Mengkirau","kecamatan":"Tasik Putri Puyu","kecCode":"141008"},"geometry":{"type":"Polygon","coordinates":[[[102.36491469375817,1.0970554220442679],[102.36711442199305,1.1503825861022086],[102.41638550608627,1.1390525222834307],[102.4167512225909,1.1247230108016464],[102.44815278931979,1.0995874497722935],[102.43738801324628,1.0783273893925163],[102.43466264836258,1.0907988196909029],[102.42409779068053,1.095117963099815],[102.4105448518635,1.0907392441020254],[102.36491469375817,1.0970554220442679]]]}},{"type":"Feature","properties":{"code":"1410092001","desa":"Tanjung Kedabu","kecamatan":"Rangsang Pesisir","kecCode":"141009"},"geometry":{"type":"Polygon","coordinates":[[[102.97335523555574,0.9845825234642387],[102.93331593058575,1.0130218690318813],[102.89387470355477,1.0258915560039708],[102.93871016764018,1.1054074294741152],[102.98144171366418,1.090382439879299],[103.02137592026257,1.0488009388401562],[102.97335523555574,0.9845825234642387]]]}},{"type":"Feature","properties":{"code":"1410092002","desa":"Beting","kecamatan":"Rangsang Pesisir","kecCode":"141009"},"geometry":{"type":"Polygon","coordinates":[[[102.78581315575256,1.0199975360175124],[102.79402557222242,1.0318355720008832],[102.81436003868491,1.0350211127774076],[102.83067650331803,1.014957818913881],[102.82820302055302,0.9936945290686111],[102.82312682244496,0.9876498609483878],[102.80889950810585,0.9908260065075477],[102.78581315575256,1.0199975360175124]]]}},{"type":"Feature","properties":{"code":"1410092003","desa":"Sokop","kecamatan":"Rangsang Pesisir","kecCode":"141009"},"geometry":{"type":"Polygon","coordinates":[[[102.89387470355477,1.0258915560039708],[102.86182630394086,0.9884068994541033],[102.86140640777955,0.9746067684982272],[102.82277022686452,0.9882385832395152],[102.83173770872831,1.0093916242959144],[102.81436003868491,1.0350211127774076],[102.8205401617991,1.0511524834256991],[102.8707854194116,1.0540133392663127],[102.89387470355477,1.0258915560039708]]]}},{"type":"Feature","properties":{"code":"1410092004","desa":"Telesung","kecamatan":"Rangsang Pesisir","kecCode":"141009"},"geometry":{"type":"Polygon","coordinates":[[[102.89011982267174,1.125950190590795],[102.93811940208876,1.1040718966670104],[102.89387470355477,1.0258915560039708],[102.89243996473265,1.0335640572803442],[102.87636980192485,1.0440096630487794],[102.89011982267174,1.125950190590795]]]}},{"type":"Feature","properties":{"code":"1410092005","desa":"Bungur","kecamatan":"Rangsang Pesisir","kecCode":"141009"},"geometry":{"type":"Polygon","coordinates":[[[102.87636980192485,1.0440096630487794],[102.86781243969237,1.0546561458858592],[102.8205401617991,1.0511524834256991],[102.82398340421082,1.068127398367138],[102.84959056075581,1.0726055311217704],[102.85496891398422,1.0845813054709414],[102.8663228458227,1.0852834007955927],[102.88267401259566,1.1281366466284488],[102.89011982267174,1.125950190590795],[102.87636980192485,1.0440096630487794]]]}},{"type":"Feature","properties":{"code":"1410092006","desa":"Tenggayun Raya","kecamatan":"Rangsang Pesisir","kecCode":"141009"},"geometry":{"type":"Polygon","coordinates":[[[102.88267401259566,1.1281366466284488],[102.86911535678838,1.0888622160017398],[102.85496891398422,1.0845813054709414],[102.86107575224422,1.1038005721053212],[102.85938558257861,1.1359696166352662],[102.88267401259566,1.1281366466284488]]]}},{"type":"Feature","properties":{"code":"1410092007","desa":"Sendaur","kecamatan":"Rangsang Pesisir","kecCode":"141009"},"geometry":{"type":"Polygon","coordinates":[[[102.77247599756929,1.0875024104926294],[102.75171701602754,1.0879163702286476],[102.71865270625743,1.0926911326686408],[102.72578246488887,1.1112314660176927],[102.76530496725047,1.1101976179851352],[102.77035773801924,1.1091467601755338],[102.77247599756929,1.0875024104926294]]]}},{"type":"Feature","properties":{"code":"1410092008","desa":"Kayu Ara","kecamatan":"Rangsang Pesisir","kecCode":"141009"},"geometry":{"type":"Polygon","coordinates":[[[102.78809839782285,1.0258534040648313],[102.7808239400728,1.031220068798697],[102.77035773801924,1.1091467601755338],[102.80996162722737,1.1108767931881776],[102.81615938244958,1.1005627366512447],[102.83135858692928,1.094246526333396],[102.8334726349542,1.0752050349829183],[102.84174745088421,1.0725203311498146],[102.82256641620722,1.0664661032362923],[102.81310533334454,1.0334749290697636],[102.78809839782285,1.0258534040648313]]]}},{"type":"Feature","properties":{"code":"1410092009","desa":"Sonde","kecamatan":"Rangsang Pesisir","kecCode":"141009"},"geometry":{"type":"Polygon","coordinates":[[[102.86107575224422,1.1038005721053212],[102.84959056075581,1.0726055311217704],[102.8339939512599,1.0746431070928528],[102.83269442640669,1.0923281312176858],[102.81615938244958,1.1005627366512447],[102.80996162722737,1.1108767931881776],[102.82113412803761,1.1459759584433726],[102.85938558257861,1.1359696166352662],[102.86107575224422,1.1038005721053212]]]}},{"type":"Feature","properties":{"code":"1410092010","desa":"Kedabu Rapat","kecamatan":"Rangsang Pesisir","kecCode":"141009"},"geometry":{"type":"Polygon","coordinates":[[[102.7385300554178,1.1101466363177637],[102.73925729308968,1.1198230321559668],[102.7171015681829,1.142622855084043],[102.73918103417743,1.155977244262921],[102.77226020884159,1.1586615011329127],[102.78152035078362,1.110116580975061],[102.7385300554178,1.1101466363177637]]]}},{"type":"Feature","properties":{"code":"1410092011","desa":"Tanah Merah","kecamatan":"Rangsang Pesisir","kecCode":"141009"},"geometry":{"type":"Polygon","coordinates":[[[102.80996162722737,1.1108767931881776],[102.78152035078362,1.110116580975061],[102.77275195993508,1.1584423795179535],[102.82113412803761,1.1459759584433726],[102.80996162722737,1.1108767931881776]]]}}]}