{"type":"FeatureCollection","features":[{"type":"Feature","properties":{"code":"1472011003","desa":"Pangkalan Sesai","kecamatan":"Dumai Barat","kecCode":"147201"},"geometry":{"type":"Polygon","coordinates":[[[101.43781467970375,1.6865854337895698],[101.42804192689346,1.6736167395541188],[101.40871501858327,1.6851528632344772],[101.41445243243385,1.6954508371954353],[101.43781467970375,1.6865854337895698]]]}},{"type":"Feature","properties":{"code":"1472011006","desa":"Purnama","kecamatan":"Dumai Barat","kecCode":"147201"},"geometry":{"type":"Polygon","coordinates":[[[101.41445243243385,1.6954508371954353],[101.40810840697748,1.684183830241083],[101.38721658927426,1.6597941075605405],[101.38880824990086,1.698447445698742],[101.37701352885131,1.701974897025678],[101.37979948285988,1.7122363585115676],[101.38864169096131,1.7202485157379617],[101.41445243243385,1.6954508371954353]]]}},{"type":"Feature","properties":{"code":"1472011008","desa":"Bagan Keladi","kecamatan":"Dumai Barat","kecCode":"147201"},"geometry":{"type":"Polygon","coordinates":[[[101.37890023905486,1.7002122240186759],[101.38880824990086,1.698447445698742],[101.38721658927426,1.6597941075605405],[101.34782865157108,1.65280548404215],[101.35708217180486,1.6869098012647892],[101.37890023905486,1.7002122240186759]]]}},{"type":"Feature","properties":{"code":"1472011009","desa":"Simpang Tetap Darul Ichsan","kecamatan":"Dumai Barat","kecCode":"147201"},"geometry":{"type":"Polygon","coordinates":[[[101.40871501858327,1.6851528632344772],[101.41626567522081,1.6764355520891185],[101.4327462157653,1.670101544188061],[101.40849532679795,1.6728355794325354],[101.40263651256502,1.6772081704499637],[101.40871501858327,1.6851528632344772]]]}},{"type":"Feature","properties":{"code":"1472021002","desa":"Teluk Binjai","kecamatan":"Dumai Timur","kecCode":"147202"},"geometry":{"type":"Polygon","coordinates":[[[101.46370571624583,1.6780040875469615],[101.46325656963506,1.6714512125390144],[101.4440066558825,1.6591419893605992],[101.44873837227811,1.678101621720704],[101.46370571624583,1.6780040875469615]]]}},{"type":"Feature","properties":{"code":"1472021003","desa":"Tanjung Palas","kecamatan":"Dumai Timur","kecCode":"147202"},"geometry":{"type":"Polygon","coordinates":[[[101.46621283635335,1.6585765810942228],[101.4634059227452,1.6859324873140191],[101.4924559260002,1.674283548179678],[101.43498262824572,1.59618341265344],[101.42863821158424,1.6003431728136277],[101.46057703330348,1.6351110350221378],[101.46621283635335,1.6585765810942228]]]}},{"type":"Feature","properties":{"code":"1472021004","desa":"Jaya Mukti","kecamatan":"Dumai Timur","kecCode":"147202"},"geometry":{"type":"Polygon","coordinates":[[[101.44903990326894,1.6586730585645741],[101.46291237300767,1.6711442955088152],[101.46699041267749,1.67092626926813],[101.46587495296677,1.6536320617256424],[101.45893168584871,1.6512763955472205],[101.44903990326894,1.6586730585645741]]]}},{"type":"Feature","properties":{"code":"1472021006","desa":"Buluh Kasap","kecamatan":"Dumai Timur","kecCode":"147202"},"geometry":{"type":"Polygon","coordinates":[[[101.46370571624583,1.6780040875469615],[101.44873837227811,1.678101621720704],[101.44803705126895,1.6868620760425337],[101.46332831395057,1.6859145773154591],[101.46370571624583,1.6780040875469615]]]}},{"type":"Feature","properties":{"code":"1472021009","desa":"Bukit Batrem","kecamatan":"Dumai Timur","kecCode":"147202"},"geometry":{"type":"Polygon","coordinates":[[[101.46587495296677,1.6536320617256424],[101.45615191198124,1.6256873684636282],[101.42896047194829,1.5986116811005766],[101.4166326894471,1.6031341693178558],[101.44243284859714,1.6279070562495743],[101.44977544258268,1.6569350791422925],[101.46587495296677,1.6536320617256424]]]}},{"type":"Feature","properties":{"code":"1472031001","desa":"Bukit Nenas","kecamatan":"Bukit Kapur","kecCode":"147203"},"geometry":{"type":"Polygon","coordinates":[[[101.3190342922988,1.5232130505419192],[101.3040425803009,1.5492754969377975],[101.30283374308283,1.5666799604636132],[101.42764372327927,1.567474050138255],[101.41227088039687,1.523499362305454],[101.3190342922988,1.5232130505419192]]]}},{"type":"Feature","properties":{"code":"1472031002","desa":"Bukit Kayu Kapur","kecamatan":"Bukit Kapur","kecCode":"147203"},"geometry":{"type":"Polygon","coordinates":[[[101.391541066567,1.453665200565838],[101.31718583295985,1.4744033313029727],[101.335388889086,1.496138887529765],[101.3190342922988,1.5232130505419192],[101.41227088039687,1.523499362305454],[101.391541066567,1.453665200565838]]]}},{"type":"Feature","properties":{"code":"1472031003","desa":"Gurun Panjang","kecamatan":"Bukit Kapur","kecCode":"147203"},"geometry":{"type":"Polygon","coordinates":[[[101.5066432214076,1.4933102759817487],[101.44932524196639,1.494308268943612],[101.45925353072589,1.5214539487427936],[101.46579704829519,1.5784122955298105],[101.52275001540096,1.570116510116864],[101.5066432214076,1.4933102759817487]]]}},{"type":"Feature","properties":{"code":"1472031004","desa":"Bagan Besar","kecamatan":"Bukit Kapur","kecCode":"147203"},"geometry":{"type":"Polygon","coordinates":[[[101.30283374308283,1.5666799604636132],[101.29005907126917,1.6000224961560678],[101.33512836268386,1.6210597243182956],[101.32780290527988,1.6108581271036801],[101.40975602881774,1.6127153395420617],[101.41082678592748,1.6015033216341739],[101.4548728476039,1.592417758795818],[101.42764372327927,1.567474050138255],[101.30283374308283,1.5666799604636132]]]}},{"type":"Feature","properties":{"code":"1472031005","desa":"Kampung Baru","kecamatan":"Bukit Kapur","kecCode":"147203"},"geometry":{"type":"Polygon","coordinates":[[[101.46014582906683,1.5262128696249788],[101.43564334126722,1.4471949426769775],[101.391541066567,1.453665200565838],[101.42334291974002,1.5587420818422348],[101.43717353682933,1.581198245938025],[101.4548728476039,1.592417758795818],[101.47547770243408,1.585235732474293],[101.52617744413378,1.58645766022273],[101.52275001540096,1.570116510116864],[101.46401245341208,1.5769251325293248],[101.46014582906683,1.5262128696249788]]]}},{"type":"Feature","properties":{"code":"1472051001","desa":"Teluk Makmur","kecamatan":"Medang Kampai","kecCode":"147205"},"geometry":{"type":"Polygon","coordinates":[[[101.55196225635314,1.5965283629123515],[101.52808540082066,1.5955543350842376],[101.52617744413378,1.58645766022273],[101.48047398588578,1.585356150796804],[101.51402263273836,1.6550569952379275],[101.54625886385554,1.6428570513791358],[101.55220422344621,1.6320819987645256],[101.55196225635314,1.5965283629123515]]]}},{"type":"Feature","properties":{"code":"1472051002","desa":"Mundam","kecamatan":"Medang Kampai","kecCode":"147205"},"geometry":{"type":"Polygon","coordinates":[[[101.4395519207846,1.5965805154970363],[101.48651926285373,1.667722813097092],[101.49609971722823,1.6725313630663545],[101.51402263273836,1.6550569952379275],[101.48047398588578,1.585356150796804],[101.4395519207846,1.5965805154970363]]]}},{"type":"Feature","properties":{"code":"1472051003","desa":"Guntung","kecamatan":"Medang Kampai","kecCode":"147205"},"geometry":{"type":"Polygon","coordinates":[[[101.57874975239922,1.5968036678733966],[101.55196225635314,1.5965283629123515],[101.55220422344621,1.6320819987645256],[101.54666932073263,1.6410486613359456],[101.57899780340595,1.6365221630417053],[101.57874975239922,1.5968036678733966]]]}},{"type":"Feature","properties":{"code":"1472051004","desa":"Pelintung","kecamatan":"Medang Kampai","kecCode":"147205"},"geometry":{"type":"Polygon","coordinates":[[[101.72498939434512,1.6713779034032175],[101.71853055604038,1.622686109565993],[101.6421669996074,1.6098609983902685],[101.62425432377808,1.588621603531651],[101.64229774484511,1.562215803173567],[101.64290400031943,1.5516929987013646],[101.61827272060964,1.5454943225802151],[101.60284090828132,1.5948241278517703],[101.59756944397469,1.6003194424028306],[101.57874975239922,1.5968036678733966],[101.57899780340595,1.6365221630417053],[101.61322837289116,1.6412370666064424],[101.66637769517456,1.6652168800974747],[101.72498939434512,1.6713779034032175]]]}},{"type":"Feature","properties":{"code":"1472061001","desa":"Laksamana","kecamatan":"Dumai Kota","kecCode":"147206"},"geometry":{"type":"Polygon","coordinates":[[[101.43147812941218,1.6773514441429136],[101.43781467970375,1.6865854337895698],[101.4416921345844,1.6879311721032855],[101.44123862895962,1.6780435255166146],[101.43147812941218,1.6773514441429136]]]}},{"type":"Feature","properties":{"code":"1472061002","desa":"Rimba Sekampung","kecamatan":"Dumai Kota","kecCode":"147206"},"geometry":{"type":"Polygon","coordinates":[[[101.42939483190604,1.6738055072513727],[101.44123862895962,1.6780435255166146],[101.44172605521332,1.6647833547110744],[101.43352249796499,1.6686961745275017],[101.42939483190604,1.6738055072513727]]]}},{"type":"Feature","properties":{"code":"1472061003","desa":"Dumai Kota","kecamatan":"Dumai Kota","kecCode":"147206"},"geometry":{"type":"Polygon","coordinates":[[[101.44803705126895,1.6868620760425337],[101.44873837227811,1.678101621720704],[101.44123862895962,1.6780435255166146],[101.4413303544124,1.6880282988841235],[101.44803705126895,1.6868620760425337]]]}},{"type":"Feature","properties":{"code":"1472061004","desa":"Bintan","kecamatan":"Dumai Kota","kecCode":"147206"},"geometry":{"type":"Polygon","coordinates":[[[101.4463975080386,1.6780757527220587],[101.44820619306142,1.6675407408524563],[101.4440066558825,1.6591419893605992],[101.4463975080386,1.6780757527220587]]]}},{"type":"Feature","properties":{"code":"1472061005","desa":"Sukajadi","kecamatan":"Dumai Kota","kecCode":"147206"},"geometry":{"type":"Polygon","coordinates":[[[101.44297441583666,1.6608137481033545],[101.44123862895962,1.6780435255166146],[101.4463975080386,1.6780757527220587],[101.44297441583666,1.6608137481033545]]]}},{"type":"Feature","properties":{"code":"1472071001","desa":"Ratu Sima","kecamatan":"Dumai Selatan","kecCode":"147207"},"geometry":{"type":"Polygon","coordinates":[[[101.38815782602289,1.6608479915889105],[101.40263651256502,1.6772081704499637],[101.43791036667017,1.667157519044622],[101.42427482961978,1.6608582672425802],[101.38815782602289,1.6608479915889105]]]}},{"type":"Feature","properties":{"code":"1472071002","desa":"Bukit Timah","kecamatan":"Dumai Selatan","kecCode":"147207"},"geometry":{"type":"Polygon","coordinates":[[[101.44105693622866,1.625867253557051],[101.42453811963854,1.6061795705387225],[101.41082678592748,1.6015033216341739],[101.40975602881774,1.6127153395420617],[101.37579438270465,1.6117249170731258],[101.38491818742449,1.6327128515953901],[101.43537457437719,1.63198164521615],[101.44105693622866,1.625867253557051]]]}},{"type":"Feature","properties":{"code":"1472071003","desa":"Mekar Sari","kecamatan":"Dumai Selatan","kecCode":"147207"},"geometry":{"type":"Polygon","coordinates":[[[101.38721658927426,1.6597941075605405],[101.38799744902309,1.6323986950226383],[101.38161986086793,1.6304593475019562],[101.3838488584381,1.6239493980345805],[101.37579438270465,1.6117249170731258],[101.32780290527988,1.6108581271036801],[101.33827088259524,1.6232083170992657],[101.34782865157108,1.65280548404215],[101.38721658927426,1.6597941075605405]]]}},{"type":"Feature","properties":{"code":"1472071004","desa":"Bukit Datuk","kecamatan":"Dumai Selatan","kecCode":"147207"},"geometry":{"type":"Polygon","coordinates":[[[101.44345006906548,1.6310241505245813],[101.44105693622866,1.625867253557051],[101.43537457437719,1.63198164521615],[101.38799744902309,1.6323986950226383],[101.38815782602289,1.6608479915889105],[101.42427482961978,1.6608582672425802],[101.43791036667017,1.667157519044622],[101.44328254155613,1.6590943828488025],[101.4327156657954,1.6542119967409883],[101.43156162696755,1.6458065515951286],[101.44345006906548,1.6310241505245813]]]}},{"type":"Feature","properties":{"code":"1472071005","desa":"Bumi Ayu","kecamatan":"Dumai Selatan","kecCode":"147207"},"geometry":{"type":"Polygon","coordinates":[[[101.4440066558825,1.6591419893605992],[101.45129879790125,1.6503661062697736],[101.44345006906548,1.6310241505245813],[101.43151403844217,1.6464728008423795],[101.43325699291596,1.6547890170535775],[101.4440066558825,1.6591419893605992]]]}},{"type":"Feature","properties":{"code":"1472041001","desa":"Lubuk Gaung","kecamatan":"Sungai Sembilan","kecCode":"147204"},"geometry":{"type":"Polygon","coordinates":[[[101.26103727255212,1.652582841581407],[101.2171302478627,1.7269319309379703],[101.3240412462066,1.7878736601479346],[101.35534034058429,1.794778588260254],[101.3594996393969,1.7712409597275915],[101.37505738918723,1.7427589566171382],[101.26117752002658,1.6656417045431031],[101.26892725239081,1.654669558307664],[101.26103727255212,1.652582841581407]]]}},{"type":"Feature","properties":{"code":"1472041002","desa":"Tanjung Penyembal","kecamatan":"Sungai Sembilan","kecCode":"147204"},"geometry":{"type":"Polygon","coordinates":[[[101.2171302478627,1.7269319309379703],[101.18551080867694,1.7708957747456486],[101.30629308425846,1.8238704063609872],[101.32615285257214,1.8394325196447132],[101.35241311657211,1.846629531369392],[101.36356790703336,1.8305523880417294],[101.35478342281674,1.7937475685955557],[101.3240412462066,1.7878736601479346],[101.2171302478627,1.7269319309379703]]]}},{"type":"Feature","properties":{"code":"1472041003","desa":"Bangsal Aceh","kecamatan":"Sungai Sembilan","kecCode":"147204"},"geometry":{"type":"Polygon","coordinates":[[[101.29005907126917,1.6000224961560678],[101.26103727255212,1.652582841581407],[101.26892725239081,1.654669558307664],[101.26117752002658,1.6656417045431031],[101.37505738918723,1.7427589566171382],[101.38836629067185,1.7157280752769937],[101.37979948285988,1.7122363585115676],[101.37840262438168,1.698834378109309],[101.35702030564266,1.686809864102551],[101.33820238842952,1.6230648923201754],[101.29005907126917,1.6000224961560678]]]}},{"type":"Feature","properties":{"code":"1472041004","desa":"Basilam Baru","kecamatan":"Sungai Sembilan","kecCode":"147204"},"geometry":{"type":"Polygon","coordinates":[[[101.14321475036053,1.8204205962041737],[101.06689175964704,1.935311127849885],[101.05427099331177,1.983021084146573],[101.27058893423197,1.9878577307352152],[101.27536679933836,1.9938040139230848],[101.28124795902612,1.9832944052031911],[101.29830774840394,1.9849280371879723],[101.29881643373146,1.9801595520157524],[101.31876539860434,2.000920121737349],[101.3255517978772,1.9365370638766288],[101.35123882141454,1.8449838223889554],[101.32615285257214,1.8394325196447132],[101.30629308425846,1.8238704063609872],[101.18551080867694,1.7708957747456486],[101.14321475036053,1.8204205962041737]]]}},{"type":"Feature","properties":{"code":"1472041005","desa":"Batu Teritip","kecamatan":"Sungai Sembilan","kecCode":"147204"},"geometry":{"type":"Polygon","coordinates":[[[101.05427099331177,1.983021084146573],[101.01611123994184,2.0805277476407626],[101.01015861292973,2.12480602231455],[101.03914722216659,2.22015277595932],[101.06223841197317,2.234952453905802],[101.07624366121603,2.215090942727919],[101.17861544574629,2.1259908934981078],[101.26763642488118,2.0798719143413966],[101.28246096819919,2.056071041655501],[101.3032114106781,2.0421789721074544],[101.31876539860434,2.000920121737349],[101.29881643373146,1.9801595520157524],[101.29830774840394,1.9849280371879723],[101.28124795902612,1.9832944052031911],[101.27536679933836,1.9938040139230848],[101.27058893423197,1.9878577307352152],[101.05427099331177,1.983021084146573]]]}}]}