{"type":"FeatureCollection","features":[{"type":"Feature","properties":{"code":"1505011003","desa":"Pijoan","kecamatan":"Jambi Luar Kota","kecCode":"150501"},"geometry":{"type":"Polygon","coordinates":[[[103.43762009389228,-1.6006653979038006],[103.44932348429143,-1.5992082066090894],[103.45583814171692,-1.5878288734320158],[103.4477644052032,-1.5684174495554375],[103.45780938279682,-1.5544315465439817],[103.47550611431579,-1.5652057412053493],[103.480290979745,-1.598749005578284],[103.47310723571042,-1.6121533808751334],[103.46209867141664,-1.603513209977506],[103.44987467337751,-1.6072480755449376],[103.43762009389228,-1.6006653979038006]]]}},{"type":"Feature","properties":{"code":"1505012002","desa":"Sungai Bertam","kecamatan":"Jambi Luar Kota","kecCode":"150501"},"geometry":{"type":"Polygon","coordinates":[[[103.47812382585391,-1.6540886167510087],[103.49369275601595,-1.6653820107134623],[103.53098788858023,-1.6572187484977585],[103.52421944427198,-1.6761277760064326],[103.54275000021237,-1.6816944418691468],[103.56832611126106,-1.6805277765610793],[103.56859166667213,-1.6717111092155466],[103.57904771807777,-1.6702289572374147],[103.54948368932087,-1.7250020998431974],[103.50776816227089,-1.725666362488085],[103.50931612124208,-1.74301745394855],[103.46474480063209,-1.742750560346588],[103.45750886534194,-1.7023406960675838],[103.46501169423436,-1.7095222394530953],[103.4706443784354,-1.703334016152106],[103.4653853058872,-1.7013869452536676],[103.47048302477184,-1.6673627171557466],[103.46447790702985,-1.6537413642276904],[103.47812382585391,-1.6540886167510087]]]}},{"type":"Feature","properties":{"code":"1505012004","desa":"Pematang Jering","kecamatan":"Jambi Luar Kota","kecCode":"150501"},"geometry":{"type":"Polygon","coordinates":[[[103.45780938279682,-1.5544315465439817],[103.4664408446693,-1.529378828363305],[103.49238758971558,-1.5383322610082473],[103.51528201055639,-1.5351935443332998],[103.50367748532773,-1.548149075191953],[103.50484788462221,-1.5680208575267827],[103.47638464043887,-1.566402074248354],[103.45780938279682,-1.5544315465439817]]]}},{"type":"Feature","properties":{"code":"1505012005","desa":"Muaro Pijoan","kecamatan":"Jambi Luar Kota","kecCode":"150501"},"geometry":{"type":"Polygon","coordinates":[[[103.47031532639123,-1.6078024716129127],[103.47308084870222,-1.612174423212303],[103.480290979745,-1.598749005578284],[103.47550611431579,-1.5652057412053493],[103.50553653328446,-1.5676482513163743],[103.49235210336695,-1.5992414266660746],[103.49571486005283,-1.607271839230712],[103.47853085181742,-1.6319170161367405],[103.46519594373784,-1.6207453885805752],[103.47031532639123,-1.6078024716129127]]]}},{"type":"Feature","properties":{"code":"1505012006","desa":"Sungai Duren","kecamatan":"Jambi Luar Kota","kecCode":"150501"},"geometry":{"type":"Polygon","coordinates":[[[103.4944977445753,-1.5946257515978781],[103.50410783700714,-1.5715342749332024],[103.52812105044619,-1.5726955568994552],[103.51333746944874,-1.6057247921738251],[103.4944977445753,-1.5946257515978781]]]}},{"type":"Feature","properties":{"code":"1505012007","desa":"Mendalo Darat","kecamatan":"Jambi Luar Kota","kecCode":"150501"},"geometry":{"type":"Polygon","coordinates":[[[103.54142213772155,-1.5996645379032388],[103.54828600009887,-1.611513025807467],[103.54245100081312,-1.6288545439847582],[103.53397122938877,-1.6288885230695698],[103.52419397457231,-1.615566985225684],[103.53082159763869,-1.59950762329348],[103.54142213772155,-1.5996645379032388]]]}},{"type":"Feature","properties":{"code":"1505012008","desa":"Rengas Bandung","kecamatan":"Jambi Luar Kota","kecCode":"150501"},"geometry":{"type":"Polygon","coordinates":[[[103.506901655587,-1.5725314108411623],[103.5030945177978,-1.5513732445482649],[103.50951906225498,-1.5390000471968484],[103.51528201055639,-1.5351935443332998],[103.53319516122775,-1.5401222212447057],[103.5313618707538,-1.554305787147759],[103.52019405001545,-1.553847980965501],[103.51531955635248,-1.566916861475438],[103.506901655587,-1.5725314108411623]]]}},{"type":"Feature","properties":{"code":"1505012009","desa":"Sarang Burung","kecamatan":"Jambi Luar Kota","kecCode":"150501"},"geometry":{"type":"Polygon","coordinates":[[[103.52812105044619,-1.5726955568994552],[103.5077655623309,-1.572137943956605],[103.52116486996283,-1.5534196779422387],[103.5344399677304,-1.5588691612432009],[103.52812105044619,-1.5726955568994552]]]}},{"type":"Feature","properties":{"code":"1505012010","desa":"Mendalo Laut","kecamatan":"Jambi Luar Kota","kecCode":"150501"},"geometry":{"type":"Polygon","coordinates":[[[103.51637590272577,-1.5914421641488037],[103.52812105044619,-1.5726955568994552],[103.54670541462325,-1.5858461516090814],[103.53503888923342,-1.58918888758388],[103.54142213772155,-1.5996645379032388],[103.53811426755946,-1.60040042615305],[103.51637590272577,-1.5914421641488037]]]}},{"type":"Feature","properties":{"code":"1505012011","desa":"Sembubuk","kecamatan":"Jambi Luar Kota","kecCode":"150501"},"geometry":{"type":"Polygon","coordinates":[[[103.5452696568692,-1.5808034199779226],[103.53697589672032,-1.5778839256419608],[103.54092085561308,-1.5602654441537425],[103.5473275862991,-1.5680609996655828],[103.5452696568692,-1.5808034199779226]]]}},{"type":"Feature","properties":{"code":"1505012012","desa":"Senaung","kecamatan":"Jambi Luar Kota","kecCode":"150501"},"geometry":{"type":"Polygon","coordinates":[[[103.5473275862991,-1.5680609996655828],[103.54313529495793,-1.5571404628244188],[103.55204637583961,-1.5477772828680143],[103.57047609169831,-1.5536767392562374],[103.5473275862991,-1.5680609996655828]]]}},{"type":"Feature","properties":{"code":"1505012013","desa":"Penyengat Olak","kecamatan":"Jambi Luar Kota","kecCode":"150501"},"geometry":{"type":"Polygon","coordinates":[[[103.55466580328424,-1.5658766624306386],[103.57047609169831,-1.5536767392562374],[103.5789225486368,-1.5610616049670138],[103.57857870634227,-1.5676249534795361],[103.56741666734534,-1.574249998182188],[103.55466580328424,-1.5658766624306386]]]}},{"type":"Feature","properties":{"code":"1505012014","desa":"Simpang Sungai Duren","kecamatan":"Jambi Luar Kota","kecCode":"150501"},"geometry":{"type":"Polygon","coordinates":[[[103.48633020427559,-1.6209928568263512],[103.49571486005283,-1.607271839230712],[103.4944977445753,-1.5946257515978781],[103.51333746944874,-1.6057247921738251],[103.49124742742691,-1.6362827588167657],[103.48633020427559,-1.6209928568263512]]]}},{"type":"Feature","properties":{"code":"1505012015","desa":"Kedemangan","kecamatan":"Jambi Luar Kota","kecCode":"150501"},"geometry":{"type":"Polygon","coordinates":[[[103.5313618707538,-1.554305787147759],[103.53319516122775,-1.5401222212447057],[103.54818363206903,-1.5346874040876732],[103.56317898542193,-1.5472397050216498],[103.55204637583961,-1.5477772828680143],[103.54268267066878,-1.5619656736338847],[103.5313618707538,-1.554305787147759]]]}},{"type":"Feature","properties":{"code":"1505012016","desa":"Muhajirin","kecamatan":"Jambi Luar Kota","kecCode":"150501"},"geometry":{"type":"Polygon","coordinates":[[[103.39691065999902,-1.7180038760619472],[103.41325358178744,-1.6978273908276829],[103.44255663807843,-1.6981098984590293],[103.44233502174392,-1.6881384449502865],[103.45571345970846,-1.6782775540937946],[103.45568564008028,-1.6650351439993154],[103.46382348566539,-1.6650101599335856],[103.4653853058872,-1.7013869452536676],[103.4706443784354,-1.703334016152106],[103.46501169423436,-1.7095222394530953],[103.45750886534194,-1.7023406960675838],[103.46474165390423,-1.7427405490936072],[103.39801881721466,-1.7423430892191745],[103.39691065999902,-1.7180038760619472]]]}},{"type":"Feature","properties":{"code":"1505012017","desa":"Maro Sebo","kecamatan":"Jambi Luar Kota","kecCode":"150501"},"geometry":{"type":"Polygon","coordinates":[[[103.41325358178744,-1.6978273908276829],[103.4177351931247,-1.6748228714101523],[103.42994401060763,-1.6697249672708299],[103.44906983230696,-1.672095010910791],[103.44255663807843,-1.6981098984590293],[103.41325358178744,-1.6978273908276829]]]}},{"type":"Feature","properties":{"code":"1505012019","desa":"Danau Sarang Elang","kecamatan":"Jambi Luar Kota","kecCode":"150501"},"geometry":{"type":"Polygon","coordinates":[[[103.38633836402435,-1.644342603493932],[103.3881320924222,-1.631991308231557],[103.41436411321331,-1.632229265247395],[103.4243061229293,-1.6215390411846469],[103.41735768740739,-1.6090552730870562],[103.43762009389228,-1.6006653979038006],[103.47031532639123,-1.6078024716129127],[103.4679670688252,-1.625164300079181],[103.47853085181742,-1.6319170161367405],[103.48633020427559,-1.6209928568263512],[103.49124742742691,-1.6362827588167657],[103.47802758760314,-1.654220280196408],[103.46447790702985,-1.6537413642276904],[103.47048302477184,-1.6673627171557466],[103.46657653887621,-1.6882195826845023],[103.46382348566539,-1.6650101599335856],[103.45568564008028,-1.6650351439993154],[103.45571345970846,-1.6782775540937946],[103.45094701689133,-1.6797373570197278],[103.44472389539152,-1.6700795600607143],[103.4177351931247,-1.6748228714101523],[103.41475522207587,-1.6440449305949527],[103.38633836402435,-1.644342603493932]]]}},{"type":"Feature","properties":{"code":"1505012020","desa":"Simpang Limo","kecamatan":"Jambi Luar Kota","kecCode":"150501"},"geometry":{"type":"Polygon","coordinates":[[[103.52812105044619,-1.5726955568994552],[103.53524303533787,-1.563634032040044],[103.5313618707538,-1.554305787147759],[103.54093613959121,-1.5601949274128886],[103.53680152626946,-1.5791929788107717],[103.52812105044619,-1.5726955568994552]]]}},{"type":"Feature","properties":{"code":"1505012021","desa":"Mendalo Indah","kecamatan":"Jambi Luar Kota","kecCode":"150501"},"geometry":{"type":"Polygon","coordinates":[[[103.50965913526095,-1.6115110823725436],[103.51637590272577,-1.5914421641488037],[103.53407328625319,-1.5987228083271106],[103.5182262794193,-1.624582698620131],[103.50965913526095,-1.6115110823725436]]]}},{"type":"Feature","properties":{"code":"1505012022","desa":"Pematang Gajah","kecamatan":"Jambi Luar Kota","kecCode":"150501"},"geometry":{"type":"Polygon","coordinates":[[[103.53098788858023,-1.6572187484977585],[103.49369275601595,-1.6653820107134623],[103.4781118468843,-1.654079134299385],[103.50965913526095,-1.6115110823725436],[103.5182262794193,-1.624582698620131],[103.52453815681052,-1.6184805125598694],[103.53397122938877,-1.6288885230695698],[103.54245100081312,-1.6288545439847582],[103.53783333284206,-1.6450527765292122],[103.52675555582431,-1.6496472204025627],[103.53098788858023,-1.6572187484977585]]]}},{"type":"Feature","properties":{"code":"1505021010","desa":"Sengeti","kecamatan":"Sekernan","kecCode":"150502"},"geometry":{"type":"Polygon","coordinates":[[[103.52026202797025,-1.461952874793327],[103.5224290919291,-1.4744535222663386],[103.50141459500759,-1.4996071425817203],[103.49576434794636,-1.4941414984636283],[103.5004907205704,-1.486214977380326],[103.48486096206379,-1.4665883133628683],[103.5087008320778,-1.4574853486428938],[103.52026202797025,-1.461952874793327]]]}},{"type":"Feature","properties":{"code":"1505022001","desa":"Suak Putat","kecamatan":"Sekernan","kecCode":"150502"},"geometry":{"type":"Polygon","coordinates":[[[103.45109223581807,-1.4674906283516937],[103.44424873678986,-1.4758363926879132],[103.43220276584503,-1.4663756425849033],[103.41607126927373,-1.478514889400199],[103.38582570818993,-1.4843013846443684],[103.38157960771281,-1.4705378201227535],[103.35849569432088,-1.4447720375865591],[103.37488973537306,-1.4446721831619764],[103.38777800864823,-1.4401134657561685],[103.38550086497298,-1.4347025714647692],[103.40712302660641,-1.4301578016445504],[103.44042453526413,-1.4349895343375079],[103.4514874428912,-1.4514431104908192],[103.45109223581807,-1.4674906283516937]]]}},{"type":"Feature","properties":{"code":"1505022002","desa":"Rantau Majo","kecamatan":"Sekernan","kecCode":"150502"},"geometry":{"type":"Polygon","coordinates":[[[103.46080805704626,-1.521269974232061],[103.45949833927699,-1.50000001411509],[103.46672755123556,-1.4980567455502989],[103.46695753576171,-1.4709222901896073],[103.48330696144717,-1.4724981317396728],[103.5004907205704,-1.486214977380326],[103.49576434794636,-1.4941414984636283],[103.48820719730435,-1.4888263792721115],[103.48100731043911,-1.5136456523355533],[103.46080805704626,-1.521269974232061]]]}},{"type":"Feature","properties":{"code":"1505022003","desa":"Pulau Kayu Aro","kecamatan":"Sekernan","kecCode":"150502"},"geometry":{"type":"Polygon","coordinates":[[[103.48820719730435,-1.4888263792721115],[103.50535498174706,-1.498103322338322],[103.50165430839968,-1.514559674698826],[103.48286959055923,-1.520003981502114],[103.48820719730435,-1.4888263792721115]]]}},{"type":"Feature","properties":{"code":"1505022004","desa":"Pematang Pulai","kecamatan":"Sekernan","kecCode":"150502"},"geometry":{"type":"Polygon","coordinates":[[[103.50004318284668,-1.5129574254561464],[103.51483519858562,-1.483337604591013],[103.52784136668578,-1.4822441494933936],[103.52822917503647,-1.4983582711449015],[103.51519032197585,-1.5019829185004188],[103.5065568636084,-1.5194113093886141],[103.50004318284668,-1.5129574254561464]]]}},{"type":"Feature","properties":{"code":"1505022005","desa":"Tan Tan","kecamatan":"Sekernan","kecCode":"150502"},"geometry":{"type":"Polygon","coordinates":[[[103.4664408446693,-1.529378828363305],[103.46085689383061,-1.5206707613493549],[103.48100731043911,-1.5136456523355533],[103.48286959055923,-1.520003981502114],[103.49757692073838,-1.5198368047284612],[103.50165430839968,-1.514559674698826],[103.51527052441524,-1.5351902150430519],[103.49238758971558,-1.5383322610082473],[103.4664408446693,-1.529378828363305]]]}},{"type":"Feature","properties":{"code":"1505022006","desa":"Kedotan","kecamatan":"Sekernan","kecCode":"150502"},"geometry":{"type":"Polygon","coordinates":[[[103.51528201055639,-1.5351935443332998],[103.50660012639479,-1.5283399612144732],[103.50884941896554,-1.511903116947811],[103.53603970606763,-1.5186948033274843],[103.51528201055639,-1.5351935443332998]]]}},{"type":"Feature","properties":{"code":"1505022007","desa":"Keranggan","kecamatan":"Sekernan","kecCode":"150502"},"geometry":{"type":"Polygon","coordinates":[[[103.5121363915813,-1.5125234090399047],[103.52028810291368,-1.498896585535985],[103.53134610923559,-1.4994305265239665],[103.53709823239755,-1.5072218093567304],[103.5360537453841,-1.5186973565027697],[103.5121363915813,-1.5125234090399047]]]}},{"type":"Feature","properties":{"code":"1505022008","desa":"Berembang","kecamatan":"Sekernan","kecCode":"150502"},"geometry":{"type":"Polygon","coordinates":[[[103.51483519858562,-1.483337604591013],[103.5224290919291,-1.4744535222663386],[103.51985102520472,-1.4697351904859839],[103.52026202797025,-1.461952874793327],[103.52567388364285,-1.4720741589520066],[103.54405146040665,-1.472010886250258],[103.54424636957435,-1.4870603634850703],[103.53420561159976,-1.5019156564060085],[103.52822917503647,-1.4983582711449015],[103.52784136668578,-1.4822441494933936],[103.51483519858562,-1.483337604591013]]]}},{"type":"Feature","properties":{"code":"1505022009","desa":"Sekernan","kecamatan":"Sekernan","kecCode":"150502"},"geometry":{"type":"Polygon","coordinates":[[[103.53401461628157,-1.524226917237327],[103.53736979707854,-1.5001715813789],[103.57634343420222,-1.5083216649293643],[103.5685541370638,-1.5249465394493047],[103.56380473280221,-1.5199306354940572],[103.55758006266983,-1.5273640708905427],[103.55290680040854,-1.5190169224975967],[103.55468029226176,-1.52682472767502],[103.53401461628157,-1.524226917237327]]]}},{"type":"Feature","properties":{"code":"1505022011","desa":"Gerunggung","kecamatan":"Sekernan","kecCode":"150502"},"geometry":{"type":"Polygon","coordinates":[[[103.4911277339578,-1.4778150891454092],[103.45109223581807,-1.4674906283516937],[103.44784474344021,-1.4442323130584906],[103.49069031900306,-1.4441532536574901],[103.49167293985437,-1.4609791815130926],[103.48446121341429,-1.4693675242516129],[103.4911277339578,-1.4778150891454092]]]}},{"type":"Feature","properties":{"code":"1505022012","desa":"Tunas Baru","kecamatan":"Sekernan","kecCode":"150502"},"geometry":{"type":"Polygon","coordinates":[[[103.53736979707854,-1.5001715813789],[103.54424636957435,-1.4870603634850703],[103.54411114121626,-1.4462279599378507],[103.55173340367371,-1.4461264732437231],[103.56262490861269,-1.4505130082494302],[103.5596699270256,-1.4910897336399407],[103.57254646774533,-1.5074988976734192],[103.53736979707854,-1.5001715813789]]]}},{"type":"Feature","properties":{"code":"1505022013","desa":"Bukit Baling","kecamatan":"Sekernan","kecCode":"150502"},"geometry":{"type":"Polygon","coordinates":[[[103.52026202797025,-1.461952874793327],[103.5087008320778,-1.4574853486428938],[103.49167293985437,-1.4609791815130926],[103.49069031900306,-1.4441532536574901],[103.44784474344021,-1.4442323130584906],[103.44817587381759,-1.3956006020279148],[103.39251684497646,-1.3957443011002326],[103.39252064281345,-1.2883328229624753],[103.41649829166289,-1.3064495819235178],[103.41701384421361,-1.3282972116636027],[103.43265669864779,-1.3416068514767687],[103.44141324272702,-1.3415149821326102],[103.44128049739709,-1.3298767062598265],[103.50692763790022,-1.3322528625917094],[103.50706359470917,-1.3208355762257422],[103.5113472679621,-1.3210655256780832],[103.51154162134877,-1.3751028897510786],[103.50402252641851,-1.4068924887265284],[103.52842867704186,-1.419689735307962],[103.54392872722906,-1.4366366615488164],[103.54405146040665,-1.472010886250258],[103.52567388364285,-1.4720741589520066],[103.52026202797025,-1.461952874793327]]]}},{"type":"Feature","properties":{"code":"1505022014","desa":"Tanjung Lanjut","kecamatan":"Sekernan","kecCode":"150502"},"geometry":{"type":"Polygon","coordinates":[[[103.35849569432088,-1.4447720375865591],[103.34218293759254,-1.3960254993186445],[103.44817587381759,-1.3956006020279148],[103.44784474344021,-1.4442323130584906],[103.44042453526413,-1.4349895343375079],[103.43033942722286,-1.4373699471606096],[103.41171776636189,-1.4298960602585706],[103.38550086497298,-1.4347025714647692],[103.38777800864823,-1.4401134657561685],[103.37488973537306,-1.4446721831619764],[103.35849569432088,-1.4447720375865591]]]}},{"type":"Feature","properties":{"code":"1505022015","desa":"Suko Awin Jaya","kecamatan":"Sekernan","kecCode":"150502"},"geometry":{"type":"Polygon","coordinates":[[[103.23792131231875,-1.3928741696519733],[103.22003184889076,-1.3880200834102927],[103.22060277809578,-1.3744861095115422],[103.23828770871086,-1.374517365449216],[103.23285849792143,-1.3591669013136984],[103.22456181227788,-1.3591562551393253],[103.22455925910258,-1.3312226388270354],[103.2401150105993,-1.3306359993658297],[103.24155555634388,-1.3612778044070841],[103.25002777795964,-1.3747527764844132],[103.2639584293381,-1.375591007582922],[103.25577615364664,-1.3868510196103323],[103.23792131231875,-1.3928741696519733]]]}},{"type":"Feature","properties":{"code":"1505022015","desa":"Suko Awin Jaya","kecamatan":"Sekernan","kecCode":"150502"},"geometry":{"type":"Polygon","coordinates":[[[103.35297927087669,-1.439411050272809],[103.32815547329653,-1.42707069166589],[103.32359692495815,-1.4141611530359077],[103.30453412774784,-1.4094334098503276],[103.30095952316348,-1.3988701484766712],[103.3136424812156,-1.3819665129011596],[103.27652864298257,-1.360154347925947],[103.26262487503799,-1.3662469436159452],[103.25836947916821,-1.336988215840366],[103.27049731899615,-1.3153344808325738],[103.27107948523013,-1.2345892089456627],[103.33819005292865,-1.2371504466537908],[103.32978290895414,-1.2654876409283047],[103.33676257343409,-1.278591263148126],[103.39118198935738,-1.2798973161786593],[103.39252035862773,-1.3958813586791947],[103.34218293759254,-1.3960254993186445],[103.35297927087669,-1.439411050272809]]]}},{"type":"Feature","properties":{"code":"1505022016","desa":"Tunas Mudo","kecamatan":"Sekernan","kecCode":"150502"},"geometry":{"type":"Polygon","coordinates":[[[103.53319516122775,-1.5401222212447057],[103.51854307640188,-1.5361245926614675],[103.53401461628157,-1.524226917237327],[103.54793554059279,-1.5259694364372405],[103.54818363206903,-1.5346874040876732],[103.53319516122775,-1.5401222212447057]]]}},{"type":"Feature","properties":{"code":"1505031008","desa":"Tanjung","kecamatan":"Kumpeh","kecCode":"150503"},"geometry":{"type":"Polygon","coordinates":[[[104.28344816060415,-1.672398416088513],[104.25584594173687,-1.6807370398077646],[104.06216555369741,-1.473984678704607],[104.02030944822252,-1.4373582586720173],[103.96878599857502,-1.4097709308097868],[103.96216077400054,-1.3934930381173047],[103.93260221132304,-1.4044844163545434],[103.95686645432346,-1.3280867846941498],[103.97108003511555,-1.3263442708901418],[103.99169099993973,-1.3841769988238326],[104.0294570606949,-1.396674222577799],[104.28344816060415,-1.672398416088513]]]}},{"type":"Feature","properties":{"code":"1505032001","desa":"Puding","kecamatan":"Kumpeh","kecCode":"150503"},"geometry":{"type":"Polygon","coordinates":[[[103.94624096255046,-1.6332648534680863],[103.9463444070688,-1.648434871333266],[103.95854219166885,-1.6485888001938338],[103.9587131590851,-1.6683578349850485],[103.94352599293029,-1.6683407262824295],[103.94335160089571,-1.6887963736699545],[103.91289287440668,-1.6884800713149148],[103.91156005755066,-1.6289062478077851],[103.87523908861311,-1.5960064465594137],[103.86441299856108,-1.5644519978156641],[103.87579199270634,-1.5572035862387583],[103.87393927687617,-1.5508444980444525],[103.89214123582946,-1.556195982222121],[103.90576819424683,-1.5756683153822217],[103.91565119584605,-1.5912625488519667],[103.91578184125905,-1.611457740884043],[103.92951459772057,-1.6330427290167906],[103.94624096255046,-1.6332648534680863]]]}},{"type":"Feature","properties":{"code":"1505032002","desa":"Pulau Mentaro","kecamatan":"Kumpeh","kecCode":"150503"},"geometry":{"type":"Polygon","coordinates":[[[103.94624096255046,-1.6332648534680863],[103.92951459772057,-1.6330427290167906],[103.91578184125905,-1.611457740884043],[103.91565119584605,-1.5912625488519667],[103.90326100039493,-1.5720170408995569],[103.89214123582946,-1.556195982222121],[103.868324000852,-1.5456320409610307],[103.89576666559917,-1.5171762764706402],[103.92694539921087,-1.6161865731486256],[103.929570228883,-1.6221863821859677],[103.94599863392988,-1.6223033902792516],[103.94624096255046,-1.6332648534680863]]]}},{"type":"Feature","properties":{"code":"1505032003","desa":"Betung","kecamatan":"Kumpeh","kecCode":"150503"},"geometry":{"type":"Polygon","coordinates":[[[103.94359134756269,-1.683804933073045],[103.94352599293029,-1.6683407262824295],[103.9587131590851,-1.6683578349850485],[103.95854219166885,-1.6485888001938338],[103.9463444070688,-1.648434871333266],[103.94599863392988,-1.6223033902792516],[103.929570228883,-1.6221863821859677],[103.90556573886782,-1.555741649221627],[103.90504599997296,-1.533887998520453],[103.87763309738959,-1.4856205992529492],[103.85355414260964,-1.5016404296860115],[103.85369469765226,-1.4880752160373927],[103.84476182799601,-1.4848028744956936],[103.8447826895695,-1.480210229266337],[103.88606602043056,-1.4791920582157787],[103.88326286958583,-1.4502210937095656],[103.88973131894528,-1.4503849052200812],[103.90623308978529,-1.5089508603097461],[104.03234810767907,-1.6006278664968927],[104.09890452482404,-1.7290739809510944],[104.0040955899396,-1.7541177931455731],[104.00706479070762,-1.7100586158052282],[103.98416644792331,-1.7020915613780092],[103.96450641364015,-1.6847126421955028],[103.94359134756269,-1.683804933073045]]]}},{"type":"Feature","properties":{"code":"1505032004","desa":"Pematang Raman","kecamatan":"Kumpeh","kecCode":"150503"},"geometry":{"type":"Polygon","coordinates":[[[104.09890452482404,-1.7290739809510944],[104.03234810767907,-1.6006278664968927],[103.92695444459201,-1.5273566811613015],[103.91422999991461,-1.5125899984414006],[103.93439745327991,-1.4978257366965935],[103.98090244129467,-1.497965556093549],[104.05038681180194,-1.569368146271656],[104.15801666703561,-1.7110903495315999],[104.09890452482404,-1.7290739809510944]]]}},{"type":"Feature","properties":{"code":"1505032005","desa":"Sungai Bungur","kecamatan":"Kumpeh","kecCode":"150503"},"geometry":{"type":"Polygon","coordinates":[[[103.89646477243139,-1.487859953413327],[103.88973131894528,-1.4503849052200812],[104.00196496740938,-1.456023995285756],[104.00000000089938,-1.4608354554611702],[104.00591934400256,-1.4607998171271552],[104.03273419742531,-1.4931849291744395],[104.04147270020502,-1.4929022353834907],[104.04258111192883,-1.505077345363288],[104.2019730528142,-1.6975798362469787],[104.15801666703561,-1.7110903495315999],[104.05038681180194,-1.569368146271656],[103.98090244129467,-1.497965556093549],[103.93439745327991,-1.4978257366965935],[103.93772254635849,-1.4881796417159854],[103.92520578931577,-1.4905438613463826],[103.91526335691844,-1.4752540834624315],[103.89646477243139,-1.487859953413327]]]}},{"type":"Feature","properties":{"code":"1505032006","desa":"Seponjen","kecamatan":"Kumpeh","kecCode":"150503"},"geometry":{"type":"Polygon","coordinates":[[[104.2019730528142,-1.6975798362469787],[104.04258111192883,-1.505077345363288],[104.04147270020502,-1.4929022353834907],[104.03273419742531,-1.4931849291744395],[104.00591934400256,-1.4607998171271552],[104.00000000089938,-1.4608354554611702],[104.00196496740938,-1.456023995285756],[103.89857375727313,-1.4511167654064816],[103.89878520857059,-1.4211667305734526],[103.95374499923241,-1.419922203761426],[104.00818882365535,-1.4429476782818398],[104.06532014340995,-1.4916666676176187],[104.22449165506589,-1.6907335421334182],[104.2019730528142,-1.6975798362469787]]]}},{"type":"Feature","properties":{"code":"1505032007","desa":"Sogo","kecamatan":"Kumpeh","kecCode":"150503"},"geometry":{"type":"Polygon","coordinates":[[[103.93260221132304,-1.4044844163545434],[103.96216077400054,-1.3934930381173047],[103.96878599857502,-1.4097709308097868],[104.02030944822252,-1.4373582586720173],[104.06216555369741,-1.473984678704607],[104.25584594173687,-1.6807370398077646],[104.22449165506589,-1.6907335421334182],[104.06532014340995,-1.4916666676176187],[104.00818882365535,-1.4429476782818398],[103.95374499923241,-1.419922203761426],[103.92585423468522,-1.4205539406258818],[103.93260221132304,-1.4044844163545434]]]}},{"type":"Feature","properties":{"code":"1505032009","desa":"Sungai Aur","kecamatan":"Kumpeh","kecCode":"150503"},"geometry":{"type":"Polygon","coordinates":[[[104.09802020077171,-1.2979210546633322],[104.10818639888326,-1.3102978852758056],[104.09481073622658,-1.32496925334863],[104.0852619083105,-1.3213619116471957],[104.17277843857413,-1.4620300977786953],[104.23546646690397,-1.5434074006085985],[104.28627050927662,-1.57340336651638],[104.29666899687675,-1.603398901648934],[104.31627757465041,-1.627751388799511],[104.3383651516305,-1.6453194947633571],[104.36251066073845,-1.6466905498919653],[104.33528324242774,-1.6562593508407284],[104.22579063942652,-1.5453639179857934],[104.20142521460201,-1.5017871279973187],[104.03057745138835,-1.3195282389633782],[104.0553130299724,-1.3182683346436697],[104.07622815630441,-1.3032452839871067],[104.07943863798283,-1.2941627644545917],[104.09802020077171,-1.2979210546633322]]]}},{"type":"Feature","properties":{"code":"1505032010","desa":"Jebus","kecamatan":"Kumpeh","kecCode":"150503"},"geometry":{"type":"Polygon","coordinates":[[[104.03057745138835,-1.3195282389633782],[104.20142521460201,-1.5017871279973187],[104.22579063942652,-1.5453639179857934],[104.33528324242774,-1.6562593508407284],[104.3086748616556,-1.6643755074670854],[104.19431785358614,-1.532352975399297],[104.0301349993308,-1.3716779989088386],[104.00540899942585,-1.3566109983839514],[103.99158384571795,-1.3238306055195743],[104.03057745138835,-1.3195282389633782]]]}},{"type":"Feature","properties":{"code":"1505032011","desa":"Gedong Karya","kecamatan":"Kumpeh","kecCode":"150503"},"geometry":{"type":"Polygon","coordinates":[[[104.28344816060415,-1.672398416088513],[104.0294570606949,-1.396674222577799],[103.99169099993973,-1.3841769988238326],[103.97108003511555,-1.3263442708901418],[103.99158384571795,-1.3238306055195743],[104.00540899942585,-1.3566109983839514],[104.0301349993308,-1.3716779989088386],[104.19431785358614,-1.532352975399297],[104.3086748616556,-1.6643755074670854],[104.28344816060415,-1.672398416088513]]]}},{"type":"Feature","properties":{"code":"1505032013","desa":"Rantau Panjang","kecamatan":"Kumpeh","kecCode":"150503"},"geometry":{"type":"Polygon","coordinates":[[[103.95686645432346,-1.3280867846941498],[103.92585423468522,-1.4205539406258818],[103.90805946267416,-1.420956815318312],[103.91208782559272,-1.370695889772948],[103.90177098564254,-1.3348412121615167],[103.95686645432346,-1.3280867846941498]]]}},{"type":"Feature","properties":{"code":"1505032014","desa":"Londerang","kecamatan":"Kumpeh","kecCode":"150503"},"geometry":{"type":"Polygon","coordinates":[[[103.88071032202377,-1.4501610037084804],[103.85335186259844,-1.450136187815945],[103.85330617074321,-1.3957833316769648],[103.83898811211172,-1.3415095457308481],[103.886414059861,-1.336070635759188],[103.89323092906419,-1.3708439712415452],[103.8775047146709,-1.3850459255824614],[103.88071032202377,-1.4501610037084804]]]}},{"type":"Feature","properties":{"code":"1505032016","desa":"Petanang","kecamatan":"Kumpeh","kecCode":"150503"},"geometry":{"type":"Polygon","coordinates":[[[103.91464398303344,-1.5135228211320462],[103.90326499968005,-1.505212998201238],[103.89646477243139,-1.487859953413327],[103.91526335691844,-1.4752540834624315],[103.92520578931577,-1.4905438613463826],[103.93772254635849,-1.4881796417159854],[103.93299199998086,-1.502796998305461],[103.91464398303344,-1.5135228211320462]]]}},{"type":"Feature","properties":{"code":"1505032017","desa":"Mekar Sari","kecamatan":"Kumpeh","kecCode":"150503"},"geometry":{"type":"Polygon","coordinates":[[[103.89576666559917,-1.5171762764706402],[103.86842007182888,-1.5406485665587277],[103.84686397169497,-1.5060872156714231],[103.87763309738959,-1.4856205992529492],[103.89576666559917,-1.5171762764706402]]]}},{"type":"Feature","properties":{"code":"1505032018","desa":"Rondang","kecamatan":"Kumpeh","kecCode":"150503"},"geometry":{"type":"Polygon","coordinates":[[[103.89857375727313,-1.4511167654064816],[103.88071032202377,-1.4501610037084804],[103.8775047146709,-1.3850459255824614],[103.89323092906419,-1.3708439712415452],[103.886414059861,-1.336070635759188],[103.90177098564254,-1.3348412121615167],[103.91208782559272,-1.370695889772948],[103.90805946267416,-1.420956815318312],[103.89878520857059,-1.4211667305734526],[103.89857375727313,-1.4511167654064816]]]}},{"type":"Feature","properties":{"code":"1505032019","desa":"Maju Jaya","kecamatan":"Kumpeh","kecCode":"150503"},"geometry":{"type":"Polygon","coordinates":[[[103.86276726259915,-1.5418583273791575],[103.87579199270634,-1.5572035862387583],[103.85988249108412,-1.5676412015308883],[103.85466527028602,-1.5509130389747932],[103.86276726259915,-1.5418583273791575]]]}},{"type":"Feature","properties":{"code":"1505041002","desa":"Jambi Kecil","kecamatan":"Maro Sebo","kecCode":"150504"},"geometry":{"type":"Polygon","coordinates":[[[103.57634343420222,-1.5083216649293643],[103.5596699270256,-1.4910897336399407],[103.56261350880648,-1.4644393824367823],[103.58342150160108,-1.4594810530789362],[103.5962564819511,-1.4679635557348663],[103.58983422806722,-1.5043107290778026],[103.6004930945807,-1.515804605306514],[103.57634343420222,-1.5083216649293643]]]}},{"type":"Feature","properties":{"code":"1505042001","desa":"Setiris","kecamatan":"Maro Sebo","kecCode":"150504"},"geometry":{"type":"Polygon","coordinates":[[[103.57047609169831,-1.5536767392562374],[103.55791211844955,-1.5376971345989996],[103.54581791326613,-1.5332195837056821],[103.54793554059279,-1.5259694364372405],[103.55468029226176,-1.52682472767502],[103.55052733996484,-1.5197402786947145],[103.55758006266983,-1.5273640708905427],[103.56336691135391,-1.520092437919119],[103.56799258329112,-1.5249941279746047],[103.5710907162636,-1.5210609385138447],[103.57908433127692,-1.5436295628313563],[103.57047609169831,-1.5536767392562374]]]}},{"type":"Feature","properties":{"code":"1505042003","desa":"Tanjung Katung","kecamatan":"Maro Sebo","kecCode":"150504"},"geometry":{"type":"Polygon","coordinates":[[[103.56261350880648,-1.4644393824367823],[103.56262490861269,-1.4505130082494302],[103.54411114121626,-1.4462279599378507],[103.54392872722906,-1.4366366615488164],[103.52842867704186,-1.419689735307962],[103.50402252641851,-1.4068924887265284],[103.5111591954406,-1.3633377087458312],[103.58069645687605,-1.3637124184705471],[103.58070342572255,-1.3902303463011374],[103.61353868536209,-1.3917293911444941],[103.61364772096562,-1.462142164097393],[103.59664549988996,-1.4683328362523074],[103.58342150160108,-1.4594810530789362],[103.56261350880648,-1.4644393824367823]]]}},{"type":"Feature","properties":{"code":"1505042004","desa":"Jambi Tulo","kecamatan":"Maro Sebo","kecCode":"150504"},"geometry":{"type":"Polygon","coordinates":[[[103.6004930945807,-1.515804605306514],[103.58983422806722,-1.5043107290778026],[103.59625353307416,-1.4681824579151328],[103.6274379836761,-1.4600654685167163],[103.62077496689125,-1.4916585539341771],[103.62818806862452,-1.5074268790647305],[103.6004930945807,-1.515804605306514]]]}},{"type":"Feature","properties":{"code":"1505042005","desa":"Baru","kecamatan":"Maro Sebo","kecCode":"150504"},"geometry":{"type":"Polygon","coordinates":[[[103.62932759329385,-1.502901900624717],[103.62077496689125,-1.4916585539341771],[103.6266182255507,-1.4760985549566426],[103.64439829544504,-1.4794847794475312],[103.64681724242183,-1.4994424056688356],[103.62932759329385,-1.502901900624717]]]}},{"type":"Feature","properties":{"code":"1505042006","desa":"Danau Lamo","kecamatan":"Maro Sebo","kecCode":"150504"},"geometry":{"type":"Polygon","coordinates":[[[103.61364772096562,-1.462142164097393],[103.61353868536209,-1.3917293911444941],[103.63364510893466,-1.3921613040464924],[103.67136613344034,-1.3704483109105492],[103.68725992390642,-1.3675847831840784],[103.68836302243561,-1.4092061223912677],[103.66489919584126,-1.4353986665127518],[103.66855551732333,-1.4559566666415078],[103.65275998498538,-1.489609091623541],[103.64558809761269,-1.489609088925565],[103.64439829544504,-1.4794847794475312],[103.63038559891629,-1.479999827478005],[103.62163236883879,-1.4707337185445037],[103.62760455160884,-1.4601511271428245],[103.61364772096562,-1.462142164097393]]]}},{"type":"Feature","properties":{"code":"1505042007","desa":"Muaro Jambi","kecamatan":"Maro Sebo","kecCode":"150504"},"geometry":{"type":"Polygon","coordinates":[[[103.65377878376393,-1.4859689795261293],[103.66369317709848,-1.4646293291452386],[103.6833144524001,-1.4871082676725074],[103.6753420469979,-1.496605952032558],[103.6709367242505,-1.4834157295964023],[103.65377878376393,-1.4859689795261293]]]}},{"type":"Feature","properties":{"code":"1505042016","desa":"Niaso","kecamatan":"Maro Sebo","kecCode":"150504"},"geometry":{"type":"Polygon","coordinates":[[[103.63807895188216,-1.5506610156628244],[103.6217222219031,-1.5526111091826593],[103.6145926943974,-1.547452016070728],[103.62147600821127,-1.5321555193517868],[103.63807895188216,-1.5506610156628244]]]}},{"type":"Feature","properties":{"code":"1505042017","desa":"Bakung","kecamatan":"Maro Sebo","kecCode":"150504"},"geometry":{"type":"Polygon","coordinates":[[[103.60163970231046,-1.517041037320815],[103.61437305657135,-1.5078944222067892],[103.62818806862452,-1.5074268790647305],[103.63045902406475,-1.5253677863918353],[103.6145926943974,-1.547452016070728],[103.60185828972833,-1.5500814026047993],[103.60163970231046,-1.517041037320815]]]}},{"type":"Feature","properties":{"code":"1505042018","desa":"Danau Kedap","kecamatan":"Maro Sebo","kecCode":"150504"},"geometry":{"type":"Polygon","coordinates":[[[103.57857870634227,-1.5676249534795361],[103.57047609169831,-1.5536767392562374],[103.57908433127692,-1.5436295628313563],[103.60162610006454,-1.5439858364540804],[103.60185828972833,-1.5500814026047993],[103.57857870634227,-1.5676249534795361]]]}},{"type":"Feature","properties":{"code":"1505042019","desa":"Mudung Darat","kecamatan":"Maro Sebo","kecCode":"150504"},"geometry":{"type":"Polygon","coordinates":[[[103.5710907162636,-1.5210609385138447],[103.57634343420222,-1.5083216649293643],[103.6004930945807,-1.515804605306514],[103.60162610006454,-1.5439858364540804],[103.57908433127692,-1.5436295628313563],[103.5710907162636,-1.5210609385138447]]]}},{"type":"Feature","properties":{"code":"1505042020","desa":"Lubuk Raman","kecamatan":"Maro Sebo","kecCode":"150504"},"geometry":{"type":"Polygon","coordinates":[[[103.5111591954406,-1.3633377087458312],[103.50711778156045,-1.3162850507444683],[103.55902703407041,-1.315714769951188],[103.55845660308984,-1.3539232971105661],[103.58089356938278,-1.354873751909138],[103.58082253373298,-1.3680825066746711],[103.58069645687605,-1.3637124184705471],[103.5111591954406,-1.3633377087458312]]]}},{"type":"Feature","properties":{"code":"1505051009","desa":"Tempino","kecamatan":"Mestong","kecCode":"150505"},"geometry":{"type":"Polygon","coordinates":[[[103.53379149987785,-1.7780335632157989],[103.5567757090318,-1.7884681190143437],[103.54328932184477,-1.8027929018609605],[103.53777873320205,-1.8269904178367913],[103.49643869379075,-1.7735443634041015],[103.5013471098813,-1.766402022365736],[103.52395557059316,-1.78027494175013],[103.53379149987785,-1.7780335632157989]]]}},{"type":"Feature","properties":{"code":"1505052001","desa":"Tanjung Pauh Km. 32","kecamatan":"Mestong","kecCode":"150505"},"geometry":{"type":"Polygon","coordinates":[[[103.49394541964546,-1.776839755469084],[103.49365766177173,-1.8059977052164242],[103.44112102871259,-1.8050490166863278],[103.4544583307874,-1.7903890169433085],[103.45470566503444,-1.7653159372122413],[103.4833082438804,-1.7653001478151367],[103.48206616502154,-1.7718246303267555],[103.49394541964546,-1.776839755469084]]]}},{"type":"Feature","properties":{"code":"1505052002","desa":"Pelempang","kecamatan":"Mestong","kecCode":"150505"},"geometry":{"type":"Polygon","coordinates":[[[103.49643869379075,-1.7735443634041015],[103.5307294063371,-1.8115685313429872],[103.54010941531732,-1.8328034412826177],[103.54378589060644,-1.8467760729987681],[103.5327532460655,-1.8733365270710431],[103.50120176325083,-1.8247629383246784],[103.49591064336157,-1.8364868143677353],[103.48546526331131,-1.8359757566292214],[103.49643869379075,-1.7735443634041015]]]}},{"type":"Feature","properties":{"code":"1505052003","desa":"Sungai Landai","kecamatan":"Mestong","kecCode":"150505"},"geometry":{"type":"Polygon","coordinates":[[[103.53711495259306,-1.825973799915339],[103.54328932184477,-1.8027929018609605],[103.55675325655761,-1.7884645172295661],[103.57484950560024,-1.7884035108193324],[103.59394458397541,-1.7997965811406755],[103.60771351296829,-1.7981170036919745],[103.62146461829757,-1.8057454651678504],[103.6357018350717,-1.824475327940105],[103.64917174577947,-1.827824530040327],[103.6496368706451,-1.8397026065392927],[103.65663147826018,-1.845279987824194],[103.63033333301695,-1.8411944415178032],[103.60803865206219,-1.8515882787121132],[103.58238877592133,-1.8370502809978229],[103.54308675494984,-1.8472289589901505],[103.53711495259306,-1.825973799915339]]]}},{"type":"Feature","properties":{"code":"1505052004","desa":"Ibru","kecamatan":"Mestong","kecCode":"150505"},"geometry":{"type":"Polygon","coordinates":[[[103.53460220003153,-1.872033060490799],[103.5412696567693,-1.8472219802510736],[103.58238877592133,-1.8370502809978229],[103.60803865206219,-1.8515882787121132],[103.58188383627008,-1.8655367681279424],[103.561547988449,-1.8598277701624335],[103.54591469830473,-1.8746862385895595],[103.53460220003153,-1.872033060490799]]]}},{"type":"Feature","properties":{"code":"1505052005","desa":"Nagasari","kecamatan":"Mestong","kecCode":"150505"},"geometry":{"type":"Polygon","coordinates":[[[103.49821663459004,-1.7430064507433354],[103.50931612124208,-1.74301745394855],[103.50776816227089,-1.725666362488085],[103.51671962630978,-1.7373595923338176],[103.5308995427797,-1.7374528808082217],[103.53287104376368,-1.7500817527191004],[103.5452641278373,-1.762919541637708],[103.54520430133749,-1.7842986371828604],[103.53379149987785,-1.7780335632157989],[103.52395557059316,-1.78027494175013],[103.5013471098813,-1.766402022365736],[103.49643869379075,-1.7735443634041015],[103.49821663459004,-1.7430064507433354]]]}},{"type":"Feature","properties":{"code":"1505052006","desa":"Sebapo","kecamatan":"Mestong","kecCode":"150505"},"geometry":{"type":"Polygon","coordinates":[[[103.58368301455953,-1.7901851514275955],[103.54513235737244,-1.7843210662747058],[103.5452641278373,-1.762919541637708],[103.53310077378177,-1.7504860168641518],[103.53233750657074,-1.7449725000349305],[103.55132211042711,-1.74513087784167],[103.57804303056143,-1.7554024396134456],[103.5983616230905,-1.7716311834568639],[103.61468517168339,-1.7976595824195192],[103.59677971201414,-1.8004330871098955],[103.58368301455953,-1.7901851514275955]]]}},{"type":"Feature","properties":{"code":"1505052010","desa":"Baru","kecamatan":"Mestong","kecCode":"150505"},"geometry":{"type":"Polygon","coordinates":[[[103.40153790215253,-1.7670721719727533],[103.39598579271023,-1.7576273497624502],[103.39801881721466,-1.7423430892191745],[103.49821663459004,-1.7430064507433354],[103.49394541964546,-1.776839755469084],[103.48206616502154,-1.7718246303267555],[103.4833082438804,-1.7653001478151367],[103.40153790215253,-1.7670721719727533]]]}},{"type":"Feature","properties":{"code":"1505052011","desa":"Tanjung Pauh Km. 39","kecamatan":"Mestong","kecCode":"150505"},"geometry":{"type":"Polygon","coordinates":[[[103.39392971858172,-1.8686806352202552],[103.39879838283916,-1.863139769108325],[103.39984081759974,-1.8261954890946597],[103.43001064587469,-1.810140477183218],[103.42232936900524,-1.7860839137501223],[103.40153790215253,-1.7670721719727533],[103.45472685306186,-1.7653190596584203],[103.4544583307874,-1.7903890169433085],[103.44052653996788,-1.8034126957286651],[103.44183286369575,-1.8229801942482586],[103.43440180699787,-1.8377566472028712],[103.44919835531987,-1.8613604505496204],[103.4162574136488,-1.8607689475548126],[103.4272777266858,-1.8690063372894383],[103.39392971858172,-1.8686806352202552]]]}},{"type":"Feature","properties":{"code":"1505052012","desa":"Nyogan","kecamatan":"Mestong","kecCode":"150505"},"geometry":{"type":"Polygon","coordinates":[[[103.48620582893591,-1.8356231063749588],[103.49591064336157,-1.8364868143677353],[103.50120176325083,-1.8247629383246784],[103.51708984392121,-1.8428955055687664],[103.52066157697026,-1.8617794536836292],[103.52911376978471,-1.8712768529586303],[103.52826321527522,-1.8967225290076346],[103.50483482017086,-1.9480459289059464],[103.48912585927103,-1.9472870854608577],[103.50152587891625,-1.9381103502528807],[103.4874877927275,-1.9321899396609399],[103.48651123060887,-1.910888669646858],[103.4808959959535,-1.9107055640812212],[103.47692870959236,-1.8947143536728717],[103.42712402355488,-1.892395018306396],[103.42712402355488,-1.8645019506262688],[103.41625740735348,-1.8644942919997538],[103.44919835531987,-1.8613604505496204],[103.46071270642632,-1.876967475076892],[103.47607421875021,-1.8439941389628425],[103.48620582893591,-1.8356231063749588]]]}},{"type":"Feature","properties":{"code":"1505052015","desa":"Suka Damai","kecamatan":"Mestong","kecCode":"150505"},"geometry":{"type":"Polygon","coordinates":[[[103.52896072225957,-1.8742867741262486],[103.54591469830473,-1.8746862385895595],[103.561547988449,-1.8598277701624335],[103.58188383627008,-1.8655367681279424],[103.52293643456885,-1.905720959231048],[103.52896072225957,-1.8742867741262486]]]}},{"type":"Feature","properties":{"code":"1505052016","desa":"Pondok Meja","kecamatan":"Mestong","kecCode":"150505"},"geometry":{"type":"Polygon","coordinates":[[[103.65085005788393,-1.8330244388833203],[103.65061405059798,-1.8305892996158062],[103.65240173285378,-1.8313645916610146],[103.65085005788393,-1.8330244388833203]]]}},{"type":"Feature","properties":{"code":"1505052016","desa":"Pondok Meja","kecamatan":"Mestong","kecCode":"150505"},"geometry":{"type":"Polygon","coordinates":[[[103.54840633658323,-1.7270840060958705],[103.56683180944049,-1.68603555481634],[103.5814308333663,-1.6694361095265995],[103.62125416704622,-1.696131387261858],[103.6208233729004,-1.7037916361747412],[103.59176861223169,-1.6982932342511843],[103.60199459097765,-1.757410983670229],[103.59126746232356,-1.7532351670142539],[103.57232994157361,-1.722790398037019],[103.55327452240134,-1.7369087576959916],[103.54840633658323,-1.7270840060958705]]]}},{"type":"Feature","properties":{"code":"1505052017","desa":"Suka Maju","kecamatan":"Mestong","kecCode":"150505"},"geometry":{"type":"Polygon","coordinates":[[[103.64917174577947,-1.827824530040327],[103.62965875694611,-1.8162681617214296],[103.6189119996891,-1.7796203396226928],[103.60163456538292,-1.7568716836221825],[103.59176861223169,-1.6982932342511843],[103.6208233729004,-1.7037916361747412],[103.63399336060517,-1.7243586601009904],[103.63326366958273,-1.7534128361781314],[103.65081641784347,-1.7794265159369054],[103.64917174577947,-1.827824530040327]]]}},{"type":"Feature","properties":{"code":"1505052018","desa":"Tanjung Pauh Talang Pelita","kecamatan":"Mestong","kecCode":"150505"},"geometry":{"type":"Polygon","coordinates":[[[103.44242105358882,-1.8061564229668878],[103.49365766177173,-1.8059977052164242],[103.48620582893591,-1.8356231063749588],[103.47607421875021,-1.8439941389628425],[103.46071270642632,-1.876967475076892],[103.43487423885512,-1.8442556950884417],[103.44242105358882,-1.8061564229668878]]]}},{"type":"Feature","properties":{"code":"1505052019","desa":"Muaro Sebapo","kecamatan":"Mestong","kecCode":"150505"},"geometry":{"type":"Polygon","coordinates":[[[103.51217438523973,-1.7255962432475387],[103.54867052772272,-1.7250158828528384],[103.55327452240134,-1.7369087576959916],[103.57232994157361,-1.722790398037019],[103.58159515928924,-1.7417797790711287],[103.6189119996891,-1.7796203396226928],[103.62965875694611,-1.8162681617214296],[103.5983616230905,-1.7716311834568639],[103.57804303056143,-1.7554024396134456],[103.55132211042711,-1.74513087784167],[103.53244076942603,-1.7453186607812297],[103.5308995427797,-1.7374528808082217],[103.51671962630978,-1.7373595923338176],[103.51217438523973,-1.7255962432475387]]]}},{"type":"Feature","properties":{"code":"1505062001","desa":"Pudak","kecamatan":"Kumpeh Ulu","kecCode":"150506"},"geometry":{"type":"Polygon","coordinates":[[[103.71021004875479,-1.5275692952818818],[103.68840876195485,-1.5434937490147407],[103.68188378301022,-1.570275754670057],[103.66130363525463,-1.5839315768133762],[103.6563820036266,-1.5693149981374683],[103.66980999243725,-1.5562399995396812],[103.67497486369903,-1.543955205545233],[103.66914637190756,-1.5488750052487548],[103.6699601162664,-1.5394659104053743],[103.68088625499672,-1.5198106245643972],[103.71031376756638,-1.5184812044492633],[103.71021004875479,-1.5275692952818818]]]}},{"type":"Feature","properties":{"code":"1505062002","desa":"Muara Kumpeh","kecamatan":"Kumpeh Ulu","kecCode":"150506"},"geometry":{"type":"Polygon","coordinates":[[[103.64908333342913,-1.55072221992391],[103.67497486369903,-1.543955205545233],[103.6563820036266,-1.5693149981374683],[103.66130363525463,-1.5839315768133762],[103.65163291412773,-1.583519687316731],[103.64908333342913,-1.55072221992391]]]}},{"type":"Feature","properties":{"code":"1505062003","desa":"Kota Karang","kecamatan":"Kumpeh Ulu","kecCode":"150506"},"geometry":{"type":"Polygon","coordinates":[[[103.67945660363938,-1.5720083588444613],[103.69599847884676,-1.534623860689936],[103.71822208997753,-1.527694030350226],[103.69744055973409,-1.5462494777056444],[103.69477599891326,-1.567580038638618],[103.67945660363938,-1.5720083588444613]]]}},{"type":"Feature","properties":{"code":"1505062004","desa":"Kasang Lopak Alai","kecamatan":"Kumpeh Ulu","kecCode":"150506"},"geometry":{"type":"Polygon","coordinates":[[[103.71297159336437,-1.595887618238286],[103.69910994966449,-1.596568935626441],[103.69511507480092,-1.5716242763855148],[103.70820433935882,-1.569345218955457],[103.71297159336437,-1.595887618238286]]]}},{"type":"Feature","properties":{"code":"1505062005","desa":"Kasang Pudak","kecamatan":"Kumpeh Ulu","kecCode":"150506"},"geometry":{"type":"Polygon","coordinates":[[[103.65163291412773,-1.583519687316731],[103.68110939568213,-1.5725140818046868],[103.68985407140832,-1.6129075721271624],[103.66925199728189,-1.6085571502974938],[103.65677775029297,-1.5977360811724743],[103.65163291412773,-1.583519687316731]]]}},{"type":"Feature","properties":{"code":"1505062008","desa":"Solok","kecamatan":"Kumpeh Ulu","kecCode":"150506"},"geometry":{"type":"Polygon","coordinates":[[[103.71297159336437,-1.595887618238286],[103.70820433935882,-1.569345218955457],[103.72926736279862,-1.569049095588393],[103.73893795981904,-1.5830718528172776],[103.737625036866,-1.595744260908366],[103.7288909992203,-1.593721995895084],[103.73028289344084,-1.6031011657974987],[103.72047831542197,-1.5927760718809691],[103.71297159336437,-1.595887618238286]]]}},{"type":"Feature","properties":{"code":"1505062009","desa":"Sakean","kecamatan":"Kumpeh Ulu","kecCode":"150506"},"geometry":{"type":"Polygon","coordinates":[[[103.73455205793118,-1.5737928413104252],[103.70820499676324,-1.5652649570653958],[103.72624820738888,-1.5276063554439805],[103.72536581597969,-1.5075288612852857],[103.74761552723486,-1.5076728454426958],[103.73195371329331,-1.5363685148804254],[103.75074334862671,-1.5347833293742685],[103.75074335582126,-1.5532741271658383],[103.75569818592258,-1.5561266750694283],[103.74833334540763,-1.5563711584653863],[103.73455205793118,-1.5737928413104252]]]}},{"type":"Feature","properties":{"code":"1505062010","desa":"Lopak Alai","kecamatan":"Kumpeh Ulu","kecCode":"150506"},"geometry":{"type":"Polygon","coordinates":[[[103.69177192783228,-1.5705599611207073],[103.69744055973409,-1.5462494777056444],[103.71822208997753,-1.527694030350226],[103.72624820738888,-1.5276063554439805],[103.70820433935882,-1.569345218955457],[103.69177192783228,-1.5705599611207073]]]}},{"type":"Feature","properties":{"code":"1505062011","desa":"Tarikan","kecamatan":"Kumpeh Ulu","kecCode":"150506"},"geometry":{"type":"Polygon","coordinates":[[[103.737625036866,-1.595744260908366],[103.73455205793118,-1.5737928413104252],[103.74833334540763,-1.5563711584653863],[103.75569818592258,-1.5561266750694283],[103.75074335582126,-1.5532741271658383],[103.75074334862671,-1.5347833293742685],[103.73195371329331,-1.5363685148804254],[103.74761552723486,-1.5076728454426958],[103.74873170100727,-1.4885333423783256],[103.7594379995641,-1.488495614919202],[103.75970027784558,-1.4801592529949141],[103.7667169476291,-1.480545458753265],[103.77570010557548,-1.542536688695746],[103.78757826572443,-1.545053540364319],[103.75882698937414,-1.5924238506033739],[103.737625036866,-1.595744260908366]]]}},{"type":"Feature","properties":{"code":"1505062012","desa":"Ramin","kecamatan":"Kumpeh Ulu","kecCode":"150506"},"geometry":{"type":"Polygon","coordinates":[[[103.77057388897383,-1.511262349990673],[103.7667169476291,-1.480545458753265],[103.78388445870085,-1.4814903476477415],[103.79632099621705,-1.4699299980301528],[103.83544199535184,-1.528694008115868],[103.81032399355752,-1.545568992190411],[103.78325699181676,-1.5052679899456716],[103.77057388897383,-1.511262349990673]]]}},{"type":"Feature","properties":{"code":"1505062013","desa":"Teluk Raya","kecamatan":"Kumpeh Ulu","kecCode":"150506"},"geometry":{"type":"Polygon","coordinates":[[[103.86842007182888,-1.5406485665587277],[103.85466527028602,-1.5509130389747932],[103.8550612246958,-1.5602111349947987],[103.83869811402677,-1.5624973150554304],[103.84052200838403,-1.580215023241396],[103.81533372367248,-1.5735807613871184],[103.80370999971676,-1.5632879980981078],[103.79611103599557,-1.5688757845391437],[103.78732702302374,-1.562688269004602],[103.7875914803626,-1.543048236564809],[103.77570010557548,-1.542536688695746],[103.77057388897383,-1.511262349990673],[103.78325699181676,-1.5052679899456716],[103.81032399355752,-1.545568992190411],[103.83544199535184,-1.528694008115868],[103.79632099621705,-1.4699299980301528],[103.78389745840104,-1.47824591116976],[103.78396286879142,-1.4619211224298723],[103.81718878403524,-1.4609429882973912],[103.81829438267965,-1.4808635102897745],[103.8509324902423,-1.4849565110765532],[103.85355554375342,-1.5015052579853638],[103.84686397169497,-1.5060872156714231],[103.86842007182888,-1.5406485665587277]]]}},{"type":"Feature","properties":{"code":"1505062014","desa":"Pemunduran","kecamatan":"Kumpeh Ulu","kecCode":"150506"},"geometry":{"type":"Polygon","coordinates":[[[103.86441299856108,-1.5644519978156641],[103.87519827558002,-1.595820348949317],[103.85602368184747,-1.6004906389460203],[103.84170099980133,-1.5730609973118166],[103.83870053140446,-1.5759243074023406],[103.83818330341676,-1.563757203187342],[103.84665897663054,-1.558508228232973],[103.85988249108412,-1.5676412015308883],[103.86441299856108,-1.5644519978156641]]]}},{"type":"Feature","properties":{"code":"1505062015","desa":"Sipin Teluk Duren","kecamatan":"Kumpeh Ulu","kecCode":"150506"},"geometry":{"type":"Polygon","coordinates":[[[103.79377500021614,-1.5665609970442362],[103.80370999971676,-1.5632879980981078],[103.81533372367248,-1.5735807613871184],[103.84052200838403,-1.580215023241396],[103.84170099980133,-1.5730609973118166],[103.85617549280482,-1.6007919523006353],[103.8447775760244,-1.6430751547615463],[103.83898925784803,-1.6420898422404897],[103.81677246088043,-1.6027221663066378],[103.79215921437628,-1.5878267888035498],[103.79377500021614,-1.5665609970442362]]]}},{"type":"Feature","properties":{"code":"1505062016","desa":"Arang Arang","kecamatan":"Kumpeh Ulu","kecCode":"150506"},"geometry":{"type":"Polygon","coordinates":[[[103.87519827558002,-1.595820348949317],[103.91156005755066,-1.6289062478077851],[103.91289287440668,-1.6884800713149148],[103.86354879683955,-1.6894633774485195],[103.85476178642737,-1.7085881271347227],[103.83001554458178,-1.7118340798696299],[103.8162021683954,-1.6883007797740106],[103.78533191663472,-1.6679802645169748],[103.78373432767717,-1.6548270581761415],[103.75921899935742,-1.642986997818753],[103.7652587886622,-1.6389160142342583],[103.76812388660812,-1.6206370013883862],[103.77903797442303,-1.622825020447727],[103.78498699875102,-1.5871529969422444],[103.79223801657126,-1.5787729693353643],[103.7994308473558,-1.5952031181494575],[103.81677246088043,-1.6027221663066378],[103.83898925784803,-1.6420898422404897],[103.8447775760244,-1.6430751547615463],[103.8568115230334,-1.5975341779774417],[103.87519827558002,-1.595820348949317]]]}},{"type":"Feature","properties":{"code":"1505062017","desa":"Sumber Jaya","kecamatan":"Kumpeh Ulu","kecCode":"150506"},"geometry":{"type":"Polygon","coordinates":[[[103.7587713887886,-1.5924321153729832],[103.77998382559315,-1.550324437192896],[103.78757826572443,-1.545053540364319],[103.78732702302374,-1.562688269004602],[103.79529499926485,-1.575495006131571],[103.78498699875102,-1.5871529969422444],[103.77825927664433,-1.6234130844351058],[103.76812388660812,-1.6206370013883862],[103.76814499909248,-1.6091309978018904],[103.75759705136288,-1.6115910518874332],[103.7587713887886,-1.5924321153729832]]]}},{"type":"Feature","properties":{"code":"1505062018","desa":"Sungai Terap","kecamatan":"Kumpeh Ulu","kecCode":"150506"},"geometry":{"type":"Polygon","coordinates":[[[103.73626708935471,-1.608764646376374],[103.7288909992203,-1.593721995895084],[103.7587713887886,-1.5924321153729832],[103.75759705136288,-1.6115910518874332],[103.76814499909248,-1.6091309978018904],[103.7652587886622,-1.6389160142342583],[103.74096291200885,-1.6555446695039988],[103.72602618456085,-1.6474094013849356],[103.73290658457125,-1.6412261198585727],[103.72021961644218,-1.6260479694241432],[103.73163587579505,-1.6223089669752548],[103.72902892374587,-1.6147227322667026],[103.73626708935471,-1.608764646376374]]]}},{"type":"Feature","properties":{"code":"1505062023","desa":"Kasang Kumpeh","kecamatan":"Kumpeh Ulu","kecCode":"150506"},"geometry":{"type":"Polygon","coordinates":[[[103.65677775029297,-1.5977360811724743],[103.66537495159281,-1.6045382725329542],[103.65744444380606,-1.6106944421976315],[103.6542777779971,-1.6024166648093083],[103.65677775029297,-1.5977360811724743]]]}},{"type":"Feature","properties":{"code":"1505062024","desa":"Kasang Kota Karang","kecamatan":"Kumpeh Ulu","kecCode":"150506"},"geometry":{"type":"Polygon","coordinates":[[[103.68110939568213,-1.5725140818046868],[103.69511507480092,-1.5716242763855148],[103.69904888569755,-1.6007969795108956],[103.68879006640849,-1.604098120042412],[103.68986031090469,-1.612875009474568],[103.68110939568213,-1.5725140818046868]]]}},{"type":"Feature","properties":{"code":"1505072004","desa":"Suka Makmur","kecamatan":"Sungai Bahar","kecCode":"150507"},"geometry":{"type":"Polygon","coordinates":[[[103.4314095979746,-1.9448952791267162],[103.42870696075767,-1.9745138292500262],[103.40670530230788,-1.9736735458985588],[103.40887150201824,-1.945562379132668],[103.4314095979746,-1.9448952791267162]]]}},{"type":"Feature","properties":{"code":"1505072005","desa":"Marga Mulya","kecamatan":"Sungai Bahar","kecCode":"150507"},"geometry":{"type":"Polygon","coordinates":[[[103.43180773144171,-1.9675483344959075],[103.43157546083893,-1.9282744749382963],[103.45744164731423,-1.9285041995601793],[103.45765966905856,-1.9826445548934708],[103.43697027256007,-1.9804709690535987],[103.43688547638368,-1.969230824848711],[103.43180773144171,-1.9675483344959075]]]}},{"type":"Feature","properties":{"code":"1505072006","desa":"Panca Mulya","kecamatan":"Sungai Bahar","kecCode":"150507"},"geometry":{"type":"Polygon","coordinates":[[[103.48912585927103,-1.9472870854608577],[103.50483482017086,-1.9480459289059464],[103.49479989429972,-2.005674614157913],[103.46652981280067,-2.0080048385156686],[103.47423139276462,-1.9868752158051246],[103.45765966905856,-1.9826445548934708],[103.45749844579672,-1.963366629079183],[103.49113382326738,-1.9632880085473021],[103.48912585927103,-1.9472870854608577]]]}},{"type":"Feature","properties":{"code":"1505072007","desa":"Marga Manunggal Jaya","kecamatan":"Sungai Bahar","kecCode":"150507"},"geometry":{"type":"Polygon","coordinates":[[[103.46615272706676,-1.9979231946740175],[103.46652981280067,-2.0080048385156686],[103.49479989429972,-2.005674614157913],[103.49531995335319,-2.029776180565467],[103.47658362263614,-2.0300417413721457],[103.47728629982294,-2.022266052783604],[103.47023137198028,-2.021069677472462],[103.44908250555324,-2.0234106505273353],[103.44899121807032,-2.0062946103730637],[103.44616862388295,-2.011330189696037],[103.42971903440599,-2.0110892514276237],[103.42637963581161,-1.9891000018476446],[103.44332790296039,-1.9867613760233305],[103.4490335185821,-1.9981585247701517],[103.46615272706676,-1.9979231946740175]]]}},{"type":"Feature","properties":{"code":"1505072012","desa":"Tanjung Harapan","kecamatan":"Sungai Bahar","kecCode":"150507"},"geometry":{"type":"Polygon","coordinates":[[[103.49646248895276,-2.0232524067196103],[103.49528190303742,-1.982003442596696],[103.54274444420084,-1.986041664778505],[103.55307567510238,-2.001029158040138],[103.51267563587197,-2.007112698456468],[103.51304451079564,-2.01777306412803],[103.49646248895276,-2.0232524067196103]]]}},{"type":"Feature","properties":{"code":"1505072013","desa":"Berkah","kecamatan":"Sungai Bahar","kecCode":"150507"},"geometry":{"type":"Polygon","coordinates":[[[103.48024509723354,-1.9089628380371426],[103.48651123060887,-1.910888669646858],[103.4874877927275,-1.9321899396609399],[103.50152587891625,-1.9381103502528807],[103.48805998188271,-1.9495163438319907],[103.49113382326738,-1.9632880085473021],[103.45749856360788,-1.96336463887949],[103.45717512243402,-1.926316770456073],[103.47258625934847,-1.9288527794828012],[103.4763220125509,-1.9258784525824142],[103.46716108831362,-1.9259498371691088],[103.46616171489131,-1.9208292368393187],[103.48024509723354,-1.9089628380371426]]]}},{"type":"Feature","properties":{"code":"1505072018","desa":"Bukit Makmur","kecamatan":"Sungai Bahar","kecCode":"150507"},"geometry":{"type":"Polygon","coordinates":[[[103.39661534692078,-2.0585580239410763],[103.3693761897594,-2.050806709677907],[103.37047485642954,-2.001106716472632],[103.38377544907773,-2.001251724957836],[103.39574452259171,-2.0184521979622083],[103.41193436268075,-2.0186101845638853],[103.41209188163508,-2.0388268425139433],[103.39650938789799,-2.0394378985686705],[103.39661534692078,-2.0585580239410763]]]}},{"type":"Feature","properties":{"code":"1505072021","desa":"Bukit Mas","kecamatan":"Sungai Bahar","kecCode":"150507"},"geometry":{"type":"Polygon","coordinates":[[[103.4500338587756,-2.058244216305281],[103.39661534692078,-2.0585580239410763],[103.39650938789799,-2.0394378985686705],[103.41209188163508,-2.0388268425139433],[103.41193436268075,-2.0186101845638853],[103.42974282866867,-2.0205009534056937],[103.42979345960055,-2.011090549149338],[103.4457051537699,-2.016117050715618],[103.44294677477386,-2.036140828368692],[103.44981716443066,-2.0422380079031983],[103.4500338587756,-2.058244216305281]]]}},{"type":"Feature","properties":{"code":"1505072025","desa":"Mekar Sari Makmur","kecamatan":"Sungai Bahar","kecCode":"150507"},"geometry":{"type":"Polygon","coordinates":[[[103.42757205590573,-1.9858293303470251],[103.43180773144171,-1.9675483344959075],[103.43688547638368,-1.969230824848711],[103.43697027256007,-1.9804709690535987],[103.4710601889766,-1.9828942831355976],[103.47363190468873,-1.9977223086122147],[103.4490335185821,-1.9981585247701517],[103.44621148287371,-1.9876238825218842],[103.42757205590573,-1.9858293303470251]]]}},{"type":"Feature","properties":{"code":"1505072033","desa":"Bakti Mulya","kecamatan":"Sungai Bahar","kecCode":"150507"},"geometry":{"type":"Polygon","coordinates":[[[103.41193436268075,-2.0186101845638853],[103.39574452259171,-2.0184521979622083],[103.38745740393607,-2.003308680419656],[103.38740351296182,-1.9827663950441765],[103.40879913177456,-1.9832470889725413],[103.41193436268075,-2.0186101845638853]]]}},{"type":"Feature","properties":{"code":"1505072034","desa":"Panca Bakti","kecamatan":"Sungai Bahar","kecCode":"150507"},"geometry":{"type":"Polygon","coordinates":[[[103.40881062241236,-1.973655818462378],[103.42765999791061,-1.974504310825545],[103.42974282866867,-2.0205009534056937],[103.41193436268075,-2.0186101845638853],[103.40881062241236,-1.973655818462378]]]}},{"type":"Feature","properties":{"code":"1505082001","desa":"Kebon IX","kecamatan":"Sungai Gelam","kecCode":"150508"},"geometry":{"type":"Polygon","coordinates":[[[103.66226677229378,-1.6428783669102556],[103.70943172329544,-1.682319604689466],[103.70470072905545,-1.691939293776195],[103.69847798527087,-1.6937524601187242],[103.67863450457877,-1.6784372907761285],[103.6593751443475,-1.6895000724858558],[103.64956379443362,-1.657038461407361],[103.66226677229378,-1.6428783669102556]]]}},{"type":"Feature","properties":{"code":"1505082002","desa":"Talang Belido","kecamatan":"Sungai Gelam","kecCode":"150508"},"geometry":{"type":"Polygon","coordinates":[[[103.6208233729004,-1.7037916361747412],[103.62683850099609,-1.6798218851980802],[103.65197211322247,-1.6665876859138986],[103.66426511084626,-1.7102492621862497],[103.67887350840573,-1.7106231427359486],[103.68904170481089,-1.726654794757319],[103.66219303058396,-1.7302458101663756],[103.65826804023793,-1.7476385798077],[103.6504099143861,-1.7494552436136943],[103.6335098032349,-1.7307612547978568],[103.6208233729004,-1.7037916361747412]]]}},{"type":"Feature","properties":{"code":"1505082003","desa":"Talang Kerinci","kecamatan":"Sungai Gelam","kecCode":"150508"},"geometry":{"type":"Polygon","coordinates":[[[103.6593751443475,-1.6895000724858558],[103.67863450457877,-1.6784372907761285],[103.71108308991273,-1.7024654644108246],[103.71507261470946,-1.7310955489898132],[103.68904170481089,-1.726654794757319],[103.67887350840573,-1.7106231427359486],[103.66426511084626,-1.7102492621862497],[103.6593751443475,-1.6895000724858558]]]}},{"type":"Feature","properties":{"code":"1505082004","desa":"Ladang Panjang","kecamatan":"Sungai Gelam","kecCode":"150508"},"geometry":{"type":"Polygon","coordinates":[[[103.6496368706451,-1.8397026065392927],[103.65061487887361,-1.7781699112297278],[103.63382879186531,-1.7551105817307584],[103.63271651575468,-1.7303480810693603],[103.65349401793463,-1.750088964382601],[103.66219303058396,-1.7302458101663756],[103.68907324223642,-1.7266370889049358],[103.75213066170073,-1.7355984481742759],[103.80123527588734,-1.7508525463554452],[103.79553842236037,-1.7870452215671582],[103.80150144103874,-1.7868941732350905],[103.79012672676708,-1.8239286912227548],[103.76611111123884,-1.8161111086160786],[103.66074156077444,-1.8465227771461283],[103.6496368706451,-1.8397026065392927]]]}},{"type":"Feature","properties":{"code":"1505082005","desa":"Tangkit","kecamatan":"Sungai Gelam","kecCode":"150508"},"geometry":{"type":"Polygon","coordinates":[[[103.72021961644218,-1.6260479694241432],[103.73290658457125,-1.6412261198585727],[103.69686816373485,-1.6746270494307565],[103.66226677229378,-1.6428783669102556],[103.66931880611804,-1.640473442165495],[103.68089934372976,-1.6183717449544508],[103.69159907273905,-1.6415421110482278],[103.72021961644218,-1.6260479694241432]]]}},{"type":"Feature","properties":{"code":"1505082006","desa":"Tangkit Baru","kecamatan":"Sungai Gelam","kecCode":"150508"},"geometry":{"type":"Polygon","coordinates":[[[103.68879006640849,-1.604098120042412],[103.72047831542197,-1.5927760718809691],[103.73626708935471,-1.608764646376374],[103.72902892374587,-1.6147227322667026],[103.73163587579505,-1.6223089669752548],[103.69159907273905,-1.6415421110482278],[103.67886384968699,-1.6075668195594301],[103.68779608801911,-1.6145345131558801],[103.68879006640849,-1.604098120042412]]]}},{"type":"Feature","properties":{"code":"1505082007","desa":"Sungai Gelam","kecamatan":"Sungai Gelam","kecCode":"150508"},"geometry":{"type":"Polygon","coordinates":[[[103.9207910227875,-1.7387073829003923],[103.94359134756269,-1.683804933073045],[103.96450641364015,-1.6847126421955028],[103.98416644792331,-1.7020915613780092],[104.00706479070762,-1.7100586158052282],[104.0040955899396,-1.7541177931455731],[103.89449427329212,-1.7832435363717711],[103.88066788481508,-1.7611382364765538],[103.848502505886,-1.7629873343320936],[103.85119283228346,-1.7556230792839593],[103.8175341569758,-1.7563961401111563],[103.75213066170073,-1.7355984481742759],[103.71502081825622,-1.731077664172339],[103.71392740542545,-1.7082331044689276],[103.69832034580735,-1.6939569911328183],[103.70943172329544,-1.682319604689466],[103.69687895200207,-1.6744286571889568],[103.72602618456085,-1.6474094013849356],[103.74096291200885,-1.6555446695039988],[103.75914628287471,-1.6428900419090806],[103.77386001802546,-1.653391955130162],[103.75587772028064,-1.6531688594111398],[103.74630603339675,-1.6695212762235534],[103.7558556050522,-1.6694728009667048],[103.75677663043722,-1.6868753201582902],[103.77955987079146,-1.717850833033597],[103.79095952506208,-1.7234367093145726],[103.82753329342681,-1.7239264387315616],[103.83001554458178,-1.7118340798696299],[103.85476178642737,-1.7085881271347227],[103.85158864460031,-1.7151640256862732],[103.87212067772714,-1.7381426257431951],[103.91317747026407,-1.7435338959282043],[103.9207910227875,-1.7387073829003923]]]}},{"type":"Feature","properties":{"code":"1505082008","desa":"Parit","kecamatan":"Sungai Gelam","kecCode":"150508"},"geometry":{"type":"Polygon","coordinates":[[[103.75587772028064,-1.6531688594111398],[103.78282345563804,-1.6539981647383557],[103.78533191663472,-1.6679802645169748],[103.8222157370667,-1.6951592821843993],[103.83058375423695,-1.7141479887269186],[103.82753329342681,-1.7239264387315616],[103.79095952506208,-1.7234367093145726],[103.76684129778772,-1.7050757367541374],[103.75677663043722,-1.6868753201582902],[103.7558556050522,-1.6694728009667048],[103.74630603339675,-1.6695212762235534],[103.75587772028064,-1.6531688594111398]]]}},{"type":"Feature","properties":{"code":"1505082009","desa":"Petaling Jaya","kecamatan":"Sungai Gelam","kecCode":"150508"},"geometry":{"type":"Polygon","coordinates":[[[103.8175341569758,-1.7563961401111563],[103.85119283228346,-1.7556230792839593],[103.85034885721403,-1.7840393563419836],[103.8396469068793,-1.7850726980562133],[103.84465511264341,-1.7938026060054344],[103.83682748999672,-1.8002470362645493],[103.83197563856491,-1.8003890607992423],[103.83190544827788,-1.79209930264257],[103.81727440758789,-1.7919382457554929],[103.8175341569758,-1.7563961401111563]]]}},{"type":"Feature","properties":{"code":"1505082010","desa":"Sumber Agung","kecamatan":"Sungai Gelam","kecCode":"150508"},"geometry":{"type":"Polygon","coordinates":[[[103.85158864460031,-1.7151640256862732],[103.86354879683955,-1.6894633774485195],[103.90185830441725,-1.6892115654772328],[103.90136806688285,-1.7042461832139115],[103.92788072741371,-1.7041117498566616],[103.91434464099244,-1.730170527018643],[103.90343225379554,-1.7240744230733775],[103.90308531603453,-1.738674200614918],[103.87212067772714,-1.7381426257431951],[103.85158864460031,-1.7151640256862732]]]}},{"type":"Feature","properties":{"code":"1505082011","desa":"Mingkung Jaya","kecamatan":"Sungai Gelam","kecCode":"150508"},"geometry":{"type":"Polygon","coordinates":[[[103.848502505886,-1.7629873343320936],[103.88066788481508,-1.7611382364765538],[103.89449427329212,-1.7832435363717711],[103.87333333256731,-1.7886111094209076],[103.87194444388103,-1.8027777761635315],[103.8586982602166,-1.8111614370314506],[103.848502505886,-1.7629873343320936]]]}},{"type":"Feature","properties":{"code":"1505082012","desa":"Trimulya Jaya","kecamatan":"Sungai Gelam","kecCode":"150508"},"geometry":{"type":"Polygon","coordinates":[[[103.79012672676708,-1.8239286912227548],[103.80150144103874,-1.7868941732350905],[103.79553842236037,-1.7870452215671582],[103.80123527588734,-1.7508525463554452],[103.8175341569758,-1.7563961401111563],[103.81727440758789,-1.7919382457554929],[103.83190544827788,-1.79209930264257],[103.835723532615,-1.8185988177537782],[103.79012672676708,-1.8239286912227548]]]}},{"type":"Feature","properties":{"code":"1505082013","desa":"Mekar Jaya","kecamatan":"Sungai Gelam","kecCode":"150508"},"geometry":{"type":"Polygon","coordinates":[[[103.64956379443362,-1.657038461407361],[103.65197211322247,-1.6665876859138986],[103.62683850099609,-1.6798218851980802],[103.6266391671639,-1.6736458315229954],[103.60781888923043,-1.6604691654673405],[103.61297222219036,-1.6568055540848032],[103.62325000008747,-1.665722219746487],[103.63077650003548,-1.6528979980003016],[103.64956379443362,-1.657038461407361]]]}},{"type":"Feature","properties":{"code":"1505082014","desa":"Sido Mukti","kecamatan":"Sungai Gelam","kecCode":"150508"},"geometry":{"type":"Polygon","coordinates":[[[103.83563291242903,-1.8004042170736507],[103.84465511264341,-1.7938026060054344],[103.8396469068793,-1.7850726980562133],[103.85034885721403,-1.7840393563419836],[103.8586982602166,-1.8111614370314506],[103.835723532615,-1.8185988177537782],[103.83563291242903,-1.8004042170736507]]]}},{"type":"Feature","properties":{"code":"1505082015","desa":"Gambut Jaya","kecamatan":"Sungai Gelam","kecCode":"150508"},"geometry":{"type":"Polygon","coordinates":[[[103.90185830441725,-1.6892115654772328],[103.94335160089571,-1.6887963736699545],[103.9207910227875,-1.7387073829003923],[103.91317747026407,-1.7435338959282043],[103.90308531603453,-1.738674200614918],[103.90343225379554,-1.7240744230733775],[103.91434464099244,-1.730170527018643],[103.92788072741371,-1.7041117498566616],[103.90136806688285,-1.7042461832139115],[103.90185830441725,-1.6892115654772328]]]}},{"type":"Feature","properties":{"code":"1505092001","desa":"Talang Bukit","kecamatan":"Bahar Utara","kecCode":"150509"},"geometry":{"type":"Polygon","coordinates":[[[103.36572806289985,-1.868599964234203],[103.39392971858172,-1.8686806352202552],[103.39402841288101,-1.8870309211369611],[103.37034456624878,-1.8830506179928908],[103.37372171568468,-1.8935171240057584],[103.35475741132552,-1.9046434832875117],[103.35423595292696,-1.886854633331735],[103.36559014556882,-1.8854769250185959],[103.36572806289985,-1.868599964234203]]]}},{"type":"Feature","properties":{"code":"1505092002","desa":"Talang Datar","kecamatan":"Bahar Utara","kecCode":"150509"},"geometry":{"type":"Polygon","coordinates":[[[103.35475741132552,-1.9046434832875117],[103.37372171568468,-1.8935171240057584],[103.37034456624878,-1.8830506179928908],[103.39402841288101,-1.8870309211369611],[103.39387969559152,-1.9015456327056335],[103.40115489887955,-1.9016824519642663],[103.39587249432019,-1.9196307265376171],[103.3820656723929,-1.9178758740350805],[103.38213940870678,-1.9098317602991015],[103.35762720103457,-1.9128322394846602],[103.35475741132552,-1.9046434832875117]]]}},{"type":"Feature","properties":{"code":"1505092003","desa":"Sumber Mulya","kecamatan":"Bahar Utara","kecCode":"150509"},"geometry":{"type":"Polygon","coordinates":[[[103.33833598861501,-1.8685483107732506],[103.36572806289985,-1.868599964234203],[103.36559014556882,-1.8854769250185959],[103.35436920277651,-1.8866833115828112],[103.35479391300872,-1.8981084526276],[103.33595422230955,-1.8995202209644735],[103.34032667573557,-1.891308152541345],[103.32839397530175,-1.8917626303327661],[103.33947711407764,-1.889301623865199],[103.33833598861501,-1.8685483107732506]]]}},{"type":"Feature","properties":{"code":"1505092004","desa":"Mulya Jaya","kecamatan":"Bahar Utara","kecCode":"150509"},"geometry":{"type":"Polygon","coordinates":[[[103.31459292792134,-1.9082339267277273],[103.31464871736449,-1.868475422520094],[103.33833598861501,-1.8685483107732506],[103.33947711407764,-1.889301623865199],[103.32839397530175,-1.8917626303327661],[103.34032667573557,-1.891308152541345],[103.33946055126347,-1.8974780953231574],[103.32411756767168,-1.899502638319169],[103.32309834441308,-1.907903843161595],[103.31459292792134,-1.9082339267277273]]]}},{"type":"Feature","properties":{"code":"1505092005","desa":"Matra Manunggal","kecamatan":"Bahar Utara","kecCode":"150509"},"geometry":{"type":"Polygon","coordinates":[[[103.38197479679953,-1.9286132810289873],[103.38628685535417,-1.963566567255543],[103.3534630575741,-1.9636996831060174],[103.35286703458604,-1.9338833001192874],[103.38197479679953,-1.9286132810289873]]]}},{"type":"Feature","properties":{"code":"1505092006","desa":"Bukit Mulya","kecamatan":"Bahar Utara","kecCode":"150509"},"geometry":{"type":"Polygon","coordinates":[[[103.33337774019058,-1.9826294498804642],[103.3349070643096,-1.9654240548864785],[103.31426190905988,-1.9654032175946663],[103.31447815104588,-1.9419164115493384],[103.3296684954048,-1.9422316392145822],[103.34585695863177,-1.928441960179397],[103.36392658594328,-1.9278994432563956],[103.35286703458604,-1.9338833001192874],[103.3534630575741,-1.9636996831060174],[103.37610777175631,-1.9636997442599167],[103.3761103069452,-1.9771216068739972],[103.33337774019058,-1.9826294498804642]]]}},{"type":"Feature","properties":{"code":"1505092007","desa":"Sumber Jaya","kecamatan":"Bahar Utara","kecCode":"150509"},"geometry":{"type":"Polygon","coordinates":[[[103.31447815104588,-1.9419164115493384],[103.31459292792134,-1.9082339267277273],[103.32309834441308,-1.907903843161595],[103.33499408540877,-1.9202658151753627],[103.32516500626008,-1.9327399011717892],[103.33155825161207,-1.9410361218566945],[103.31447815104588,-1.9419164115493384]]]}},{"type":"Feature","properties":{"code":"1505092008","desa":"Pinang Tinggi","kecamatan":"Bahar Utara","kecCode":"150509"},"geometry":{"type":"Polygon","coordinates":[[[103.4314095979746,-1.9448952791267162],[103.40887150201824,-1.945562379132668],[103.40879913177456,-1.9832470889725413],[103.38743932756296,-1.9828469446218087],[103.38182441486494,-1.9231881100001402],[103.40587489800824,-1.9238217561253061],[103.4291053649207,-1.910574677650072],[103.4557000130452,-1.9178736796893479],[103.45744164731423,-1.9285041995601793],[103.43157546083893,-1.9282744749382963],[103.4314095979746,-1.9448952791267162]]]}},{"type":"Feature","properties":{"code":"1505092009","desa":"Markanding","kecamatan":"Bahar Utara","kecCode":"150509"},"geometry":{"type":"Polygon","coordinates":[[[103.39392971858172,-1.8686806352202552],[103.4272777266858,-1.8690063372894383],[103.42712402355488,-1.892395018306396],[103.47692870959236,-1.8947143536728717],[103.48024509723354,-1.9089628380371426],[103.46616171489131,-1.9208292368393187],[103.46716108831362,-1.9259498371691088],[103.4763220125509,-1.9258784525824142],[103.46159314990399,-1.9285672438342156],[103.4557000130452,-1.9178736796893479],[103.4291053649207,-1.910574677650072],[103.40587489800824,-1.9238217561253061],[103.38182441486494,-1.9231881100001402],[103.3820656723929,-1.9178758740350805],[103.39879923179915,-1.919095347533697],[103.40115489887955,-1.9016824519642663],[103.3931956019955,-1.8994636050444664],[103.39392971858172,-1.8686806352202552]]]}},{"type":"Feature","properties":{"code":"1505092010","desa":"Sungai Dayo","kecamatan":"Bahar Utara","kecCode":"150509"},"geometry":{"type":"Polygon","coordinates":[[[103.38850997225744,-2.0052320991483583],[103.33284503756845,-2.0017257414199383],[103.33337774019058,-1.9826294498804642],[103.3761103069452,-1.9771216068739972],[103.37610777175631,-1.9636997442599167],[103.38628685535417,-1.963566567255543],[103.38850997225744,-2.0052320991483583]]]}},{"type":"Feature","properties":{"code":"1505092011","desa":"Bahar Mulya","kecamatan":"Bahar Utara","kecCode":"150509"},"geometry":{"type":"Polygon","coordinates":[[[103.35479391300872,-1.8981084526276],[103.35762720103457,-1.9128322394846602],[103.38213940870678,-1.9098317602991015],[103.38197479679953,-1.9286132810289873],[103.34585695863177,-1.928441960179397],[103.3303530242727,-1.9386076519614104],[103.32516500626008,-1.9327399011717892],[103.33499408540877,-1.9202658151753627],[103.32331093065498,-1.908508898040282],[103.32411756767168,-1.899502638319169],[103.35479391300872,-1.8981084526276]]]}},{"type":"Feature","properties":{"code":"1505102001","desa":"Bukit Subur","kecamatan":"Bahar Selatan","kecCode":"150510"},"geometry":{"type":"Polygon","coordinates":[[[103.47669309441083,-2.0292231856412974],[103.49531995335319,-2.029776180565467],[103.49562909080993,-2.0243424893595474],[103.49528381859339,-2.0730168228595343],[103.47966927841452,-2.0731560460060185],[103.47977379942137,-2.0800830335887923],[103.4637744042654,-2.07619886257544],[103.46326108473134,-2.041329878797263],[103.47669309441083,-2.0292231856412974]]]}},{"type":"Feature","properties":{"code":"1505102002","desa":"Tri Jaya","kecamatan":"Bahar Selatan","kecCode":"150510"},"geometry":{"type":"Polygon","coordinates":[[[103.44087432309158,-2.011330189696037],[103.44899121807032,-2.0062946103730637],[103.44908250555324,-2.0234106505273353],[103.47728629982294,-2.022266052783604],[103.46326108473134,-2.041329878797263],[103.46345191727221,-2.0536221749363084],[103.44999590378796,-2.0554406292924443],[103.44087432309158,-2.011330189696037]]]}},{"type":"Feature","properties":{"code":"1505102003","desa":"Mekar Jaya","kecamatan":"Bahar Selatan","kecCode":"150510"},"geometry":{"type":"Polygon","coordinates":[[[103.4465604171296,-2.0872586900122996],[103.44652875559761,-2.0622862075457147],[103.4417949239966,-2.065751807099688],[103.44140776315781,-2.0585134679296937],[103.46345191727221,-2.0536221749363084],[103.4637744042654,-2.07619886257544],[103.47977379942137,-2.0800830335887923],[103.47988804479745,-2.087654415993873],[103.4465604171296,-2.0872586900122996]]]}},{"type":"Feature","properties":{"code":"1505102004","desa":"Ujung Tanjung","kecamatan":"Bahar Selatan","kecCode":"150510"},"geometry":{"type":"Polygon","coordinates":[[[103.49548523255748,-2.052341707618012],[103.4956218557641,-2.025750562382138],[103.51278133858794,-2.0216413207385178],[103.51303398243238,-2.040889940345394],[103.52608653486573,-2.0409529936126347],[103.53509599708262,-2.053954412378737],[103.52249203457978,-2.055240197388311],[103.52061686987268,-2.0477012031674047],[103.49548523255748,-2.052341707618012]]]}},{"type":"Feature","properties":{"code":"1505102005","desa":"Tanjung Baru","kecamatan":"Bahar Selatan","kecCode":"150510"},"geometry":{"type":"Polygon","coordinates":[[[103.53509599708262,-2.053954412378737],[103.52608653486573,-2.0409529936126347],[103.51303398243238,-2.040889940345394],[103.51264592407021,-2.0256646807241663],[103.54092959342603,-2.0302316898792716],[103.54639021843387,-2.049500416528452],[103.53487676395156,-2.049720727047106],[103.53509599708262,-2.053954412378737]]]}},{"type":"Feature","properties":{"code":"1505102006","desa":"Tanjung Mulia","kecamatan":"Bahar Selatan","kecCode":"150510"},"geometry":{"type":"Polygon","coordinates":[[[103.51731108793642,-2.1142553143772886],[103.49492173624918,-2.114047365939463],[103.49528381859339,-2.0730168228595343],[103.5322222215783,-2.072708331116392],[103.53224999983769,-2.0914999979975972],[103.5168691673782,-2.0922333303742358],[103.51731108793642,-2.1142553143772886]]]}},{"type":"Feature","properties":{"code":"1505102007","desa":"Adipura Kencana","kecamatan":"Bahar Selatan","kecCode":"150510"},"geometry":{"type":"Polygon","coordinates":[[[103.4763879436487,-2.097351180577154],[103.47966927841452,-2.0731560460060185],[103.49528381859339,-2.0730168228595343],[103.49492173624918,-2.114047365939463],[103.51645389822885,-2.115925396783843],[103.51717923203596,-2.120190066457865],[103.4948730469536,-2.1195648703626686],[103.49492063457967,-2.13110351304413],[103.47169041138345,-2.1291222885924146],[103.47377648509678,-2.1203297833321604],[103.46651674924861,-2.115668420006048],[103.46478093269393,-2.1009203712388844],[103.4763879436487,-2.097351180577154]]]}},{"type":"Feature","properties":{"code":"1505102008","desa":"Bukit Jaya","kecamatan":"Bahar Selatan","kecCode":"150510"},"geometry":{"type":"Polygon","coordinates":[[[103.48263593140318,-2.1313589825581407],[103.49492063457967,-2.13110351304413],[103.4948730469536,-2.1195648703626686],[103.51693330702653,-2.120056835494211],[103.51713935789512,-2.129689875916058],[103.54627078576823,-2.140308230657618],[103.52948368882124,-2.1484138643167827],[103.50443006139831,-2.146977566971151],[103.50438560161427,-2.1540911153148814],[103.48284917055281,-2.1546771603241615],[103.48263593140318,-2.1313589825581407]]]}},{"type":"Feature","properties":{"code":"1505102009","desa":"Tanjung Sari","kecamatan":"Bahar Selatan","kecCode":"150510"},"geometry":{"type":"Polygon","coordinates":[[[103.44684228534328,-2.155330131980808],[103.4465604171296,-2.0872586900122996],[103.47988804479745,-2.087654415993873],[103.47597391736247,-2.097865144025268],[103.46462388858161,-2.103233208104262],[103.46651674924861,-2.115668420006048],[103.47377648509678,-2.1203297833321604],[103.47169041138345,-2.1291222885924146],[103.48263593140318,-2.1313589825581407],[103.48284917055281,-2.1546771603241615],[103.44684228534328,-2.155330131980808]]]}},{"type":"Feature","properties":{"code":"1505102010","desa":"Tanjung Lebar","kecamatan":"Bahar Selatan","kecCode":"150510"},"geometry":{"type":"Polygon","coordinates":[[[103.44788119925799,-2.177900116972765],[103.44684228534328,-2.155330131980808],[103.50438560161427,-2.1540911153148814],[103.50443006139831,-2.146977566971151],[103.52948368882124,-2.1484138643167827],[103.54591602840206,-2.136191781847089],[103.5593250001487,-2.137122219535653],[103.50700833316807,-2.173674997683526],[103.44788119925799,-2.177900116972765]]]}},{"type":"Feature","properties":{"code":"1505102010","desa":"Tanjung Lebar","kecamatan":"Bahar Selatan","kecCode":"150510"},"geometry":{"type":"Polygon","coordinates":[[[103.51731108793642,-2.1142553143772886],[103.53572222200303,-2.1221111082783897],[103.54591602840206,-2.136191781847089],[103.51713935789512,-2.129689875916058],[103.51731108793642,-2.1142553143772886]]]}},{"type":"Feature","properties":{"code":"1505102010","desa":"Tanjung Lebar","kecamatan":"Bahar Selatan","kecCode":"150510"},"geometry":{"type":"Polygon","coordinates":[[[103.49537453230884,-2.0229199363527135],[103.51304451079564,-2.01777306412803],[103.51267563587197,-2.007112698456468],[103.55307567510238,-2.001029158040138],[103.5566416668795,-2.017669441544047],[103.56392444425774,-2.016752776073305],[103.56311166667012,-2.0421719419071063],[103.553566667168,-2.042236108535018],[103.52481924441263,-2.072770146017143],[103.49528381859339,-2.0730168228595343],[103.49548523255748,-2.052341707618012],[103.52061686987268,-2.0477012031674047],[103.52249203457978,-2.055240197388311],[103.53403174297061,-2.0552040554339364],[103.53487676395156,-2.049720727047106],[103.54639021843387,-2.049500416528452],[103.54092959342603,-2.0302316898792716],[103.51278133858794,-2.0216413207385178],[103.49537453230884,-2.0229199363527135]]]}},{"type":"Feature","properties":{"code":"1505112001","desa":"Kunangan","kecamatan":"Taman Rajo","kecCode":"150511"},"geometry":{"type":"Polygon","coordinates":[[[103.63807895188216,-1.5506610156628244],[103.62460227557459,-1.5323888358658742],[103.63045902406475,-1.5253677863918353],[103.66057199000538,-1.5426608410033742],[103.6533721346164,-1.5528628752885418],[103.63807895188216,-1.5506610156628244]]]}},{"type":"Feature","properties":{"code":"1505112002","desa":"Talang Duku","kecamatan":"Taman Rajo","kecCode":"150511"},"geometry":{"type":"Polygon","coordinates":[[[103.62818806862452,-1.5074268790647305],[103.63557390740992,-1.4987697307655647],[103.66982545178325,-1.4975930119364007],[103.69397262823429,-1.518400397665515],[103.68088625499672,-1.5198106245643972],[103.66385917576041,-1.5509523510393655],[103.66057199000538,-1.5426608410033742],[103.63045902406475,-1.5253677863918353],[103.62818806862452,-1.5074268790647305]]]}},{"type":"Feature","properties":{"code":"1505112003","desa":"Tebat Patah","kecamatan":"Taman Rajo","kecCode":"150511"},"geometry":{"type":"Polygon","coordinates":[[[103.64681724242183,-1.4994424056688356],[103.64558809761269,-1.489609088925565],[103.6709367242505,-1.4834157295964023],[103.67882127668067,-1.501203760269704],[103.64681724242183,-1.4994424056688356]]]}},{"type":"Feature","properties":{"code":"1505112004","desa":"Kemingking Dalam","kecamatan":"Taman Rajo","kecCode":"150511"},"geometry":{"type":"Polygon","coordinates":[[[103.6753420469979,-1.496605952032558],[103.69975077058164,-1.476859357125068],[103.75970027784558,-1.4801592529949141],[103.7594379995641,-1.488495614919202],[103.74873170100727,-1.4885333423783256],[103.74761552723486,-1.5076728454426958],[103.72536581597969,-1.5075288612852857],[103.72624820738888,-1.5276063554439805],[103.71021004875479,-1.5275692952818818],[103.71031376756638,-1.5184812044492633],[103.69397262823429,-1.518400397665515],[103.6753420469979,-1.496605952032558]]]}},{"type":"Feature","properties":{"code":"1505112005","desa":"Teluk Jambu","kecamatan":"Taman Rajo","kecCode":"150511"},"geometry":{"type":"Polygon","coordinates":[[[103.78388445870085,-1.4814903476477415],[103.69975077058164,-1.476859357125068],[103.6858384222055,-1.4759893376901787],[103.70716953264787,-1.4688779702024861],[103.70808198389646,-1.4610253482103255],[103.78397172261697,-1.4597113038041127],[103.78388445870085,-1.4814903476477415]]]}},{"type":"Feature","properties":{"code":"1505112006","desa":"Dusun Mudo","kecamatan":"Taman Rajo","kecCode":"150511"},"geometry":{"type":"Polygon","coordinates":[[[103.66863159727046,-1.4551000147295103],[103.66755382724739,-1.4417344901450666],[103.73293138697396,-1.4413322215956619],[103.73311853139518,-1.4593806860406897],[103.66863159727046,-1.4551000147295103]]]}},{"type":"Feature","properties":{"code":"1505112007","desa":"Sekumbung","kecamatan":"Taman Rajo","kecCode":"150511"},"geometry":{"type":"Polygon","coordinates":[[[103.66755382724739,-1.4417344901450666],[103.66489919584126,-1.4353986665127518],[103.68836302243561,-1.4092061223912677],[103.68725992390642,-1.3675847831840784],[103.73330669564758,-1.3578616217001482],[103.73293138697396,-1.4413322215956619],[103.66755382724739,-1.4417344901450666]]]}},{"type":"Feature","properties":{"code":"1505112008","desa":"Kemingking Luar","kecamatan":"Taman Rajo","kecCode":"150511"},"geometry":{"type":"Polygon","coordinates":[[[103.66369317709848,-1.4646293291452386],[103.66863159727046,-1.4551000147295103],[103.7038011875748,-1.4585628956329368],[103.70945381424218,-1.463881102196957],[103.6858384222055,-1.4759893376901787],[103.69975077058164,-1.476859357125068],[103.6833144524001,-1.4871082676725074],[103.66369317709848,-1.4646293291452386]]]}},{"type":"Feature","properties":{"code":"1505112009","desa":"Rukam","kecamatan":"Taman Rajo","kecCode":"150511"},"geometry":{"type":"Polygon","coordinates":[[[103.81718878403524,-1.4609429882973912],[103.73311853139518,-1.4593806860406897],[103.73330669564758,-1.3578616217001482],[103.8040944410057,-1.3465032283376506],[103.81718878403524,-1.4609429882973912]]]}},{"type":"Feature","properties":{"code":"1505112010","desa":"Manis Mato","kecamatan":"Taman Rajo","kecCode":"150511"},"geometry":{"type":"Polygon","coordinates":[[[103.88326286958583,-1.4502210937095656],[103.88606602043056,-1.4791920582157787],[103.81829438267965,-1.4808635102897745],[103.8040944410057,-1.3465032283376506],[103.83898811211172,-1.3415095457308481],[103.85330617074321,-1.3957833316769648],[103.85335186259844,-1.450136187815945],[103.88326286958583,-1.4502210937095656]]]}}]}