{"type":"FeatureCollection","features":[{"type":"Feature","properties":{"code":"1506011005","desa":"Pelabuhan Dagang","kecamatan":"Tungkal Ulu","kecCode":"150601"},"geometry":{"type":"Polygon","coordinates":[[[103.11350221705372,-1.0932727833904872],[103.09699906125775,-1.117514295099939],[103.10488726223741,-1.1489158788809946],[103.03006605030805,-1.1598937627909565],[103.04278101163442,-1.1438121417389466],[103.06690387941057,-1.1376752283578981],[103.07495546921962,-1.1234442528945765],[103.06626627536838,-1.123273781904369],[103.07072776437491,-1.1170039019603493],[103.06195640486425,-1.1125101425858692],[103.07801132955927,-1.0938615974124146],[103.08272471507358,-1.0779854525618702],[103.10395155182272,-1.0776034070673493],[103.11350221705372,-1.0932727833904872]]]}},{"type":"Feature","properties":{"code":"1506012001","desa":"Badang","kecamatan":"Tungkal Ulu","kecCode":"150601"},"geometry":{"type":"Polygon","coordinates":[[[103.0589579626399,-1.1867616590974128],[103.05665755799997,-1.1967096349047386],[103.07979236762372,-1.207783742676276],[103.08879390141747,-1.2219360940104977],[103.04872966184449,-1.225256542986336],[103.01771170273297,-1.2060052550911273],[103.0377196874137,-1.1658753245838858],[103.04748598578965,-1.1850384330532995],[103.0589579626399,-1.1867616590974128]],[[103.03536350861907,-1.1913253353649917],[103.03146753759682,-1.193370085227985],[103.03824900139035,-1.1930131667913766],[103.03829468784959,-1.1980243115342883],[103.02278758158165,-1.2064107216297524],[103.0437944135814,-1.2108757809397737],[103.04720894243883,-1.1950880565334037],[103.03536350861907,-1.1913253353649917]]]}},{"type":"Feature","properties":{"code":"1506012002","desa":"Tanjung Tayas","kecamatan":"Tungkal Ulu","kecCode":"150601"},"geometry":{"type":"Polygon","coordinates":[[[103.08879390141747,-1.2219360940104977],[103.07979236762372,-1.207783742676276],[103.05665755799997,-1.1967096349047386],[103.06662101744602,-1.1753455985073937],[103.08800701621088,-1.18640573081435],[103.10140568892147,-1.1832317598159332],[103.10415994092858,-1.2071932864923265],[103.08879390141747,-1.2219360940104977]]]}},{"type":"Feature","properties":{"code":"1506012003","desa":"Kuala Dasal","kecamatan":"Tungkal Ulu","kecCode":"150601"},"geometry":{"type":"Polygon","coordinates":[[[103.27711521139793,-1.2351054386853015],[103.21290552566956,-1.2205158504626328],[103.1736517713123,-1.2018457098689441],[103.16843706142127,-1.183060813084294],[103.15158396772595,-1.204678667840399],[103.14232784575353,-1.199470291880401],[103.13744452524469,-1.2044908498272442],[103.10365646987026,-1.2005293784867985],[103.10140568892147,-1.1832317598159332],[103.10907266297306,-1.1543858253557444],[103.09699906125775,-1.117514295099939],[103.11350221705372,-1.0932727833904872],[103.13134756244011,-1.1095671453675424],[103.13209550070685,-1.1424856696014027],[103.2567244923415,-1.1358387246082706],[103.25696140704338,-1.1715060095857832],[103.26193657441341,-1.1861299869841315],[103.27037928207822,-1.1858284604902019],[103.27460063681002,-1.19396964345034],[103.27711521139793,-1.2351054386853015]]]}},{"type":"Feature","properties":{"code":"1506012004","desa":"Pematang Pauh","kecamatan":"Tungkal Ulu","kecCode":"150601"},"geometry":{"type":"Polygon","coordinates":[[[103.03006605030805,-1.1598937627909565],[103.10488726223741,-1.1489158788809946],[103.10920034691856,-1.156675364384155],[103.10192936235022,-1.183272640298105],[103.08800701621088,-1.18640573081435],[103.06662101744602,-1.1753455985073937],[103.0528356083767,-1.1888448765616009],[103.0423953265831,-1.1668746980051525],[103.03006605030805,-1.1598937627909565]]]}},{"type":"Feature","properties":{"code":"1506012006","desa":"Taman Raja","kecamatan":"Tungkal Ulu","kecCode":"150601"},"geometry":{"type":"Polygon","coordinates":[[[103.04278101163442,-1.1438121417389466],[103.03006605030805,-1.1598937627909565],[102.99819486030464,-1.1251971304859003],[103.01231874541384,-1.1077062394135737],[103.03661035478409,-1.1074646464387317],[103.05124738765687,-1.0947299944703215],[103.04657888640656,-1.0871490315875905],[103.05595872091827,-1.0791683200558984],[103.04410900542632,-1.0786258031329385],[103.04021144799998,-1.063777965591778],[103.03826980720588,-1.0704880456904302],[103.02914695486811,-1.0666047659052387],[103.05169377424835,-1.0465749385128946],[103.05969330230414,-1.0544157281249327],[103.07098752995063,-1.0544706398296544],[103.0656461568447,-1.0642880574584432],[103.06880132122404,-1.0783161701500619],[103.08272471507358,-1.0779854525618702],[103.07801132955927,-1.0938615974124146],[103.04111528194476,-1.1327646449066946],[103.04278101163442,-1.1438121417389466]]]}},{"type":"Feature","properties":{"code":"1506012017","desa":"Brasau","kecamatan":"Tungkal Ulu","kecCode":"150601"},"geometry":{"type":"Polygon","coordinates":[[[103.10395155182272,-1.0776034070673493],[103.06880132122404,-1.0783161701500619],[103.06803894344256,-1.0583303627732057],[103.09381623463156,-1.0591588551133073],[103.10395155182272,-1.0776034070673493]]]}},{"type":"Feature","properties":{"code":"1506012019","desa":"Gemuruh","kecamatan":"Tungkal Ulu","kecCode":"150601"},"geometry":{"type":"Polygon","coordinates":[[[103.06195640486425,-1.1125101425858692],[103.07072776437491,-1.1170039019603493],[103.06626627536838,-1.123273781904369],[103.07495546921962,-1.1234442528945765],[103.06690387941057,-1.1376752283578981],[103.04278101163442,-1.1438121417389466],[103.04111528194476,-1.1327646449066946],[103.06195640486425,-1.1125101425858692]]]}},{"type":"Feature","properties":{"code":"1506012020","desa":"Pematang Tembesu","kecamatan":"Tungkal Ulu","kecCode":"150601"},"geometry":{"type":"Polygon","coordinates":[[[103.05526296671256,-1.0518002334184813],[103.04424130289385,-1.0482453194943793],[103.02914695486811,-1.0666047659052387],[103.03826980720588,-1.0704880456904302],[103.04021144799998,-1.063777965591778],[103.04410900542632,-1.0786258031329385],[103.05595872091827,-1.0791683200558984],[103.04657888640656,-1.0871490315875905],[103.05124738765687,-1.0947299944703215],[103.03661035478409,-1.1074646464387317],[103.01231874541384,-1.1077062394135737],[102.99819486030464,-1.1251971304859003],[102.99059742722953,-1.1024115240406924],[102.9941642553761,-1.085984857401613],[103.03730986455867,-1.0391255419488346],[103.04540003258553,-1.0386020609755229],[103.05526296671256,-1.0518002334184813]]]}},{"type":"Feature","properties":{"code":"1506012021","desa":"Badang Sepakat","kecamatan":"Tungkal Ulu","kecCode":"150601"},"geometry":{"type":"Polygon","coordinates":[[[103.03536350861907,-1.1913253353649917],[103.04720894243883,-1.1950880565334037],[103.0437944135814,-1.2108757809397737],[103.02278758158165,-1.2064107216297524],[103.03829468784959,-1.1980243115342883],[103.03824900139035,-1.1930131667913766],[103.03146753759682,-1.193370085227985],[103.03536350861907,-1.1913253353649917]]]}},{"type":"Feature","properties":{"code":"1506021004","desa":"Tungkal Empat Kota","kecamatan":"Tungkal Ilir","kecCode":"150602"},"geometry":{"type":"Polygon","coordinates":[[[103.46015378766724,-0.8092731237507098],[103.4611040437167,-0.8229821174105785],[103.45504739572078,-0.8118263422041481],[103.46015378766724,-0.8092731237507098]]]}},{"type":"Feature","properties":{"code":"1506021005","desa":"Tungkal III","kecamatan":"Tungkal Ilir","kecCode":"150602"},"geometry":{"type":"Polygon","coordinates":[[[103.4721917510485,-0.8318024476946986],[103.46015378766724,-0.8092731237507098],[103.46275572869398,-0.8081721233411084],[103.4721917510485,-0.8318024476946986]]]}},{"type":"Feature","properties":{"code":"1506021006","desa":"Tungkal Harapan","kecamatan":"Tungkal Ilir","kecCode":"150602"},"geometry":{"type":"Polygon","coordinates":[[[103.45504739572078,-0.8118263422041481],[103.45969902389088,-0.823595158269043],[103.4577202168146,-0.8254620258288454],[103.44767112392327,-0.8162192650943304],[103.45504739572078,-0.8118263422041481]]]}},{"type":"Feature","properties":{"code":"1506021007","desa":"Tungkal II","kecamatan":"Tungkal Ilir","kecCode":"150602"},"geometry":{"type":"Polygon","coordinates":[[[103.47852800276519,-0.8442706269438994],[103.4643796929685,-0.8074849792454375],[103.46747035257475,-0.8152537808257649],[103.47914047165553,-0.8117814453497032],[103.4991390233473,-0.8292710369015727],[103.51549126481007,-0.8528133446066417],[103.50193486000586,-0.8607045619036496],[103.47852800276519,-0.8442706269438994]]]}},{"type":"Feature","properties":{"code":"1506021015","desa":"Kampung Nelayan","kecamatan":"Tungkal Ilir","kecCode":"150602"},"geometry":{"type":"Polygon","coordinates":[[[103.4769733888109,-0.8127813583641312],[103.46747035257475,-0.8152537808257649],[103.4643796929685,-0.8074849792454375],[103.47101343682071,-0.8046600090523907],[103.4769733888109,-0.8127813583641312]]]}},{"type":"Feature","properties":{"code":"1506021016","desa":"Patunas","kecamatan":"Tungkal Ilir","kecCode":"150602"},"geometry":{"type":"Polygon","coordinates":[[[103.46243906301241,-0.8228475446583672],[103.47852800276519,-0.8442706269438994],[103.46965183806196,-0.8622491349255772],[103.45513631079216,-0.8589497228910398],[103.46243906301241,-0.8228475446583672]]]}},{"type":"Feature","properties":{"code":"1506021017","desa":"Sriwi Jaya","kecamatan":"Tungkal Ilir","kecCode":"150602"},"geometry":{"type":"Polygon","coordinates":[[[103.4579722194424,-0.8174129523318738],[103.4646424595819,-0.829557881963119],[103.45491406583152,-0.861992929766102],[103.44624111373646,-0.8616747136537252],[103.4579722194424,-0.8174129523318738]]]}},{"type":"Feature","properties":{"code":"1506021018","desa":"Sungainibung","kecamatan":"Tungkal Ilir","kecCode":"150602"},"geometry":{"type":"Polygon","coordinates":[[[103.44767112392327,-0.8162192650943304],[103.45957189482714,-0.8263485909906678],[103.43841856686345,-0.869435448315243],[103.43477096790588,-0.8621668181801092],[103.44210763625847,-0.8449449431098559],[103.42796593827751,-0.8246465214976695],[103.44767112392327,-0.8162192650943304]]]}},{"type":"Feature","properties":{"code":"1506022003","desa":"Tungkal I","kecamatan":"Tungkal Ilir","kecCode":"150602"},"geometry":{"type":"Polygon","coordinates":[[[103.52117663489382,-0.8695087601489565],[103.51042235121058,-0.8400798509650274],[103.47101343682071,-0.8046600090523907],[103.48434173758118,-0.7985816757107524],[103.54764163405423,-0.8105742691807727],[103.55800420632914,-0.8398005269337676],[103.55648899976755,-0.8523729987618573],[103.53828869286893,-0.8674580774584528],[103.52117663489382,-0.8695087601489565]]]}},{"type":"Feature","properties":{"code":"1506022014","desa":"Teluk Sialang","kecamatan":"Tungkal Ilir","kecCode":"150602"},"geometry":{"type":"Polygon","coordinates":[[[103.44624111373646,-0.8616747136537252],[103.45491406583152,-0.861992929766102],[103.45055208321213,-0.8772653741168946],[103.45635221937948,-0.8862768759861803],[103.43565276666192,-0.9004622648149326],[103.42851384663673,-0.8752068997001442],[103.44624111373646,-0.8616747136537252]]]}},{"type":"Feature","properties":{"code":"1506031001","desa":"Teluknilau","kecamatan":"Pengabuan","kecCode":"150603"},"geometry":{"type":"Polygon","coordinates":[[[103.20788332285711,-0.8327316973788342],[103.22280918559551,-0.850828205406047],[103.23779979142726,-0.8510066650739982],[103.22491311894532,-0.9021685898999119],[103.25322742640468,-0.9606825956513747],[103.25967437477264,-0.9554914776814174],[103.24686048442392,-0.9727358537892512],[103.24273551902905,-0.992693014161646],[103.20100731603486,-1.033982340756776],[103.18167819898974,-1.0428491327158187],[103.16847566392077,-1.006296897758876],[103.17533569338757,-0.9748426128066482],[103.15590099683361,-0.9711761640631366],[103.15563770681477,-0.9386113018208543],[103.17289725720269,-0.8757674867009612],[103.18665714621038,-0.883520240778699],[103.18770574132697,-0.8937703141494422],[103.20788332285711,-0.8327316973788342]]]}},{"type":"Feature","properties":{"code":"1506032006","desa":"Parit Pudin","kecamatan":"Pengabuan","kecCode":"150603"},"geometry":{"type":"Polygon","coordinates":[[[103.30151009531471,-0.8106817930238006],[103.33482897257907,-0.8358850604125617],[103.3121652089573,-0.8694012443998577],[103.30673633001766,-0.8887065096041254],[103.28267882856515,-0.8390218912091402],[103.30151009531471,-0.8106817930238006]]]}},{"type":"Feature","properties":{"code":"1506032007","desa":"Sungai Serindit","kecamatan":"Pengabuan","kecCode":"150603"},"geometry":{"type":"Polygon","coordinates":[[[103.24707124773992,-0.7832664191340709],[103.26699970896948,-0.845120196694756],[103.23779979142726,-0.8510066650739982],[103.23770090827036,-0.8127909981971504],[103.24707124773992,-0.7832664191340709]]]}},{"type":"Feature","properties":{"code":"1506032008","desa":"Mekar Jati","kecamatan":"Pengabuan","kecCode":"150603"},"geometry":{"type":"Polygon","coordinates":[[[103.16493586759628,-0.7526349509005952],[103.18849996680005,-0.7564821705697511],[103.18809735021262,-0.7865574980505289],[103.17170625533947,-0.8132755331299296],[103.14714989185408,-0.8231213954157166],[103.14842174906454,-0.8036471395052415],[103.16176706769606,-0.7920364539335325],[103.15771708507549,-0.7799318481041415],[103.16493586759628,-0.7526349509005952]]]}},{"type":"Feature","properties":{"code":"1506032012","desa":"Sungai Pampang","kecamatan":"Pengabuan","kecCode":"150603"},"geometry":{"type":"Polygon","coordinates":[[[103.23329643178492,-0.7685370924533861],[103.24271549472432,-0.7698750723157944],[103.23421089391769,-0.8037532864862252],[103.2121729945881,-0.8426190651756006],[103.20478555141209,-0.8303331910954587],[103.23329643178492,-0.7685370924533861]]]}},{"type":"Feature","properties":{"code":"1506032013","desa":"Parit Sidang","kecamatan":"Pengabuan","kecCode":"150603"},"geometry":{"type":"Polygon","coordinates":[[[103.24271549472432,-0.7698750723157944],[103.2505733723633,-0.7708556535035934],[103.23770090827036,-0.8127909981971504],[103.23779979142726,-0.8510066650739982],[103.22280918559551,-0.850828205406047],[103.2121729945881,-0.8426190651756006],[103.23421089391769,-0.8037532864862252],[103.24271549472432,-0.7698750723157944]]]}},{"type":"Feature","properties":{"code":"1506032014","desa":"Sungai Jering","kecamatan":"Pengabuan","kecCode":"150603"},"geometry":{"type":"Polygon","coordinates":[[[103.22049214259835,-0.7638062079359772],[103.23329643178492,-0.7685370924533861],[103.21615888882172,-0.8095266390379402],[103.20478555141209,-0.8303331910954587],[103.18863099262627,-0.8325678534927218],[103.22049214259835,-0.7638062079359772]]]}},{"type":"Feature","properties":{"code":"1506032015","desa":"Parit Bilal","kecamatan":"Pengabuan","kecCode":"150603"},"geometry":{"type":"Polygon","coordinates":[[[103.20788332285711,-0.8327316973788342],[103.19469662844669,-0.8612289844671488],[103.18770574132697,-0.8937703141494422],[103.18665714621038,-0.883520240778699],[103.17289725720269,-0.8757674867009612],[103.19309621291994,-0.8309301035123813],[103.20788332285711,-0.8327316973788342]]]}},{"type":"Feature","properties":{"code":"1506032016","desa":"Suak Samin","kecamatan":"Pengabuan","kecCode":"150603"},"geometry":{"type":"Polygon","coordinates":[[[103.25967437477264,-0.9554914776814174],[103.25322742640468,-0.9606825956513747],[103.22491311894532,-0.9021685898999119],[103.23779979142726,-0.8510066650739982],[103.2511193345897,-0.8511866194152501],[103.24429834829022,-0.8642061900973329],[103.25128251477626,-0.8997489099783176],[103.23912071834656,-0.9068033413873007],[103.25967437477264,-0.9554914776814174]]]}},{"type":"Feature","properties":{"code":"1506032017","desa":"Sungai Baung","kecamatan":"Pengabuan","kecCode":"150603"},"geometry":{"type":"Polygon","coordinates":[[[103.25047287042668,-0.8504698183764784],[103.26699970896948,-0.845120196694756],[103.29015948467251,-0.9337270981831818],[103.25967437477264,-0.9554914776814174],[103.23912071834656,-0.9068033413873007],[103.25197790655521,-0.8965124918556783],[103.24429834829022,-0.8642061900973329],[103.25047287042668,-0.8504698183764784]]]}},{"type":"Feature","properties":{"code":"1506032018","desa":"Karya Maju","kecamatan":"Pengabuan","kecCode":"150603"},"geometry":{"type":"Polygon","coordinates":[[[103.28267882856515,-0.8390218912091402],[103.30673633001766,-0.8887065096041254],[103.29015948467251,-0.9337270981831818],[103.26699970896948,-0.845120196694756],[103.28267882856515,-0.8390218912091402]]]}},{"type":"Feature","properties":{"code":"1506032019","desa":"Sungai Raya","kecamatan":"Pengabuan","kecCode":"150603"},"geometry":{"type":"Polygon","coordinates":[[[103.29478969099146,-0.8223922556785003],[103.28612653521151,-0.8367404586696396],[103.26699970896948,-0.845120196694756],[103.24912872121358,-0.7937842098857958],[103.26497575232918,-0.7951419154778699],[103.29478969099146,-0.8223922556785003]]]}},{"type":"Feature","properties":{"code":"1506032020","desa":"Pasar Senin","kecamatan":"Pengabuan","kecCode":"150603"},"geometry":{"type":"Polygon","coordinates":[[[103.19076871530405,-0.7568744350607431],[103.22049214259835,-0.7638062079359772],[103.18863099262627,-0.8325678534927218],[103.18251485177903,-0.8259849231420968],[103.18899373956947,-0.8088384274470174],[103.18276766469604,-0.8020336568309511],[103.19076871530405,-0.7568744350607431]]]}},{"type":"Feature","properties":{"code":"1506041007","desa":"Mekar Jaya","kecamatan":"Betara","kecCode":"150604"},"geometry":{"type":"Polygon","coordinates":[[[103.39028942841446,-0.9670899216814663],[103.39372243294399,-0.9786531176533046],[103.37182809509056,-0.9934336022684938],[103.37047919296042,-0.9886116290184124],[103.35950987777869,-0.9895396187523092],[103.32198617442248,-1.00914181671353],[103.31988020770547,-1.0021878278857532],[103.31336715197256,-1.006160707126298],[103.30358816955845,-0.9994019377321336],[103.30687032990187,-0.9936385307828473],[103.30020582743703,-0.9869571876208925],[103.31232709771744,-0.9734888282586283],[103.32463616172953,-0.9775673616516921],[103.33169724363295,-0.9717322382659607],[103.33737143604299,-0.9772515620176241],[103.34572021491607,-0.9677035219182949],[103.3695246255611,-0.962746894077663],[103.39028942841446,-0.9670899216814663]]]}},{"type":"Feature","properties":{"code":"1506042001","desa":"Pematang Lumut","kecamatan":"Betara","kecCode":"150604"},"geometry":{"type":"Polygon","coordinates":[[[103.45467531921064,-1.0558302384946765],[103.44044272225385,-1.0722958727579632],[103.45951271134258,-1.094455717434347],[103.47077960499485,-1.125673248663673],[103.45496918617908,-1.118233892130919],[103.44557651384507,-1.1275517894236475],[103.42707472721695,-1.1144818594048793],[103.39392840377286,-1.1154428434660038],[103.37795991561768,-1.1087926258399599],[103.36510022999168,-1.0963418421771227],[103.382420356914,-1.1088513758512144],[103.39627180589916,-1.1104107265329681],[103.39825423904193,-1.0950697016816366],[103.3844034798368,-1.074389360479917],[103.4333063616993,-1.0655134287109542],[103.43328185967016,-1.0560662754579622],[103.45467531921064,-1.0558302384946765]]]}},{"type":"Feature","properties":{"code":"1506042008","desa":"Makmur Jaya","kecamatan":"Betara","kecCode":"150604"},"geometry":{"type":"Polygon","coordinates":[[[103.4262466836376,-0.8889347188683024],[103.44142830187468,-0.9014487761323211],[103.44014339280339,-0.953511382778183],[103.40474379998642,-0.9288156630740131],[103.41055444293323,-0.9154097796142403],[103.42071474059287,-0.9114836687173338],[103.41198013637425,-0.895979101252816],[103.4262466836376,-0.8889347188683024]]]}},{"type":"Feature","properties":{"code":"1506042009","desa":"Serdang Jaya","kecamatan":"Betara","kecCode":"150604"},"geometry":{"type":"Polygon","coordinates":[[[103.38420450483409,-1.0728484198197992],[103.32576059937223,-1.0732310957391091],[103.3332598525602,-1.0276276655357486],[103.34725126843136,-1.027426221894268],[103.35595587756177,-1.0470192890387717],[103.37234540041993,-1.0551221051218638],[103.37632848607086,-1.0694293341013037],[103.38420450483409,-1.0728484198197992]]]}},{"type":"Feature","properties":{"code":"1506042009","desa":"Serdang Jaya","kecamatan":"Betara","kecCode":"150604"},"geometry":{"type":"Polygon","coordinates":[[[103.38587932397165,-1.0203198267582092],[103.37934208996552,-1.0273811388801999],[103.36540620723075,-1.0074349115658539],[103.37164596259116,-1.0055859180316922],[103.37592626338642,-1.0126783008310263],[103.38164248201497,-1.0068945889886332],[103.38587932397165,-1.0203198267582092]]]}},{"type":"Feature","properties":{"code":"1506042010","desa":"Terjun Gajah","kecamatan":"Betara","kecCode":"150604"},"geometry":{"type":"Polygon","coordinates":[[[103.38144989939336,-1.236499545236575],[103.27711521139793,-1.2351054386853015],[103.27460063681002,-1.19396964345034],[103.27037928207822,-1.1858284604902019],[103.26193657441341,-1.1861299869841315],[103.25696140704338,-1.1715060095857832],[103.2567244923415,-1.1358387246082706],[103.2871393067337,-1.1318500101051678],[103.4445835669781,-1.143335890461471],[103.45009419429168,-1.1862765108269864],[103.4478103533652,-1.19503890408703],[103.42964007123236,-1.200921277852994],[103.42570549411334,-1.219675663338623],[103.38150588668736,-1.2218754338392002],[103.38144989939336,-1.236499545236575]]]}},{"type":"Feature","properties":{"code":"1506042011","desa":"Lubuk Terentang","kecamatan":"Betara","kecCode":"150604"},"geometry":{"type":"Polygon","coordinates":[[[103.36510022999168,-1.0963418421771227],[103.39392840377286,-1.1154428434660038],[103.42707472721695,-1.1144818594048793],[103.44557651384507,-1.1275517894236475],[103.4445835669781,-1.143335890461471],[103.2871393067337,-1.1318500101051678],[103.31306069539481,-1.094005368430467],[103.36510022999168,-1.0963418421771227]]]}},{"type":"Feature","properties":{"code":"1506042012","desa":"Pematang Buluh","kecamatan":"Betara","kecCode":"150604"},"geometry":{"type":"Polygon","coordinates":[[[103.3844034798368,-1.074389360479917],[103.39825423904193,-1.0950697016816366],[103.39627180589916,-1.1104107265329681],[103.35493364067501,-1.0931440085675295],[103.34001004063094,-1.098339780529109],[103.31306069539481,-1.094005368430467],[103.32576059937223,-1.0732310957391091],[103.3844034798368,-1.074389360479917]]]}},{"type":"Feature","properties":{"code":"1506042013","desa":"Muntialo","kecamatan":"Betara","kecCode":"150604"},"geometry":{"type":"Polygon","coordinates":[[[103.45467531921064,-1.0558302384946765],[103.43328185967016,-1.0560662754579622],[103.4333063616993,-1.0655134287109542],[103.38339255642141,-1.074551405721901],[103.37234540041993,-1.0551221051218638],[103.34739430020687,-1.035352211478225],[103.35246124069376,-1.0219559255833028],[103.3473503980025,-1.0087569518443404],[103.35702456263351,-1.0130476595895406],[103.36126294602819,-1.006570372599528],[103.36094533156187,-1.0165486060970637],[103.36741049299991,-1.01545893354793],[103.37934208996552,-1.0273811388801999],[103.39646792465504,-1.0243173204431393],[103.41276027936344,-1.0393971479982933],[103.43612508520458,-1.0043643248311238],[103.47100400742907,-1.0325883358289825],[103.45467531921064,-1.0558302384946765]]]}},{"type":"Feature","properties":{"code":"1506042014","desa":"Teluk Kulbi","kecamatan":"Betara","kecCode":"150604"},"geometry":{"type":"Polygon","coordinates":[[[103.38672183134747,-0.9838765761433099],[103.40420517083203,-0.9726438207684477],[103.43612508520458,-1.0043643248311238],[103.41276027936344,-1.0393971479982933],[103.39646792465504,-1.0243173204431393],[103.38618865388331,-1.0238176337324807],[103.38164248201497,-1.0068945889886332],[103.39056782794295,-0.9974053591551207],[103.38672183134747,-0.9838765761433099]]]}},{"type":"Feature","properties":{"code":"1506042015","desa":"Bunga Tanjung","kecamatan":"Betara","kecCode":"150604"},"geometry":{"type":"Polygon","coordinates":[[[103.39028942841446,-0.9670899216814663],[103.3695246255611,-0.962746894077663],[103.34572021491607,-0.9677035219182949],[103.3471435854082,-0.9620350761824462],[103.33921645457576,-0.9590355538756732],[103.353316622764,-0.9353983515070281],[103.40657232585221,-0.9308139116920723],[103.40730044396037,-0.9504244094964642],[103.39649632164799,-0.9538350191045828],[103.39028942841446,-0.9670899216814663]]]}},{"type":"Feature","properties":{"code":"1506042016","desa":"Sungai Terap","kecamatan":"Betara","kecCode":"150604"},"geometry":{"type":"Polygon","coordinates":[[[103.39345291062341,-0.976260898530376],[103.39189296728665,-0.9617931846326061],[103.40730044396037,-0.9504244094964642],[103.404455221931,-0.9391486773197304],[103.41319574998393,-0.9321211563242972],[103.44631190656929,-0.963033113211071],[103.44886469425028,-1.0148518488993858],[103.40420517083203,-0.9726438207684477],[103.39345291062341,-0.976260898530376]]]}},{"type":"Feature","properties":{"code":"1506042017","desa":"Mandala Jaya","kecamatan":"Betara","kecCode":"150604"},"geometry":{"type":"Polygon","coordinates":[[[103.30623214309901,-1.0194308622050952],[103.35950987777869,-0.9895396187523092],[103.37047919296042,-0.9886116290184124],[103.37182809509056,-0.9934336022684938],[103.38444927601334,-0.9834103235283337],[103.39022599743191,-0.9924776049481756],[103.38694144669044,-1.0051884050972768],[103.37592626338642,-1.0126783008310263],[103.36810985078904,-1.0052079248822767],[103.36424686060417,-1.0177675579888121],[103.36204340827673,-1.0069701221479008],[103.35702456263351,-1.0130476595895406],[103.3473503980025,-1.0087569518443404],[103.35246124069376,-1.0219559255833028],[103.34725126843136,-1.027426221894268],[103.30716690472894,-1.0283017155024217],[103.30623214309901,-1.0194308622050952]]]}},{"type":"Feature","properties":{"code":"1506051007","desa":"Merlung","kecamatan":"Merlung","kecCode":"150605"},"geometry":{"type":"Polygon","coordinates":[[[103.01771170273297,-1.2060052550911273],[103.04255918575785,-1.2228767012326707],[103.05689165602517,-1.2249717879492166],[103.05440596136604,-1.2479311775877628],[103.06433490483202,-1.2624807396842008],[103.06572443833221,-1.2784564232973643],[103.04619382278673,-1.274630250461953],[103.04695525088418,-1.2569460959815133],[103.03352557224741,-1.2604010736427638],[103.03408712422146,-1.2655407099222242],[103.02690802428593,-1.261265082908458],[103.01771170273297,-1.2060052550911273]]]}},{"type":"Feature","properties":{"code":"1506052005","desa":"Penyabungan","kecamatan":"Merlung","kecCode":"150605"},"geometry":{"type":"Polygon","coordinates":[[[102.98664335280853,-1.2869347333139203],[102.97934475185889,-1.286366053313953],[102.98231914441304,-1.2571439369388644],[102.9758245112922,-1.2272857957318826],[103.00316177099899,-1.2220793074488965],[103.0085602465582,-1.2688539013691678],[102.99999911166977,-1.274612932217318],[102.9942762389573,-1.2700081209594685],[102.99202103334407,-1.2754206430236605],[103.00011688508624,-1.2817124502378094],[102.98832071792684,-1.2807351596693517],[102.98664335280853,-1.2869347333139203]]]}},{"type":"Feature","properties":{"code":"1506052006","desa":"Lubuk Terap","kecamatan":"Merlung","kecCode":"150605"},"geometry":{"type":"Polygon","coordinates":[[[103.01771170273297,-1.2060052550911273],[103.02746008481512,-1.2568470995101233],[103.02696296297039,-1.2950952714830797],[102.98578585643217,-1.2848084608067463],[103.00011688508624,-1.2817124502378094],[102.99202103334407,-1.2754206430236605],[102.9942762389573,-1.2700081209594685],[102.99999911166977,-1.274612932217318],[103.0085602465582,-1.2688539013691678],[103.00316177099899,-1.2220793074488965],[103.01771170273297,-1.2060052550911273]]]}},{"type":"Feature","properties":{"code":"1506052008","desa":"Tanjung Paku","kecamatan":"Merlung","kecCode":"150605"},"geometry":{"type":"Polygon","coordinates":[[[103.0957690629919,-1.3153181311578617],[103.08493775687201,-1.3215808722834486],[103.0800656374193,-1.3184042374931675],[103.08598161256145,-1.3037867648911425],[103.0957690629919,-1.3153181311578617]]]}},{"type":"Feature","properties":{"code":"1506052008","desa":"Tanjung Paku","kecamatan":"Merlung","kecCode":"150605"},"geometry":{"type":"Polygon","coordinates":[[[103.05689165602517,-1.2249717879492166],[103.08470362826989,-1.2225571334392102],[103.09318307144167,-1.243230630800217],[103.08598161256145,-1.3037867648911425],[103.0762974879388,-1.3026785321336418],[103.05440596136604,-1.2479311775877628],[103.05689165602517,-1.2249717879492166]]]}},{"type":"Feature","properties":{"code":"1506052012","desa":"Tanjung Benanak","kecamatan":"Merlung","kecCode":"150605"},"geometry":{"type":"Polygon","coordinates":[[[102.97630947430287,-1.4232533573675878],[102.96121201192487,-1.421486361319494],[102.97069923807942,-1.303708892595201],[102.97934475185889,-1.286366053313953],[103.01051019259137,-1.2888012807150757],[102.99699227067678,-1.3380217536068029],[102.97658245631538,-1.3397140177916094],[102.978041695368,-1.3496398271091572],[102.99376359841142,-1.3518392684578129],[102.97630947430287,-1.4232533573675878]]]}},{"type":"Feature","properties":{"code":"1506052013","desa":"Bukit Harapan","kecamatan":"Merlung","kecCode":"150605"},"geometry":{"type":"Polygon","coordinates":[[[102.99765190181385,-1.4350902134403956],[102.97630947430287,-1.4232533573675878],[103.01051019259137,-1.2888012807150757],[103.02696296297039,-1.2950952714830797],[103.02600372629098,-1.3217502595906765],[102.99765190181385,-1.4350902134403956]]]}},{"type":"Feature","properties":{"code":"1506052014","desa":"Adi Purwa","kecamatan":"Merlung","kecCode":"150605"},"geometry":{"type":"Polygon","coordinates":[[[103.03108274557229,-1.4547758352126463],[103.02231261093829,-1.4525041801023488],[103.01929800609814,-1.4385805947126724],[103.00624319636648,-1.4428020114929343],[102.99765190181385,-1.4350902134403956],[103.0001526178491,-1.4117138000756422],[103.02600372629098,-1.3217502595906765],[103.05696136607423,-1.3258596622129386],[103.06265224180758,-1.3144266017382484],[103.06171443597248,-1.3274973474421075],[103.07438932530715,-1.3284818604658322],[103.06035395597036,-1.3532869098517737],[103.05982358169302,-1.3872081691727285],[103.05349999962532,-1.3898611098504334],[103.06221458673382,-1.4053476566999104],[103.04288934936402,-1.4136708984148876],[103.04063888857387,-1.441611109455776],[103.03108274557229,-1.4547758352126463]]]}},{"type":"Feature","properties":{"code":"1506052018","desa":"Pinang Gading","kecamatan":"Merlung","kecCode":"150605"},"geometry":{"type":"Polygon","coordinates":[[[103.02696296297039,-1.2950952714830797],[103.08598161256145,-1.3037867648911425],[103.07438932530715,-1.3284818604658322],[103.06171443597248,-1.3274973474421075],[103.06265224180758,-1.3144266017382484],[103.05696136607423,-1.3258596622129386],[103.02600372629098,-1.3217502595906765],[103.02696296297039,-1.2950952714830797]]]}},{"type":"Feature","properties":{"code":"1506052020","desa":"Merlung","kecamatan":"Merlung","kecCode":"150605"},"geometry":{"type":"Polygon","coordinates":[[[103.02690802428593,-1.261265082908458],[103.03408712422146,-1.2655407099222242],[103.03352557224741,-1.2604010736427638],[103.04764053428327,-1.2574315059546712],[103.04619382278673,-1.274630250461953],[103.06782569260167,-1.2763501193369087],[103.0762974879388,-1.3026785321336418],[103.02696296297039,-1.2950952714830797],[103.02690802428593,-1.261265082908458]]]}},{"type":"Feature","properties":{"code":"1506052021","desa":"Tanjung Makmur","kecamatan":"Merlung","kecCode":"150605"},"geometry":{"type":"Polygon","coordinates":[[[102.99376359841142,-1.3518392684578129],[102.978041695368,-1.3496398271091572],[102.97658245631538,-1.3397140177916094],[102.99699227067678,-1.3380217536068029],[102.99376359841142,-1.3518392684578129]]]}},{"type":"Feature","properties":{"code":"1506061001","desa":"Tebing Tinggi","kecamatan":"Tebing Tinggi","kecCode":"150606"},"geometry":{"type":"Polygon","coordinates":[[[103.11608245833882,-0.995398725258329],[103.11018591484816,-1.0383040616226642],[103.06943064340953,-1.0372726219746018],[103.07250433640603,-1.0061781386855038],[103.07809239444852,-1.0123990406516257],[103.07486679156926,-0.9978781282576196],[103.11608245833882,-0.995398725258329]]]}},{"type":"Feature","properties":{"code":"1506062002","desa":"Purwodadi","kecamatan":"Tebing Tinggi","kecCode":"150606"},"geometry":{"type":"Polygon","coordinates":[[[103.11350221705372,-1.0932727833904872],[103.09528621428738,-1.0612123005212217],[103.14337178058327,-1.0534606247306666],[103.14923104807445,-1.1009111365094912],[103.16987237940685,-1.1038519034090808],[103.1693233019289,-1.1251792393731073],[103.16109836509753,-1.133421349649072],[103.19236410991577,-1.1352968426066181],[103.1924866488398,-1.1395698346068321],[103.13209550070685,-1.1424856696014027],[103.13134756244011,-1.1095671453675424],[103.11350221705372,-1.0932727833904872]]]}},{"type":"Feature","properties":{"code":"1506062003","desa":"Suka Damai","kecamatan":"Tebing Tinggi","kecCode":"150606"},"geometry":{"type":"Polygon","coordinates":[[[103.17410613758824,-1.021885148938339],[103.18607093842313,-1.0548414402014081],[103.17169065929652,-1.054572819001814],[103.17145680498759,-1.0681005219279025],[103.16480138567545,-1.0680949794060919],[103.1650355178749,-1.0613274281321763],[103.14397251242156,-1.0607760115182039],[103.14337178058327,-1.0534606247306666],[103.12065162407326,-1.053519833396194],[103.11100269621748,-1.0366383436260207],[103.11152763229444,-1.0174415582441043],[103.11652046864474,-1.0224273942660747],[103.17410613758824,-1.021885148938339]]]}},{"type":"Feature","properties":{"code":"1506062004","desa":"Adi Jaya","kecamatan":"Tebing Tinggi","kecCode":"150606"},"geometry":{"type":"Polygon","coordinates":[[[103.1722582439229,-0.9950351392480853],[103.16847566392077,-1.006296897758876],[103.17410613758824,-1.021885148938339],[103.11652046864474,-1.0224273942660747],[103.11152763229444,-1.0174415582441043],[103.11608245833882,-0.995398725258329],[103.1722582439229,-0.9950351392480853]]]}},{"type":"Feature","properties":{"code":"1506062005","desa":"Kelagian","kecamatan":"Tebing Tinggi","kecCode":"150606"},"geometry":{"type":"Polygon","coordinates":[[[103.11845276098619,-0.9596234101195662],[103.17533569338757,-0.9748426128066482],[103.1722582439229,-0.9950351392480853],[103.07577375155745,-0.99565976877037],[103.07595879786025,-0.9797264917890004],[103.02250319796428,-0.9800267979028937],[103.02356348067012,-0.9925265928185645],[103.01192979762213,-0.9926177669868632],[103.01479254743815,-1.002139690773964],[102.9813166494439,-1.0133516232461544],[102.95477079943294,-1.0313691851870477],[102.9680954624357,-0.9907212865507373],[102.98513996243935,-0.9913530980589126],[102.98539213683772,-0.9234371902417786],[102.98971482178166,-0.9074673621145407],[103.01459647994362,-0.889258776976725],[103.00850325741948,-0.8773854147241632],[103.02812587900615,-0.8808395991833213],[103.06221102631787,-0.8993445675922728],[103.07479021699498,-0.9313054847192468],[103.09133043205382,-0.9304033972588576],[103.11845276098619,-0.9596234101195662]]]}},{"type":"Feature","properties":{"code":"1506062006","desa":"Teluk Pengkah","kecamatan":"Tebing Tinggi","kecCode":"150606"},"geometry":{"type":"Polygon","coordinates":[[[103.07060417684136,-1.0597199655196547],[103.07098752995063,-1.0544706398296544],[103.05760306023306,-1.053551206245678],[103.04540003258553,-1.0386020609755229],[103.02613190396424,-1.0458524798392046],[103.02183385235048,-1.0406278018684993],[103.0259301203788,-1.0255884222215979],[103.04396460488265,-1.0274016470200704],[103.02661530575183,-1.0063791038877257],[103.01211534394803,-0.9990889259964474],[103.01192979762213,-0.9926177669868632],[103.02356348067012,-0.9925265928185645],[103.02250319796428,-0.9800267979028937],[103.07595879786025,-0.9797264917890004],[103.07577375155745,-0.99565976877037],[103.0867622393859,-0.9955964466058776],[103.07486679156926,-0.9978781282576196],[103.07809239444852,-1.0123990406516257],[103.07250433640603,-1.0061781386855038],[103.06736331876219,-1.0315154536223496],[103.07338054857354,-1.0427691766907239],[103.07060417684136,-1.0597199655196547]]]}},{"type":"Feature","properties":{"code":"1506062007","desa":"Talang Makmur","kecamatan":"Tebing Tinggi","kecCode":"150606"},"geometry":{"type":"Polygon","coordinates":[[[103.12068081966412,-1.060348260678677],[103.07383904183837,-1.0586555405376077],[103.06943064340953,-1.0372726219746018],[103.11366252480576,-1.0342961501911703],[103.12068081966412,-1.060348260678677]]]}},{"type":"Feature","properties":{"code":"1506062008","desa":"Sungai Keruh","kecamatan":"Tebing Tinggi","kecCode":"150606"},"geometry":{"type":"Polygon","coordinates":[[[103.20276922462006,-1.1388135677194529],[103.16714182363631,-1.1351719204793098],[103.19665997797568,-1.1320392256647562],[103.19656480002556,-1.1183811183442158],[103.18772188505697,-1.1157753345172423],[103.1972873180553,-1.1119206082069812],[103.19060082536788,-1.1011557233274152],[103.2019524315595,-1.1010659790812556],[103.20276922462006,-1.1388135677194529]]]}},{"type":"Feature","properties":{"code":"1506062009","desa":"Dataran Kempas","kecamatan":"Tebing Tinggi","kecCode":"150606"},"geometry":{"type":"Polygon","coordinates":[[[103.19665997797568,-1.1320392256647562],[103.16106834033171,-1.1326146460834396],[103.1693233019289,-1.1251792393731073],[103.16987237940685,-1.1038519034090808],[103.14923104807445,-1.1009111365094912],[103.14397251242156,-1.0607760115182039],[103.1650355178749,-1.0613274281321763],[103.16480138567545,-1.0680949794060919],[103.17145680498759,-1.0681005219279025],[103.1704953289963,-1.0966234693721348],[103.18792182593158,-1.0970704333278332],[103.19745085887013,-1.1104479179961508],[103.18770760742017,-1.1138051393510844],[103.19656480002556,-1.1183811183442158],[103.19665997797568,-1.1320392256647562]]]}},{"type":"Feature","properties":{"code":"1506062010","desa":"Delima","kecamatan":"Tebing Tinggi","kecCode":"150606"},"geometry":{"type":"Polygon","coordinates":[[[103.26270619443538,-1.1358686846228838],[103.20276922462006,-1.1388135677194529],[103.2019524315595,-1.1010659790812556],[103.1704953289963,-1.0966234693721348],[103.17169065929652,-1.054572819001814],[103.18607093842313,-1.0548414402014081],[103.19479542257072,-1.0786599279079199],[103.24308266723135,-1.0781836217717826],[103.25889029455152,-1.086805384446423],[103.26270619443538,-1.1358686846228838]]]}},{"type":"Feature","properties":{"code":"1506071001","desa":"Dusun Kebun","kecamatan":"Batang Asam","kecCode":"150607"},"geometry":{"type":"Polygon","coordinates":[[[102.93787747456587,-1.0584728504586804],[102.9813166494439,-1.0133516232461544],[103.01896409861432,-1.0009093876393624],[103.03116145243916,-1.014205105047979],[102.9839710829991,-1.04162944967519],[102.94342736358203,-1.0960450056476934],[102.92565776809158,-1.1354322625201758],[102.92816127022648,-1.142391874808711],[102.89329572631674,-1.1386245383195575],[102.9332925374207,-1.065184482787197],[102.94648493263361,-1.065109330041188],[102.94918028534198,-1.0598640468038063],[102.93787747456587,-1.0584728504586804]]]}},{"type":"Feature","properties":{"code":"1506072002","desa":"Sri Agung","kecamatan":"Batang Asam","kecCode":"150607"},"geometry":{"type":"Polygon","coordinates":[[[102.92772874758366,-1.0267522105984705],[102.92435824143972,-1.0334432556466722],[102.93056863393537,-1.0400105674713318],[102.94292476126877,-1.0420588058046159],[102.92868904636246,-1.053882800672879],[102.91095851382441,-1.042294090934642],[102.91712192483702,-1.029721055231628],[102.92772874758366,-1.0267522105984705]]]}},{"type":"Feature","properties":{"code":"1506072003","desa":"Suban","kecamatan":"Batang Asam","kecCode":"150607"},"geometry":{"type":"Polygon","coordinates":[[[102.64358137937722,-1.1191666437750212],[102.65961236771666,-1.1154048156333745],[102.67240250157425,-1.0973084344104738],[102.68319264932137,-1.0959235701919305],[102.68157727986762,-1.0813968337883157],[102.69131156597602,-1.0854865952171209],[102.70469250765319,-1.0750000064437513],[102.71019920223148,-1.0817815340815804],[102.71491100403966,-1.0743041991788593],[102.72901206795261,-1.0801790402233673],[102.7316666768757,-1.0497222572032034],[102.75584911844213,-1.0402650567243472],[102.78507343908802,-1.0462465924369686],[102.79611586735346,-1.0326927920844444],[102.84879741896577,-1.0341823131074035],[102.86683488022561,-1.027197419976873],[102.87058450367198,-1.0169488107023994],[102.92225384224109,-1.0258662362911584],[102.91095851382441,-1.042294090934642],[102.92633861963168,-1.0535432139706964],[102.95381567175593,-1.0388223669975496],[102.93504741780411,-1.061961984371261],[102.89329572631674,-1.1386245383195575],[102.86086796028819,-1.1320716390299415],[102.84289371777088,-1.1424662037757505],[102.83529160192596,-1.1767313710412104],[102.81942698726573,-1.1691380514736305],[102.75527671974487,-1.1622852040003724],[102.66850600984452,-1.168475309582324],[102.6457007208117,-1.1380249962849476],[102.6501878773687,-1.1309120432924429],[102.64358137937722,-1.1191666437750212]]]}},{"type":"Feature","properties":{"code":"1506072004","desa":"Tanjung Bojo","kecamatan":"Batang Asam","kecCode":"150607"},"geometry":{"type":"Polygon","coordinates":[[[103.03116145243916,-1.014205105047979],[103.04369096636508,-1.0278656414374086],[103.0259301203788,-1.0255884222215979],[103.02724889162313,-1.0324461035509236],[103.02130846841112,-1.0347997876235429],[103.02623823440706,-1.0417556659269425],[103.00718351580667,-1.0468606935961091],[102.97594262105518,-1.073717856493962],[102.9663640435658,-1.0944732901870853],[102.96243348641633,-1.1413280388826348],[102.92816127022648,-1.142391874808711],[102.92565776809158,-1.1354322625201758],[102.94342736358203,-1.0960450056476934],[102.9839710829991,-1.04162944967519],[103.03116145243916,-1.014205105047979]]]}},{"type":"Feature","properties":{"code":"1506072005","desa":"Kampung Baru","kecamatan":"Batang Asam","kecCode":"150607"},"geometry":{"type":"Polygon","coordinates":[[[102.99059742722953,-1.1024115240406924],[103.0037266639544,-1.131295956678941],[102.96243348641633,-1.1413280388826348],[102.9663640435658,-1.0944732901870853],[102.97594262105518,-1.073717856493962],[102.9912456936339,-1.0598512665382498],[103.00718351580667,-1.0468606935961091],[103.02623823440706,-1.0417556659269425],[103.02256897527803,-1.0577013778342537],[102.9941642553761,-1.085984857401613],[102.99059742722953,-1.1024115240406924]]]}},{"type":"Feature","properties":{"code":"1506072006","desa":"Lubuk Bernai","kecamatan":"Batang Asam","kecCode":"150607"},"geometry":{"type":"Polygon","coordinates":[[[103.0377196874137,-1.1658753245838858],[103.00316177099899,-1.2220793074488965],[102.9758245112922,-1.2272857957318826],[102.97281614774708,-1.2186353392880758],[102.95737767144242,-1.2208949263958049],[102.94221627985748,-1.205691071538738],[102.92609539258837,-1.2057058114270753],[102.8762881650668,-1.2262512462281876],[102.85464300956731,-1.1904580219901013],[102.83529160192596,-1.1767313710412104],[102.84289371777088,-1.1424662037757505],[102.86086796028819,-1.1320716390299415],[102.91366925932891,-1.1427414277977894],[102.90968797591944,-1.1519746053566107],[102.916168656958,-1.1795181919931537],[102.9265439393514,-1.1898227085219013],[102.94218284935909,-1.1822951833551314],[102.96467701073551,-1.1829466306608414],[102.97137507589912,-1.1655401778346997],[102.98462153565538,-1.1634567616203013],[102.98418017267687,-1.1361556043281487],[103.0037266639544,-1.131295956678941],[103.0377196874137,-1.1658753245838858]]]}},{"type":"Feature","properties":{"code":"1506072007","desa":"Rawa Medang","kecamatan":"Batang Asam","kecCode":"150607"},"geometry":{"type":"Polygon","coordinates":[[[102.95483380233816,-1.0216087881732066],[102.95381567175593,-1.0388223669975496],[102.93152517804458,-1.0407529596182101],[102.92435824143972,-1.0334432556466722],[102.94121109141878,-1.0166844343028434],[102.94391806876394,-1.0226877291123566],[102.95483380233816,-1.0216087881732066]]]}},{"type":"Feature","properties":{"code":"1506072008","desa":"Sungai Penoban","kecamatan":"Batang Asam","kecCode":"150607"},"geometry":{"type":"Polygon","coordinates":[[[102.75282361022147,-1.0411057987300156],[102.74944440313674,-1.0350000162809483],[102.75552583734759,-1.0224999920381492],[102.76804571683641,-1.0322833415492332],[102.78165266983488,-1.0312069816642977],[102.78159205193174,-1.0233742454812405],[102.76928516877557,-1.0115817412737085],[102.78528108175657,-0.9909543584492007],[102.78579081479434,-0.9792220899329338],[102.88313382876322,-0.9065172418637539],[102.97273287592157,-0.9066440093999351],[102.97613527742116,-0.9008676369247137],[102.97738695294561,-0.9063385159964557],[102.96631866557402,-0.917289511975924],[102.97105377061507,-0.922615450011552],[102.96439275841914,-0.9277822530113742],[102.92056565558062,-0.9280052246239752],[102.89181512836551,-0.9489805020876521],[102.86683488022561,-1.027197419976873],[102.84871882271557,-1.034190169584792],[102.79611586735346,-1.0326927920844444],[102.78507343908802,-1.0462465924369686],[102.75282361022147,-1.0411057987300156]]]}},{"type":"Feature","properties":{"code":"1506072009","desa":"Rawang Kempas","kecamatan":"Batang Asam","kecCode":"150607"},"geometry":{"type":"Polygon","coordinates":[[[103.00553785538779,-0.8917369020394338],[102.98971482178166,-0.9074673621145407],[102.98539213683772,-0.9234371902417786],[102.98513996243935,-0.9913530980589126],[102.9680954624357,-0.9907212865507373],[102.96189524756767,-1.021654449451364],[102.94391806876394,-1.0226877291123566],[102.94121109141878,-1.0166844343028434],[102.92873664657901,-1.0268642436422135],[102.8695847138635,-1.0166105684866895],[102.87784007655836,-0.9805449198161547],[102.89622482181811,-0.9440614281370207],[102.92056565558062,-0.9280052246239752],[102.96426641536281,-0.9278330377272954],[102.97091050771382,-0.9228075011336383],[102.96631866557402,-0.917289511975924],[102.9774347177381,-0.9062537782760381],[102.97616014097781,-0.8806734512341409],[102.98487614541783,-0.8694703833793818],[103.00553785538779,-0.8917369020394338]]]}},{"type":"Feature","properties":{"code":"1506072010","desa":"Lubuk Lawas","kecamatan":"Batang Asam","kecCode":"150607"},"geometry":{"type":"Polygon","coordinates":[[[102.91366925932891,-1.1427414277977894],[102.98418017267687,-1.1361556043281487],[102.98462153565538,-1.1634567616203013],[102.97137507589912,-1.1655401778346997],[102.96467701073551,-1.1829466306608414],[102.94218284935909,-1.1822951833551314],[102.92637261760227,-1.1897798783094895],[102.916168656958,-1.1795181919931537],[102.90968797591944,-1.1519746053566107],[102.91366925932891,-1.1427414277977894]]]}},{"type":"Feature","properties":{"code":"1506072011","desa":"Sungai Badar","kecamatan":"Batang Asam","kecCode":"150607"},"geometry":{"type":"Polygon","coordinates":[[[102.93787747456587,-1.0584728504586804],[102.94918028534198,-1.0598640468038063],[102.94368422524683,-1.0682964886980957],[102.9332925374207,-1.065184482787197],[102.93787747456587,-1.0584728504586804]]]}},{"type":"Feature","properties":{"code":"1506081001","desa":"Lubuk Kambing","kecamatan":"Renah Mendaluh","kecCode":"150608"},"geometry":{"type":"Polygon","coordinates":[[[102.83529160192596,-1.1767313710412104],[102.85464300956731,-1.1904580219901013],[102.88533409029611,-1.2533420233157422],[102.88555701964081,-1.2588713861993481],[102.87753065401654,-1.2599384434969962],[102.87841757800885,-1.2943007393420936],[102.86033032578399,-1.3154016466995764],[102.83964264339333,-1.3148062784186327],[102.85966113485352,-1.2991390253946924],[102.86573568565342,-1.2804758509495382],[102.86154132497222,-1.2544475356240385],[102.84644784299358,-1.2452943644523042],[102.84740944938663,-1.2626032795073903],[102.84122068558621,-1.2691485147745192],[102.83811945624795,-1.2559872559041916],[102.83483177226856,-1.263595715558405],[102.82136698769636,-1.263078668335019],[102.81764641594941,-1.2545292669108072],[102.80379228338722,-1.2532716909358612],[102.80195027668394,-1.233174476443345],[102.79126338909417,-1.220559973900122],[102.82180219121818,-1.222399347386392],[102.81681626076185,-1.2015369015644002],[102.83078259544048,-1.1936185787009088],[102.83529160192596,-1.1767313710412104]]]}},{"type":"Feature","properties":{"code":"1506082002","desa":"Pulau Pauh","kecamatan":"Renah Mendaluh","kecCode":"150608"},"geometry":{"type":"Polygon","coordinates":[[[102.97281614774708,-1.2186353392880758],[102.98231914441304,-1.2571439369388644],[102.97717836868684,-1.2901904329011344],[102.93426579003425,-1.2922488677477175],[102.93906447984192,-1.2632247712951399],[102.93113311590065,-1.2609609169043294],[102.93437289569265,-1.2479421313303232],[102.9234033682709,-1.2317920457902083],[102.93069632057882,-1.2215147193642142],[102.92609539258837,-1.2057058114270753],[102.94221627985748,-1.205691071538738],[102.95737767144242,-1.2208949263958049],[102.97281614774708,-1.2186353392880758]]]}},{"type":"Feature","properties":{"code":"1506082003","desa":"Rantau Benar","kecamatan":"Renah Mendaluh","kecCode":"150608"},"geometry":{"type":"Polygon","coordinates":[[[102.8762881650668,-1.2262512462281876],[102.92609539258837,-1.2057058114270753],[102.93069632057882,-1.2215147193642142],[102.9234033682709,-1.2317920457902083],[102.93437289569265,-1.2479421313303232],[102.93113311590065,-1.2609609169043294],[102.93907280756406,-1.26334344673158],[102.92684895791314,-1.3055634799125375],[102.89289332196927,-1.30635458024068],[102.91033790337161,-1.2817935879720255],[102.88412629359361,-1.2577570362533186],[102.8762881650668,-1.2262512462281876]]]}},{"type":"Feature","properties":{"code":"1506082004","desa":"Lampisi","kecamatan":"Renah Mendaluh","kecCode":"150608"},"geometry":{"type":"Polygon","coordinates":[[[102.96121201192487,-1.421486361319494],[102.9320006963751,-1.3939316536664308],[102.92744950179315,-1.2943163965388602],[102.97717836868684,-1.2901904329011344],[102.96623875721292,-1.3312158201673112],[102.96680333900296,-1.3950078768544303],[102.96121201192487,-1.421486361319494]]]}},{"type":"Feature","properties":{"code":"1506082005","desa":"Cinta Damai","kecamatan":"Renah Mendaluh","kecCode":"150608"},"geometry":{"type":"Polygon","coordinates":[[[102.9320006963751,-1.3939316536664308],[102.91833333321681,-1.3818333314001863],[102.88552228242747,-1.3705658118323345],[102.89289332196927,-1.30635458024068],[102.92684895791314,-1.3055634799125375],[102.9320006963751,-1.3939316536664308]]]}},{"type":"Feature","properties":{"code":"1506082006","desa":"Sungai Rotan","kecamatan":"Renah Mendaluh","kecCode":"150608"},"geometry":{"type":"Polygon","coordinates":[[[102.88552228242747,-1.3705658118323345],[102.86561733667082,-1.3715453345180584],[102.86499152274062,-1.3793872770610158],[102.85519727703273,-1.3788232015898747],[102.85729509409339,-1.3895836024497057],[102.84513532113823,-1.3857035062645395],[102.8333777142102,-1.3980062642167566],[102.82225297459519,-1.3963995813164456],[102.81710461938273,-1.4233413047683137],[102.80861821096175,-1.4230956576496496],[102.79481121996189,-1.3964242173445824],[102.79409408167658,-1.38475507853783],[102.83082307842238,-1.3598352711623096],[102.83964264339333,-1.3148062784186327],[102.86585103359839,-1.3131744207962723],[102.87181065823535,-1.2963943718548738],[102.87776801568147,-1.2956393945952813],[102.87947469959778,-1.2580385933011926],[102.88925128262066,-1.2587416086323382],[102.91083480758037,-1.2845210581655708],[102.89289332196927,-1.30635458024068],[102.88552228242747,-1.3705658118323345]]]}},{"type":"Feature","properties":{"code":"1506082007","desa":"Muara Danau","kecamatan":"Renah Mendaluh","kecCode":"150608"},"geometry":{"type":"Polygon","coordinates":[[[102.84122068558621,-1.2691485147745192],[102.84740944938663,-1.2626032795073903],[102.84644784299358,-1.2452943644523042],[102.86154132497222,-1.2544475356240385],[102.86573568565342,-1.2804758509495382],[102.85966113485352,-1.2991390253946924],[102.837860904757,-1.318515148182999],[102.83082307842238,-1.3598352711623096],[102.8021682183886,-1.3765757742155218],[102.7841314514054,-1.3266175074104873],[102.81914754722156,-1.3263224974041283],[102.81937091543546,-1.3142207496201062],[102.80516639801088,-1.3117215174691133],[102.80481164604072,-1.3003967767374507],[102.82598997785527,-1.2965614784813377],[102.8289682365949,-1.2803722535465483],[102.843825466672,-1.2782978989011478],[102.84122068558621,-1.2691485147745192]]]}},{"type":"Feature","properties":{"code":"1506082008","desa":"Tanah Tumbuh","kecamatan":"Renah Mendaluh","kecCode":"150608"},"geometry":{"type":"Polygon","coordinates":[[[102.66850600984452,-1.168475309582324],[102.75527671974487,-1.1622852040003724],[102.81942698726573,-1.1691380514736305],[102.83529160192596,-1.1767313710412104],[102.83078259544048,-1.1936185787009088],[102.81681626076185,-1.2015369015644002],[102.82180219121818,-1.222399347386392],[102.79126338909417,-1.220559973900122],[102.80195027668394,-1.233174476443345],[102.80379228338722,-1.2532716909358612],[102.81764641594941,-1.2545292669108072],[102.82738658632194,-1.2647817036998945],[102.83811945624795,-1.2559872559041916],[102.843825466672,-1.2782978989011478],[102.8289682365949,-1.2803722535465483],[102.82473998676102,-1.297463212508159],[102.80481164604072,-1.3003967767374507],[102.79077113078313,-1.2885585788761473],[102.76697109533983,-1.2884642894562965],[102.74628333111086,-1.261413126605488],[102.72434667565862,-1.2622856677394059],[102.71777212878078,-1.2491185425913536],[102.69705105456255,-1.2385700283006058],[102.68701523116806,-1.21814643365017],[102.68676871980063,-1.1969002794870742],[102.66850600984452,-1.168475309582324]]]}},{"type":"Feature","properties":{"code":"1506082009","desa":"Sungai Paur","kecamatan":"Renah Mendaluh","kecCode":"150608"},"geometry":{"type":"Polygon","coordinates":[[[102.80176751465916,-1.293502409363954],[102.80516639801088,-1.3117215174691133],[102.81937091543546,-1.3142207496201062],[102.81914754722156,-1.3263224974041283],[102.80725221631677,-1.326374974644081],[102.79043331574495,-1.307019029944508],[102.79092001174922,-1.293411727124898],[102.80176751465916,-1.293502409363954]]]}},{"type":"Feature","properties":{"code":"1506082010","desa":"Bukit Bakar","kecamatan":"Renah Mendaluh","kecCode":"150608"},"geometry":{"type":"Polygon","coordinates":[[[102.80725221631677,-1.326374974644081],[102.7841314514054,-1.3266175074104873],[102.77712878676412,-1.3037670067858285],[102.7662256697789,-1.2981115814345043],[102.76697109533983,-1.2884642894562965],[102.79077113078313,-1.2885585788761473],[102.79043331574495,-1.307019029944508],[102.80725221631677,-1.326374974644081]]]}},{"type":"Feature","properties":{"code":"1506091001","desa":"Rantau Badak","kecamatan":"Muara Papalik","kecCode":"150609"},"geometry":{"type":"Polygon","coordinates":[[[103.08598161256145,-1.3037867648911425],[103.0912774008314,-1.2858173796322234],[103.08874926806429,-1.2635589917426777],[103.09597190238145,-1.2732686193291087],[103.09454898604689,-1.2673152090141495],[103.10669605427954,-1.266164977017748],[103.1169020590828,-1.2774411435670954],[103.11391385204269,-1.2853518581660843],[103.12145955161706,-1.3060068942441445],[103.11352767056557,-1.3090589252671776],[103.11151603463735,-1.3211055419117903],[103.08598161256145,-1.3037867648911425]]]}},{"type":"Feature","properties":{"code":"1506092002","desa":"Dusun Mudo","kecamatan":"Muara Papalik","kecCode":"150609"},"geometry":{"type":"Polygon","coordinates":[[[103.25836947916821,-1.336988215840366],[103.26273333327673,-1.3746999988708033],[103.25002777795964,-1.3747527764844132],[103.24155555634388,-1.3612778044070841],[103.2401150105993,-1.3306359993658297],[103.22455925910258,-1.3312226388270354],[103.22038685986576,-1.3442310516205929],[103.21645361374333,-1.3181804573900249],[103.18123796376106,-1.2978498823166713],[103.13337018808375,-1.2809023283490757],[103.11651231179383,-1.2571471655049908],[103.09318307144167,-1.243230630800217],[103.08470362826989,-1.2225571334392102],[103.09937916291807,-1.2164094614685523],[103.10205597880041,-1.2007076483978314],[103.11672701773773,-1.2004296625577273],[103.13652525083972,-1.231186802953279],[103.14075471206034,-1.2163347745713975],[103.16843706142127,-1.183060813084294],[103.1736517713123,-1.2018457098689441],[103.21290552566956,-1.2205158504626328],[103.27107948523013,-1.2345892089456627],[103.27049731899615,-1.3153344808325738],[103.25836947916821,-1.336988215840366]]]}},{"type":"Feature","properties":{"code":"1506092003","desa":"Intan Jaya","kecamatan":"Muara Papalik","kecCode":"150609"},"geometry":{"type":"Polygon","coordinates":[[[103.15005555282157,-1.377222224887983],[103.1307144613034,-1.3884745845840645],[103.0905404432869,-1.33663544327839],[103.072608318719,-1.3313568257700596],[103.0800656374193,-1.3184042374931675],[103.10828056889318,-1.317812508768488],[103.15005555282157,-1.377222224887983]]]}},{"type":"Feature","properties":{"code":"1506092004","desa":"Bukit Indah","kecamatan":"Muara Papalik","kecCode":"150609"},"geometry":{"type":"Polygon","coordinates":[[[103.20967000326812,-1.3599643553520577],[103.20708333272965,-1.369527776556342],[103.19713888944824,-1.3702499987083716],[103.17019444192003,-1.3891111067411694],[103.15005555282157,-1.377222224887983],[103.12298810681573,-1.3407325476716483],[103.11432019542076,-1.327224566878046],[103.11650016105362,-1.3158197738938773],[103.14598155560435,-1.318631681434278],[103.15332138777188,-1.3287802654129994],[103.14844528522178,-1.3385147565559947],[103.16950305032555,-1.3383872767567861],[103.20967000326812,-1.3599643553520577]]]}},{"type":"Feature","properties":{"code":"1506092005","desa":"Kemang Manis","kecamatan":"Muara Papalik","kecCode":"150609"},"geometry":{"type":"Polygon","coordinates":[[[103.22060277809578,-1.3744861095115422],[103.21241666679576,-1.3601944424007448],[103.16950305032555,-1.3383872767567861],[103.14844528522178,-1.3385147565559947],[103.15661040634522,-1.3238804765242933],[103.15151435480367,-1.2951893891324457],[103.17595153563491,-1.2977739696435324],[103.17750196234573,-1.334671825753637],[103.19446669787986,-1.3343379839206875],[103.19918860357126,-1.3264658727204621],[103.20899282186126,-1.3347161308542403],[103.21769390564928,-1.3263950717937936],[103.22456181227788,-1.3591562551393253],[103.23285849792143,-1.3591669013136984],[103.23828770871086,-1.374517365449216],[103.22060277809578,-1.3744861095115422]]]}},{"type":"Feature","properties":{"code":"1506092006","desa":"Rantau Badak Lamo","kecamatan":"Muara Papalik","kecCode":"150609"},"geometry":{"type":"Polygon","coordinates":[[[103.08874926806429,-1.2635589917426777],[103.09318307144167,-1.243230630800217],[103.11651231179383,-1.2571471655049908],[103.13337018808375,-1.2809023283490757],[103.15371437082159,-1.285989288638406],[103.14946853384583,-1.3037446685254936],[103.12145955161706,-1.3060068942441445],[103.11391385204269,-1.2853518581660843],[103.11662604095909,-1.276912903381503],[103.1012232947193,-1.2646480707392318],[103.09441097698503,-1.2674484588635246],[103.0972568105534,-1.2725071921318336],[103.09580058243095,-1.2732305483289663],[103.08874926806429,-1.2635589917426777]]]}},{"type":"Feature","properties":{"code":"1506092007","desa":"Lubuk Sebontan","kecamatan":"Muara Papalik","kecCode":"150609"},"geometry":{"type":"Polygon","coordinates":[[[103.12024945265016,-1.2042624427121769],[103.15074518983869,-1.2027420506614233],[103.13652525083972,-1.231186802953279],[103.13251291563857,-1.220774279645548],[103.12024945265016,-1.2042624427121769]]]}},{"type":"Feature","properties":{"code":"1506092008","desa":"Sungai Papauh","kecamatan":"Muara Papalik","kecCode":"150609"},"geometry":{"type":"Polygon","coordinates":[[[103.1307144613034,-1.3884745845840645],[103.10997222333947,-1.4005277788701769],[103.05982358169302,-1.3872081691727285],[103.06035395597036,-1.3532869098517737],[103.072608318719,-1.3313568257700596],[103.0905404432869,-1.33663544327839],[103.1307144613034,-1.3884745845840645]]]}},{"type":"Feature","properties":{"code":"1506092009","desa":"Sungai Muluk","kecamatan":"Muara Papalik","kecCode":"150609"},"geometry":{"type":"Polygon","coordinates":[[[103.11034521985606,-1.3210300267389952],[103.11632353780108,-1.3065010051580663],[103.15609834676137,-1.305412745443842],[103.15332138777188,-1.3287802654129994],[103.14598155560435,-1.318631681434278],[103.12989241440344,-1.3156396819563891],[103.11650016105362,-1.3158197738938773],[103.11432019542076,-1.327224566878046],[103.11034521985606,-1.3210300267389952]]]}},{"type":"Feature","properties":{"code":"1506092010","desa":"Pematang Balam","kecamatan":"Muara Papalik","kecCode":"150609"},"geometry":{"type":"Polygon","coordinates":[[[103.15371437082159,-1.285989288638406],[103.21645361374333,-1.3181804573900249],[103.21769390564928,-1.3263950717937936],[103.20899282186126,-1.3347161308542403],[103.19918860357126,-1.3264658727204621],[103.19446669787986,-1.3343379839206875],[103.17750196234573,-1.334671825753637],[103.17595153563491,-1.2977739696435324],[103.15151435480367,-1.2951893891324457],[103.15371437082159,-1.285989288638406]]]}},{"type":"Feature","properties":{"code":"1506101001","desa":"Tungkal V","kecamatan":"Seberang Kota","kecCode":"150610"},"geometry":{"type":"Polygon","coordinates":[[[103.34226556730214,-0.7792242192509248],[103.35277799720687,-0.7991669850746824],[103.36387704858696,-0.7957158673036462],[103.37018104342046,-0.8268704307012344],[103.33428324507577,-0.8359602392389077],[103.32317335596565,-0.8272466800652329],[103.34226556730214,-0.7792242192509248]]]}},{"type":"Feature","properties":{"code":"1506102002","desa":"Tungkal IV Desa","kecamatan":"Seberang Kota","kecCode":"150610"},"geometry":{"type":"Polygon","coordinates":[[[103.39989358082414,-0.7872710984021034],[103.40496852977388,-0.7746620943139297],[103.42342922278044,-0.7953732426915846],[103.43646733030312,-0.822771928761498],[103.40774528731521,-0.8289973390290045],[103.40796259409848,-0.8037866918035208],[103.39989358082414,-0.7872710984021034]]]}},{"type":"Feature","properties":{"code":"1506102003","desa":"Kuala Baru","kecamatan":"Seberang Kota","kecCode":"150610"},"geometry":{"type":"Polygon","coordinates":[[[103.4088890037246,-0.7699999845505447],[103.45727909755236,-0.8015458537618324],[103.45883223032324,-0.8098322817288653],[103.43646733030312,-0.822771928761498],[103.42342922278044,-0.7953732426915846],[103.40496852977388,-0.7746620943139297],[103.4088890037246,-0.7699999845505447]]]}},{"type":"Feature","properties":{"code":"1506102004","desa":"Teluk Pulai Raya","kecamatan":"Seberang Kota","kecCode":"150610"},"geometry":{"type":"Polygon","coordinates":[[[103.2505733723633,-0.7708556535035934],[103.28721823573305,-0.7741379298558972],[103.30151009531471,-0.8106817930238006],[103.29478969099146,-0.8223922556785003],[103.26497575232918,-0.7951419154778699],[103.24837144168872,-0.7935774044862152],[103.2505733723633,-0.7708556535035934]]]}},{"type":"Feature","properties":{"code":"1506102005","desa":"Mekar Alam","kecamatan":"Seberang Kota","kecCode":"150610"},"geometry":{"type":"Polygon","coordinates":[[[103.39091828744904,-0.7876470105203178],[103.40559834208987,-0.7939852758119798],[103.40774528731521,-0.8289973390290045],[103.37018104342046,-0.8268704307012344],[103.36387704858696,-0.7957158673036462],[103.39091828744904,-0.7876470105203178]]]}},{"type":"Feature","properties":{"code":"1506102006","desa":"Harapan Jaya","kecamatan":"Seberang Kota","kecCode":"150610"},"geometry":{"type":"Polygon","coordinates":[[[103.3147856436426,-0.7676224828328765],[103.32711946239333,-0.7670499015738852],[103.3267941659181,-0.7758488630669949],[103.34226556730214,-0.7792242192509248],[103.32317335596565,-0.8272466800652329],[103.30871277367561,-0.8131312728807046],[103.3147856436426,-0.7676224828328765]]]}},{"type":"Feature","properties":{"code":"1506102007","desa":"Kuala Kahar","kecamatan":"Seberang Kota","kecCode":"150610"},"geometry":{"type":"Polygon","coordinates":[[[103.28721823573305,-0.7741379298558972],[103.30149152701243,-0.7812576601392963],[103.30254485256296,-0.7655311193096221],[103.3147856436426,-0.7676224828328765],[103.30871277367561,-0.8131312728807046],[103.30151009531471,-0.8106817930238006],[103.28721823573305,-0.7741379298558972]]]}},{"type":"Feature","properties":{"code":"1506102008","desa":"Muara Seberang","kecamatan":"Seberang Kota","kecCode":"150610"},"geometry":{"type":"Polygon","coordinates":[[[103.42619516867215,-0.7762832652923389],[103.4372219937001,-0.7780559981157534],[103.43368187811626,-0.7729127330718365],[103.44178079834523,-0.7669556130534081],[103.44268681764258,-0.730437989404818],[103.44292335372982,-0.7362049378842521],[103.4542030132585,-0.7331738457764496],[103.47895178309834,-0.7482901372432257],[103.48835573832673,-0.7669817770296965],[103.47998648818594,-0.7938756520519965],[103.48434173758118,-0.7985816757107524],[103.45883223032324,-0.8098322817288653],[103.45727909755236,-0.8015458537618324],[103.42619516867215,-0.7762832652923389]]]}},{"type":"Feature","properties":{"code":"1506111001","desa":"Bram Itam Kiri","kecamatan":"Bram Itam","kecCode":"150611"},"geometry":{"type":"Polygon","coordinates":[[[103.4141612873136,-0.8795835439619695],[103.40268105738492,-0.8888364400559112],[103.401833969762,-0.9017312154151061],[103.39080313735495,-0.9026281317737599],[103.39002360860269,-0.8879637631243801],[103.38001937479434,-0.8864643891291318],[103.3963143339394,-0.8779915110177591],[103.40727432495021,-0.8599142161066989],[103.4141612873136,-0.8795835439619695]]]}},{"type":"Feature","properties":{"code":"1506112002","desa":"Bram Itam Kanan","kecamatan":"Bram Itam","kecCode":"150611"},"geometry":{"type":"Polygon","coordinates":[[[103.18167819898974,-1.0428491327158187],[103.20100731603486,-1.033982340756776],[103.24273551902905,-0.992693014161646],[103.25322702440768,-0.9606833672696377],[103.29087361472563,-0.933103331110708],[103.29886553181889,-0.9152019858598139],[103.35502696332377,-0.8780591472301571],[103.32131145176214,-0.8728020271159961],[103.32794550498112,-0.8642817457396299],[103.3517613118351,-0.8685848587330892],[103.35459958840033,-0.861735193061187],[103.37194856377526,-0.8769916267816065],[103.36801429062704,-0.8805887881575348],[103.3766501348959,-0.8873934778346017],[103.37117178694848,-0.9006400661791985],[103.35897581178432,-0.9090869943529766],[103.32372961003351,-0.958501856603918],[103.29207521599847,-0.9709848332980207],[103.24307911940586,-1.078190355895246],[103.19479542257072,-1.0786599279079199],[103.18167819898974,-1.0428491327158187]]]}},{"type":"Feature","properties":{"code":"1506112003","desa":"Tanjung Senjulang","kecamatan":"Bram Itam","kecCode":"150611"},"geometry":{"type":"Polygon","coordinates":[[[103.33861441242526,-0.835413047639946],[103.3589910795747,-0.8283378319991067],[103.37125941059338,-0.8468254821634259],[103.35820881238685,-0.8564522471159131],[103.33861441242526,-0.835413047639946]]]}},{"type":"Feature","properties":{"code":"1506112004","desa":"Pembengis","kecamatan":"Bram Itam","kecCode":"150611"},"geometry":{"type":"Polygon","coordinates":[[[103.42796593827751,-0.8246465214976695],[103.44210763625847,-0.8449449431098559],[103.43477096790588,-0.8621668181801092],[103.43841856686345,-0.869435448315243],[103.42851384663673,-0.8752068997001442],[103.43295029042362,-0.8941564020966002],[103.42114406884377,-0.8787357206944855],[103.41452667286774,-0.8821995000206276],[103.41239752432635,-0.8641601007418664],[103.39905309332566,-0.8520625240135593],[103.41697757275682,-0.8439176286520294],[103.41729166188078,-0.8368934603291751],[103.40366068079582,-0.8291087407486869],[103.42796593827751,-0.8246465214976695]]]}},{"type":"Feature","properties":{"code":"1506112005","desa":"Bram Itam Raya","kecamatan":"Bram Itam","kecCode":"150611"},"geometry":{"type":"Polygon","coordinates":[[[103.3471435854082,-0.9620350761824462],[103.33737143604299,-0.9772515620176241],[103.33169724363295,-0.9717322382659607],[103.32463616172953,-0.9775673616516921],[103.31232709771744,-0.9734888282586283],[103.30020582743703,-0.9869571876208925],[103.30687032990187,-0.9936385307828473],[103.30375084432607,-0.999721364332089],[103.32234106398897,-1.0054611119169097],[103.31779183892228,-1.016046271782364],[103.30623214309901,-1.0194308622050952],[103.30716690472894,-1.0283017155024217],[103.3332598525602,-1.0276276655357486],[103.32576059937223,-1.0732310957391091],[103.2901773739867,-1.1307712157554672],[103.26270619443538,-1.1358686846228838],[103.25926149062536,-1.0872479642071688],[103.24308266723135,-1.0781836217717826],[103.29207521599847,-0.9709848332980207],[103.32372961003351,-0.958501856603918],[103.37580043384297,-0.8878815938677534],[103.39002360860269,-0.8879637631243801],[103.39080313735495,-0.9026281317737599],[103.401833969762,-0.9017312154151061],[103.40272797231813,-0.8954708341105928],[103.40760549759568,-0.9015573512828423],[103.41307802603012,-0.8992580995762884],[103.42071474059287,-0.9114836687173338],[103.40998337343397,-0.9160641317302006],[103.40657232585221,-0.9308139116920723],[103.35266089198666,-0.9357068153711677],[103.33921645457576,-0.9590355538756732],[103.3471435854082,-0.9620350761824462]]]}},{"type":"Feature","properties":{"code":"1506112006","desa":"Pantai Gading","kecamatan":"Bram Itam","kecCode":"150611"},"geometry":{"type":"Polygon","coordinates":[[[103.3758927438551,-0.8264653014083917],[103.40366068079582,-0.8291087407486869],[103.41760575100464,-0.8380213252868954],[103.415093039812,-0.8484861936342336],[103.40569892766341,-0.8447099898297131],[103.39912447701306,-0.8515200070905825],[103.40754063039583,-0.8594507513901458],[103.39945522158126,-0.865356573179744],[103.39876517896987,-0.8750552560169124],[103.3766501348959,-0.8873934778346017],[103.36801429062704,-0.8805887881575348],[103.3945759947864,-0.8571420819831425],[103.3758927438551,-0.8264653014083917]]]}},{"type":"Feature","properties":{"code":"1506112007","desa":"Jati Emas","kecamatan":"Bram Itam","kecCode":"150611"},"geometry":{"type":"Polygon","coordinates":[[[103.29886553181889,-0.9152019858598139],[103.31179606963296,-0.8713450534572025],[103.35502696332377,-0.8780591472301571],[103.29886553181889,-0.9152019858598139]]]}},{"type":"Feature","properties":{"code":"1506112008","desa":"Kemuning","kecamatan":"Bram Itam","kecCode":"150611"},"geometry":{"type":"Polygon","coordinates":[[[103.3589910795747,-0.8283378319991067],[103.3758927438551,-0.8264653014083917],[103.3945759947864,-0.8571420819831425],[103.37194856377526,-0.8769916267816065],[103.35459958840033,-0.861735193061187],[103.37125941059338,-0.8468254821634259],[103.3589910795747,-0.8283378319991067]]]}},{"type":"Feature","properties":{"code":"1506112009","desa":"Mekar Tanjung","kecamatan":"Bram Itam","kecCode":"150611"},"geometry":{"type":"Polygon","coordinates":[[[103.31179606963296,-0.8713450534572025],[103.33482897257907,-0.8358850604125617],[103.35820881238685,-0.8564522471159131],[103.3517613118351,-0.8685848587330892],[103.32794550498112,-0.8642817457396299],[103.32131145176214,-0.8728020271159961],[103.31179606963296,-0.8713450534572025]]]}},{"type":"Feature","properties":{"code":"1506112010","desa":"Semau","kecamatan":"Bram Itam","kecCode":"150611"},"geometry":{"type":"Polygon","coordinates":[[[103.4262466836376,-0.8889347188683024],[103.40934131504967,-0.9016275451670497],[103.40222420088622,-0.8955750727301802],[103.4087510630112,-0.879913461153536],[103.42114406884377,-0.8787357206944855],[103.4262466836376,-0.8889347188683024]]]}},{"type":"Feature","properties":{"code":"1506121001","desa":"Betara Kiri","kecamatan":"Kuala Betara","kecCode":"150612"},"geometry":{"type":"Polygon","coordinates":[[[103.50644067569668,-0.8768030947067369],[103.52975919972732,-0.9252173766462913],[103.52632347205063,-0.9326202323952355],[103.51632849586342,-0.9329511397403288],[103.48125136395936,-0.8941475419758164],[103.4788304879367,-0.8807136797079066],[103.49836683486159,-0.8722145818623005],[103.50644067569668,-0.8768030947067369]]]}},{"type":"Feature","properties":{"code":"1506122002","desa":"Sungai Dualap","kecamatan":"Kuala Betara","kecCode":"150612"},"geometry":{"type":"Polygon","coordinates":[[[103.50154520624629,-0.8604482973889738],[103.51473929038598,-0.8523804109741864],[103.52117663489382,-0.8695087601489565],[103.53828869286893,-0.8674580774584528],[103.55092609756139,-0.8552509111443457],[103.5658493747489,-0.8631289758565395],[103.57395650129153,-0.8753464187236166],[103.56107338382962,-0.9025219371286516],[103.56694446841254,-0.9142812878290248],[103.56067209194356,-0.9203169789166087],[103.53231115463615,-0.9015986373592504],[103.52450475059385,-0.9081376861899789],[103.51233416598905,-0.8817078307659927],[103.49836683486159,-0.8722145818623005],[103.50154520624629,-0.8604482973889738]]]}},{"type":"Feature","properties":{"code":"1506122003","desa":"Betara Kanan","kecamatan":"Kuala Betara","kecCode":"150612"},"geometry":{"type":"Polygon","coordinates":[[[103.47852800276519,-0.8442706269438994],[103.50186208866448,-0.866054411113851],[103.49526566038196,-0.8767680373347456],[103.48070074324477,-0.8789005313517773],[103.47290094742085,-0.8894443835570442],[103.47231184021932,-0.857720712082157],[103.47852800276519,-0.8442706269438994]]]}},{"type":"Feature","properties":{"code":"1506122004","desa":"Sungai Gebar","kecamatan":"Kuala Betara","kecCode":"150612"},"geometry":{"type":"Polygon","coordinates":[[[103.45621808999296,-0.884717052260982],[103.45137061825949,-0.8750762695757952],[103.46624472681275,-0.8733493931835177],[103.47469415061458,-0.9097822611252926],[103.4871545858155,-0.9328881053588757],[103.48189349968531,-0.9801140195507854],[103.48794562858797,-0.9828968196338169],[103.4874854104234,-1.0189021840496992],[103.46789661323817,-1.0298975615721049],[103.47169834070591,-0.9153638575326578],[103.46495809464038,-0.8853011610299442],[103.45621808999296,-0.884717052260982]]]}},{"type":"Feature","properties":{"code":"1506122005","desa":"Dataran Pinang","kecamatan":"Kuala Betara","kecCode":"150612"},"geometry":{"type":"Polygon","coordinates":[[[103.48524258397809,-0.9809993778224712],[103.48796112570547,-0.9816844642692993],[103.48794562858797,-0.9828968196338169],[103.48524258397809,-0.9809993778224712]]]}},{"type":"Feature","properties":{"code":"1506122005","desa":"Dataran Pinang","kecamatan":"Kuala Betara","kecCode":"150612"},"geometry":{"type":"Polygon","coordinates":[[[103.48958855776577,-0.9000764430670877],[103.51489368059896,-0.931744754075508],[103.52632347205063,-0.9326202323952355],[103.52276516498046,-0.9514332419869209],[103.54896284965581,-0.9638359083231121],[103.54264297009705,-0.9720354671765072],[103.54909365334947,-0.978062046333099],[103.53904889429111,-0.9802481561317717],[103.53513706732184,-0.9931540210310889],[103.52389551476625,-1.0025850341513807],[103.51423237582354,-1.0014911851506465],[103.5084364736644,-0.9829097186099416],[103.5160331342218,-0.9766613009865366],[103.50949796595842,-0.9386092297828077],[103.47800339943738,-0.897062382320156],[103.48958855776577,-0.9000764430670877]]]}},{"type":"Feature","properties":{"code":"1506122006","desa":"Tanjung Pasir","kecamatan":"Kuala Betara","kecCode":"150612"},"geometry":{"type":"Polygon","coordinates":[[[103.47777076640779,-0.8862919612141409],[103.48194140657073,-0.892767454955954],[103.47775355608177,-0.898549545320667],[103.50949796595842,-0.9386092297828077],[103.5160331342218,-0.9766613009865366],[103.5084364736644,-0.9829097186099416],[103.51400768560626,-1.0052990307020189],[103.4874854104234,-1.0189021840496992],[103.48796112570547,-0.9816844642692993],[103.48189349968531,-0.9801140195507854],[103.4871545858155,-0.9328881053588757],[103.47231776675159,-0.897614128086035],[103.47777076640779,-0.8862919612141409]]]}},{"type":"Feature","properties":{"code":"1506122007","desa":"Sungai Gebar Barat","kecamatan":"Kuala Betara","kecCode":"150612"},"geometry":{"type":"Polygon","coordinates":[[[103.45635221937948,-0.8862768759861803],[103.46495809464038,-0.8853011610299442],[103.47169834070591,-0.9153638575326578],[103.46789661323817,-1.0298975615721049],[103.456487839842,-1.020898821981998],[103.45635221937948,-0.8862768759861803]]]}},{"type":"Feature","properties":{"code":"1506122008","desa":"Sungai Dungun","kecamatan":"Kuala Betara","kecCode":"150612"},"geometry":{"type":"Polygon","coordinates":[[[103.52276516498046,-0.9514332419869209],[103.52450475059385,-0.9081376861899789],[103.53231115463615,-0.9015986373592504],[103.56714384271423,-0.9257710685449876],[103.55887611344194,-0.9289360589135499],[103.56598737301891,-0.9415680955386172],[103.55343854255476,-0.9477738870957176],[103.55643931941908,-0.9528267756700082],[103.55088444186356,-0.9566752498934199],[103.55874108922994,-0.9571754627074767],[103.55429554160601,-0.9641299128874169],[103.53881119268242,-0.962235816554033],[103.52276516498046,-0.9514332419869209]]]}},{"type":"Feature","properties":{"code":"1506122009","desa":"Kuala Indah","kecamatan":"Kuala Betara","kecCode":"150612"},"geometry":{"type":"Polygon","coordinates":[[[103.45513631079216,-0.8589497228910398],[103.47592690800047,-0.8599385553585766],[103.47403143120567,-0.8825599608867478],[103.46526359164146,-0.8725961228371847],[103.45415335359445,-0.8729050057854195],[103.45513631079216,-0.8589497228910398]]]}},{"type":"Feature","properties":{"code":"1506122010","desa":"Suak Labu","kecamatan":"Kuala Betara","kecCode":"150612"},"geometry":{"type":"Polygon","coordinates":[[[103.441022434238,-0.8984321945856708],[103.45635221937948,-0.8862768759861803],[103.456487839842,-1.020898821981998],[103.44886469425028,-1.0148518488993858],[103.44631190656929,-0.963033113211071],[103.4394148520139,-0.9609819385914005],[103.4373576015721,-0.951807327582102],[103.441022434238,-0.8984321945856708]]]}},{"type":"Feature","properties":{"code":"1506131001","desa":"Senyerang","kecamatan":"Senyerang","kecCode":"150613"},"geometry":{"type":"Polygon","coordinates":[[[103.1453723242734,-0.7994283334569212],[103.14435408397384,-0.8209147747790838],[103.15373702744193,-0.8218865201278134],[103.1580692389043,-0.8354276652204041],[103.1480114297837,-0.8882574718117758],[103.14934761100352,-0.9699398354707762],[103.11845276098619,-0.9596234101195662],[103.09671044183347,-0.9361035153185023],[103.0983055774405,-0.8858324930847149],[103.11536544236135,-0.8423077144876144],[103.12757554497546,-0.8269175147069001],[103.12513461497058,-0.8116762660392102],[103.1453723242734,-0.7994283334569212]]]}},{"type":"Feature","properties":{"code":"1506132002","desa":"Sungai Kayu Aro","kecamatan":"Senyerang","kecCode":"150613"},"geometry":{"type":"Polygon","coordinates":[[[103.10910729586504,-0.7488370005896499],[103.16138801064822,-0.7521868960672086],[103.15690979155367,-0.8013216437828067],[103.1453723242734,-0.7994283334569212],[103.12513461497058,-0.8116762660392102],[103.12528814273367,-0.7906100284459707],[103.10910729586504,-0.7488370005896499]]]}},{"type":"Feature","properties":{"code":"1506132003","desa":"Teluk Ketapang","kecamatan":"Senyerang","kecCode":"150613"},"geometry":{"type":"Polygon","coordinates":[[[103.11536544236135,-0.8423077144876144],[103.10051668209928,-0.878711483965384],[103.10331127499542,-0.8661340712620094],[103.09463442164132,-0.856180694126466],[103.09466907341908,-0.8399561932845319],[103.08023842506333,-0.8298197366636388],[103.08816212138487,-0.8095458719391935],[103.08467130123961,-0.7928867611284998],[103.10377536474134,-0.803633314227478],[103.11536544236135,-0.8423077144876144]]]}},{"type":"Feature","properties":{"code":"1506132004","desa":"Sungai Rambai","kecamatan":"Senyerang","kecCode":"150613"},"geometry":{"type":"Polygon","coordinates":[[[103.06438395475578,-0.9016529330283514],[103.03545281579487,-0.8804905983779758],[103.02561282337312,-0.8623350750395478],[103.04376770461595,-0.8307471364422974],[103.0545165923669,-0.830693019738225],[103.06388917744363,-0.8474295846600761],[103.06438395475578,-0.9016529330283514]]]}},{"type":"Feature","properties":{"code":"1506132005","desa":"Margo Rukun","kecamatan":"Senyerang","kecCode":"150613"},"geometry":{"type":"Polygon","coordinates":[[[102.9740726211546,-0.7977144711538926],[103.00580582008257,-0.7547222108173848],[103.04359068476235,-0.7945340798953977],[103.07372682263478,-0.8125581475318672],[103.08023842506333,-0.8298197366636388],[103.06612813230754,-0.8259916069035244],[103.04376770461595,-0.8307471364422974],[103.02586286997554,-0.8593334303327443],[103.03294871291286,-0.8698479961155403],[103.02972267296302,-0.8748577675937571],[102.9740726211546,-0.7977144711538926]]]}},{"type":"Feature","properties":{"code":"1506132006","desa":"Kempas Jaya","kecamatan":"Senyerang","kecCode":"150613"},"geometry":{"type":"Polygon","coordinates":[[[103.00580582008257,-0.7547222108173848],[103.08083332839544,-0.7619444925922032],[103.10910729586504,-0.7488370005896499],[103.12620580375487,-0.7951856459116305],[103.10021393072837,-0.8049341583845901],[103.09066574582754,-0.7919626915393796],[103.08467130123961,-0.7928867611284998],[103.08816212138487,-0.8095458719391935],[103.08023669566705,-0.8297717920067926],[103.07372682263478,-0.8125581475318672],[103.04359068476235,-0.7945340798953977],[103.00580582008257,-0.7547222108173848]]]}},{"type":"Feature","properties":{"code":"1506132007","desa":"Lumahan","kecamatan":"Senyerang","kecCode":"150613"},"geometry":{"type":"Polygon","coordinates":[[[102.91717470964515,-0.875880859734588],[102.9740726211546,-0.7977144711538926],[103.01579984029047,-0.8605993951837335],[103.04225859096124,-0.8870969902421308],[103.00850325741948,-0.8773854147241632],[103.01489393790496,-0.8885412411919424],[103.0037462107191,-0.8913820358557273],[102.99548418764522,-0.8756003423030044],[102.98487614541783,-0.8694703833793818],[102.97702942386888,-0.8772410249725351],[102.97273287592157,-0.9066440093999351],[102.88313382876322,-0.9065172418637539],[102.91717470964515,-0.875880859734588]]]}},{"type":"Feature","properties":{"code":"1506132008","desa":"Sungai Landak","kecamatan":"Senyerang","kecCode":"150613"},"geometry":{"type":"Polygon","coordinates":[[[103.17289725720269,-0.8757674867009612],[103.15563770681477,-0.9386113018208543],[103.15590099683361,-0.9711761640631366],[103.14934761100352,-0.9699398354707762],[103.1480114297837,-0.8882574718117758],[103.1580692389043,-0.8354276652204041],[103.15373702744193,-0.8218865201278134],[103.17170625533947,-0.8132755331299296],[103.17986971091845,-0.8008712731951312],[103.18962723640787,-0.8131401132164213],[103.18367822736836,-0.8287368998613879],[103.19319529842437,-0.8305177112947183],[103.17289725720269,-0.8757674867009612]]]}},{"type":"Feature","properties":{"code":"1506132009","desa":"Sungsang","kecamatan":"Senyerang","kecCode":"150613"},"geometry":{"type":"Polygon","coordinates":[[[103.09671044183347,-0.9361035153185023],[103.09133043205382,-0.9304033972588576],[103.07479021699498,-0.9313054847192468],[103.06437765140753,-0.9017177435709214],[103.06388917744363,-0.8474295846600761],[103.0545165923669,-0.830693019738225],[103.06612813230754,-0.8259916069035244],[103.09291017486474,-0.8375767319441002],[103.09463442164132,-0.856180694126466],[103.10331127499542,-0.8661340712620094],[103.09671044183347,-0.9361035153185023]]]}},{"type":"Feature","properties":{"code":"1506132010","desa":"Sungai Kepayang","kecamatan":"Senyerang","kecCode":"150613"},"geometry":{"type":"Polygon","coordinates":[[[103.12352172584701,-0.7978051084268928],[103.12757554497546,-0.8269175147069001],[103.11536544236135,-0.8423077144876144],[103.10377536474134,-0.803633314227478],[103.12352172584701,-0.7978051084268928]]]}}]}