{"type":"FeatureCollection","features":[{"type":"Feature","properties":{"code":"1509011001","desa":"Matebo","kecamatan":"Tebo Tengah","kecCode":"150901"},"geometry":{"type":"Polygon","coordinates":[[[102.44733410498503,-1.486664460337163],[102.4449553064423,-1.5020071750146327],[102.43848338120313,-1.5038211048815484],[102.43343400627441,-1.4975565003606373],[102.42256110381197,-1.5046720856688143],[102.4274187468777,-1.487142276434899],[102.44733410498503,-1.486664460337163]]]}},{"type":"Feature","properties":{"code":"1509011002","desa":"Tebing Tinggi","kecamatan":"Tebo Tengah","kecCode":"150901"},"geometry":{"type":"Polygon","coordinates":[[[102.44733410498503,-1.486664460337163],[102.4274187468777,-1.487142276434899],[102.4264428718411,-1.4981369461908902],[102.41838415490484,-1.5002670291255344],[102.40823689741494,-1.4845005925712114],[102.41511050844326,-1.4837273114101104],[102.39969199259144,-1.4677955291019467],[102.40565623164986,-1.452502342787412],[102.42731891223808,-1.452456185083445],[102.42360921059661,-1.4592636203907754],[102.44438586741391,-1.4675853539426997],[102.44946009420806,-1.4817009328977722],[102.46262315173715,-1.4730410362704716],[102.46003822138685,-1.4656611087370761],[102.46741576932237,-1.4661254655811315],[102.46960953235407,-1.4774017085728153],[102.44733410498503,-1.486664460337163]]]}},{"type":"Feature","properties":{"code":"1509012003","desa":"Bedaro Rampak","kecamatan":"Tebo Tengah","kecCode":"150901"},"geometry":{"type":"Polygon","coordinates":[[[102.4553626910354,-1.4608584223474959],[102.46262315173715,-1.4730410362704716],[102.44946009420806,-1.4817009328977722],[102.44486561255803,-1.468046647695884],[102.42403360067021,-1.4555732730632418],[102.43832517696539,-1.4503308496699285],[102.4511416672542,-1.4650617276811517],[102.4553626910354,-1.4608584223474959]]]}},{"type":"Feature","properties":{"code":"1509012004","desa":"Mangun Jayo","kecamatan":"Tebo Tengah","kecCode":"150901"},"geometry":{"type":"Polygon","coordinates":[[[102.4802027519555,-1.5743465529942278],[102.39962770635361,-1.5709054950395784],[102.39996864743517,-1.5292474976671466],[102.38288695776696,-1.4916617878961898],[102.38652076741953,-1.482140858759218],[102.40945755981858,-1.4989932563605641],[102.41494630842543,-1.4923172731578986],[102.41947186603386,-1.5008818227626624],[102.4264428718411,-1.4981369461908902],[102.42296419973808,-1.5050303926586206],[102.43343400627441,-1.4975565003606373],[102.44378059759657,-1.5026672773956982],[102.44733410498503,-1.486664460337163],[102.4642733285513,-1.4839569811732916],[102.47062202778443,-1.49320802826121],[102.4802027519555,-1.5743465529942278]]]}},{"type":"Feature","properties":{"code":"1509012005","desa":"Teluk Pandak","kecamatan":"Tebo Tengah","kecCode":"150901"},"geometry":{"type":"Polygon","coordinates":[[[102.50119239791086,-1.4868243705885789],[102.5211328596938,-1.5259533538611316],[102.52289434200037,-1.5740779875526194],[102.50359580280411,-1.5772310358236636],[102.49776671566143,-1.519789913177693],[102.48330769909107,-1.4845533971644713],[102.50119239791086,-1.4868243705885789]]]}},{"type":"Feature","properties":{"code":"1509012006","desa":"Tengah Ulu","kecamatan":"Tebo Tengah","kecCode":"150901"},"geometry":{"type":"Polygon","coordinates":[[[102.48054979313848,-1.5806814296404104],[102.47062202778443,-1.49320802826121],[102.46272137029507,-1.482960534145967],[102.47037849766957,-1.47680526290405],[102.48324163489359,-1.4843196894453194],[102.50046086777489,-1.5334290906685903],[102.50359580280411,-1.5772310358236636],[102.48054979313848,-1.5806814296404104]]]}},{"type":"Feature","properties":{"code":"1509012007","desa":"Semabu","kecamatan":"Tebo Tengah","kecCode":"150901"},"geometry":{"type":"Polygon","coordinates":[[[102.46960953235407,-1.4774017085728153],[102.46741576932237,-1.4661254655811315],[102.4553626910354,-1.4608584223474959],[102.46365901784945,-1.4439605073595603],[102.47986174522343,-1.4604783553615042],[102.49125926989943,-1.4666303179976092],[102.505701113016,-1.4634130086697934],[102.5175076898281,-1.4744005773789226],[102.51218829705232,-1.487740734786469],[102.50476138622905,-1.4882661331143527],[102.46960953235407,-1.4774017085728153]]]}},{"type":"Feature","properties":{"code":"1509012008","desa":"Kandang","kecamatan":"Tebo Tengah","kecCode":"150901"},"geometry":{"type":"Polygon","coordinates":[[[102.505701113016,-1.4634130086697934],[102.49125926989943,-1.4666303179976092],[102.46365901784945,-1.4439605073595603],[102.49344595526668,-1.3952863869992271],[102.50816571857314,-1.3857310390089237],[102.51379710595172,-1.423926117706464],[102.5033711368685,-1.4309252192259814],[102.5102331484411,-1.4457634313232637],[102.505701113016,-1.4634130086697934]]]}},{"type":"Feature","properties":{"code":"1509012009","desa":"Pelayang","kecamatan":"Tebo Tengah","kecCode":"150901"},"geometry":{"type":"Polygon","coordinates":[[[102.50118903444643,-1.4891127980550345],[102.51218829705232,-1.487740734786469],[102.5175076898281,-1.4744005773789226],[102.505701113016,-1.4634130086697934],[102.5102331484411,-1.4457634313232637],[102.5033711368685,-1.4309252192259814],[102.51379710595172,-1.423926117706464],[102.50816571857314,-1.3857310390089237],[102.51935626428025,-1.3714119758506627],[102.54062973357544,-1.378666935391315],[102.54109086185383,-1.4618913584674937],[102.52323406270186,-1.5132880459175877],[102.50118903444643,-1.4891127980550345]]]}},{"type":"Feature","properties":{"code":"1509012010","desa":"Sungai Keruh","kecamatan":"Tebo Tengah","kecCode":"150901"},"geometry":{"type":"Polygon","coordinates":[[[102.66872247216439,-1.1692240770231959],[102.68676871980063,-1.1969002794870742],[102.68701523116806,-1.21814643365017],[102.69705105456255,-1.2385700283006058],[102.70816155521167,-1.246620294298595],[102.63464996392473,-1.3485380532825952],[102.59531845778065,-1.4169862158591764],[102.58260562964612,-1.4564282756185956],[102.58136513629205,-1.5149226302843528],[102.61122934435883,-1.5148327421465797],[102.60085705041261,-1.5628616843751633],[102.57506251832064,-1.5496963560724986],[102.58016566821107,-1.5329731227005732],[102.56723885808691,-1.531084314380807],[102.55301816455669,-1.5441256378646233],[102.54764058474522,-1.559782491128441],[102.52254764255973,-1.5688657265213333],[102.5211328596938,-1.5259533538611316],[102.50118903444643,-1.4891127980550345],[102.52323406270186,-1.5132880459175877],[102.54109086185383,-1.4618913584674937],[102.54062973357544,-1.378666935391315],[102.51935626428025,-1.3714119758506627],[102.58535789235293,-1.2364501211949241],[102.60435196157385,-1.2336753403665597],[102.60821162876373,-1.2126305785836462],[102.63340045396785,-1.20255811142425],[102.66872247216439,-1.1692240770231959]]]}},{"type":"Feature","properties":{"code":"1509012011","desa":"Aburan Batang Tebo","kecamatan":"Tebo Tengah","kecCode":"150901"},"geometry":{"type":"Polygon","coordinates":[[[102.39962770635361,-1.5709054950395784],[102.31441672125474,-1.5689282545844845],[102.31415345281967,-1.5350054142553742],[102.3294892868012,-1.5110392749560804],[102.31305544894985,-1.4961706783641064],[102.31510096503757,-1.4914382802876751],[102.35365272479345,-1.483923670284734],[102.38353127974483,-1.4918360486295283],[102.39996864743517,-1.5292474976671466],[102.39962770635361,-1.5709054950395784]]]}},{"type":"Feature","properties":{"code":"1509012012","desa":"Sungai Alai","kecamatan":"Tebo Tengah","kecCode":"150901"},"geometry":{"type":"Polygon","coordinates":[[[102.31510096503757,-1.4914382802876751],[102.30767204872613,-1.4880126789810229],[102.30770315897364,-1.4666492424313684],[102.29669558573276,-1.4587973192124475],[102.3107003115702,-1.4508262942784094],[102.35881869862408,-1.4496416686098428],[102.37563282109788,-1.4342780455940791],[102.39751820170368,-1.4531150931648364],[102.40565623164986,-1.452502342787412],[102.39974504359895,-1.4679812067286382],[102.41511050844326,-1.4837273114101104],[102.40823689741494,-1.4845005925712114],[102.411470324396,-1.4993205349412255],[102.38652076741953,-1.482140858759218],[102.38288695776696,-1.4916617878961898],[102.35365272479345,-1.483923670284734],[102.31510096503757,-1.4914382802876751]]]}},{"type":"Feature","properties":{"code":"1509021001","desa":"Sungai Bengkal","kecamatan":"Tebo Ilir","kecCode":"150902"},"geometry":{"type":"Polygon","coordinates":[[[102.81058464876257,-1.4927483586836372],[102.81170658628997,-1.5007336036977685],[102.7934874358965,-1.5267090119074749],[102.79591978367112,-1.5364471659892296],[102.78482947460066,-1.5282424135508768],[102.7771243755895,-1.5302783131857078],[102.74241298896833,-1.5481541392743756],[102.7326137817007,-1.5631064114873923],[102.71828403098328,-1.569965536228593],[102.71460327042467,-1.5662532832146365],[102.72009283741458,-1.54499493694256],[102.71225806425832,-1.534006717124282],[102.70320895992562,-1.5399126864027841],[102.70937926244308,-1.4991570804616081],[102.81058464876257,-1.4927483586836372]]]}},{"type":"Feature","properties":{"code":"1509022002","desa":"Sungai Aro","kecamatan":"Tebo Ilir","kecCode":"150902"},"geometry":{"type":"Polygon","coordinates":[[[102.70937926244308,-1.4991570804616081],[102.70240011687196,-1.5512149953446268],[102.68047859880834,-1.564256824247434],[102.67985361135516,-1.5512853951736802],[102.66642814064623,-1.538775316510371],[102.66262955181242,-1.5524373583649373],[102.65462023643481,-1.5394687216861085],[102.68757338820136,-1.4843432696692789],[102.70937926244308,-1.4991570804616081]]]}},{"type":"Feature","properties":{"code":"1509022003","desa":"Teluk Rendah Pasar","kecamatan":"Tebo Ilir","kecCode":"150902"},"geometry":{"type":"Polygon","coordinates":[[[102.78711880768691,-1.6335041001117423],[102.77496993541426,-1.6484303360522232],[102.7676842757088,-1.6375201333206177],[102.75113281642638,-1.6396377048869197],[102.74628423492953,-1.629374967263055],[102.75158163478464,-1.62267325175879],[102.76449862161415,-1.6280756114838695],[102.76952341357475,-1.6216775799470686],[102.76443665742585,-1.600692990003475],[102.77451878601322,-1.5808843571632856],[102.77562094205291,-1.5311553176549049],[102.78454758030665,-1.5282110919627425],[102.8004473593582,-1.5452093209289275],[102.80461111071422,-1.579583331343059],[102.78711880768691,-1.6335041001117423]]]}},{"type":"Feature","properties":{"code":"1509022004","desa":"Teluk Rendah Ulu","kecamatan":"Tebo Ilir","kecCode":"150902"},"geometry":{"type":"Polygon","coordinates":[[[102.75454538925833,-1.5393530041199248],[102.77562094205291,-1.5311553176549049],[102.77451878601322,-1.5808843571632856],[102.76103624882386,-1.6155768588824224],[102.7456809840902,-1.6175982686404033],[102.72017999161339,-1.6400892931566229],[102.69244507238226,-1.6507311849547455],[102.68795963892626,-1.6455724443770277],[102.75012378788256,-1.5881331878242988],[102.76312019204329,-1.5503506380413352],[102.75454538925833,-1.5393530041199248]]]}},{"type":"Feature","properties":{"code":"1509022005","desa":"Teluk Rendah Ilir","kecamatan":"Tebo Ilir","kecCode":"150902"},"geometry":{"type":"Polygon","coordinates":[[[102.7632565436546,-1.6114098663743346],[102.76954307994923,-1.6175108041755488],[102.76750626030571,-1.6256771141937527],[102.74883263841559,-1.6241211170839034],[102.75113281642638,-1.6396377048869197],[102.74514149338528,-1.6407416146033913],[102.7401489277309,-1.6554929108223893],[102.7104032548064,-1.6911105972899219],[102.68810104202953,-1.65232733409592],[102.72017999161339,-1.6400892931566229],[102.7456809840902,-1.6175982686404033],[102.7632565436546,-1.6114098663743346]]]}},{"type":"Feature","properties":{"code":"1509022008","desa":"Tuo Ilir","kecamatan":"Tebo Ilir","kecCode":"150902"},"geometry":{"type":"Polygon","coordinates":[[[102.73135033405072,-1.6896809738132004],[102.72723370267327,-1.7046538081254556],[102.71559334036044,-1.7059710595140365],[102.70834126673611,-1.6971107426737089],[102.74514149338528,-1.6407416146033913],[102.7676842757088,-1.6375201333206177],[102.77496993541426,-1.6484303360522232],[102.75711111098906,-1.667972220081258],[102.72694444383107,-1.6830555540931744],[102.73135033405072,-1.6896809738132004]]]}},{"type":"Feature","properties":{"code":"1509022011","desa":"Betung Bedarah Timur","kecamatan":"Tebo Ilir","kecCode":"150902"},"geometry":{"type":"Polygon","coordinates":[[[102.65726685308289,-1.566931840583448],[102.66642814064623,-1.538775316510371],[102.67985361135516,-1.5512853951736802],[102.6824394895908,-1.5879455523734693],[102.63923001325456,-1.5834548291102004],[102.64393797585693,-1.568952510199382],[102.65726685308289,-1.566931840583448]]]}},{"type":"Feature","properties":{"code":"1509022012","desa":"Betung Bedarah Barat","kecamatan":"Tebo Ilir","kecCode":"150902"},"geometry":{"type":"Polygon","coordinates":[[[102.65462023643481,-1.5394687216861085],[102.66262955181242,-1.5524373583649373],[102.6595771565606,-1.5612931624071889],[102.65726685308289,-1.566931840583448],[102.64667435563705,-1.565430907163712],[102.639033708339,-1.5830146280562523],[102.6754511907199,-1.5873317461919287],[102.67789955991678,-1.6027375483108974],[102.66445178242388,-1.615324456955884],[102.62678758697763,-1.610932593467068],[102.61507325542645,-1.6007069025155105],[102.60268694594582,-1.6001372638382403],[102.6016369029208,-1.56273223865799],[102.65462023643481,-1.5394687216861085]]]}},{"type":"Feature","properties":{"code":"1509022014","desa":"Kunangan","kecamatan":"Tebo Ilir","kecCode":"150902"},"geometry":{"type":"Polygon","coordinates":[[[102.80131049808108,-1.4069122666169973],[102.82289815272765,-1.442696681995654],[102.824166667158,-1.4650833311953357],[102.8191003499013,-1.478609199504505],[102.81200000000007,-1.4800833313285573],[102.81058464876257,-1.4927483586836372],[102.70937926244308,-1.4991570804616081],[102.68757338820136,-1.4843432696692789],[102.72247217555052,-1.4425238664728486],[102.73946422799179,-1.4357031580714281],[102.76097585305325,-1.4391434030389787],[102.7734408622061,-1.4300384535152646],[102.77685545131806,-1.4118072711123966],[102.80131049808108,-1.4069122666169973]]]}},{"type":"Feature","properties":{"code":"1509022015","desa":"Muara ketalo","kecamatan":"Tebo Ilir","kecCode":"150902"},"geometry":{"type":"Polygon","coordinates":[[[102.6764911055801,-1.593731238227772],[102.7326137817007,-1.5631064114873923],[102.75454538925833,-1.5393530041199248],[102.76312019204329,-1.5503506380413352],[102.74991303355972,-1.5884530946621573],[102.68795963892626,-1.6455724443770277],[102.66928739389817,-1.6301549600646652],[102.66445178242388,-1.615324456955884],[102.67789955991678,-1.6027375483108974],[102.6764911055801,-1.593731238227772]]]}},{"type":"Feature","properties":{"code":"1509022017","desa":"Sungai Bengkal Barat","kecamatan":"Tebo Ilir","kecCode":"150902"},"geometry":{"type":"Polygon","coordinates":[[[102.70336613893623,-1.5408166723320003],[102.71225806425832,-1.534006717124282],[102.71943665877484,-1.5435334486870749],[102.72122623680143,-1.5534357794040952],[102.71368489084512,-1.5636565321782656],[102.71828403098328,-1.569965536228593],[102.6764911055801,-1.593731238227772],[102.6754511907199,-1.5873317461919287],[102.6824394895908,-1.5879455523734693],[102.68047859880834,-1.564256824247434],[102.69729302435364,-1.5588178854974608],[102.70336613893623,-1.5408166723320003]]]}},{"type":"Feature","properties":{"code":"1509031001","desa":"Pulautemiang","kecamatan":"Tebo Ulu","kecCode":"150903"},"geometry":{"type":"Polygon","coordinates":[[[102.24427973522164,-1.2192939065264414],[102.24961293438946,-1.2474732257153114],[102.22621038939802,-1.2713851457877408],[102.20491989323851,-1.2504610766206188],[102.22694537832659,-1.2204276359632318],[102.24427973522164,-1.2192939065264414]]]}},{"type":"Feature","properties":{"code":"1509032002","desa":"Sungai Rambai","kecamatan":"Tebo Ulu","kecCode":"150903"},"geometry":{"type":"Polygon","coordinates":[[[102.40847759826262,-1.3670662781596457],[102.4026164089202,-1.3832918896644129],[102.38982787855383,-1.390542886792169],[102.37737802927268,-1.386880592017165],[102.37197487544023,-1.3609417340540566],[102.38058691465442,-1.350024585858396],[102.39348723524779,-1.3636071240468517],[102.40847759826262,-1.3670662781596457]]]}},{"type":"Feature","properties":{"code":"1509032003","desa":"Pagar Puding","kecamatan":"Tebo Ulu","kecCode":"150903"},"geometry":{"type":"Polygon","coordinates":[[[102.37197487544023,-1.3609417340540566],[102.3774064415541,-1.3868246326021874],[102.36671334864218,-1.4039457332414846],[102.31705201184091,-1.3884829743594396],[102.33752583904628,-1.3732485182711087],[102.3547147018221,-1.3795532946084428],[102.34801934721514,-1.362752047747075],[102.37197487544023,-1.3609417340540566]]]}},{"type":"Feature","properties":{"code":"1509032004","desa":"Teluk Kembang Jambu","kecamatan":"Tebo Ulu","kecCode":"150903"},"geometry":{"type":"Polygon","coordinates":[[[102.32945087405862,-1.3792570534301571],[102.31705201184091,-1.3884829743594396],[102.29442678686677,-1.3661911092067252],[102.29264642868979,-1.3504453822405305],[102.31706124428104,-1.3420122271838772],[102.32297423637196,-1.345550048593259],[102.32008414986369,-1.3640170584174054],[102.32945087405862,-1.3792570534301571]]]}},{"type":"Feature","properties":{"code":"1509032005","desa":"Teluk Kasai Rambahan","kecamatan":"Tebo Ulu","kecCode":"150903"},"geometry":{"type":"Polygon","coordinates":[[[102.35335637479692,-1.278668776614537],[102.36723913367915,-1.3226221972794876],[102.31944801441436,-1.3194260022346724],[102.31061801640838,-1.3135635205729739],[102.31055472302211,-1.3044434912172498],[102.35335637479692,-1.278668776614537]]]}},{"type":"Feature","properties":{"code":"1509032006","desa":"Rantau langkap","kecamatan":"Tebo Ulu","kecCode":"150903"},"geometry":{"type":"Polygon","coordinates":[[[102.29793103658812,-1.2728707196862128],[102.29619019102455,-1.2880853007573037],[102.30477547270992,-1.2959248762846316],[102.2944429216036,-1.3140509774030986],[102.27226975164781,-1.3173444772945768],[102.25630025265457,-1.3064307402273962],[102.27301178136867,-1.2981690678982638],[102.27927168783815,-1.2804725756186672],[102.2909226459634,-1.2831448067542328],[102.29229242765348,-1.2679859782539302],[102.29793103658812,-1.2728707196862128]]]}},{"type":"Feature","properties":{"code":"1509032007","desa":"Tanjung Aur","kecamatan":"Tebo Ulu","kecCode":"150903"},"geometry":{"type":"Polygon","coordinates":[[[102.27509841685848,-1.2922702238255634],[102.25630025265457,-1.3064307402273962],[102.23556667875926,-1.2805804052312115],[102.2696525734076,-1.2507559049638781],[102.2802200229358,-1.2643414657737801],[102.27476425426698,-1.2699959243538528],[102.27927168783815,-1.2804725756186672],[102.27509841685848,-1.2922702238255634]]]}},{"type":"Feature","properties":{"code":"1509032007","desa":"Tanjung Aur","kecamatan":"Tebo Ulu","kecCode":"150903"},"geometry":{"type":"Polygon","coordinates":[[[102.28869132544433,-1.2668561177005968],[102.29370859457605,-1.2797313247115252],[102.2909226459634,-1.2831448067542328],[102.28918472589447,-1.2840297441432191],[102.28697853782931,-1.2838577245203848],[102.29166318640699,-1.2807011194306572],[102.28869132544433,-1.2668561177005968]]]}},{"type":"Feature","properties":{"code":"1509032008","desa":"Bungo Tanjung","kecamatan":"Tebo Ulu","kecCode":"150903"},"geometry":{"type":"Polygon","coordinates":[[[102.2802200229358,-1.2643414657737801],[102.28581607325322,-1.2532907106977869],[102.27812030380902,-1.2481347319381395],[102.2828038264355,-1.2403749244776263],[102.29772814503792,-1.2454912773093272],[102.29712881883994,-1.2585411344599826],[102.2802200229358,-1.2643414657737801]]]}},{"type":"Feature","properties":{"code":"1509032009","desa":"Pulau Panjang","kecamatan":"Tebo Ulu","kecCode":"150903"},"geometry":{"type":"Polygon","coordinates":[[[102.22621038939802,-1.2713851457877408],[102.24594447026118,-1.2490495196244153],[102.26991383725384,-1.2424850379661552],[102.27154486840101,-1.2497384308878512],[102.23556667875926,-1.2805804052312115],[102.22621038939802,-1.2713851457877408]]]}},{"type":"Feature","properties":{"code":"1509032010","desa":"Lubuk Benteng","kecamatan":"Tebo Ulu","kecCode":"150903"},"geometry":{"type":"Polygon","coordinates":[[[102.24427973522164,-1.2192939065264414],[102.22694537832659,-1.2204276359632318],[102.21947494841021,-1.2087420602474874],[102.21532331182145,-1.1911020669761239],[102.22508247227836,-1.188713519785023],[102.22655254456437,-1.17975153278888],[102.25613157401301,-1.1905515937509286],[102.2599895585713,-1.2092780543877217],[102.24042619061629,-1.209667003977656],[102.24427973522164,-1.2192939065264414]]]}},{"type":"Feature","properties":{"code":"1509032011","desa":"Teluk Kuali","kecamatan":"Tebo Ulu","kecCode":"150903"},"geometry":{"type":"Polygon","coordinates":[[[102.22694537832659,-1.2204276359632318],[102.20491989323851,-1.2504610766206188],[102.18239010971587,-1.234585287901546],[102.16022680442352,-1.2121206656820456],[102.17151794020081,-1.1787675503651724],[102.17972708044044,-1.1814087530915443],[102.18683691099471,-1.1987121930740356],[102.21532331182145,-1.1911020669761239],[102.22694537832659,-1.2204276359632318]]]}},{"type":"Feature","properties":{"code":"1509032012","desa":"Malako Intan","kecamatan":"Tebo Ulu","kecCode":"150903"},"geometry":{"type":"Polygon","coordinates":[[[102.22178722679915,-1.1502219498979065],[102.22508247227836,-1.188713519785023],[102.20816639906012,-1.1906600969556547],[102.20022851683264,-1.1984837643752877],[102.18529501974945,-1.1978698637648961],[102.17565820306368,-1.1771828298085194],[102.16793267505295,-1.189239440619067],[102.16910722202073,-1.1735546786942603],[102.18109822370411,-1.1667889269637828],[102.19005711434443,-1.143747436417068],[102.22178722679915,-1.1502219498979065]]]}},{"type":"Feature","properties":{"code":"1509032015","desa":"Jambu","kecamatan":"Tebo Ulu","kecCode":"150903"},"geometry":{"type":"Polygon","coordinates":[[[102.33752583904628,-1.3732485182711087],[102.32945087405862,-1.3792570534301571],[102.32008414986369,-1.3640170584174054],[102.33549455472996,-1.3605700082799157],[102.33752583904628,-1.3732485182711087]]]}},{"type":"Feature","properties":{"code":"1509032016","desa":"Pulau Jelmu","kecamatan":"Tebo Ulu","kecCode":"150903"},"geometry":{"type":"Polygon","coordinates":[[[102.27856901694662,-1.2629722389669407],[102.2696525734076,-1.2507559049638781],[102.27015462443642,-1.2317955054821867],[102.2862615452342,-1.2320427084279584],[102.28430735440094,-1.2454858849743615],[102.27812030380902,-1.2481347319381395],[102.28581607325322,-1.2532907106977869],[102.27856901694662,-1.2629722389669407]]]}},{"type":"Feature","properties":{"code":"1509032017","desa":"Medan Seri Rambahan","kecamatan":"Tebo Ulu","kecCode":"150903"},"geometry":{"type":"Polygon","coordinates":[[[102.35335637479692,-1.278668776614537],[102.31055472302211,-1.3044434912172498],[102.31061801640838,-1.3135635205729739],[102.2944429216036,-1.3140509774030986],[102.33696444625222,-1.262561142672286],[102.35398708463627,-1.2707422393435002],[102.35335637479692,-1.278668776614537]]]}},{"type":"Feature","properties":{"code":"1509032018","desa":"Ulak Banjir Rambahan","kecamatan":"Tebo Ulu","kecCode":"150903"},"geometry":{"type":"Polygon","coordinates":[[[102.31061801640838,-1.3135635205729739],[102.31944801441436,-1.3194260022346724],[102.36700179089995,-1.3260636743182121],[102.36106693269284,-1.3342317506047792],[102.27265615166014,-1.337192477957165],[102.2722186728535,-1.314720733107003],[102.31061801640838,-1.3135635205729739]]]}},{"type":"Feature","properties":{"code":"1509032019","desa":"Teluk Pandan Rambahan","kecamatan":"Tebo Ulu","kecCode":"150903"},"geometry":{"type":"Polygon","coordinates":[[[102.3205964774455,-1.3438771603019308],[102.27971270367838,-1.3544515813628921],[102.27369677158879,-1.3536111091537946],[102.27265615166014,-1.337192477957165],[102.3312256636335,-1.331659529476577],[102.3205964774455,-1.3438771603019308]]]}},{"type":"Feature","properties":{"code":"1509041001","desa":"Wirotho Agung","kecamatan":"Rimbo Bujang","kecCode":"150904"},"geometry":{"type":"Polygon","coordinates":[[[102.13515947403054,-1.2997121534415137],[102.1038719548269,-1.3487095108291436],[102.05658463667169,-1.333484358227367],[102.09738176435701,-1.2784882485058797],[102.13515947403054,-1.2997121534415137]]]}},{"type":"Feature","properties":{"code":"1509042002","desa":"Perintis","kecamatan":"Rimbo Bujang","kecCode":"150904"},"geometry":{"type":"Polygon","coordinates":[[[102.16026984867466,-1.211740732694958],[102.17865089142553,-1.2303804015598023],[102.135204030042,-1.2997369531462313],[102.09738176435701,-1.2784882485058797],[102.09962162843544,-1.2740270095158412],[102.10875225361366,-1.2771515618685747],[102.10585298322864,-1.249483703314553],[102.12985555139267,-1.231472818839845],[102.13224606540363,-1.2062298158058082],[102.16026984867466,-1.211740732694958]]]}},{"type":"Feature","properties":{"code":"1509042003","desa":"Rimbo Mulyo","kecamatan":"Rimbo Bujang","kecCode":"150904"},"geometry":{"type":"Polygon","coordinates":[[[102.07721956303249,-1.391302114247662],[102.04034953460341,-1.3916988537651918],[102.04258337862007,-1.3862338823399307],[102.0272617521282,-1.373984178093103],[102.05658463667169,-1.333484358227367],[102.10341701028686,-1.3485283334099767],[102.07721956303249,-1.391302114247662]]]}},{"type":"Feature","properties":{"code":"1509042004","desa":"Purwo Harjo","kecamatan":"Rimbo Bujang","kecCode":"150904"},"geometry":{"type":"Polygon","coordinates":[[[102.17865089142553,-1.2303804015598023],[102.21767702467501,-1.2629986466594707],[102.19000648431187,-1.3032528194065391],[102.18221663768774,-1.2984868415442365],[102.1788520014188,-1.3267571424464537],[102.15463690456953,-1.3074814568434887],[102.13605255568098,-1.3032132204582227],[102.17865089142553,-1.2303804015598023]]]}},{"type":"Feature","properties":{"code":"1509042005","desa":"Tegal Arum","kecamatan":"Rimbo Bujang","kecCode":"150904"},"geometry":{"type":"Polygon","coordinates":[[[102.21767702467501,-1.2629986466594707],[102.25688198361671,-1.3068283017252196],[102.21684706464036,-1.3233686993280729],[102.22088220934654,-1.3501045544739263],[102.21504113334167,-1.3625087208793112],[102.18906823241304,-1.3684952091584526],[102.19221924732044,-1.3387943521824923],[102.18070874801036,-1.3336401055170781],[102.17841138757552,-1.3073956849028094],[102.18221663768774,-1.2984868415442365],[102.19000648431187,-1.3032528194065391],[102.21767702467501,-1.2629986466594707]]]}},{"type":"Feature","properties":{"code":"1509042006","desa":"Tirta Kencana","kecamatan":"Rimbo Bujang","kecCode":"150904"},"geometry":{"type":"Polygon","coordinates":[[[102.09372654094716,-1.3660634180668958],[102.13992485834557,-1.3022798419866572],[102.15463690456953,-1.3074814568434887],[102.19221924732044,-1.3387943521824923],[102.18906823241304,-1.3684952091584526],[102.17825082081877,-1.3789569433684743],[102.16830636764477,-1.378591794336482],[102.1684956245735,-1.3722662301700606],[102.1477906194416,-1.371144258469648],[102.14074141758245,-1.3545242223024034],[102.09372654094716,-1.3660634180668958]]]}},{"type":"Feature","properties":{"code":"1509042007","desa":"Sapta Mulia","kecamatan":"Rimbo Bujang","kecCode":"150904"},"geometry":{"type":"Polygon","coordinates":[[[102.13236777785072,-1.4141899583210276],[102.0930067739435,-1.4136180056881524],[102.0779376204249,-1.3859327200714622],[102.09405367923397,-1.3644828928475659],[102.1045697450977,-1.3664774443526932],[102.11601525040358,-1.358391441095221],[102.14074141758245,-1.3545242223024034],[102.1477906194416,-1.371144258469648],[102.16949499889512,-1.3733012967839544],[102.14856069631912,-1.404961689261877],[102.13189614369212,-1.406881182449784],[102.13236777785072,-1.4141899583210276]]]}},{"type":"Feature","properties":{"code":"1509042008","desa":"Pematang Sapat","kecamatan":"Rimbo Bujang","kecCode":"150904"},"geometry":{"type":"Polygon","coordinates":[[[102.1787626249952,-1.4442466410573218],[102.14516398213213,-1.4459694192391201],[102.1386385022651,-1.4374837051041205],[102.13873769478886,-1.422429947995614],[102.12721672287353,-1.4218798084189523],[102.12259055181255,-1.4147805530005737],[102.13236777785072,-1.4141899583210276],[102.13189614369212,-1.406881182449784],[102.14856069631912,-1.404961689261877],[102.16324748508343,-1.3843220918453658],[102.16281626196097,-1.41863419023187],[102.1873324140597,-1.4195510832309879],[102.18779463321577,-1.426443961327167],[102.17878355042058,-1.4272463562409259],[102.1787626249952,-1.4442466410573218]]]}},{"type":"Feature","properties":{"code":"1509052001","desa":"Teluk Singkawang","kecamatan":"Sumay","kecCode":"150905"},"geometry":{"type":"Polygon","coordinates":[[[102.37737802927268,-1.386880592017165],[102.3968714425631,-1.3883473485011537],[102.40847759826262,-1.3670662781596457],[102.43338413437037,-1.3840997803351525],[102.41941144778012,-1.3918262238470749],[102.4081236682727,-1.3894648163967067],[102.38864670987782,-1.4092389647330044],[102.36671334864218,-1.4039457332414846],[102.37737802927268,-1.386880592017165]]]}},{"type":"Feature","properties":{"code":"1509052002","desa":"Lembak Bungur","kecamatan":"Sumay","kecCode":"150905"},"geometry":{"type":"Polygon","coordinates":[[[102.38864670987782,-1.4092389647330044],[102.4081236682727,-1.3894648163967067],[102.42386669369301,-1.3930178984018928],[102.41371240440401,-1.4088516240302242],[102.38864670987782,-1.4092389647330044]]]}},{"type":"Feature","properties":{"code":"1509052003","desa":"Teluk Langkap","kecamatan":"Sumay","kecCode":"150905"},"geometry":{"type":"Polygon","coordinates":[[[102.45696974355887,-1.3927289875976037],[102.47705313999046,-1.3983466063494578],[102.47656887035714,-1.4138536712314083],[102.43983499478924,-1.4307119441036154],[102.42714167384922,-1.4242626979750104],[102.43430182327056,-1.4042001991120538],[102.45696974355887,-1.3927289875976037]]]}},{"type":"Feature","properties":{"code":"1509052004","desa":"Tambun Arang","kecamatan":"Sumay","kecCode":"150905"},"geometry":{"type":"Polygon","coordinates":[[[102.42731891223808,-1.452456185083445],[102.40506374569536,-1.4525468961008319],[102.42714167384922,-1.4242626979750104],[102.43983499478924,-1.4307119441036154],[102.47485605576242,-1.415468928268078],[102.47705313999046,-1.3983466063494578],[102.48964776842985,-1.401767816266585],[102.47465296006611,-1.426933932661775],[102.46502654943578,-1.426817983969804],[102.45067488943465,-1.4429474579479236],[102.42731891223808,-1.452456185083445]]]}},{"type":"Feature","properties":{"code":"1509052005","desa":"Punti Kalo","kecamatan":"Sumay","kecCode":"150905"},"geometry":{"type":"Polygon","coordinates":[[[102.40506374569536,-1.4525468961008319],[102.39751820170368,-1.4531150931648364],[102.37563282109788,-1.4342780455940791],[102.38864670987782,-1.4092389647330044],[102.41371240440401,-1.4088516240302242],[102.41892400174135,-1.4026368797221225],[102.43215494459507,-1.4071343308136055],[102.42499245693641,-1.4283972204606559],[102.40506374569536,-1.4525468961008319]]]}},{"type":"Feature","properties":{"code":"1509052006","desa":"Jati Belarik","kecamatan":"Sumay","kecCode":"150905"},"geometry":{"type":"Polygon","coordinates":[[[102.47300091625937,-1.4254175120171966],[102.4511416672542,-1.4650617276811517],[102.43748098426003,-1.450214727408778],[102.47300091625937,-1.4254175120171966]]]}},{"type":"Feature","properties":{"code":"1509052007","desa":"Tuo Sumay","kecamatan":"Sumay","kecCode":"150905"},"geometry":{"type":"Polygon","coordinates":[[[102.50816571857314,-1.3857310390089237],[102.48964776842985,-1.401767816266585],[102.45766317031911,-1.3947223241187041],[102.45446647344903,-1.3861966656957567],[102.47063051558588,-1.385393437110485],[102.47458636976523,-1.379504271664456],[102.46960853680456,-1.3761789744434858],[102.43318060520085,-1.3837230624243557],[102.41125675429583,-1.3671915213449795],[102.39348723524779,-1.3636071240468517],[102.38058691465442,-1.350024585858396],[102.37119639170015,-1.3624401880428785],[102.35565081962966,-1.3595868856080373],[102.37953720168058,-1.3263928153947802],[102.3943996370337,-1.3232469931764388],[102.38522011301784,-1.30901162992083],[102.40303873594894,-1.2976582098091567],[102.3924271782717,-1.2803835598232718],[102.44087954835253,-1.3154475031306672],[102.5398267469069,-1.3268714390838432],[102.50816571857314,-1.3857310390089237]]]}},{"type":"Feature","properties":{"code":"1509052008","desa":"Teriti","kecamatan":"Sumay","kecCode":"150905"},"geometry":{"type":"Polygon","coordinates":[[[102.42176115595264,-1.3902384932595937],[102.46675873542733,-1.3759453908307013],[102.47458636976523,-1.379504271664456],[102.47063051558588,-1.385393437110485],[102.45446647344903,-1.3861966656957567],[102.45696974355887,-1.3927289875976037],[102.44217014383712,-1.396487084452117],[102.43215494459507,-1.4071343308136055],[102.41892400174135,-1.4026368797221225],[102.42176115595264,-1.3902384932595937]]]}},{"type":"Feature","properties":{"code":"1509052009","desa":"Suo-Suo","kecamatan":"Sumay","kecCode":"150905"},"geometry":{"type":"Polygon","coordinates":[[[102.56496674342054,-1.1016861875364052],[102.58069768644911,-1.1014573190691657],[102.58611113841833,-1.0955555541212452],[102.60717702799751,-1.101961729918507],[102.61224654144479,-1.0956957557300795],[102.61750285307424,-1.0982006176371697],[102.63021845202002,-1.1074672283923463],[102.63211420130936,-1.1241942551045658],[102.64969054957925,-1.1291522328275654],[102.6457007208117,-1.1380249962849476],[102.66872247216439,-1.1692240770231959],[102.63340045396785,-1.20255811142425],[102.60821162876373,-1.2126305785836462],[102.60435196157385,-1.2336753403665597],[102.58535789235293,-1.2364501211949241],[102.5398267469069,-1.3268714390838432],[102.48358640978506,-1.3203786091109235],[102.48681344258637,-1.2711080394846181],[102.49313346693599,-1.258691420166939],[102.48952858307769,-1.251122355314877],[102.49389591396532,-1.2397233665552354],[102.52076683741967,-1.2233800895528024],[102.5323381569804,-1.2070974385473956],[102.55067356903004,-1.1490129759842056],[102.56190938391097,-1.140727217112754],[102.55638583423892,-1.117098815509637],[102.56190938391097,-1.1154097520120207],[102.56496674342054,-1.1016861875364052]]]}},{"type":"Feature","properties":{"code":"1509052010","desa":"Muara Sekalo","kecamatan":"Sumay","kecCode":"150905"},"geometry":{"type":"Polygon","coordinates":[[[102.48358640978506,-1.3203786091109235],[102.44087954835253,-1.3154475031306672],[102.3924271782717,-1.2803835598232718],[102.39157842420497,-1.2721066215024777],[102.3793323082395,-1.2650564798595825],[102.37324850341575,-1.2166800935523205],[102.43152036767087,-1.2135381555057565],[102.45310754207945,-1.2195255916703316],[102.50492660158146,-1.1992112907287449],[102.55133867344108,-1.1573762690064666],[102.52976120091874,-1.2110663796567138],[102.51028522458351,-1.2318702526339484],[102.49389591396532,-1.2397233665552354],[102.48358640978506,-1.3203786091109235]]]}},{"type":"Feature","properties":{"code":"1509052011","desa":"Semambu","kecamatan":"Sumay","kecCode":"150905"},"geometry":{"type":"Polygon","coordinates":[[[102.45470187998784,-1.0505448994534508],[102.47418367493667,-1.0706243235571615],[102.46799741305023,-1.0790848620708313],[102.47280891639844,-1.0857679697026783],[102.49596624774419,-1.0905417240026998],[102.51363306961053,-1.0846614051875902],[102.51948057576799,-1.095437836462814],[102.53701050822843,-1.100177734885122],[102.54194439941453,-1.0869444556074699],[102.55036073356108,-1.095300955150949],[102.54978137501053,-1.1044279461585809],[102.56496674342054,-1.1016861875364052],[102.56190938391097,-1.1154097520120207],[102.55638583423892,-1.117098815509637],[102.561243134663,-1.142345249457248],[102.55474244640686,-1.1423028958855368],[102.55140980531833,-1.1573239590403541],[102.50492660158146,-1.1992112907287449],[102.45310754207945,-1.2195255916703316],[102.43152036767087,-1.2135381555057565],[102.37329623403406,-1.217052874231115],[102.36505355627669,-1.18001384794236],[102.35324654689065,-1.1635768175160643],[102.30483850978946,-1.1269295736816252],[102.43618748756258,-1.0766350962294808],[102.45470187998784,-1.0505448994534508]]]}},{"type":"Feature","properties":{"code":"1509052012","desa":"Pemayungan","kecamatan":"Sumay","kecCode":"150905"},"geometry":{"type":"Polygon","coordinates":[[[102.22949964179509,-0.9377487773358542],[102.23980439485699,-0.9294598123813698],[102.24641021925629,-0.9335692482785358],[102.25717643334575,-0.9198215253148617],[102.26244400178933,-0.9243609819403699],[102.27999621225547,-0.9155516881363788],[102.30376540544916,-0.9185752151471385],[102.3234758314445,-0.9618654568501217],[102.342989898565,-0.9605182985069594],[102.3516666736781,-0.9705556084696203],[102.35750599690431,-0.9677812620138211],[102.36633448674723,-0.9827698002875449],[102.3830555563689,-0.9936111365340868],[102.37324629558013,-1.0117912068678327],[102.37202836441752,-1.0321494738655494],[102.38444444055853,-1.038055546566063],[102.38758520319465,-1.0284066367074676],[102.40298124229054,-1.0399374867633369],[102.40878936443767,-1.033216463714007],[102.429595178175,-1.0370375301988024],[102.44067761098302,-1.030870766520457],[102.45470187998784,-1.0505448994534508],[102.43618748756258,-1.0766350962294808],[102.30483850978946,-1.1269295736816252],[102.2645158257448,-1.0991570565246167],[102.25770404040918,-1.0841437707068657],[102.27256928074773,-1.0608790450462335],[102.25048132875035,-1.0421425479754516],[102.25097664565571,-1.0311068736308358],[102.24450425996366,-1.0261451268492021],[102.22949964179509,-0.9377487773358542]]]}},{"type":"Feature","properties":{"code":"1509062001","desa":"Tanjung Pucuk Jambi","kecamatan":"VII Koto","kecCode":"150906"},"geometry":{"type":"Polygon","coordinates":[[[101.8763864413812,-1.0936870309095241],[101.86568052773423,-1.1121497320816804],[101.8394837477768,-1.0948660466072486],[101.83890754944387,-1.0209589137817263],[101.82145585890082,-1.0181060286323833],[101.82322222182813,-1.0073611096015178],[101.81519440020145,-1.0015555550253648],[101.8235795575506,-0.9776207975689795],[101.84527777934606,-0.9836111124633948],[101.85287099729872,-0.9750814763391089],[101.87988326629976,-1.0315329607246313],[101.8763864413812,-1.0936870309095241]]]}},{"type":"Feature","properties":{"code":"1509062002","desa":"Kuamang","kecamatan":"VII Koto","kecCode":"150906"},"geometry":{"type":"Polygon","coordinates":[[[101.88420111109245,-1.1347291653507916],[101.88475775726477,-1.1130934464615614],[101.89287911557881,-1.1052553629096182],[101.8763864413812,-1.0936870309095241],[101.87988326629976,-1.0315329607246313],[101.85305554897444,-0.9719444557855643],[101.85679102158844,-0.9670445337971875],[101.88249998138912,-0.9680555750226297],[101.89567717626073,-0.9564336533212285],[101.91859966494262,-0.9811291158193193],[101.91422145675487,-0.9965956131830294],[101.92212126708284,-1.024387716674816],[101.93416133937437,-1.0337818288129492],[101.9531018485715,-1.0680859241324112],[101.95655048691549,-1.136771228938866],[101.94210934796807,-1.146809382465636],[101.93780291377351,-1.1440598689894061],[101.94813923933447,-1.136303567985612],[101.94594152108435,-1.1316300008593423],[101.92291048962743,-1.1293010904111358],[101.91411427285543,-1.139953161635352],[101.89055357308898,-1.121530442522691],[101.88722429636424,-1.1270706314450603],[101.89241903680913,-1.134524411304852],[101.88420111109245,-1.1347291653507916]]]}},{"type":"Feature","properties":{"code":"1509062003","desa":"Teluk Kayu Putih","kecamatan":"VII Koto","kecCode":"150906"},"geometry":{"type":"Polygon","coordinates":[[[101.89567717626073,-0.9564336533212285],[101.90777778641575,-0.9524999773273052],[101.90972221241024,-0.9413889317014881],[101.91582313313113,-0.9393874545172939],[101.9129657711535,-0.9222207060897379],[101.9199690554276,-0.9191870706991475],[101.9667387516921,-1.0220244170509223],[101.99424732955066,-1.160173547275126],[102.0071820186353,-1.1813846359722369],[102.006569759287,-1.2080188587337812],[101.98249112106843,-1.215114723708017],[101.95703208915967,-1.2109813667437745],[101.94423208794056,-1.17358136787462],[101.96313848225519,-1.1701096754138207],[101.97155853060177,-1.15475352936164],[101.96229465107734,-1.1535010615359311],[101.96655497523199,-1.1392107434082142],[101.95191210396047,-1.1427283498566205],[101.9566078366824,-1.134249315885862],[101.95331005241705,-1.0687997619050174],[101.93416133937437,-1.0337818288129492],[101.92212126708284,-1.024387716674816],[101.91422145675487,-0.9965956131830294],[101.91859966494262,-0.9811291158193193],[101.89567717626073,-0.9564336533212285]]]}},{"type":"Feature","properties":{"code":"1509062004","desa":"Sungai Abang","kecamatan":"VII Koto","kecCode":"150906"},"geometry":{"type":"Polygon","coordinates":[[[101.9199690554276,-0.9191870706991475],[101.93138889767954,-0.9108333320742653],[101.9403046037745,-0.9152670446152176],[101.94881217863916,-0.907694208006497],[101.96238033488457,-0.9173214424051517],[101.96868184489131,-0.9075716034320938],[101.99376633794623,-0.9276220396883513],[102.02028834063447,-1.0040472841325883],[102.02427661177626,-1.114023858969015],[102.03643564728736,-1.155332016468522],[102.0228003764363,-1.1581991342885527],[102.00366376107377,-1.1796139194288722],[101.99424732955066,-1.160173547275126],[101.9667387516921,-1.0220244170509223],[101.9199690554276,-0.9191870706991475]]]}},{"type":"Feature","properties":{"code":"1509062005","desa":"Aur Cino","kecamatan":"VII Koto","kecCode":"150906"},"geometry":{"type":"Polygon","coordinates":[[[101.96868184489131,-0.9075716034320938],[101.98611111623507,-0.881111129689736],[101.99638887074984,-0.8847222656308612],[102.01478876329087,-0.8784579228127003],[102.04885073957,-1.028739727606551],[102.05920154871256,-1.1039556105293957],[102.05152353188555,-1.1623203540024523],[102.03643564728736,-1.155332016468522],[102.02427661177626,-1.114023858969015],[102.02028834063447,-1.0040472841325883],[101.99376633794623,-0.9276220396883513],[101.96868184489131,-0.9075716034320938]]]}},{"type":"Feature","properties":{"code":"1509062007","desa":"Muara Niro","kecamatan":"VII Koto","kecCode":"150906"},"geometry":{"type":"Polygon","coordinates":[[[102.006569759287,-1.2080188587337812],[102.0060261406939,-1.1780853210644742],[102.0228003764363,-1.1581991342885527],[102.03669849304104,-1.1553057319831148],[102.04734792476698,-1.1744010783350018],[102.04078551064286,-1.202055305864735],[102.006569759287,-1.2080188587337812]]]}},{"type":"Feature","properties":{"code":"1509062013","desa":"Teluk Lancang","kecamatan":"VII Koto","kecCode":"150906"},"geometry":{"type":"Polygon","coordinates":[[[101.83126399283906,-1.1105760668909506],[101.82473401726116,-1.0874969586024383],[101.8282960097531,-1.067706011829726],[101.82153202428354,-1.0591740329715331],[101.82563888902358,-1.0383611101166437],[101.81941578910742,-1.0331798729979955],[101.82145585890082,-1.0181060286323833],[101.83890754944387,-1.0209589137817263],[101.8394837477768,-1.0948660466072486],[101.84703200772105,-1.1085550123651433],[101.83126399283906,-1.1105760668909506]]]}},{"type":"Feature","properties":{"code":"1509062014","desa":"Dusun Baru","kecamatan":"VII Koto","kecCode":"150906"},"geometry":{"type":"Polygon","coordinates":[[[102.01534073208916,-0.8803400770486572],[102.04833333621455,-0.900295875847446],[102.09157724939057,-1.0949927305064062],[102.09302211008234,-1.1237009149096395],[102.07170506233881,-1.1244822396071616],[102.06125277729387,-1.1620530368198145],[102.05074591059535,-1.1595660354486108],[102.05920154871256,-1.1039556105293957],[102.04885073957,-1.028739727606551],[102.01534073208916,-0.8803400770486572]]]}},{"type":"Feature","properties":{"code":"1509062015","desa":"Tabun","kecamatan":"VII Koto","kecCode":"150906"},"geometry":{"type":"Polygon","coordinates":[[[102.06125277729387,-1.1620530368198145],[102.07170506233881,-1.1244822396071616],[102.09302211008234,-1.1237009149096395],[102.10079887067137,-1.1519238997810406],[102.09052753641674,-1.148639177272806],[102.08707899070292,-1.1541900294566725],[102.11245472470586,-1.168295905626179],[102.12018870994109,-1.1906205519667072],[102.10806712489797,-1.199039034584229],[102.07451578277721,-1.2007358565330852],[102.06790811566707,-1.1654892744082688],[102.06125277729387,-1.1620530368198145]]]}},{"type":"Feature","properties":{"code":"1509062016","desa":"Muara Tabun","kecamatan":"VII Koto","kecCode":"150906"},"geometry":{"type":"Polygon","coordinates":[[[102.03669849304104,-1.1553057319831148],[102.06790811566707,-1.1654892744082688],[102.07451578277721,-1.2007358565330852],[102.04078551064286,-1.202055305864735],[102.04734792476698,-1.1744010783350018],[102.03669849304104,-1.1553057319831148]]]}},{"type":"Feature","properties":{"code":"1509072001","desa":"Suka Damai","kecamatan":"Rimbo Ulu","kecCode":"150907"},"geometry":{"type":"Polygon","coordinates":[[[102.0776294749204,-1.3089038614621655],[102.04760787740167,-1.3345571810786807],[102.00033758341283,-1.3088146882855007],[101.98470781681236,-1.314833367797247],[101.98844836879726,-1.305703464784783],[101.98048658258976,-1.2929087902643746],[102.00113071800831,-1.2777419613952188],[101.99670386099444,-1.2576894593961983],[102.00944909529954,-1.2566536598347808],[102.03395179443982,-1.2643454659582183],[102.0371878609311,-1.2772314369546163],[102.05527709795977,-1.2850898847550578],[102.0573995762295,-1.2962697815773525],[102.0776294749204,-1.3089038614621655]]]}},{"type":"Feature","properties":{"code":"1509072002","desa":"Wanareja","kecamatan":"Rimbo Ulu","kecCode":"150907"},"geometry":{"type":"Polygon","coordinates":[[[102.09962162843544,-1.2740270095158412],[102.0776294749204,-1.3089038614621655],[102.0573995762295,-1.2962697815773525],[102.05527709795977,-1.2850898847550578],[102.0371878609311,-1.2772314369546163],[102.03395179443982,-1.2643454659582183],[102.00944909529954,-1.2566536598347808],[101.99120787104646,-1.25810251351488],[101.98957213734434,-1.2318387610738895],[102.03029926809683,-1.2332848250569262],[102.0782478217796,-1.2488840047978889],[102.1133306715733,-1.2381964220440451],[102.10585298322864,-1.249483703314553],[102.10875225361366,-1.2771515618685747],[102.09962162843544,-1.2740270095158412]]]}},{"type":"Feature","properties":{"code":"1509072003","desa":"Sumber Sari","kecamatan":"Rimbo Ulu","kecCode":"150907"},"geometry":{"type":"Polygon","coordinates":[[[102.13212529094949,-1.2069944697705632],[102.12722586628077,-1.2345099966599744],[102.0782478217796,-1.2488840047978889],[102.03029926809683,-1.2332848250569262],[101.98957213734434,-1.2318387610738895],[101.99200241757755,-1.2123124784837265],[102.03651428400707,-1.2023498725053527],[102.10806712489797,-1.199039034584229],[102.12018870994109,-1.1906205519667072],[102.13212529094949,-1.2069944697705632]]]}},{"type":"Feature","properties":{"code":"1509072004","desa":"Sido Rukun","kecamatan":"Rimbo Ulu","kecCode":"150907"},"geometry":{"type":"Polygon","coordinates":[[[101.92048948410245,-1.280395950682457],[101.91968767104925,-1.2500540506575488],[101.92936287709516,-1.2387024588676772],[101.95817010026997,-1.2318572808127686],[101.96497359925229,-1.2139400058704173],[101.99200241757755,-1.2123124784837265],[101.98856196935945,-1.2493488292894583],[101.99120787104646,-1.25810251351488],[101.99670386099444,-1.2576894593961983],[102.00115213266484,-1.2776241789856055],[101.99052820391353,-1.2878701208709613],[101.96380673159545,-1.299497175902564],[101.94194441680145,-1.2842494817937273],[101.92048948410245,-1.280395950682457]]]}},{"type":"Feature","properties":{"code":"1509072005","desa":"Sungai Pandan","kecamatan":"Rimbo Ulu","kecCode":"150907"},"geometry":{"type":"Polygon","coordinates":[[[101.95498115825391,-1.3427068536388918],[101.93298403328657,-1.3443079391588475],[101.9321112367442,-1.3067338756084532],[101.92048948410245,-1.280395950682457],[101.94194441680145,-1.2842494817937273],[101.96380673159545,-1.299497175902564],[101.98358449432901,-1.2956385968966297],[101.98745613329395,-1.3116425983623663],[101.97090646456172,-1.3184360752921997],[101.95498115825391,-1.3427068536388918]]]}},{"type":"Feature","properties":{"code":"1509072006","desa":"Suka Maju","kecamatan":"Rimbo Ulu","kecCode":"150907"},"geometry":{"type":"Polygon","coordinates":[[[102.0272617521282,-1.373984178093103],[102.00371728872192,-1.3524734119081423],[101.99176657127032,-1.3577981574428084],[101.98777902228407,-1.3503817354207401],[101.95658016724097,-1.3426247122613062],[101.97090646456172,-1.3184360752921997],[102.00033758341283,-1.3088146882855007],[102.03942086588029,-1.3322486276841934],[102.05712742429124,-1.331384126489373],[102.0272617521282,-1.373984178093103]]]}},{"type":"Feature","properties":{"code":"1509082001","desa":"Giriwinangun","kecamatan":"Rimbo Ilir","kecCode":"150908"},"geometry":{"type":"Polygon","coordinates":[[[102.29264642868979,-1.3504453822405305],[102.29375454273804,-1.3602454591416893],[102.26920855383173,-1.3722883148215264],[102.25936265556214,-1.399748350842857],[102.24377904306844,-1.411323777594557],[102.21024405242116,-1.3780032213328899],[102.18373731662392,-1.372190508153204],[102.21504113334167,-1.3625087208793112],[102.22055696323332,-1.3466811915798642],[102.2331729640611,-1.3496866458148389],[102.2425455266548,-1.3345852615101803],[102.26933391572771,-1.315338093409274],[102.27369677158879,-1.3536111091537946],[102.29264642868979,-1.3504453822405305]]]}},{"type":"Feature","properties":{"code":"1509082002","desa":"Sidorejo","kecamatan":"Rimbo Ilir","kecCode":"150908"},"geometry":{"type":"Polygon","coordinates":[[[102.29669558573276,-1.4587973192124475],[102.28807420166316,-1.442754509302509],[102.29116673635586,-1.4602615764804356],[102.26863926499016,-1.4625465730332936],[102.25127659294047,-1.4788534769556299],[102.22865092280193,-1.4700797342512848],[102.27542839820204,-1.4338863431793987],[102.28876461839246,-1.4344394190425516],[102.29466856600158,-1.4454348361351361],[102.31025224504515,-1.4510907039529033],[102.29669558573276,-1.4587973192124475]]]}},{"type":"Feature","properties":{"code":"1509082003","desa":"Pulung Rejo","kecamatan":"Rimbo Ilir","kecCode":"150908"},"geometry":{"type":"Polygon","coordinates":[[[102.22865092280193,-1.4700797342512848],[102.22185179002817,-1.4679767110177124],[102.21058021000874,-1.4761373777900182],[102.18340471855298,-1.4601617535321083],[102.18349812034205,-1.4513731522289126],[102.19851147092771,-1.4549547445416346],[102.20152647236885,-1.447190474645108],[102.21620314196149,-1.4461579836895075],[102.23160329455645,-1.4609484444841956],[102.22865092280193,-1.4700797342512848]]]}},{"type":"Feature","properties":{"code":"1509082004","desa":"Karang Dadi","kecamatan":"Rimbo Ilir","kecCode":"150908"},"geometry":{"type":"Polygon","coordinates":[[[102.18348116992011,-1.4514628856832656],[102.17878355042058,-1.4272463562409259],[102.18779463321577,-1.426443961327167],[102.1873324140597,-1.4195510832309879],[102.16281626196097,-1.41863419023187],[102.16324748508343,-1.3843220918453658],[102.16949499889512,-1.3733012967839544],[102.16830636764477,-1.378591794336482],[102.21109072275868,-1.388975936839097],[102.21499345038751,-1.4238345550310363],[102.22722061583879,-1.4366372533027436],[102.2351545338547,-1.429564367805276],[102.25424661928609,-1.4464800066321806],[102.23108667540981,-1.4658593265103503],[102.21620314196149,-1.4461579836895075],[102.20152647236885,-1.447190474645108],[102.19851147092771,-1.4549547445416346],[102.18348116992011,-1.4514628856832656]]]}},{"type":"Feature","properties":{"code":"1509082005","desa":"Giri Purno","kecamatan":"Rimbo Ilir","kecCode":"150908"},"geometry":{"type":"Polygon","coordinates":[[[102.24377904306844,-1.411323777594557],[102.25936265556214,-1.399748350842857],[102.27396897029182,-1.408168222013625],[102.27367645230645,-1.4378636866546024],[102.25424661928609,-1.4464800066321806],[102.2351545338547,-1.429564367805276],[102.24377904306844,-1.411323777594557]]]}},{"type":"Feature","properties":{"code":"1509082006","desa":"Sumber Agung","kecamatan":"Rimbo Ilir","kecCode":"150908"},"geometry":{"type":"Polygon","coordinates":[[[102.29375454273804,-1.3602454591416893],[102.32825483329394,-1.3948611344763113],[102.30942384083767,-1.4134394704770812],[102.3148847032665,-1.421595786329332],[102.29637387665315,-1.4219575799907953],[102.27366664340094,-1.4359827752817116],[102.27396897029182,-1.408168222013625],[102.25677630338372,-1.398448118224689],[102.26920855383173,-1.3722883148215264],[102.29375454273804,-1.3602454591416893]]]}},{"type":"Feature","properties":{"code":"1509082007","desa":"Sarimulya","kecamatan":"Rimbo Ilir","kecCode":"150908"},"geometry":{"type":"Polygon","coordinates":[[[102.37563282109788,-1.4342780455940791],[102.35881869862408,-1.4496416686098428],[102.31025224504515,-1.4510907039529033],[102.29466856600158,-1.4454348361351361],[102.28876461839246,-1.4344394190425516],[102.27975226755318,-1.4339878379674036],[102.29637387665315,-1.4219575799907953],[102.3148847032665,-1.421595786329332],[102.30942384083767,-1.4134394704770812],[102.32825483329394,-1.3948611344763113],[102.38867958639383,-1.4091345570408729],[102.37563282109788,-1.4342780455940791]]]}},{"type":"Feature","properties":{"code":"1509082008","desa":"Sepakat Bersatu","kecamatan":"Rimbo Ilir","kecCode":"150908"},"geometry":{"type":"Polygon","coordinates":[[[102.17836715442068,-1.3788117622134717],[102.18373731662392,-1.372190508153204],[102.19868082855741,-1.3744594455122363],[102.21986241861578,-1.3855255520155667],[102.24304527002323,-1.4087623006667307],[102.2351545338547,-1.429564367805276],[102.22722061583879,-1.4366372533027436],[102.21499345038751,-1.4238345550310363],[102.21109072275868,-1.388975936839097],[102.17836715442068,-1.3788117622134717]]]}},{"type":"Feature","properties":{"code":"1509082009","desa":"Rantau Kembang","kecamatan":"Rimbo Ilir","kecCode":"150908"},"geometry":{"type":"Polygon","coordinates":[[[102.25688198361671,-1.3068283017252196],[102.26933391572771,-1.315338093409274],[102.2425455266548,-1.3345852615101803],[102.2331729640611,-1.3496866458148389],[102.22055696323332,-1.3466811915798642],[102.21521899855799,-1.3251398448480551],[102.25688198361671,-1.3068283017252196]]]}},{"type":"Feature","properties":{"code":"1509092001","desa":"Muara Kilis","kecamatan":"Tengah Ilir","kecCode":"150909"},"geometry":{"type":"Polygon","coordinates":[[[102.58376750066968,-1.4764181281460225],[102.58260562964612,-1.4564282756185956],[102.59531845778065,-1.4169862158591764],[102.6488992037353,-1.328481251624808],[102.70474803809155,-1.3578285716150318],[102.69772456943338,-1.4054652727348982],[102.664408850588,-1.4483507250890113],[102.60809237326445,-1.4678610249277757],[102.60673689888881,-1.47831629750896],[102.58376750066968,-1.4764181281460225]]]}},{"type":"Feature","properties":{"code":"1509092002","desa":"Penapalan","kecamatan":"Tengah Ilir","kecCode":"150909"},"geometry":{"type":"Polygon","coordinates":[[[102.62346503358445,-1.5147959140095337],[102.58136513629205,-1.5149226302843528],[102.58376750066968,-1.4764181281460225],[102.61519284367482,-1.4741713950482527],[102.62192671804364,-1.4846600594569344],[102.62346503358445,-1.5147959140095337]]]}},{"type":"Feature","properties":{"code":"1509092003","desa":"Mengupeh","kecamatan":"Tengah Ilir","kecCode":"150909"},"geometry":{"type":"Polygon","coordinates":[[[102.60741253166303,-1.4778911475087493],[102.60809237326445,-1.4678610249277757],[102.65743179234339,-1.4514970761087296],[102.67514241209273,-1.4658178614688349],[102.65304656674573,-1.4834782225860443],[102.62200244185924,-1.4952325244924738],[102.61519284367482,-1.4741713950482527],[102.60741253166303,-1.4778911475087493]]]}},{"type":"Feature","properties":{"code":"1509092004","desa":"Rantau Api","kecamatan":"Tengah Ilir","kecCode":"150909"},"geometry":{"type":"Polygon","coordinates":[[[102.60085705041261,-1.5628616843751633],[102.61122934435883,-1.5148327421465797],[102.62346503358445,-1.5147959140095337],[102.62200244185924,-1.4952325244924738],[102.65304656674573,-1.4834782225860443],[102.68155318073474,-1.4603498710195175],[102.69251293342516,-1.4781422652034153],[102.67145231027598,-1.505148388207588],[102.65782864967252,-1.5381809806510751],[102.60085705041261,-1.5628616843751633]]]}},{"type":"Feature","properties":{"code":"1509092005","desa":"Lubuk Mandarsah","kecamatan":"Tengah Ilir","kecCode":"150909"},"geometry":{"type":"Polygon","coordinates":[[[102.8021682183886,-1.3765757742155218],[102.79318147844252,-1.3893326106601587],[102.80131049808108,-1.4069122666169973],[102.77685545131806,-1.4118072711123966],[102.7734408622061,-1.4300384535152646],[102.76097585305325,-1.4391434030389787],[102.73946422799179,-1.4357031580714281],[102.72247217555052,-1.4425238664728486],[102.69251293342516,-1.4781422652034153],[102.68155318073474,-1.4603498710195175],[102.67514241209273,-1.4658178614688349],[102.65743179234339,-1.4514970761087296],[102.69772456943338,-1.4054652727348982],[102.70474803809155,-1.3578285716150318],[102.6488992037353,-1.328481251624808],[102.70816155521167,-1.246620294298595],[102.71777212878078,-1.2491185425913536],[102.72434667565862,-1.2622856677394059],[102.74628333111086,-1.261413126605488],[102.76007554535022,-1.2752321559149378],[102.7662256697789,-1.2981115814345043],[102.78085780674245,-1.3103731981011102],[102.78883333009418,-1.3339722161551468],[102.78497222398902,-1.3399444411866295],[102.8021682183886,-1.3765757742155218]]]}},{"type":"Feature","properties":{"code":"1509102001","desa":"Pinang Belai","kecamatan":"Serai Serumpun","kecCode":"150910"},"geometry":{"type":"Polygon","coordinates":[[[102.36723913367915,-1.3226221972794876],[102.36492083342976,-1.3033676826167346],[102.37022445659345,-1.2965415638939886],[102.3541916489255,-1.2753027922655533],[102.36612711837188,-1.2552955927152316],[102.39157842420497,-1.2721066215024777],[102.40303873594894,-1.2976582098091567],[102.38522011301784,-1.30901162992083],[102.3943996370337,-1.3232469931764388],[102.37953720168058,-1.3263928153947802],[102.37549011757493,-1.335112576293362],[102.36106693269284,-1.3342317506047792],[102.36723913367915,-1.3226221972794876]]]}},{"type":"Feature","properties":{"code":"1509102002","desa":"Sekutur Jaya","kecamatan":"Serai Serumpun","kecCode":"150910"},"geometry":{"type":"Polygon","coordinates":[[[102.36492083342976,-1.3033676826167346],[102.35604040683938,-1.2911609461785865],[102.35922412559296,-1.2864210603468291],[102.35381323039633,-1.2802106678581384],[102.35398708463627,-1.2707422393435002],[102.33696444625222,-1.262561142672286],[102.30477547270992,-1.2959248762846316],[102.29581899495071,-1.284573216146219],[102.29793103658812,-1.2728707196862128],[102.31760315056498,-1.2687908516992166],[102.32294435459835,-1.2574479617494254],[102.32014878144116,-1.2413293039176128],[102.352197563267,-1.226817360462325],[102.37405348028398,-1.2244004747343216],[102.3793323082395,-1.2650564798595825],[102.36598435189636,-1.2553526996651057],[102.3541916489255,-1.2753027922655533],[102.37022445659345,-1.2965415638939886],[102.36492083342976,-1.3033676826167346]]]}},{"type":"Feature","properties":{"code":"1509102003","desa":"Bukit Pamuatan","kecamatan":"Serai Serumpun","kecCode":"150910"},"geometry":{"type":"Polygon","coordinates":[[[102.29795660970983,-1.2560801324890742],[102.29772814503792,-1.2454912773093272],[102.2828038264355,-1.2403749244776263],[102.29633694689267,-1.22424372380121],[102.28154253176251,-1.2090166979116126],[102.32452969838693,-1.159020059732964],[102.32746492186868,-1.1425646192850865],[102.36505355627669,-1.18001384794236],[102.37405348028398,-1.2244004747343216],[102.31899512302657,-1.2393852007818866],[102.29795660970983,-1.2560801324890742]]]}},{"type":"Feature","properties":{"code":"1509102004","desa":"Napal Putih","kecamatan":"Serai Serumpun","kecCode":"150910"},"geometry":{"type":"Polygon","coordinates":[[[102.26042095076632,-1.2078719490817955],[102.26023726963432,-1.200848866240574],[102.25413534167274,-1.1994850533524943],[102.25613157401301,-1.1905515937509286],[102.24645324731954,-1.1845992707162856],[102.2598865187479,-1.1708404132463257],[102.28138781869295,-1.1087144351841298],[102.3214756708656,-1.1347549974771922],[102.32746492186868,-1.1425646192850865],[102.32452969838693,-1.159020059732964],[102.28136741307571,-1.2093278183730873],[102.26042095076632,-1.2078719490817955]]]}},{"type":"Feature","properties":{"code":"1509102005","desa":"Sako Makmur","kecamatan":"Serai Serumpun","kecCode":"150910"},"geometry":{"type":"Polygon","coordinates":[[[102.20290255111189,-0.9470926767268818],[102.22138888199134,-0.9461111062848659],[102.22949964179509,-0.9377487773358542],[102.24450425996366,-1.0261451268492021],[102.25097664565571,-1.0311068736308358],[102.25048132875035,-1.0421425479754516],[102.27256928074773,-1.0608790450462335],[102.25770404040918,-1.0841437707068657],[102.2645158257448,-1.0991570565246167],[102.28138781869295,-1.1087144351841298],[102.2598865187479,-1.1708404132463257],[102.24645324731954,-1.1845992707162856],[102.22655254456437,-1.17975153278888],[102.22178722679915,-1.1502219498979065],[102.18908347232446,-1.143948656127375],[102.2040474753108,-1.1162428210020696],[102.19409640672387,-1.1124943540880192],[102.20696246224786,-1.0903081062156565],[102.21302886429072,-1.0633271183634625],[102.20290255111189,-0.9470926767268818]]]}},{"type":"Feature","properties":{"code":"1509102006","desa":"Pagar Puding Lamo","kecamatan":"Serai Serumpun","kecCode":"150910"},"geometry":{"type":"Polygon","coordinates":[[[102.37549011757493,-1.335112576293362],[102.34707176485011,-1.3635157502290784],[102.35549796186147,-1.3778918043247146],[102.34957185135993,-1.3804424642069308],[102.33752583904628,-1.3732485182711087],[102.33549455472996,-1.3605700082799157],[102.32222695820762,-1.3614734995820368],[102.3205964774455,-1.3438771603019308],[102.3312256636335,-1.331659529476577],[102.37549011757493,-1.335112576293362]]]}},{"type":"Feature","properties":{"code":"1509102007","desa":"Tanjung Aur Seberang","kecamatan":"Serai Serumpun","kecCode":"150910"},"geometry":{"type":"Polygon","coordinates":[[[102.29166318640699,-1.2807011194306572],[102.27789324657613,-1.2788951089936562],[102.27616813555107,-1.2674736956388084],[102.29712881883994,-1.2585411344599826],[102.31899512302657,-1.2393852007818866],[102.32294435459835,-1.2574479617494254],[102.31760315056498,-1.2687908516992166],[102.29793103658812,-1.2728707196862128],[102.28869132544433,-1.2668561177005968],[102.29166318640699,-1.2807011194306572]]]}},{"type":"Feature","properties":{"code":"1509102008","desa":"Teluk Melintang","kecamatan":"Serai Serumpun","kecCode":"150910"},"geometry":{"type":"Polygon","coordinates":[[[102.24961293438946,-1.2474732257153114],[102.24962222258755,-1.2263728984205702],[102.24042619061629,-1.209667003977656],[102.28154253176251,-1.2090166979116126],[102.29633694689267,-1.22424372380121],[102.28949170497826,-1.231068239032757],[102.27015462443642,-1.2317955054821867],[102.27148657974193,-1.2414910361955518],[102.24961293438946,-1.2474732257153114]]]}},{"type":"Feature","properties":{"code":"1509112001","desa":"Teluk Kepayang Pulau Indah","kecamatan":"VII Koto Ilir","kecCode":"150911"},"geometry":{"type":"Polygon","coordinates":[[[102.10079887067137,-1.1519238997810406],[102.082073851627,-1.055595314892136],[102.09823504740956,-1.0546560026937286],[102.1112391632568,-1.0569620253959227],[102.11084344357009,-1.0835494564313621],[102.11917155782118,-1.0915206504378778],[102.12946272662361,-1.1223941577100283],[102.13939697698898,-1.1309007307204701],[102.13982369360859,-1.1466456249144694],[102.12750920398662,-1.1537490468918588],[102.12357810544529,-1.1674514413265846],[102.11300431569667,-1.1691849493196433],[102.08844743240314,-1.1571250496883732],[102.09052753641674,-1.148639177272806],[102.10079887067137,-1.1519238997810406]]]}},{"type":"Feature","properties":{"code":"1509112002","desa":"Balai Rajo","kecamatan":"VII Koto Ilir","kecCode":"150911"},"geometry":{"type":"Polygon","coordinates":[[[102.04833333621455,-0.900295875847446],[102.06561530939905,-0.8894812944317648],[102.11722221972973,-0.9211110847790055],[102.1259784850191,-0.9211132890173507],[102.13894252437807,-0.9122119370114149],[102.14117747186286,-0.9005115557569209],[102.15917437369842,-0.904969155190643],[102.16645312840922,-0.8997621021333939],[102.17474643619914,-0.9172412327712168],[102.1889965951168,-0.9163283759294072],[102.19027780977314,-0.944999970515839],[102.20290255111189,-0.9470926767268818],[102.21302886429072,-1.0633271183634625],[102.20696246224786,-1.0903081062156565],[102.19409640672387,-1.1124943540880192],[102.18397006566606,-1.110960434435031],[102.18825434686066,-1.1034638837181452],[102.18373337039877,-1.0916855519267388],[102.16541152192427,-1.077884679030097],[102.13393338331906,-1.090505686369668],[102.13964409090214,-1.0968445703948786],[102.13311485007034,-1.103526097018574],[102.14400326224079,-1.1198016110042197],[102.13844484135643,-1.1255884596819272],[102.15119875232062,-1.1336405558003],[102.14417010176884,-1.1488278055751617],[102.15487298559985,-1.1499753548938156],[102.12625562909409,-1.1925226603601784],[102.12018870994109,-1.1906205519667072],[102.11300431569667,-1.1691849493196433],[102.12357810544529,-1.1674514413265846],[102.12750920398662,-1.1537490468918588],[102.13982369360859,-1.1466456249144694],[102.13984272865905,-1.1336632843662808],[102.11084344357009,-1.0835494564313621],[102.1112391632568,-1.0569620253959227],[102.1406183822326,-1.0602635094684212],[102.14255548684626,-1.0411936849768852],[102.13655715808642,-1.0285858724903578],[102.07902543407657,-1.0290406425614316],[102.04833333621455,-0.900295875847446]]]}},{"type":"Feature","properties":{"code":"1509112003","desa":"Cermin Alam","kecamatan":"VII Koto Ilir","kecCode":"150911"},"geometry":{"type":"Polygon","coordinates":[[[102.16910722202073,-1.1735546786942603],[102.16026984867466,-1.211740732694958],[102.12686416075246,-1.204109293563846],[102.12391415871149,-1.191788560861927],[102.14255624857208,-1.169728419524032],[102.15022716075492,-1.1776535673424942],[102.16910722202073,-1.1735546786942603]]]}},{"type":"Feature","properties":{"code":"1509112004","desa":"Sungai Karang","kecamatan":"VII Koto Ilir","kecCode":"150911"},"geometry":{"type":"Polygon","coordinates":[[[102.082073851627,-1.055595314892136],[102.07902543407657,-1.0290406425614316],[102.13655715808642,-1.0285858724903578],[102.14413430605343,-1.0490086226773863],[102.1406183822326,-1.0602635094684212],[102.13168519331707,-1.0626076103653601],[102.082073851627,-1.055595314892136]]]}},{"type":"Feature","properties":{"code":"1509112005","desa":"Paseban","kecamatan":"VII Koto Ilir","kecCode":"150911"},"geometry":{"type":"Polygon","coordinates":[[[102.2040474753108,-1.1162428210020696],[102.17733689288337,-1.1707018016388342],[102.15022716075492,-1.1776535673424942],[102.14016556368988,-1.1676559867297813],[102.17128577481871,-1.1402492400363038],[102.18397006566606,-1.110960434435031],[102.2040474753108,-1.1162428210020696]]]}},{"type":"Feature","properties":{"code":"1509112006","desa":"Pasir Mayang","kecamatan":"VII Koto Ilir","kecCode":"150911"},"geometry":{"type":"Polygon","coordinates":[[[102.15487298559985,-1.1499753548938156],[102.14417010176884,-1.1488278055751617],[102.15119875232062,-1.1336405558003],[102.13844484135643,-1.1255884596819272],[102.14400326224079,-1.1198016110042197],[102.13311485007034,-1.103526097018574],[102.13964409090214,-1.0968445703948786],[102.13393338331906,-1.090505686369668],[102.16541152192427,-1.077884679030097],[102.18373337039877,-1.0916855519267388],[102.18825434686066,-1.1034638837181452],[102.17128577481871,-1.1402492400363038],[102.15487298559985,-1.1499753548938156]]]}},{"type":"Feature","properties":{"code":"1509122001","desa":"Tanah Garo","kecamatan":"Muara Tabir","kecCode":"150912"},"geometry":{"type":"Polygon","coordinates":[[[102.45831111116888,-1.8999555539881645],[102.45824722243144,-1.8852861086658177],[102.48587500003129,-1.8842611090628951],[102.47251312128354,-1.85639620814922],[102.4568520097125,-1.8503295408131275],[102.48161697904038,-1.803284373264737],[102.49688333319932,-1.7970166651834019],[102.48996448087615,-1.770462332796228],[102.50382392303565,-1.775746950581263],[102.58031814196875,-1.7704288879087282],[102.58337194286092,-1.7495752923148842],[102.60173989328149,-1.7417154856388362],[102.59941095675032,-1.7187640379130629],[102.58954986983069,-1.7034841201960251],[102.6364020186383,-1.706837772141786],[102.65049270257622,-1.698689243519092],[102.66461980096312,-1.7083660350590832],[102.6719247457305,-1.6968423058351374],[102.6667715944336,-1.682215291426184],[102.68267182044819,-1.6719388751139699],[102.68640062279059,-1.6437656910999587],[102.69244507238226,-1.6507311849547455],[102.68842226907253,-1.6602509395771066],[102.7104032548064,-1.6911105972899219],[102.71328949401497,-1.7038296738999255],[102.7060871016385,-1.7063613868653698],[102.71423934087295,-1.7182331824990114],[102.69845622457518,-1.7222404140431369],[102.6677777784218,-1.7569444423729208],[102.66432344557062,-1.8133512286546198],[102.65893996620655,-1.8200744190701255],[102.63312331259083,-1.8372073529888844],[102.5902796795636,-1.8820286086358113],[102.56573201072375,-1.8869530740221137],[102.51962530096692,-1.8570864243289653],[102.4969640770306,-1.8520971331116527],[102.49597865389183,-1.8794398399818437],[102.4886197605935,-1.8897602151556765],[102.45831111116888,-1.8999555539881645]]]}},{"type":"Feature","properties":{"code":"1509122002","desa":"Pintas Tuo","kecamatan":"Muara Tabir","kecCode":"150912"},"geometry":{"type":"Polygon","coordinates":[[[102.57506251832064,-1.5496963560724986],[102.6016369029208,-1.56273223865799],[102.60268694594582,-1.6001372638382403],[102.64318077457311,-1.6132125628096357],[102.62772898470494,-1.6434889508209556],[102.56724745920292,-1.6628630555306039],[102.55086384758856,-1.657394601930453],[102.54876944975034,-1.6487543599864118],[102.5595595363436,-1.6362536270777597],[102.57506251832064,-1.5496963560724986]]]}},{"type":"Feature","properties":{"code":"1509122003","desa":"Embacang Gedang","kecamatan":"Muara Tabir","kecCode":"150912"},"geometry":{"type":"Polygon","coordinates":[[[102.5166388889736,-1.6707777757100166],[102.5276666672829,-1.6618888874084035],[102.52826536935142,-1.6502265969389571],[102.51258376582818,-1.6589783530179334],[102.47501309088148,-1.6498672521314464],[102.4702501311387,-1.6551782758103608],[102.47027786982791,-1.6494282957391877],[102.51312643203926,-1.6494131979206659],[102.51291642235509,-1.6394737530822028],[102.48902643762004,-1.6459811448777084],[102.48899513311896,-1.5953282012554526],[102.48121525727834,-1.5955072769589884],[102.48054979313848,-1.5806814296404104],[102.52289434200037,-1.5740779875526194],[102.52254764255973,-1.5688657265213333],[102.54764058474522,-1.559782491128441],[102.55301816455669,-1.5441256378646233],[102.56723885808691,-1.531084314380807],[102.57894261900672,-1.5318523884673134],[102.56098721368903,-1.63022169335769],[102.54885154076605,-1.6485009472218808],[102.54878931487502,-1.6642497795471836],[102.5166388889736,-1.6707777757100166]]]}},{"type":"Feature","properties":{"code":"1509122004","desa":"Bangun Seranten","kecamatan":"Muara Tabir","kecCode":"150912"},"geometry":{"type":"Polygon","coordinates":[[[102.5062001684031,-1.7399146966655992],[102.51429194711574,-1.7075586129351241],[102.48933333306695,-1.7100555545129419],[102.49352777828437,-1.696527776043742],[102.51855555559449,-1.6886666653507416],[102.55813396880767,-1.7021716720864795],[102.5436386412104,-1.7158126850936972],[102.54629697602468,-1.7240925749895089],[102.53816511362913,-1.7374608488015104],[102.5062001684031,-1.7399146966655992]]]}},{"type":"Feature","properties":{"code":"1509122005","desa":"Tambun Arang","kecamatan":"Muara Tabir","kecCode":"150912"},"geometry":{"type":"Polygon","coordinates":[[[102.64318077457311,-1.6132125628096357],[102.66543858782062,-1.6154234390381361],[102.66928739389817,-1.6301549600646652],[102.68640062279059,-1.6437656910999587],[102.6836373020199,-1.6646441187741012],[102.64295936058606,-1.6559300757651103],[102.64198382909052,-1.6635392278973393],[102.63476489008768,-1.6635392278973393],[102.62579899642662,-1.6934272787570437],[102.63778225944377,-1.7001421612354652],[102.6468527640439,-1.6948161341669001],[102.64829101741655,-1.70225313897255],[102.6031035415952,-1.7062706686533566],[102.57931783684874,-1.696991969211229],[102.5547903523929,-1.696356653045061],[102.55647522864894,-1.7021377100887436],[102.54113142487539,-1.694825649893464],[102.55675372890153,-1.6697641507323333],[102.55223037373281,-1.662649562772382],[102.62772898470494,-1.6434889508209556],[102.64318077457311,-1.6132125628096357]]]}},{"type":"Feature","properties":{"code":"1509122006","desa":"Sungai Jernih","kecamatan":"Muara Tabir","kecCode":"150912"},"geometry":{"type":"Polygon","coordinates":[[[102.48668333316937,-1.7597055544055245],[102.5067138890348,-1.7588305536258486],[102.5062001684031,-1.7399146966655992],[102.53816511362913,-1.7374608488015104],[102.54629697602468,-1.7240925749895089],[102.5436386412104,-1.7158126850936972],[102.55833002820827,-1.7042034932957724],[102.5547903523929,-1.696356653045061],[102.57985916396927,-1.6971168913385344],[102.59941095675032,-1.7187640379130629],[102.60172204803416,-1.7417719981367705],[102.58337194286092,-1.7495752923148842],[102.5802134455941,-1.7704955132830986],[102.50254871944793,-1.775694350134191],[102.48996448087615,-1.770462332796228],[102.48668333316937,-1.7597055544055245]]]}},{"type":"Feature","properties":{"code":"1509122007","desa":"Bangko Pintas","kecamatan":"Muara Tabir","kecCode":"150912"},"geometry":{"type":"Polygon","coordinates":[[[102.5195833332043,-1.6902777765128114],[102.52350000032482,-1.685916665341295],[102.5166388889736,-1.6707777757100166],[102.54841811880118,-1.664601940570185],[102.54916247237024,-1.6541916979431737],[102.55490893340061,-1.6589412523862956],[102.55675372890153,-1.6697641507323333],[102.54033430538395,-1.6964317860059315],[102.5195833332043,-1.6902777765128114]]]}},{"type":"Feature","properties":{"code":"1509122008","desa":"Olak Kemang","kecamatan":"Muara Tabir","kecCode":"150912"},"geometry":{"type":"Polygon","coordinates":[[[102.6836373020199,-1.6646441187741012],[102.68267182044819,-1.6719388751139699],[102.6667715944336,-1.682215291426184],[102.6719247457305,-1.6968423058351374],[102.66461980096312,-1.7083660350590832],[102.65384797960064,-1.7054654723515237],[102.6468527640439,-1.6948161341669001],[102.63778225944377,-1.7001421612354652],[102.62579899642662,-1.6934272787570437],[102.63476489008768,-1.6635392278973393],[102.64198382909052,-1.6635392278973393],[102.64295936058606,-1.6559300757651103],[102.6836373020199,-1.6646441187741012]]]}}]}