{"type":"FeatureCollection","features":[{"type":"Feature","properties":{"code":"1572011001","desa":"Sungai Penuh","kecamatan":"Sungai Penuh","kecCode":"157201"},"geometry":{"type":"Polygon","coordinates":[[[101.40038618757255,-2.0567196594941106],[101.39877064185167,-2.062389377770792],[101.39718922090587,-2.0630306528448306],[101.39550494090037,-2.061609795959395],[101.40038618757255,-2.0567196594941106]]]}},{"type":"Feature","properties":{"code":"1572011003","desa":"Pasar Sungai Penuh","kecamatan":"Sungai Penuh","kecCode":"157201"},"geometry":{"type":"Polygon","coordinates":[[[101.39124486405927,-2.0638590831317583],[101.39658316058444,-2.0647498849997814],[101.39045251187399,-2.0653490834933503],[101.39124486405927,-2.0638590831317583]]]}},{"type":"Feature","properties":{"code":"1572012004","desa":"Pasar Baru","kecamatan":"Sungai Penuh","kecCode":"157201"},"geometry":{"type":"Polygon","coordinates":[[[101.39658316058444,-2.0647498849997814],[101.39877064185167,-2.062389377770792],[101.39741666574655,-2.065305553608359],[101.39658316058444,-2.0647498849997814]]]}},{"type":"Feature","properties":{"code":"1572012006","desa":"Gedang","kecamatan":"Sungai Penuh","kecCode":"157201"},"geometry":{"type":"Polygon","coordinates":[[[101.39877064185167,-2.062389377770792],[101.40054684965746,-2.055545417397833],[101.41074202842191,-2.052067921611912],[101.42510471770862,-2.070882328750304],[101.39877064185167,-2.062389377770792]]]}},{"type":"Feature","properties":{"code":"1572012014","desa":"Amar Sakti","kecamatan":"Sungai Penuh","kecCode":"157201"},"geometry":{"type":"Polygon","coordinates":[[[101.39069921659562,-2.0673779279467266],[101.39343090641124,-2.065940293309229],[101.3934829726611,-2.066702167469472],[101.39069921659562,-2.0673779279467266]]]}},{"type":"Feature","properties":{"code":"1572022001","desa":"Koto Renah","kecamatan":"Pesisir Bukit","kecCode":"157202"},"geometry":{"type":"Polygon","coordinates":[[[101.40043043601587,-2.0484876836781662],[101.38862914541879,-2.0619549584582852],[101.37687858467899,-2.0626034254107424],[101.3893781727645,-2.056064824442271],[101.40043043601587,-2.0484876836781662]]]}},{"type":"Feature","properties":{"code":"1572022002","desa":"Koto Keras","kecamatan":"Pesisir Bukit","kecCode":"157202"},"geometry":{"type":"Polygon","coordinates":[[[101.39967543627245,-2.048090975637048],[101.3893781727645,-2.056064824442271],[101.37196528257182,-2.0649594576132335],[101.37058243463173,-2.064625162521986],[101.39967543627245,-2.048090975637048]]]}},{"type":"Feature","properties":{"code":"1572022003","desa":"Koto Bento","kecamatan":"Pesisir Bukit","kecCode":"157202"},"geometry":{"type":"Polygon","coordinates":[[[101.39875833103218,-2.047357398644823],[101.39085691001843,-2.049768380323621],[101.38868728658905,-2.0436113248267205],[101.39718306504646,-2.0413048389736206],[101.39875833103218,-2.047357398644823]]]}},{"type":"Feature","properties":{"code":"1572022004","desa":"Koto Lolo","kecamatan":"Pesisir Bukit","kecCode":"157202"},"geometry":{"type":"Polygon","coordinates":[[[101.38898338837271,-2.04431693380259],[101.38962823465538,-2.0485773083145733],[101.36076672660323,-2.0607656823953144],[101.35651552157411,-2.0541214137845536],[101.38898338837271,-2.04431693380259]]]}},{"type":"Feature","properties":{"code":"1572022005","desa":"Koto Tengah","kecamatan":"Pesisir Bukit","kecCode":"157202"},"geometry":{"type":"Polygon","coordinates":[[[101.38950385571843,-2.048060898710547],[101.37343909963481,-2.063223593396425],[101.36632849296564,-2.0590840086269244],[101.38950385571843,-2.048060898710547]]]}},{"type":"Feature","properties":{"code":"1572022008","desa":"Koto Duo","kecamatan":"Pesisir Bukit","kecCode":"157202"},"geometry":{"type":"Polygon","coordinates":[[[101.38868728658905,-2.0436113248267205],[101.3655063453416,-2.0499995087871197],[101.35033088026597,-2.040768432044579],[101.38294272942346,-2.035631425382706],[101.38868728658905,-2.0436113248267205]]]}},{"type":"Feature","properties":{"code":"1572022010","desa":"Sungai Liuk","kecamatan":"Pesisir Bukit","kecCode":"157202"},"geometry":{"type":"Polygon","coordinates":[[[101.38196120124849,-2.0352591474248523],[101.38584401159193,-2.0292744919639545],[101.38868728658905,-2.0436113248267205],[101.38196120124849,-2.0352591474248523]]]}},{"type":"Feature","properties":{"code":"1572022011","desa":"Seberang","kecamatan":"Pesisir Bukit","kecCode":"157202"},"geometry":{"type":"Polygon","coordinates":[[[101.38436161859384,-2.034145288508675],[101.38124388309876,-2.035876234333186],[101.37136693483626,-2.0412026391170914],[101.37570236407288,-2.0365755768330707],[101.38436161859384,-2.034145288508675]]]}},{"type":"Feature","properties":{"code":"1572022015","desa":"Sumur Gedang","kecamatan":"Pesisir Bukit","kecCode":"157202"},"geometry":{"type":"Polygon","coordinates":[[[101.29966413019552,-2.026227498043676],[101.3809815598512,-2.0294832947577723],[101.38425063955543,-2.033820038798466],[101.34036792264156,-2.046020358573956],[101.32516458307913,-2.0318029017195],[101.3113284594409,-2.0356295224172483],[101.29966413019552,-2.026227498043676]]]}},{"type":"Feature","properties":{"code":"1572032001","desa":"Kampung Diilir","kecamatan":"Hamparan Rawang","kecCode":"157203"},"geometry":{"type":"Polygon","coordinates":[[[101.40515105657606,-2.0367826655190076],[101.42944121444054,-2.0270019923902898],[101.43287914815419,-2.0307258637457455],[101.40515105657606,-2.0367826655190076]]]}},{"type":"Feature","properties":{"code":"1572032002","desa":"Koto Beringin","kecamatan":"Hamparan Rawang","kecCode":"157203"},"geometry":{"type":"Polygon","coordinates":[[[101.3989084854383,-2.0471957742855262],[101.39707136744971,-2.039429440444836],[101.40431437860576,-2.037166383752675],[101.40547758062593,-2.043256458642977],[101.3989084854383,-2.0471957742855262]]]}},{"type":"Feature","properties":{"code":"1572032003","desa":"Maliki Air","kecamatan":"Hamparan Rawang","kecCode":"157203"},"geometry":{"type":"Polygon","coordinates":[[[101.40484502537765,-2.03557160068163],[101.40341733004577,-2.0362471525160704],[101.40385361365337,-2.0346967231090183],[101.40484502537765,-2.03557160068163]]]}},{"type":"Feature","properties":{"code":"1572032004","desa":"Tanjung","kecamatan":"Hamparan Rawang","kecCode":"157203"},"geometry":{"type":"Polygon","coordinates":[[[101.42228198682432,-2.0597398518188457],[101.4137121303106,-2.060105816535965],[101.41989784630861,-2.053602057102123],[101.42228198682432,-2.0597398518188457]]]}},{"type":"Feature","properties":{"code":"1572032005","desa":"Koto Teluk","kecamatan":"Hamparan Rawang","kecCode":"157203"},"geometry":{"type":"Polygon","coordinates":[[[101.40310443791952,-2.0409349774940804],[101.40771555343008,-2.0392240442829728],[101.40547758062593,-2.043256458642977],[101.40310443791952,-2.0409349774940804]]]}},{"type":"Feature","properties":{"code":"1572032006","desa":"Kampung Dalam","kecamatan":"Hamparan Rawang","kecCode":"157203"},"geometry":{"type":"Polygon","coordinates":[[[101.4045686097536,-2.0359229864890156],[101.41577243125276,-2.0304303842932785],[101.41586603359065,-2.0305695318967003],[101.4045686097536,-2.0359229864890156]]]}},{"type":"Feature","properties":{"code":"1572032007","desa":"Simpang Tiga Rawang","kecamatan":"Hamparan Rawang","kecCode":"157203"},"geometry":{"type":"Polygon","coordinates":[[[101.43287914815419,-2.0307258637457455],[101.43329538407475,-2.0360065056280425],[101.41563718940482,-2.0381684245630485],[101.41074202842191,-2.052067921611912],[101.39875833103218,-2.047357398644823],[101.40989049634935,-2.036225035489036],[101.43287914815419,-2.0307258637457455]]]}},{"type":"Feature","properties":{"code":"1572032008","desa":"Larik Kemahan","kecamatan":"Hamparan Rawang","kecCode":"157203"},"geometry":{"type":"Polygon","coordinates":[[[101.40484502537765,-2.03557160068163],[101.40601190022907,-2.030953886850306],[101.40944089378229,-2.031162388371199],[101.40484502537765,-2.03557160068163]]]}},{"type":"Feature","properties":{"code":"1572032009","desa":"Dusun Diilir","kecamatan":"Hamparan Rawang","kecCode":"157203"},"geometry":{"type":"Polygon","coordinates":[[[101.40744452024846,-2.0411979887227556],[101.40869454641626,-2.035845964052462],[101.41026964422878,-2.036157769797377],[101.40744452024846,-2.0411979887227556]]]}},{"type":"Feature","properties":{"code":"1572032010","desa":"Paling Serumpun","kecamatan":"Hamparan Rawang","kecCode":"157203"},"geometry":{"type":"Polygon","coordinates":[[[101.43759582968387,-2.0370213195094684],[101.4137121303106,-2.060105816535965],[101.41035905482657,-2.05691167284469],[101.41563718940482,-2.0381684245630485],[101.43759582968387,-2.0370213195094684]]]}},{"type":"Feature","properties":{"code":"1572032011","desa":"Koto Dian","kecamatan":"Hamparan Rawang","kecCode":"157203"},"geometry":{"type":"Polygon","coordinates":[[[101.40097434419066,-2.0300997170671193],[101.40413149157513,-2.033340414164056],[101.4028995228947,-2.03685759613255],[101.39998955867127,-2.0367312171034992],[101.40097434419066,-2.0300997170671193]]]}},{"type":"Feature","properties":{"code":"1572032012","desa":"Tanjung Muda","kecamatan":"Hamparan Rawang","kecCode":"157203"},"geometry":{"type":"Polygon","coordinates":[[[101.4247053890425,-2.0690566447442054],[101.41744204241637,-2.0636316598750133],[101.42947829258918,-2.053749638547711],[101.42974174988188,-2.062239422115013],[101.4247053890425,-2.0690566447442054]]]}},{"type":"Feature","properties":{"code":"1572032013","desa":"Cempaka","kecamatan":"Hamparan Rawang","kecCode":"157203"},"geometry":{"type":"Polygon","coordinates":[[[101.40326415931355,-2.0367213713257413],[101.4058944622597,-2.0374868787471456],[101.40492468192859,-2.039017867509593],[101.40326415931355,-2.0367213713257413]]]}},{"type":"Feature","properties":{"code":"1572042001","desa":"Baru Debai","kecamatan":"Tanah Kampung","kecCode":"157204"},"geometry":{"type":"Polygon","coordinates":[[[101.45176760279271,-2.095456199310876],[101.44004048018405,-2.104088918426077],[101.44272109390339,-2.095974448028523],[101.45176760279271,-2.095456199310876]]]}},{"type":"Feature","properties":{"code":"1572042002","desa":"Pendung Hiang","kecamatan":"Tanah Kampung","kecCode":"157204"},"geometry":{"type":"Polygon","coordinates":[[[101.44786364938795,-2.079891010345809],[101.45381390039124,-2.093224997504816],[101.44872043260193,-2.0962592777093545],[101.44559058144021,-2.089028443381791],[101.44786364938795,-2.079891010345809]]]}},{"type":"Feature","properties":{"code":"1572042003","desa":"Koto Pudung","kecamatan":"Tanah Kampung","kecCode":"157204"},"geometry":{"type":"Polygon","coordinates":[[[101.44254068630367,-2.057208847519265],[101.44152800021708,-2.0748068127737054],[101.43419151082963,-2.0761248582636687],[101.43276737141713,-2.0685186307266346],[101.44254068630367,-2.057208847519265]]]}},{"type":"Feature","properties":{"code":"1572042004","desa":"Koto Dumo","kecamatan":"Tanah Kampung","kecCode":"157204"},"geometry":{"type":"Polygon","coordinates":[[[101.44429631762101,-2.060729660050774],[101.44286809978301,-2.067123886556074],[101.44676936421484,-2.081884113942417],[101.43955744891717,-2.0791916282756753],[101.44429631762101,-2.060729660050774]]]}},{"type":"Feature","properties":{"code":"1572042005","desa":"Sembilan","kecamatan":"Tanah Kampung","kecCode":"157204"},"geometry":{"type":"Polygon","coordinates":[[[101.44661090097236,-2.0935906483585645],[101.4398585743138,-2.0950780802563527],[101.4311881412198,-2.081324050347011],[101.44150385342016,-2.0797472977836353],[101.44661090097236,-2.0935906483585645]]]}},{"type":"Feature","properties":{"code":"1572042006","desa":"Koto Tuo","kecamatan":"Tanah Kampung","kecCode":"157204"},"geometry":{"type":"Polygon","coordinates":[[[101.42781092793204,-2.0705427357528605],[101.43023694537878,-2.074869567465972],[101.42620268920278,-2.077845726285384],[101.42781092793204,-2.0705427357528605]]]}},{"type":"Feature","properties":{"code":"1572042007","desa":"Koto Panap","kecamatan":"Tanah Kampung","kecCode":"157204"},"geometry":{"type":"Polygon","coordinates":[[[101.42701823760164,-2.077436525761674],[101.43419151082963,-2.0761248582636687],[101.42907316509455,-2.0820156191070773],[101.42701823760164,-2.077436525761674]]]}},{"type":"Feature","properties":{"code":"1572042008","desa":"Koto Tengah","kecamatan":"Tanah Kampung","kecCode":"157204"},"geometry":{"type":"Polygon","coordinates":[[[101.43968997661119,-2.058900969611106],[101.43392350206801,-2.07404585142528],[101.42781092793204,-2.0705427357528605],[101.42911784521243,-2.0670766964304255],[101.43968997661119,-2.058900969611106]]]}},{"type":"Feature","properties":{"code":"1572042009","desa":"Tanjung Bunga","kecamatan":"Tanah Kampung","kecCode":"157204"},"geometry":{"type":"Polygon","coordinates":[[[101.43953540473518,-2.0394433196819755],[101.44254068630367,-2.057208847519265],[101.42231591824508,-2.079376477626813],[101.42947829258918,-2.053749638547711],[101.42228198682432,-2.0597398518188457],[101.41989784630861,-2.053602057102123],[101.43953540473518,-2.0394433196819755]]]}},{"type":"Feature","properties":{"code":"1572042010","desa":"Koto Padang","kecamatan":"Tanah Kampung","kecCode":"157204"},"geometry":{"type":"Polygon","coordinates":[[[101.44150385342016,-2.0797472977836353],[101.44559058144021,-2.089028443381791],[101.4429139777979,-2.088141098507683],[101.44150385342016,-2.0797472977836353]]]}},{"type":"Feature","properties":{"code":"1572042011","desa":"Tanjung Karang","kecamatan":"Tanah Kampung","kecCode":"157204"},"geometry":{"type":"Polygon","coordinates":[[[101.4311881412198,-2.081324050347011],[101.43350267870572,-2.089149841065952],[101.42733675228936,-2.0897096528513193],[101.42231591824508,-2.079376477626813],[101.4311881412198,-2.081324050347011]]]}},{"type":"Feature","properties":{"code":"1572042012","desa":"Kt. Baru Tanah Kampung","kecamatan":"Tanah Kampung","kecCode":"157204"},"geometry":{"type":"Polygon","coordinates":[[[101.4298094337584,-2.0794253872562223],[101.43886265069085,-2.0757981507524943],[101.43037132567622,-2.0815978435476383],[101.4298094337584,-2.0794253872562223]]]}},{"type":"Feature","properties":{"code":"1572042013","desa":"Mekar Jaya","kecamatan":"Tanah Kampung","kecCode":"157204"},"geometry":{"type":"Polygon","coordinates":[[[101.43737502543712,-2.0784252035458586],[101.4409344647538,-2.076842613483051],[101.4395798195531,-2.0791966446940755],[101.43737502543712,-2.0784252035458586]]]}},{"type":"Feature","properties":{"code":"1572052001","desa":"Kumun Hilir","kecamatan":"Kumun Debai","kecCode":"157205"},"geometry":{"type":"Polygon","coordinates":[[[101.42809268642839,-2.091507147607867],[101.41629307486555,-2.0978812050176616],[101.41465994739872,-2.096017179315441],[101.42809268642839,-2.091507147607867]]]}},{"type":"Feature","properties":{"code":"1572052002","desa":"Kumun Mudik","kecamatan":"Kumun Debai","kecCode":"157205"},"geometry":{"type":"Polygon","coordinates":[[[101.41691838607471,-2.0925861775799386],[101.40942364298677,-2.1002718791053927],[101.39318447688213,-2.1007586029880274],[101.395911397593,-2.0926630956951406],[101.41691838607471,-2.0925861775799386]]]}},{"type":"Feature","properties":{"code":"1572052003","desa":"Air Teluh","kecamatan":"Kumun Debai","kecCode":"157205"},"geometry":{"type":"Polygon","coordinates":[[[101.41540277122094,-2.0891700407384435],[101.40063235629827,-2.0953102168599087],[101.39533367131195,-2.0901167633506095],[101.41417605098405,-2.0821989468052715],[101.41540277122094,-2.0891700407384435]]]}},{"type":"Feature","properties":{"code":"1572052004","desa":"Sandaran Galeh","kecamatan":"Kumun Debai","kecCode":"157205"},"geometry":{"type":"Polygon","coordinates":[[[101.43375207869552,-2.105167024794397],[101.41840032131783,-2.103743520304845],[101.41701473404282,-2.0961761326883197],[101.42885758680823,-2.095523614290066],[101.43375207869552,-2.105167024794397]]]}},{"type":"Feature","properties":{"code":"1572052005","desa":"Debai","kecamatan":"Kumun Debai","kecCode":"157205"},"geometry":{"type":"Polygon","coordinates":[[[101.44315100221706,-2.0964130374973844],[101.43535807991151,-2.10489168565912],[101.43508168766984,-2.0892318916121235],[101.44315100221706,-2.0964130374973844]]]}},{"type":"Feature","properties":{"code":"1572052006","desa":"Pinggir Air","kecamatan":"Kumun Debai","kecCode":"157205"},"geometry":{"type":"Polygon","coordinates":[[[101.43535807991151,-2.10489168565912],[101.43007649733255,-2.099764373688883],[101.42733675228936,-2.0897096528513193],[101.43508168766984,-2.0892318916121235],[101.43535807991151,-2.10489168565912]]]}},{"type":"Feature","properties":{"code":"1572052007","desa":"Renah Kayu Embun","kecamatan":"Kumun Debai","kecCode":"157205"},"geometry":{"type":"Polygon","coordinates":[[[101.27972221061155,-2.2509999976472237],[101.26332875232013,-2.126225380729563],[101.34935990743385,-2.120790654403995],[101.35438349790019,-2.153880972531216],[101.39410590786144,-2.1618628738661063],[101.4003272963677,-2.158765991854017],[101.39161767261754,-2.147945310336678],[101.38971713174026,-2.117231146742738],[101.4099355820615,-2.122169500359486],[101.41555560021084,-2.1558333305439907],[101.40777779101228,-2.1713888859713966],[101.39222219959487,-2.180555553269175],[101.36861110002229,-2.174444441437561],[101.3697221998197,-2.1911111083523607],[101.27972221061155,-2.2509999976472237]]]}},{"type":"Feature","properties":{"code":"1572052008","desa":"Ulu Air","kecamatan":"Kumun Debai","kecCode":"157205"},"geometry":{"type":"Polygon","coordinates":[[[101.41927093610484,-2.1040497466557455],[101.4099355820615,-2.122169500359486],[101.38735298225441,-2.113386639428829],[101.39318447688213,-2.1007586029880274],[101.41465994739872,-2.096017179315441],[101.41927093610484,-2.1040497466557455]]]}},{"type":"Feature","properties":{"code":"1572052009","desa":"Muara Jaya","kecamatan":"Kumun Debai","kecCode":"157205"},"geometry":{"type":"Polygon","coordinates":[[[101.42534826041395,-2.083917979310766],[101.42809268642839,-2.091507147607867],[101.41691838607471,-2.0925861775799386],[101.41417605098405,-2.0821989468052715],[101.42534826041395,-2.083917979310766]]]}},{"type":"Feature","properties":{"code":"1572061008","desa":"Pondok Tinggi","kecamatan":"Pondok Tinggi","kecCode":"157206"},"geometry":{"type":"Polygon","coordinates":[[[101.4112175170748,-2.0728464247143683],[101.39548647871806,-2.0640342953478723],[101.42473572767176,-2.0713092306298577],[101.4112175170748,-2.0728464247143683]]]}},{"type":"Feature","properties":{"code":"1572062001","desa":"Sungai Jernih","kecamatan":"Pondok Tinggi","kecCode":"157206"},"geometry":{"type":"Polygon","coordinates":[[[101.26332875232013,-2.126225380729563],[101.2572166674153,-2.095383330842879],[101.3740538923733,-2.0927962583103414],[101.37184931409462,-2.083705813052505],[101.37667990105666,-2.0849170847340748],[101.38634722904145,-2.0711831393838898],[101.39616887709207,-2.09220816554475],[101.38816457543486,-2.126400759320207],[101.39161767261754,-2.147945310336678],[101.40030037336363,-2.160341679620019],[101.35438349790019,-2.153880972531216],[101.34935990743385,-2.120790654403995],[101.26332875232013,-2.126225380729563]]]}},{"type":"Feature","properties":{"code":"1572062002","desa":"Aur Duri","kecamatan":"Pondok Tinggi","kecCode":"157206"},"geometry":{"type":"Polygon","coordinates":[[[101.38767824725333,-2.071637977803438],[101.39874606158155,-2.0701507203740905],[101.38618966242302,-2.0769053331018448],[101.38767824725333,-2.071637977803438]]]}},{"type":"Feature","properties":{"code":"1572062003","desa":"Pondok Agung","kecamatan":"Pondok Tinggi","kecCode":"157206"},"geometry":{"type":"Polygon","coordinates":[[[101.39713557094989,-2.0668780820560917],[101.39343090641124,-2.065940293309229],[101.39723273460305,-2.06593094395719],[101.39713557094989,-2.0668780820560917]]]}},{"type":"Feature","properties":{"code":"1572062004","desa":"Permanti","kecamatan":"Pondok Tinggi","kecCode":"157206"},"geometry":{"type":"Polygon","coordinates":[[[101.39694294695947,-2.0659860301304325],[101.39379110827309,-2.064812812361929],[101.3973173149422,-2.065463103139531],[101.39694294695947,-2.0659860301304325]]]}},{"type":"Feature","properties":{"code":"1572062005","desa":"Lawang Agung","kecamatan":"Pondok Tinggi","kecCode":"157206"},"geometry":{"type":"Polygon","coordinates":[[[101.39718622796208,-2.0666363955517544],[101.42231591824508,-2.079376477626813],[101.41466692343981,-2.078408798113074],[101.39718622796208,-2.0666363955517544]]]}},{"type":"Feature","properties":{"code":"1572062006","desa":"Karya Bakti","kecamatan":"Pondok Tinggi","kecCode":"157206"},"geometry":{"type":"Polygon","coordinates":[[[101.39517592033252,-2.085684193847947],[101.39261164291304,-2.0742977884023013],[101.39874606158155,-2.0701507203740905],[101.40846314455854,-2.074892722310673],[101.39517592033252,-2.085684193847947]]]}},{"type":"Feature","properties":{"code":"1572062007","desa":"Koto Lebu","kecamatan":"Pondok Tinggi","kecCode":"157206"},"geometry":{"type":"Polygon","coordinates":[[[101.40846314455854,-2.074892722310673],[101.42534826041395,-2.083917979310766],[101.39551683443442,-2.0889342313036683],[101.40846314455854,-2.074892722310673]]]}},{"type":"Feature","properties":{"code":"1572072001","desa":"Koto Baru","kecamatan":"Koto Baru","kecCode":"157207"},"geometry":{"type":"Polygon","coordinates":[[[101.39811166272311,-2.033241755837699],[101.39478209641668,-2.040857118688049],[101.39654134031065,-2.0326779096937493],[101.39811166272311,-2.033241755837699]]]}},{"type":"Feature","properties":{"code":"1572072002","desa":"Koto Limau Manis","kecamatan":"Koto Baru","kecCode":"157207"},"geometry":{"type":"Polygon","coordinates":[[[101.39633840199569,-2.0294066374459674],[101.40087743234766,-2.03008522898898],[101.39511051623735,-2.0328259354043996],[101.39633840199569,-2.0294066374459674]]]}},{"type":"Feature","properties":{"code":"1572072003","desa":"Kampung Tengah","kecamatan":"Koto Baru","kecCode":"157207"},"geometry":{"type":"Polygon","coordinates":[[[101.38593968506846,-2.0343022633729406],[101.38948076202763,-2.0291183219928777],[101.39115002785154,-2.042130519133704],[101.38593968506846,-2.0343022633729406]]]}},{"type":"Feature","properties":{"code":"1572072004","desa":"Dujung Sakti","kecamatan":"Koto Baru","kecCode":"157207"},"geometry":{"type":"Polygon","coordinates":[[[101.38970460058692,-2.029108710038832],[101.39633840199569,-2.0294066374459674],[101.39253693083474,-2.041927351491881],[101.39096750864364,-2.0414687008461327],[101.38970460058692,-2.029108710038832]]]}},{"type":"Feature","properties":{"code":"1572072005","desa":"Permai Indah","kecamatan":"Koto Baru","kecCode":"157207"},"geometry":{"type":"Polygon","coordinates":[[[101.39654134031065,-2.0326779096937493],[101.39253693083474,-2.041927351491881],[101.3937691306409,-2.032121497345821],[101.39654134031065,-2.0326779096937493]]]}},{"type":"Feature","properties":{"code":"1572072006","desa":"Srimenanti","kecamatan":"Koto Baru","kecCode":"157207"},"geometry":{"type":"Polygon","coordinates":[[[101.3995534450355,-2.034326259983054],[101.39707136744971,-2.039429440444836],[101.40087743234766,-2.03008522898898],[101.3995534450355,-2.034326259983054]]]}},{"type":"Feature","properties":{"code":"1572081005","desa":"Dusun Baru","kecamatan":"Sungai Bungkal","kecCode":"157208"},"geometry":{"type":"Polygon","coordinates":[[[101.3971102910072,-2.0601759717493526],[101.3908336490537,-2.0646245860565875],[101.3895550936927,-2.0630931836060054],[101.3947019479366,-2.0549239453951675],[101.3971102910072,-2.0601759717493526]]]}},{"type":"Feature","properties":{"code":"1572082001","desa":"Sumur Anyir","kecamatan":"Sungai Bungkal","kecCode":"157208"},"geometry":{"type":"Polygon","coordinates":[[[101.4091880556843,-2.0521227820552403],[101.3971102910072,-2.0601759717493526],[101.39503099728272,-2.0550839887463277],[101.40122748086361,-2.0479298423075467],[101.4091880556843,-2.0521227820552403]]]}},{"type":"Feature","properties":{"code":"1572082002","desa":"Koto Tinggi","kecamatan":"Sungai Bungkal","kecCode":"157208"},"geometry":{"type":"Polygon","coordinates":[[[101.3928007802319,-2.061412392971877],[101.38916019059036,-2.0601561398996084],[101.39238699676253,-2.0580125194702066],[101.3928007802319,-2.061412392971877]]]}},{"type":"Feature","properties":{"code":"1572082003","desa":"Talang Lindung","kecamatan":"Sungai Bungkal","kecCode":"157208"},"geometry":{"type":"Polygon","coordinates":[[[101.3740538923733,-2.0927962583103414],[101.24105555616904,-2.0976388862898934],[101.23968305582844,-2.0666930537399],[101.24595315881128,-2.059744245007021],[101.38568053822631,-2.070490015695935],[101.37667990105666,-2.0849170847340748],[101.37184931409462,-2.083705813052505],[101.3740538923733,-2.0927962583103414]]]}},{"type":"Feature","properties":{"code":"1572082004","desa":"Pelayang Raya","kecamatan":"Sungai Bungkal","kecCode":"157208"},"geometry":{"type":"Polygon","coordinates":[[[101.3908336490537,-2.0646245860565875],[101.38908264744629,-2.072262410374292],[101.38557501267678,-2.07105376561243],[101.3837221664449,-2.062541272364883],[101.3908336490537,-2.0646245860565875]]]}},{"type":"Feature","properties":{"code":"1572082006","desa":"Sungai Ning","kecamatan":"Sungai Bungkal","kecCode":"157208"},"geometry":{"type":"Polygon","coordinates":[[[101.24594707489761,-2.0597505645430396],[101.27157999971729,-2.0319519418654],[101.29966413019552,-2.026227498043676],[101.3113284594409,-2.0356295224172483],[101.32516458307913,-2.0318029017195],[101.34036792264156,-2.046020358573956],[101.3579510895712,-2.04321109953699],[101.3655063453416,-2.0499995087871197],[101.35651552157411,-2.0541214137845536],[101.36076672660323,-2.0607656823953144],[101.3826830672698,-2.062142666754176],[101.38457063092993,-2.067545728849839],[101.36375285081344,-2.0723388059833505],[101.24594707489761,-2.0597505645430396]]]}}]}