{"type":"FeatureCollection","features":[{"type":"Feature","properties":{"code":"1671011001","desa":"Tiga-puluh-lima Ilir","kecamatan":"Ilir Barat Dua","kecCode":"167101"},"geometry":{"type":"Polygon","coordinates":[[[104.75060325473646,-3.0062787513332863],[104.74935012680696,-3.011391952041393],[104.7369356136877,-3.010979720802364],[104.73879043932737,-3.0053034455686065],[104.75060325473646,-3.0062787513332863]]]}},{"type":"Feature","properties":{"code":"1671011002","desa":"Tiga-puluh-dua Ilir","kecamatan":"Ilir Barat Dua","kecCode":"167101"},"geometry":{"type":"Polygon","coordinates":[[[104.75060325473646,-3.0062787513332863],[104.74046031938825,-3.0062672427090837],[104.73810906078461,-3.0014127913425233],[104.7470617074319,-2.998309442305574],[104.75060325473646,-3.0062787513332863]]]}},{"type":"Feature","properties":{"code":"1671011003","desa":"Tiga-puluh Ilir","kecamatan":"Ilir Barat Dua","kecCode":"167101"},"geometry":{"type":"Polygon","coordinates":[[[104.75196864413765,-3.0022296464553992],[104.73650403443371,-3.0004955898758228],[104.73812500666378,-2.989272514803118],[104.74411524242457,-2.98724907437593],[104.75196864413765,-3.0022296464553992]]]}},{"type":"Feature","properties":{"code":"1671011004","desa":"Dua-puluh-sembilan Ilir","kecamatan":"Ilir Barat Dua","kecCode":"167101"},"geometry":{"type":"Polygon","coordinates":[[[104.75482052834478,-2.9985026499557694],[104.74904020334276,-2.9946878643360124],[104.75203714729655,-2.991617363936105],[104.75482052834478,-2.9985026499557694]]]}},{"type":"Feature","properties":{"code":"1671011005","desa":"Dua-puluh-delapan Ilir","kecamatan":"Ilir Barat Dua","kecCode":"167101"},"geometry":{"type":"Polygon","coordinates":[[[104.75797101894744,-2.9957013148452782],[104.75404255002371,-2.9949912928961044],[104.75675617875469,-2.993247816817443],[104.75797101894744,-2.9957013148452782]]]}},{"type":"Feature","properties":{"code":"1671011006","desa":"Dua-puluh-tujuh Ilir","kecamatan":"Ilir Barat Dua","kecCode":"167101"},"geometry":{"type":"Polygon","coordinates":[[[104.75675617875469,-2.993247816817443],[104.753200062433,-2.9932546165913947],[104.75612941244248,-2.991810688498153],[104.75675617875469,-2.993247816817443]]]}},{"type":"Feature","properties":{"code":"1671011007","desa":"Kemangmanis","kecamatan":"Ilir Barat Dua","kecCode":"167101"},"geometry":{"type":"Polygon","coordinates":[[[104.73812500666378,-2.989272514803118],[104.7390615210724,-2.9952280520149537],[104.73350004698965,-3.0002027913024114],[104.73336652464548,-2.9929598763816156],[104.73812500666378,-2.989272514803118]]]}},{"type":"Feature","properties":{"code":"1671021002","desa":"Satu Ulu","kecamatan":"Seberang Ulu Satu","kecCode":"167102"},"geometry":{"type":"Polygon","coordinates":[[[104.75285509328796,-3.016578560810733],[104.7508165730265,-3.0054613197549815],[104.75773395585742,-3.0116031074616405],[104.75285509328796,-3.016578560810733]]]}},{"type":"Feature","properties":{"code":"1671021003","desa":"Dua Ulu","kecamatan":"Seberang Ulu Satu","kecCode":"167102"},"geometry":{"type":"Polygon","coordinates":[[[104.75773395585742,-3.0116031074616405],[104.75424198458,-3.0035447988263355],[104.75889926588847,-3.0102679379806223],[104.75773395585742,-3.0116031074616405]]]}},{"type":"Feature","properties":{"code":"1671021004","desa":"Tiga Empat Ulu","kecamatan":"Seberang Ulu Satu","kecCode":"167102"},"geometry":{"type":"Polygon","coordinates":[[[104.75190793900025,-3.002369931701227],[104.75593165332322,-2.9974925269380885],[104.76097274189856,-3.0011471037314212],[104.76353541582681,-3.0141394159627555],[104.75190793900025,-3.002369931701227]]]}},{"type":"Feature","properties":{"code":"1671021005","desa":"Lima Ulu","kecamatan":"Seberang Ulu Satu","kecCode":"167102"},"geometry":{"type":"Polygon","coordinates":[[[104.75593165332322,-2.9974925269380885],[104.7616781764068,-2.996738916648034],[104.77140408443101,-3.016430495529931],[104.76350940383598,-3.0140573483294864],[104.75593165332322,-2.9974925269380885]]]}},{"type":"Feature","properties":{"code":"1671021006","desa":"Tujuh Ulu","kecamatan":"Seberang Ulu Satu","kecCode":"167102"},"geometry":{"type":"Polygon","coordinates":[[[104.76694318537977,-3.0068636083382234],[104.75950588738685,-2.9945228900020853],[104.76340062633788,-2.991572079473849],[104.76892459599337,-2.999858041592289],[104.76694318537977,-3.0068636083382234]]]}},{"type":"Feature","properties":{"code":"1671031001","desa":"Sebelas Ulu","kecamatan":"Seberang Ulu Dua","kecCode":"167103"},"geometry":{"type":"Polygon","coordinates":[[[104.76758729601697,-2.9882709587273037],[104.77051661544948,-2.9943237315379854],[104.7660721542066,-2.9895337543674274],[104.76758729601697,-2.9882709587273037]]]}},{"type":"Feature","properties":{"code":"1671031002","desa":"Dua-belas Ulu","kecamatan":"Seberang Ulu Dua","kecCode":"167103"},"geometry":{"type":"Polygon","coordinates":[[[104.7730889786735,-2.99185301868752],[104.76758729601697,-2.9882709587273037],[104.7697528320276,-2.9864507156195317],[104.7730889786735,-2.99185301868752]]]}},{"type":"Feature","properties":{"code":"1671031003","desa":"Tiga-belas Ulu","kecamatan":"Seberang Ulu Dua","kecCode":"167103"},"geometry":{"type":"Polygon","coordinates":[[[104.7810010368684,-3.0038495583830147],[104.77389463992574,-2.9838234559821033],[104.78329714724559,-3.0034737056200305],[104.7810010368684,-3.0038495583830147]]]}},{"type":"Feature","properties":{"code":"1671031004","desa":"Empat-belas Ulu","kecamatan":"Seberang Ulu Dua","kecCode":"167103"},"geometry":{"type":"Polygon","coordinates":[[[104.78212529194872,-2.9824836325094566],[104.77880562358075,-2.9957608634544566],[104.77389463992574,-2.9838234559821033],[104.78212529194872,-2.9824836325094566]]]}},{"type":"Feature","properties":{"code":"1671031005","desa":"Enam-belas Ulu","kecamatan":"Seberang Ulu Dua","kecCode":"167103"},"geometry":{"type":"Polygon","coordinates":[[[104.78329714724559,-3.0034737056200305],[104.78396525898955,-2.992137747644267],[104.80155997591218,-2.9934608761024477],[104.79584640668638,-3.0081777219922086],[104.78329714724559,-3.0034737056200305]]]}},{"type":"Feature","properties":{"code":"1671031006","desa":"Tanggatakat","kecamatan":"Seberang Ulu Dua","kecCode":"167103"},"geometry":{"type":"Polygon","coordinates":[[[104.78396525898955,-2.992137747644267],[104.78212529194872,-2.9824836325094566],[104.80313105015789,-2.986437284244817],[104.80155997591218,-2.9934608761024477],[104.78396525898955,-2.992137747644267]]]}},{"type":"Feature","properties":{"code":"1671031007","desa":"Sentosa","kecamatan":"Seberang Ulu Dua","kecCode":"167103"},"geometry":{"type":"Polygon","coordinates":[[[104.79584640668638,-3.0081777219922086],[104.79576487235101,-2.9997771448763495],[104.80430845067451,-2.9940720670554914],[104.80540181044522,-3.009576760425545],[104.79584640668638,-3.0081777219922086]]]}},{"type":"Feature","properties":{"code":"1671041001","desa":"Bukitlama","kecamatan":"Ilir Barat Satu","kecCode":"167104"},"geometry":{"type":"Polygon","coordinates":[[[104.73986174592288,-3.005200588307606],[104.73036874971808,-3.0124440095467087],[104.71185829722269,-3.008721414329151],[104.73026639068142,-2.9827384545116344],[104.73538001857303,-2.9896898389029207],[104.73239657883907,-2.9983164318364794],[104.73986174592288,-3.005200588307606]]]}},{"type":"Feature","properties":{"code":"1671041002","desa":"Lorokpakjo","kecamatan":"Ilir Barat Satu","kecCode":"167104"},"geometry":{"type":"Polygon","coordinates":[[[104.7375440967827,-2.9895869177901293],[104.73026639068142,-2.9827384545116344],[104.72460829523668,-2.985200055431099],[104.73318219600161,-2.9692178993967495],[104.74679962340394,-2.9797690433055077],[104.7375440967827,-2.9895869177901293]]]}},{"type":"Feature","properties":{"code":"1671041003","desa":"Dua-puluh-enam Ilir Satu","kecamatan":"Ilir Barat Satu","kecCode":"167104"},"geometry":{"type":"Polygon","coordinates":[[[104.74185169470002,-2.9806880218325444],[104.73974545728709,-2.987965787281098],[104.7375440967827,-2.9895869177901293],[104.74185169470002,-2.9806880218325444]]]}},{"type":"Feature","properties":{"code":"1671041004","desa":"Siringagung","kecamatan":"Ilir Barat Satu","kecCode":"167104"},"geometry":{"type":"Polygon","coordinates":[[[104.73550661523812,-2.965086093762897],[104.7195418979403,-2.9735408595285726],[104.7109611731197,-2.9618307233274703],[104.7303334270461,-2.958691160390401],[104.73550661523812,-2.965086093762897]]]}},{"type":"Feature","properties":{"code":"1671041005","desa":"Demang-Lebardaun","kecamatan":"Ilir Barat Satu","kecCode":"167104"},"geometry":{"type":"Polygon","coordinates":[[[104.74504901480026,-2.977097444393198],[104.73318219600161,-2.9692178993967495],[104.72460829523668,-2.985200055431099],[104.7116668738272,-2.9806430935017816],[104.73250860378907,-2.9650984846221133],[104.74504901480026,-2.977097444393198]]]}},{"type":"Feature","properties":{"code":"1671041006","desa":"Bukitbaru","kecamatan":"Ilir Barat Satu","kecCode":"167104"},"geometry":{"type":"Polygon","coordinates":[[[104.67074962369622,-2.970203622008698],[104.67952759592184,-2.9639630374800667],[104.67506809171915,-2.9551757995489365],[104.68053879183184,-2.9497581909191277],[104.70488780223036,-2.9654052406736993],[104.71247320957103,-2.9629389740714327],[104.71320279627206,-2.971495206746119],[104.7195418979403,-2.9735408595285726],[104.7116668738272,-2.9806430935017816],[104.72622404420433,-2.985682450876752],[104.72636173670486,-2.991159176441231],[104.71194186132789,-3.0044870383180537],[104.67074962369622,-2.970203622008698]]]}},{"type":"Feature","properties":{"code":"1671041006","desa":"Bukitbaru","kecamatan":"Ilir Barat Satu","kecCode":"167104"},"geometry":{"type":"Polygon","coordinates":[[[104.6185021523525,-2.9658259606135258],[104.61853058531828,-2.965822473042642],[104.61853765578826,-2.965843823847253],[104.6185021523525,-2.9658259606135258]]]}},{"type":"Feature","properties":{"code":"1671041006","desa":"Bukitbaru","kecamatan":"Ilir Barat Satu","kecCode":"167104"},"geometry":{"type":"Polygon","coordinates":[[[104.62553396042398,-2.9289877439431518],[104.63655913159869,-2.9366669919337127],[104.64335248263102,-2.934341967455988],[104.64698661603954,-2.943880143791394],[104.63510764470209,-2.9550400837584867],[104.62902179571937,-2.9733481626932936],[104.62652324075502,-2.9653510727082395],[104.61191502755655,-2.9593336828241665],[104.62553396042398,-2.9289877439431518]]]}},{"type":"Feature","properties":{"code":"1671051001","desa":"Delapan-belas Ilir","kecamatan":"Ilir Timur Satu","kecCode":"167105"},"geometry":{"type":"Polygon","coordinates":[[[104.76203717587504,-2.986028354417002],[104.75680356763057,-2.9854469427148103],[104.75741202824257,-2.982647340597941],[104.76203717587504,-2.986028354417002]]]}},{"type":"Feature","properties":{"code":"1671051002","desa":"Enam-belas Ilir","kecamatan":"Ilir Timur Satu","kecCode":"167105"},"geometry":{"type":"Polygon","coordinates":[[[104.76506823830863,-2.985080534631958],[104.76340062633788,-2.991572079473849],[104.76105927466585,-2.9880440867549627],[104.76506823830863,-2.985080534631958]]]}},{"type":"Feature","properties":{"code":"1671051003","desa":"Tiga-belas Ilir","kecamatan":"Ilir Timur Satu","kecCode":"167105"},"geometry":{"type":"Polygon","coordinates":[[[104.76852059534924,-2.983817176016204],[104.76561264380854,-2.9853522315130254],[104.76572552671176,-2.9819183015847557],[104.76852059534924,-2.983817176016204]]]}},{"type":"Feature","properties":{"code":"1671051004","desa":"Empat-belas Ilir","kecamatan":"Ilir Timur Satu","kecCode":"167105"},"geometry":{"type":"Polygon","coordinates":[[[104.76688425190679,-2.9838929097243274],[104.76389917630598,-2.9822323160646502],[104.76538541930171,-2.9814765267172447],[104.76688425190679,-2.9838929097243274]]]}},{"type":"Feature","properties":{"code":"1671051005","desa":"Lima-belas Ilir","kecamatan":"Ilir Timur Satu","kecCode":"167105"},"geometry":{"type":"Polygon","coordinates":[[[104.76473560876138,-2.9790118150428313],[104.76263915507303,-2.985788215645837],[104.76075593333974,-2.9780042883678557],[104.76473560876138,-2.9790118150428313]]]}},{"type":"Feature","properties":{"code":"1671051006","desa":"Tujuh-belas Ilir","kecamatan":"Ilir Timur Satu","kecCode":"167105"},"geometry":{"type":"Polygon","coordinates":[[[104.76497902466228,-2.9850790219723105],[104.75585210199296,-2.9803371333501647],[104.76035112870169,-2.9782145462647516],[104.76497902466228,-2.9850790219723105]]]}},{"type":"Feature","properties":{"code":"1671051007","desa":"Dua-puluh Ilir Tiga","kecamatan":"Ilir Timur Satu","kecCode":"167105"},"geometry":{"type":"Polygon","coordinates":[[[104.74480116434233,-2.973859049560664],[104.74114364586262,-2.9680186930198156],[104.7355114472955,-2.967067406348275],[104.74839211500415,-2.9666374179954533],[104.75123649796609,-2.9715698216975963],[104.74480116434233,-2.973859049560664]]]}},{"type":"Feature","properties":{"code":"1671051008","desa":"Dua-puluh Ilir Empat","kecamatan":"Ilir Timur Satu","kecCode":"167105"},"geometry":{"type":"Polygon","coordinates":[[[104.73550661523812,-2.965086093762897],[104.73300177581137,-2.9595266899255757],[104.72342948188513,-2.9591464142967103],[104.73469509490275,-2.9534454454782906],[104.74272979904104,-2.9636619066878884],[104.73550661523812,-2.965086093762897]]]}},{"type":"Feature","properties":{"code":"1671051009","desa":"Dua-puluh Ilir Satu","kecamatan":"Ilir Timur Satu","kecCode":"167105"},"geometry":{"type":"Polygon","coordinates":[[[104.75893059377194,-2.978805497975166],[104.75135021903743,-2.971816372634879],[104.75671660768535,-2.9677202529990954],[104.7631958929761,-2.9744703817072784],[104.75893059377194,-2.978805497975166]]]}},{"type":"Feature","properties":{"code":"1671051010","desa":"Sungaipangeran","kecamatan":"Ilir Timur Satu","kecCode":"167105"},"geometry":{"type":"Polygon","coordinates":[[[104.7553714377417,-2.979544452013827],[104.74416733295611,-2.9741012927453894],[104.75123649796609,-2.9715698216975963],[104.7553714377417,-2.979544452013827]]]}},{"type":"Feature","properties":{"code":"1671051011","desa":"Kepandean-Baru","kecamatan":"Ilir Timur Satu","kecCode":"167105"},"geometry":{"type":"Polygon","coordinates":[[[104.76317114992865,-2.975863968450363],[104.75893059377194,-2.978805497975166],[104.75788879033547,-2.9756296779705043],[104.76317114992865,-2.975863968450363]]]}},{"type":"Feature","properties":{"code":"1671061005","desa":"Lima Ilir","kecamatan":"Ilir Timur Dua","kecCode":"167106"},"geometry":{"type":"Polygon","coordinates":[[[104.77884408308802,-2.9561346630087075],[104.78127219325715,-2.9635463294159363],[104.7779216628545,-2.973007213518188],[104.77236699933762,-2.9654891878899554],[104.77884408308802,-2.9561346630087075]]]}},{"type":"Feature","properties":{"code":"1671061006","desa":"Tiga Ilir","kecamatan":"Ilir Timur Dua","kecCode":"167106"},"geometry":{"type":"Polygon","coordinates":[[[104.78212529194872,-2.9824836325094566],[104.77861400143506,-2.9726983089862253],[104.78186028962072,-2.9695172747123766],[104.79055848028968,-2.977435058882138],[104.78212529194872,-2.9824836325094566]]]}},{"type":"Feature","properties":{"code":"1671061007","desa":"Satu Ilir","kecamatan":"Ilir Timur Dua","kecCode":"167106"},"geometry":{"type":"Polygon","coordinates":[[[104.82016430773665,-2.9873070995336155],[104.78675508098227,-2.983110120930439],[104.78744541767195,-2.9805122196611458],[104.78975342877776,-2.977400796510877],[104.79301208174222,-2.977676984606188],[104.79337268560101,-2.9829591598326517],[104.80179099555806,-2.9841461758993146],[104.82263851175797,-2.9767484399905753],[104.82016430773665,-2.9873070995336155]]]}},{"type":"Feature","properties":{"code":"1671061008","desa":"Dua Ilir","kecamatan":"Ilir Timur Dua","kecCode":"167106"},"geometry":{"type":"Polygon","coordinates":[[[104.77958102894138,-2.970659698794707],[104.77839968939422,-2.9548836790643067],[104.78212798092164,-2.950019796507448],[104.79351305358459,-2.9603593749050776],[104.77958102894138,-2.970659698794707]]]}},{"type":"Feature","properties":{"code":"1671061009","desa":"Lawangkidul","kecamatan":"Ilir Timur Dua","kecCode":"167106"},"geometry":{"type":"Polygon","coordinates":[[[104.77953873832216,-2.982506862897216],[104.77254190668371,-2.9802172690100392],[104.7751244574278,-2.9715733830128723],[104.77926063107333,-2.9732348679006764],[104.77953873832216,-2.982506862897216]]]}},{"type":"Feature","properties":{"code":"1671061012","desa":"Sungaibuah","kecamatan":"Ilir Timur Dua","kecCode":"167106"},"geometry":{"type":"Polygon","coordinates":[[[104.79328580569546,-2.977330244696437],[104.78346847888724,-2.9720675056180488],[104.79574906766538,-2.965798667988063],[104.79328580569546,-2.977330244696437]]]}},{"type":"Feature","properties":{"code":"1671071002","desa":"Talangbetutu","kecamatan":"Sukarami","kecCode":"167107"},"geometry":{"type":"Polygon","coordinates":[[[104.67506219486444,-2.900380271017692],[104.66632983985028,-2.8913365041711856],[104.67411554059976,-2.875585821940089],[104.68391447267481,-2.8707399599984287],[104.69368631806918,-2.8776314702259387],[104.7003341399087,-2.8733827482296856],[104.71690443459204,-2.896369107637587],[104.715708822804,-2.904967990660284],[104.6805189365997,-2.8936911667062732],[104.67506219486444,-2.900380271017692]]]}},{"type":"Feature","properties":{"code":"1671071004","desa":"Suka Jaya","kecamatan":"Sukarami","kecCode":"167107"},"geometry":{"type":"Polygon","coordinates":[[[104.75237556398116,-2.9053550858481474],[104.75853594068117,-2.9355862946185507],[104.74829435779844,-2.943785620547808],[104.73097569587172,-2.9381059638631815],[104.73620326876589,-2.9241312448202685],[104.73243945221901,-2.9015022265303285],[104.75237556398116,-2.9053550858481474]]]}},{"type":"Feature","properties":{"code":"1671071005","desa":"Sukarami","kecamatan":"Sukarami","kecCode":"167107"},"geometry":{"type":"Polygon","coordinates":[[[104.73300536590499,-2.918482055367907],[104.73611208380566,-2.925779345997423],[104.72865679307658,-2.943085968681065],[104.71591157136197,-2.9284264428805447],[104.73300536590499,-2.918482055367907]]]}},{"type":"Feature","properties":{"code":"1671071007","desa":"Kebunbunga","kecamatan":"Sukarami","kecCode":"167107"},"geometry":{"type":"Polygon","coordinates":[[[104.7265427819239,-2.8953709707841164],[104.73517912981303,-2.9017524467016367],[104.73406951569562,-2.91520065405586],[104.71591157136197,-2.9284264428805447],[104.70469811632505,-2.916307236557433],[104.71116509529298,-2.9100560229415926],[104.70723398056377,-2.9042116464312255],[104.715708822804,-2.904967990660284],[104.71596933032036,-2.8998368250950137],[104.72767238886972,-2.9040705661846764],[104.7265427819239,-2.8953709707841164]]]}},{"type":"Feature","properties":{"code":"1671071009","desa":"Sukabangun","kecamatan":"Sukarami","kecCode":"167107"},"geometry":{"type":"Polygon","coordinates":[[[104.73097569587172,-2.9381059638631815],[104.7410938243206,-2.938407809616376],[104.74837341540085,-2.9461461376693943],[104.73464116885492,-2.953307553328436],[104.73097569587172,-2.9381059638631815]]]}},{"type":"Feature","properties":{"code":"1671071010","desa":"Talangjambe","kecamatan":"Sukarami","kecCode":"167107"},"geometry":{"type":"Polygon","coordinates":[[[104.72497958214204,-2.8714452074468917],[104.72767238886972,-2.9040705661846764],[104.71596933032036,-2.8998368250950137],[104.70133458262494,-2.8702105102246915],[104.7069412701236,-2.8761270222556563],[104.71384034095905,-2.865618740035672],[104.72497958214204,-2.8714452074468917]]]}},{"type":"Feature","properties":{"code":"1671071011","desa":"Sukodadi","kecamatan":"Sukarami","kecCode":"167107"},"geometry":{"type":"Polygon","coordinates":[[[104.68150720339479,-2.913495811053599],[104.67506219486444,-2.900380271017692],[104.6805189365997,-2.8936911667062732],[104.71116509529298,-2.9100560229415926],[104.70458970575037,-2.9131020024266543],[104.70611128760589,-2.9187524976946913],[104.68150720339479,-2.913495811053599]]]}},{"type":"Feature","properties":{"code":"1671081001","desa":"Sukamaju","kecamatan":"Sako","kecCode":"167108"},"geometry":{"type":"Polygon","coordinates":[[[104.75678058095912,-2.9099730577849625],[104.76833528284708,-2.9160129765856118],[104.77358368493917,-2.9120915241767995],[104.77559729667797,-2.932637156829238],[104.75987678938235,-2.9345660776102798],[104.75160905921075,-2.915405663509241],[104.75678058095912,-2.9099730577849625]]]}},{"type":"Feature","properties":{"code":"1671081002","desa":"Sako","kecamatan":"Sako","kecCode":"167108"},"geometry":{"type":"Polygon","coordinates":[[[104.7937119764266,-2.9080648753703877],[104.80174815005715,-2.90606537669463],[104.81976686674754,-2.916261372032422],[104.81079042134091,-2.9285753031620505],[104.80517957357851,-2.923266984643825],[104.79115158227977,-2.9312419315214284],[104.77746140601913,-2.9289810799668157],[104.7937119764266,-2.9080648753703877]]]}},{"type":"Feature","properties":{"code":"1671081006","desa":"Sialang","kecamatan":"Sako","kecCode":"167108"},"geometry":{"type":"Polygon","coordinates":[[[104.78011669842694,-2.936810204472798],[104.77629810237556,-2.9269012340608844],[104.79035291055844,-2.931599055003488],[104.78011669842694,-2.936810204472798]]]}},{"type":"Feature","properties":{"code":"1671081007","desa":"Sako Baru","kecamatan":"Sako","kecCode":"167108"},"geometry":{"type":"Polygon","coordinates":[[[104.77378266084115,-2.912669781956555],[104.78732957689851,-2.900778618523041],[104.7937119764266,-2.9080648753703877],[104.77462495237974,-2.929092319808505],[104.77378266084115,-2.912669781956555]]]}},{"type":"Feature","properties":{"code":"1671091001","desa":"Dua-puluh Ilir Dua","kecamatan":"Kemuning","kecCode":"167109"},"geometry":{"type":"Polygon","coordinates":[[[104.76037433121047,-2.9591165469122687],[104.7494708149262,-2.959706965324733],[104.747781997841,-2.9550855615749714],[104.75913753407002,-2.952087155326747],[104.76037433121047,-2.9591165469122687]]]}},{"type":"Feature","properties":{"code":"1671091002","desa":"Ario Kemuning","kecamatan":"Kemuning","kecCode":"167109"},"geometry":{"type":"Polygon","coordinates":[[[104.73838426142457,-2.9607532833567674],[104.73464116885492,-2.953307553328436],[104.74204468201651,-2.949396337902428],[104.747781997841,-2.9550855615749714],[104.73838426142457,-2.9607532833567674]]]}},{"type":"Feature","properties":{"code":"1671091003","desa":"Sekip Jaya","kecamatan":"Kemuning","kecCode":"167109"},"geometry":{"type":"Polygon","coordinates":[[[104.75123649796609,-2.9715698216975963],[104.74792421393141,-2.9658513646626297],[104.75911579385888,-2.961407723606264],[104.76027769366065,-2.972703030426986],[104.75671660768535,-2.9677202529990954],[104.75123649796609,-2.9715698216975963]]]}},{"type":"Feature","properties":{"code":"1671091004","desa":"Pahlawan","kecamatan":"Kemuning","kecCode":"167109"},"geometry":{"type":"Polygon","coordinates":[[[104.74771457206992,-2.9662420202664714],[104.73838426142457,-2.9607532833567674],[104.747781997841,-2.9550855615749714],[104.753510345626,-2.9605933596154634],[104.74771457206992,-2.9662420202664714]]]}},{"type":"Feature","properties":{"code":"1671091005","desa":"Pipareja","kecamatan":"Kemuning","kecCode":"167109"},"geometry":{"type":"Polygon","coordinates":[[[104.74829435779844,-2.943785620547808],[104.75853594068117,-2.9355862946185507],[104.75913753407002,-2.952087155326747],[104.75484163903046,-2.9527209921082345],[104.74829435779844,-2.943785620547808]]]}},{"type":"Feature","properties":{"code":"1671091006","desa":"Talangaman","kecamatan":"Kemuning","kecCode":"167109"},"geometry":{"type":"Polygon","coordinates":[[[104.74729409674522,-2.943631796008589],[104.75170941725588,-2.9448371555469905],[104.75484163903046,-2.9527209921082345],[104.74426043886818,-2.952869937825319],[104.74729409674522,-2.943631796008589]]]}},{"type":"Feature","properties":{"code":"1671101001","desa":"Bukitsangkal","kecamatan":"Kalidoni","kecCode":"167110"},"geometry":{"type":"Polygon","coordinates":[[[104.78526744133937,-2.9508567127972354],[104.76814942625509,-2.9501834227576484],[104.76988820517657,-2.9314881910783903],[104.79036599389553,-2.9380775326960387],[104.78526744133937,-2.9508567127972354]]]}},{"type":"Feature","properties":{"code":"1671101002","desa":"Kalidoni","kecamatan":"Kalidoni","kecCode":"167110"},"geometry":{"type":"Polygon","coordinates":[[[104.7925374510426,-2.965142913829091],[104.78526744133937,-2.9508567127972354],[104.79036599389553,-2.9380775326960387],[104.79334021557855,-2.9466992540020724],[104.80941488488905,-2.94978529558627],[104.79959345807167,-2.966993089971709],[104.7925374510426,-2.965142913829091]]]}},{"type":"Feature","properties":{"code":"1671101003","desa":"Sungaiselayur","kecamatan":"Kalidoni","kecCode":"167110"},"geometry":{"type":"Polygon","coordinates":[[[104.81600518788917,-2.976873554572819],[104.8101180360186,-2.9806810026239385],[104.79956668075776,-2.960719451760723],[104.81200620762047,-2.9594789844883396],[104.81600518788917,-2.976873554572819]]]}},{"type":"Feature","properties":{"code":"1671101004","desa":"Sungaiselincah","kecamatan":"Kalidoni","kecCode":"167110"},"geometry":{"type":"Polygon","coordinates":[[[104.82018836729935,-2.9761649886259596],[104.82018833222583,-2.9761649634449614],[104.82217840241138,-2.9766388737871496],[104.82018836729935,-2.9761649886259596]]]}},{"type":"Feature","properties":{"code":"1671101004","desa":"Sungaiselincah","kecamatan":"Kalidoni","kecCode":"167110"},"geometry":{"type":"Polygon","coordinates":[[[104.8074187748566,-2.9819371729585544],[104.79337268560101,-2.9829591598326517],[104.79574906766538,-2.965798667988063],[104.80813158020834,-2.9688226554518273],[104.8074187748566,-2.9819371729585544]]]}},{"type":"Feature","properties":{"code":"1671101005","desa":"Sungailais","kecamatan":"Kalidoni","kecCode":"167110"},"geometry":{"type":"Polygon","coordinates":[[[104.86161112185583,-2.96592383563027],[104.83487349591518,-2.988189331761852],[104.82016430773665,-2.9873070995336155],[104.82263851175797,-2.9767484399905753],[104.81600518788917,-2.976873554572819],[104.81200620762047,-2.9594789844883396],[104.80400239429514,-2.9579656026529038],[104.80941488488905,-2.94978529558627],[104.83709231585776,-2.9564801870350506],[104.85110174874676,-2.935876231549287],[104.85472292382396,-2.947421934808363],[104.86409437395628,-2.9461953665581597],[104.86161112185583,-2.96592383563027]]]}},{"type":"Feature","properties":{"code":"1671111001","desa":"Sembilan-belas Ilir","kecamatan":"Bukitkecil","kecCode":"167111"},"geometry":{"type":"Polygon","coordinates":[[[104.75950588738685,-2.9945228900020853],[104.75680634024046,-2.9884976796135163],[104.76028246636282,-2.9868946659471267],[104.76340062633788,-2.991572079473849],[104.75950588738685,-2.9945228900020853]]]}},{"type":"Feature","properties":{"code":"1671111002","desa":"Dua-puluh-dua Ilir","kecamatan":"Bukitkecil","kecCode":"167111"},"geometry":{"type":"Polygon","coordinates":[[[104.75797101894744,-2.9957013148452782],[104.75484122084572,-2.989458357905141],[104.75569860120953,-2.9870333360105175],[104.75774594382034,-2.9875855503231508],[104.75797101894744,-2.9957013148452782]]]}},{"type":"Feature","properties":{"code":"1671111003","desa":"Dua-puluh-tiga Ilir","kecamatan":"Bukitkecil","kecCode":"167111"},"geometry":{"type":"Polygon","coordinates":[[[104.75363409323889,-2.987093971900099],[104.75608014578215,-2.988332283497539],[104.75525848559066,-2.9896721186613338],[104.75363409323889,-2.987093971900099]]]}},{"type":"Feature","properties":{"code":"1671111004","desa":"Dua-puluh-empat Ilir","kecamatan":"Bukitkecil","kecCode":"167111"},"geometry":{"type":"Polygon","coordinates":[[[104.74554911879687,-2.981164562691693],[104.75533913139589,-2.9795622010337586],[104.75814943994475,-2.9871211629021013],[104.75363409323889,-2.987093971900099],[104.74554911879687,-2.981164562691693]]]}},{"type":"Feature","properties":{"code":"1671111005","desa":"Dua-puluh-enam Ilir","kecamatan":"Bukitkecil","kecCode":"167111"},"geometry":{"type":"Polygon","coordinates":[[[104.74411524242457,-2.98724907437593],[104.74554911879687,-2.981164562691693],[104.7543021699093,-2.9884772299295346],[104.75051240792135,-2.98816483872597],[104.74411524242457,-2.98724907437593]]]}},{"type":"Feature","properties":{"code":"1671111006","desa":"Talangsemut","kecamatan":"Bukitkecil","kecCode":"167111"},"geometry":{"type":"Polygon","coordinates":[[[104.75431052730904,-2.988474535560725],[104.74453653793097,-2.9929614996579352],[104.74411524242457,-2.98724907437593],[104.75431052730904,-2.988474535560725]]]}},{"type":"Feature","properties":{"code":"1671121001","desa":"Gandus","kecamatan":"Gandus","kecCode":"167112"},"geometry":{"type":"Polygon","coordinates":[[[104.65822018891066,-2.9731039149197365],[104.66834882683695,-2.9706992473809533],[104.69547380966867,-2.9862374180142135],[104.7118581317474,-3.00133539388867],[104.71128683831698,-3.0162118037909393],[104.68916483079236,-3.021810290365719],[104.67825196695473,-3.0079750148032103],[104.66604648505728,-3.011484640667984],[104.65771745439707,-2.999134265411785],[104.66225251424218,-2.984163211756796],[104.65822018891066,-2.9731039149197365]]]}},{"type":"Feature","properties":{"code":"1671121002","desa":"Karanganyar","kecamatan":"Gandus","kecCode":"167112"},"geometry":{"type":"Polygon","coordinates":[[[104.73682318584139,-3.010259659721196],[104.74721428281292,-3.016720085322292],[104.74461091276343,-3.0203281716624826],[104.73763939074536,-3.025434571697337],[104.72647110325886,-3.0219169598528666],[104.72840487498506,-3.0130858475964266],[104.73682318584139,-3.010259659721196]]]}},{"type":"Feature","properties":{"code":"1671121003","desa":"Tiga-puluh-enam Ilir","kecamatan":"Gandus","kecCode":"167112"},"geometry":{"type":"Polygon","coordinates":[[[104.74061540567645,-3.010759674684359],[104.74935009953593,-3.0113919402348843],[104.74721428281292,-3.016720085322292],[104.74007459926338,-3.0166191436173855],[104.74061540567645,-3.010759674684359]]]}},{"type":"Feature","properties":{"code":"1671121004","desa":"Karang Jaya","kecamatan":"Gandus","kecCode":"167112"},"geometry":{"type":"Polygon","coordinates":[[[104.71185829722269,-3.008721414329151],[104.73061743025026,-3.0100988258659704],[104.72647110325886,-3.0219169598528666],[104.71128683831698,-3.0162118037909393],[104.71185829722269,-3.008721414329151]]]}},{"type":"Feature","properties":{"code":"1671121005","desa":"Pulokerto","kecamatan":"Gandus","kecCode":"167112"},"geometry":{"type":"Polygon","coordinates":[[[104.68916483079236,-3.021810290365719],[104.66375865383883,-3.0413850904814344],[104.63150186332041,-3.017180742355528],[104.63771032497158,-3.012779871257002],[104.63372239017622,-2.9941665282458407],[104.63884001555431,-2.9987312144521536],[104.64875930839541,-2.9870476604120677],[104.62747277644752,-2.973739968530015],[104.63729954164057,-2.959886784767665],[104.65822018891066,-2.9731039149197365],[104.66225251424218,-2.984163211756796],[104.65771745439707,-2.999134265411785],[104.66604648505728,-3.011484640667984],[104.67490455270303,-3.0073234658740966],[104.6853027534194,-3.0136316326557004],[104.68916483079236,-3.021810290365719]]]}},{"type":"Feature","properties":{"code":"1671131001","desa":"Kemasrindo","kecamatan":"Kertapati","kecCode":"167113"},"geometry":{"type":"Polygon","coordinates":[[[104.77134530384272,-3.037176117620212],[104.75072336818897,-3.0391467534542467],[104.75132074195874,-3.0225166817517977],[104.77134530384272,-3.037176117620212]]]}},{"type":"Feature","properties":{"code":"1671131002","desa":"Kemangagung","kecamatan":"Kertapati","kecCode":"167113"},"geometry":{"type":"Polygon","coordinates":[[[104.75132915331784,-3.0225481616206866],[104.74488415827733,-3.046704168488703],[104.73672279092413,-3.0444356538110013],[104.74201674008053,-3.022989485927911],[104.75132915331784,-3.0225481616206866]]]}},{"type":"Feature","properties":{"code":"1671131003","desa":"Keramasan","kecamatan":"Kertapati","kecCode":"167113"},"geometry":{"type":"Polygon","coordinates":[[[104.68916483079236,-3.021810290365719],[104.71009149272827,-3.0160963137532044],[104.74002841008314,-3.0247284617990404],[104.7367193708024,-3.044471940556162],[104.67773316065687,-3.0404609354567413],[104.6750433540676,-3.0345364428419144],[104.68916483079236,-3.021810290365719]]]}},{"type":"Feature","properties":{"code":"1671131004","desa":"Kertapati","kecamatan":"Kertapati","kecCode":"167113"},"geometry":{"type":"Polygon","coordinates":[[[104.74935009953593,-3.0113919402348843],[104.75285179187676,-3.016573923006994],[104.74590764072508,-3.026037596806191],[104.74201674008053,-3.022989485927911],[104.74935009953593,-3.0113919402348843]]]}},{"type":"Feature","properties":{"code":"1671131005","desa":"Karya Jaya","kecamatan":"Kertapati","kecCode":"167113"},"geometry":{"type":"Polygon","coordinates":[[[104.67660840195623,-3.048550498231045],[104.67329722408765,-3.0353597263087595],[104.6750433540676,-3.0345364428419144],[104.68066905233496,-3.041349778601344],[104.68910478665664,-3.0374384075926377],[104.72827139041236,-3.042048331496503],[104.74420719720443,-3.0469369580000887],[104.74439431464593,-3.061413623749956],[104.72825522329997,-3.0742099476273004],[104.72448846686932,-3.090742570591602],[104.71887194708273,-3.0800752486638032],[104.7225174092511,-3.074192859609145],[104.71050210878536,-3.0577601369349177],[104.67660840195623,-3.048550498231045]]]}},{"type":"Feature","properties":{"code":"1671131006","desa":"Oganbaru","kecamatan":"Kertapati","kecCode":"167113"},"geometry":{"type":"Polygon","coordinates":[[[104.77537069270335,-3.0353218027974633],[104.76171584271201,-3.031086492390733],[104.75193798894708,-3.017219183876369],[104.76900080004695,-3.0238103646076016],[104.77537069270335,-3.0353218027974633]]]}},{"type":"Feature","properties":{"code":"1671141001","desa":"Plaju Ulu","kecamatan":"Plaju","kecCode":"167114"},"geometry":{"type":"Polygon","coordinates":[[[104.80505400933508,-3.006558092451669],[104.80430845067451,-2.9940720670554914],[104.81518470131299,-2.995730954701195],[104.81607075026498,-3.0003100525433726],[104.80505400933508,-3.006558092451669]]]}},{"type":"Feature","properties":{"code":"1671141002","desa":"Plaju Darat","kecamatan":"Plaju","kecCode":"167114"},"geometry":{"type":"Polygon","coordinates":[[[104.81197105132304,-3.040011575707057],[104.80481559186615,-3.029372487994864],[104.79824565761106,-3.0295961475888635],[104.79093834492873,-3.00811167668053],[104.80573231669312,-3.0122962005726905],[104.81778474566954,-3.007638797860746],[104.82006796876179,-3.0205154356933317],[104.80861552878365,-3.0203875574944488],[104.81399486137383,-3.027084853730428],[104.8082724212353,-3.0338946650467737],[104.81197105132304,-3.040011575707057]]]}},{"type":"Feature","properties":{"code":"1671141003","desa":"Plaju Ilir","kecamatan":"Plaju","kecCode":"167114"},"geometry":{"type":"Polygon","coordinates":[[[104.81554521434022,-2.9992740227555665],[104.81992695866228,-2.9872969111141217],[104.82258601922945,-3.004219209421189],[104.81554521434022,-2.9992740227555665]]]}},{"type":"Feature","properties":{"code":"1671141004","desa":"Baguskuning","kecamatan":"Plaju","kecCode":"167114"},"geometry":{"type":"Polygon","coordinates":[[[104.80155997591218,-2.9934608761024477],[104.80313105015789,-2.986437284244817],[104.81581217898893,-2.987267464612385],[104.81490803297942,-2.9956949548397755],[104.80155997591218,-2.9934608761024477]]]}},{"type":"Feature","properties":{"code":"1671141005","desa":"Komperta","kecamatan":"Plaju","kecCode":"167114"},"geometry":{"type":"Polygon","coordinates":[[[104.83487349591518,-2.988189331761852],[104.83715691595899,-3.0124737807036706],[104.82053118796404,-3.0109072444387355],[104.81992695866228,-2.9872969111141217],[104.83487349591518,-2.988189331761852]]]}},{"type":"Feature","properties":{"code":"1671141006","desa":"Talangputri","kecamatan":"Plaju","kecCode":"167114"},"geometry":{"type":"Polygon","coordinates":[[[104.8349301783851,-3.0137980036367935],[104.8203993896202,-3.0210593870350575],[104.81709376866257,-3.002476921346987],[104.82246336878949,-3.004168604569719],[104.82053118796404,-3.0109072444387355],[104.8349301783851,-3.0137980036367935]]]}},{"type":"Feature","properties":{"code":"1671141007","desa":"Talangbubuk","kecamatan":"Plaju","kecCode":"167114"},"geometry":{"type":"Polygon","coordinates":[[[104.80504052669902,-3.0099021953960903],[104.80958382073679,-3.0018516793862697],[104.81607075026498,-3.0003100525433726],[104.81778474566954,-3.007638797860746],[104.80504052669902,-3.0099021953960903]]]}},{"type":"Feature","properties":{"code":"1671151001","desa":"Alang-Alang Lebar","kecamatan":"Alang-alang Lebar","kecCode":"167115"},"geometry":{"type":"Polygon","coordinates":[[[104.67497174824763,-2.9177116898088222],[104.69556967829804,-2.913529373752312],[104.70473861999136,-2.9179112916387515],[104.70355085658684,-2.923679974910617],[104.68903685456722,-2.9287008737006053],[104.67497174824763,-2.9177116898088222]]]}},{"type":"Feature","properties":{"code":"1671151002","desa":"Sri Jaya","kecamatan":"Alang-alang Lebar","kecCode":"167115"},"geometry":{"type":"Polygon","coordinates":[[[104.73469509490275,-2.9534454454782906],[104.71291947565334,-2.9616123994111883],[104.72882175392083,-2.9431931696675444],[104.73469509490275,-2.9534454454782906]]]}},{"type":"Feature","properties":{"code":"1671151003","desa":"Talangkelapa","kecamatan":"Alang-alang Lebar","kecCode":"167115"},"geometry":{"type":"Polygon","coordinates":[[[104.67801063478304,-2.939343706189731],[104.67965303426017,-2.924159706564379],[104.68903685456722,-2.9287008737006053],[104.70355085658684,-2.923679974910617],[104.69780479575479,-2.9505311267406604],[104.70883151556204,-2.9623191927942605],[104.70488780223036,-2.9654052406736993],[104.6863778155838,-2.9558150259674605],[104.67801063478304,-2.939343706189731]]]}},{"type":"Feature","properties":{"code":"1671151004","desa":"Karyabaru","kecamatan":"Alang-alang Lebar","kecCode":"167115"},"geometry":{"type":"Polygon","coordinates":[[[104.71291947565334,-2.9616123994111883],[104.69780479575479,-2.9505311267406604],[104.70473861999136,-2.9179112916387515],[104.72882175392083,-2.9431931696675444],[104.71291947565334,-2.9616123994111883]]]}},{"type":"Feature","properties":{"code":"1671161001","desa":"Srimulya","kecamatan":"Sematangborang","kecCode":"167116"},"geometry":{"type":"Polygon","coordinates":[[[104.79767614933489,-2.9253464267540608],[104.81431214129236,-2.9266361687806883],[104.81943098165453,-2.9512648925904332],[104.79334021557855,-2.9466992540020724],[104.79767614933489,-2.9253464267540608]]]}},{"type":"Feature","properties":{"code":"1671161002","desa":"Sukamulya","kecamatan":"Sematangborang","kecCode":"167116"},"geometry":{"type":"Polygon","coordinates":[[[104.85120664117362,-2.90774279756903],[104.83363479041331,-2.909657825623095],[104.8364399548401,-2.9557683700390736],[104.81943098165453,-2.9512648925904332],[104.81274949189559,-2.92730827081584],[104.83321404529204,-2.8958159328490582],[104.85120664117362,-2.90774279756903]]]}},{"type":"Feature","properties":{"code":"1671161003","desa":"Lebung-Gajah","kecamatan":"Sematangborang","kecCode":"167116"},"geometry":{"type":"Polygon","coordinates":[[[104.7837361998658,-2.936388573519738],[104.79767614933489,-2.9253464267540608],[104.79843918631944,-2.939828476744945],[104.7837361998658,-2.936388573519738]]]}},{"type":"Feature","properties":{"code":"1671161005","desa":"Karyamulya","kecamatan":"Sematangborang","kecCode":"167116"},"geometry":{"type":"Polygon","coordinates":[[[104.84830905162146,-2.9083121808388444],[104.84266079116264,-2.920068930700194],[104.85110174874676,-2.935876231549287],[104.83709231585776,-2.9564801870350506],[104.83363479041331,-2.909657825623095],[104.84830905162146,-2.9083121808388444]]]}},{"type":"Feature","properties":{"code":"1671171001","desa":"Delapan Ulu","kecamatan":"Jakabaring","kecCode":"167117"},"geometry":{"type":"Polygon","coordinates":[[[104.77535932437337,-3.023360772832873],[104.76553629316543,-3.0018303078972215],[104.76676028575866,-2.994692941908315],[104.7835070544071,-3.021222128352352],[104.77535932437337,-3.023360772832873]]]}},{"type":"Feature","properties":{"code":"1671171002","desa":"Sembilan Sepuluh Ulu","kecamatan":"Jakabaring","kecCode":"167117"},"geometry":{"type":"Polygon","coordinates":[[[104.77154837975398,-2.998315181778857],[104.7660721542066,-2.9895337543674274],[104.77650934682896,-2.9959888290023895],[104.77154837975398,-2.998315181778857]]]}},{"type":"Feature","properties":{"code":"1671171003","desa":"Lima-belas Ulu","kecamatan":"Jakabaring","kecCode":"167117"},"geometry":{"type":"Polygon","coordinates":[[[104.7835070544071,-3.021222128352352],[104.79022991298017,-3.053488601836305],[104.7793307296295,-3.0524617424353795],[104.7727756377855,-3.0273278532449743],[104.75600320968043,-3.020920976875655],[104.77439306488809,-3.016682518841835],[104.77535932437337,-3.023360772832873],[104.7835070544071,-3.021222128352352]]]}},{"type":"Feature","properties":{"code":"1671171004","desa":"Silaberanti","kecamatan":"Jakabaring","kecCode":"167117"},"geometry":{"type":"Polygon","coordinates":[[[104.79824565761106,-3.0295961475888635],[104.788534025425,-3.0287679340384805],[104.77154837975398,-2.998315181778857],[104.78881593590675,-3.0061940055190344],[104.79824565761106,-3.0295961475888635]]]}},{"type":"Feature","properties":{"code":"1671171005","desa":"Tuankentang","kecamatan":"Jakabaring","kecCode":"167117"},"geometry":{"type":"Polygon","coordinates":[[[104.75285509328796,-3.016578560810733],[104.75861689225582,-3.0105629803626],[104.77463124673471,-3.0137959837595045],[104.75600320968043,-3.020920976875655],[104.75285509328796,-3.016578560810733]]]}},{"type":"Feature","properties":{"code":"1671181001","desa":"Delapan Ilir","kecamatan":"Ilir Timur Tiga","kecCode":"167118"},"geometry":{"type":"Polygon","coordinates":[[[104.78212798092164,-2.950019796507448],[104.76443786121835,-2.963709541977985],[104.75890556743803,-2.9571957865795517],[104.7591032483163,-2.933766041618258],[104.76988820517657,-2.9314881910783903],[104.76814942625509,-2.9501834227576484],[104.78212798092164,-2.950019796507448]]]}},{"type":"Feature","properties":{"code":"1671181002","desa":"Sembilan Ilir","kecamatan":"Ilir Timur Tiga","kecCode":"167118"},"geometry":{"type":"Polygon","coordinates":[[[104.7661084472471,-2.981652073481112],[104.75955768384013,-2.965834733500027],[104.76306014301126,-2.9571406986077076],[104.76765587741686,-2.9704858796285096],[104.7661084472471,-2.981652073481112]]]}},{"type":"Feature","properties":{"code":"1671181003","desa":"Sepuluh Ilir","kecamatan":"Ilir Timur Tiga","kecCode":"167118"},"geometry":{"type":"Polygon","coordinates":[[[104.77073171889377,-2.9819222109376846],[104.77022034908991,-2.9860569897301943],[104.76611461299905,-2.981584129700555],[104.77073171889377,-2.9819222109376846]]]}},{"type":"Feature","properties":{"code":"1671181004","desa":"Sebelas Ilir","kecamatan":"Ilir Timur Tiga","kecCode":"167118"},"geometry":{"type":"Polygon","coordinates":[[[104.76993587464096,-2.982466242319089],[104.77010743291174,-2.979457378754127],[104.77073171889377,-2.9819222109376846],[104.76993587464096,-2.982466242319089]]]}},{"type":"Feature","properties":{"code":"1671181005","desa":"Kutobatu","kecamatan":"Ilir Timur Tiga","kecCode":"167118"},"geometry":{"type":"Polygon","coordinates":[[[104.77389463992574,-2.9838234559821033],[104.76870173319848,-2.9805496908134685],[104.76691216686304,-2.9729234434683423],[104.77430589270283,-2.9753999263689996],[104.77389463992574,-2.9838234559821033]]]}},{"type":"Feature","properties":{"code":"1671181006","desa":"Duku","kecamatan":"Ilir Timur Tiga","kecCode":"167118"},"geometry":{"type":"Polygon","coordinates":[[[104.77819827273213,-2.951246143524453],[104.77284166690947,-2.962842180939045],[104.77067478821095,-2.9756062236515968],[104.76521312358682,-2.9650046475612726],[104.76969426457872,-2.9553773969745745],[104.77819827273213,-2.951246143524453]]]}}]}