{"type":"FeatureCollection","features":[{"type":"Feature","properties":{"code":"1674011001","desa":"Prabumulih","kecamatan":"Prabumulih Barat","kecCode":"167401"},"geometry":{"type":"Polygon","coordinates":[[[104.24028903820862,-3.436569970632848],[104.22188822925841,-3.4735015962871625],[104.2136898745881,-3.468317473243901],[104.22418122978,-3.454293150294825],[104.217861790889,-3.4414846882676273],[104.23511209894427,-3.4435366381030437],[104.23567783726241,-3.4352708315902025],[104.24028903820862,-3.436569970632848]]]}},{"type":"Feature","properties":{"code":"1674011007","desa":"Patih Galung","kecamatan":"Prabumulih Barat","kecCode":"167401"},"geometry":{"type":"Polygon","coordinates":[[[104.13690784831863,-3.475696053593124],[104.14232971074762,-3.468247068918291],[104.13865255377236,-3.4506716002042404],[104.15316789668117,-3.4429366032399944],[104.16004767076345,-3.447255926513493],[104.18389833893723,-3.4419258183213],[104.1918014147036,-3.4187916688247943],[104.20859046587736,-3.4323244781019575],[104.22114722566397,-3.432523809235944],[104.22378611533703,-3.440819534394612],[104.23663983306193,-3.4428761220337805],[104.217861790889,-3.4414846882676273],[104.22418122978,-3.454293150294825],[104.2136898745881,-3.468317473243901],[104.18746641624215,-3.466222757047967],[104.14300392888826,-3.4900953021041716],[104.14474746162614,-3.4960499750676],[104.1437908743494,-3.4992019891184],[104.13690784831863,-3.475696053593124]]]}},{"type":"Feature","properties":{"code":"1674011009","desa":"Muntang Tapus","kecamatan":"Prabumulih Barat","kecCode":"167401"},"geometry":{"type":"Polygon","coordinates":[[[104.23892462367252,-3.4352552796140783],[104.22601677755227,-3.441285210544159],[104.21979296267516,-3.437066765123771],[104.22195300922408,-3.4296165870485136],[104.23892462367252,-3.4352552796140783]]]}},{"type":"Feature","properties":{"code":"1674011011","desa":"Gunung Kemala","kecamatan":"Prabumulih Barat","kecCode":"167401"},"geometry":{"type":"Polygon","coordinates":[[[104.1370987276242,-3.452538483052555],[104.15369934834631,-3.4086501301346015],[104.12765073169594,-3.3644513195555596],[104.15478898582306,-3.3623859392447004],[104.16793180500882,-3.39041959794094],[104.19916392417582,-3.3941616239106214],[104.19816518567484,-3.4075057176512247],[104.18389833893723,-3.4419258183213],[104.16004767076345,-3.447255926513493],[104.15316789668117,-3.4429366032399944],[104.1370987276242,-3.452538483052555]]]}},{"type":"Feature","properties":{"code":"1674011012","desa":"Payuputat","kecamatan":"Prabumulih Barat","kecCode":"167401"},"geometry":{"type":"Polygon","coordinates":[[[104.18468372317534,-3.328648042694348],[104.1777580360046,-3.3354684543196997],[104.17856542755248,-3.3490064077189716],[104.16212820375362,-3.358648828969294],[104.12765073169594,-3.3644513195555596],[104.12484763121324,-3.3604364986325947],[104.13280489742812,-3.343387894141482],[104.12723393999437,-3.325370744089451],[104.14463907443381,-3.3212582217189026],[104.13469210135948,-3.3304980308788075],[104.13975417021884,-3.334116136565875],[104.15480619435043,-3.328835164632285],[104.15240069583552,-3.3191318772659417],[104.16172678955974,-3.32848010329567],[104.17086478468212,-3.3163732365701946],[104.1737162731875,-3.330582204724258],[104.18468372317534,-3.328648042694348]]]}},{"type":"Feature","properties":{"code":"1674012013","desa":"Tanjung Telang","kecamatan":"Prabumulih Barat","kecCode":"167401"},"geometry":{"type":"Polygon","coordinates":[[[104.17856542755248,-3.3490064077189716],[104.19987365924202,-3.3517740731114363],[104.19150267071176,-3.3694679465658552],[104.19386125609213,-3.3933715029441474],[104.16793180500882,-3.39041959794094],[104.15478898582306,-3.3623859392447004],[104.17856542755248,-3.3490064077189716]]]}},{"type":"Feature","properties":{"code":"1674021003","desa":"Karang Raja","kecamatan":"Prabumulih Timur","kecCode":"167402"},"geometry":{"type":"Polygon","coordinates":[[[104.24685825300604,-3.4360544099888246],[104.24052551134331,-3.4357993658541144],[104.24219309183779,-3.427444456311671],[104.24977157709668,-3.424274086198559],[104.24685825300604,-3.4360544099888246]]]}},{"type":"Feature","properties":{"code":"1674021004","desa":"Tugu Kecil","kecamatan":"Prabumulih Timur","kecCode":"167402"},"geometry":{"type":"Polygon","coordinates":[[[104.24843712887048,-3.416749209534851],[104.24673272563484,-3.4279189188375088],[104.24214348073713,-3.4274490131764246],[104.24843712887048,-3.416749209534851]]]}},{"type":"Feature","properties":{"code":"1674021005","desa":"Prabu Jaya","kecamatan":"Prabumulih Timur","kecCode":"167402"},"geometry":{"type":"Polygon","coordinates":[[[104.24843712887048,-3.416749209534851],[104.23630665672687,-3.42480767824961],[104.22985434570154,-3.4141694610810873],[104.2357101112327,-3.40510555481655],[104.24843712887048,-3.416749209534851]]]}},{"type":"Feature","properties":{"code":"1674021006","desa":"Muara Dua","kecamatan":"Prabumulih Timur","kecCode":"167402"},"geometry":{"type":"Polygon","coordinates":[[[104.24685825300604,-3.4360544099888246],[104.25233641389445,-3.42809348713899],[104.2508900198586,-3.411726868232278],[104.2771617637045,-3.43019158298721],[104.27408563174656,-3.463078707393131],[104.25146986134507,-3.452371362036937],[104.24685825300604,-3.4360544099888246]]]}},{"type":"Feature","properties":{"code":"1674021007","desa":"Gunung Ibul","kecamatan":"Prabumulih Timur","kecCode":"167402"},"geometry":{"type":"Polygon","coordinates":[[[104.27757446528936,-3.4306695933386253],[104.2588063066658,-3.4155267224080985],[104.26438347841484,-3.397836109895367],[104.29481453995913,-3.393333378884019],[104.29129727255115,-3.4139542820939544],[104.27757446528936,-3.4306695933386253]]]}},{"type":"Feature","properties":{"code":"1674021008","desa":"Gunung Ibul Barat","kecamatan":"Prabumulih Timur","kecCode":"167402"},"geometry":{"type":"Polygon","coordinates":[[[104.2588063066658,-3.4155267224080985],[104.250885868588,-3.411705039887593],[104.26168195006198,-3.3900237415577044],[104.26727680787842,-3.3935116469964197],[104.2588063066658,-3.4155267224080985]]]}},{"type":"Feature","properties":{"code":"1674021009","desa":"Sukajadi","kecamatan":"Prabumulih Timur","kecCode":"167402"},"geometry":{"type":"Polygon","coordinates":[[[104.25036615397488,-3.413276472961061],[104.23580045802476,-3.404091655545589],[104.25751211838963,-3.3874213391815227],[104.26168636303527,-3.390030200488573],[104.25036615397488,-3.413276472961061]]]}},{"type":"Feature","properties":{"code":"1674021010","desa":"Karang Jaya","kecamatan":"Prabumulih Timur","kecCode":"167402"},"geometry":{"type":"Polygon","coordinates":[[[104.33684061100546,-3.4003930605354116],[104.31415144243515,-3.4525535664819547],[104.27642576933384,-3.4605314271630943],[104.29582085524834,-3.476244715583721],[104.27520994528282,-3.4665505770204668],[104.273773638043,-3.443309445972085],[104.29129727255115,-3.4139542820939544],[104.29481453995913,-3.393333378884019],[104.33684061100546,-3.4003930605354116]]]}},{"type":"Feature","properties":{"code":"1674031001","desa":"Cambai","kecamatan":"Cambai","kecCode":"167403"},"geometry":{"type":"Polygon","coordinates":[[[104.26262857374972,-3.361147409111978],[104.28805561227676,-3.3642697302468267],[104.29164298093887,-3.372159606654981],[104.28449305680921,-3.393605018208453],[104.27335784818621,-3.3980787919492697],[104.25619300540295,-3.387312780218837],[104.26262857374972,-3.361147409111978]]]}},{"type":"Feature","properties":{"code":"1674031002","desa":"Sindur","kecamatan":"Cambai","kecCode":"167403"},"geometry":{"type":"Polygon","coordinates":[[[104.28805561227676,-3.3642697302468267],[104.31325133528092,-3.3506187068854514],[104.32073637738199,-3.358249036253435],[104.31381213632106,-3.3636490001849064],[104.31015136499353,-3.3937758444309023],[104.28473927679623,-3.393396732524768],[104.29164298093887,-3.372159606654981],[104.28805561227676,-3.3642697302468267]]]}},{"type":"Feature","properties":{"code":"1674031005","desa":"Sungai Medang","kecamatan":"Cambai","kecCode":"167403"},"geometry":{"type":"Polygon","coordinates":[[[104.19987365924202,-3.3517740731114363],[104.22659871535848,-3.3614590646700875],[104.23430277295465,-3.407129682325817],[104.19386181097387,-3.393361873903031],[104.19296777334415,-3.360448240181267],[104.19987365924202,-3.3517740731114363]]]}},{"type":"Feature","properties":{"code":"1674032003","desa":"Pangkul","kecamatan":"Cambai","kecCode":"167403"},"geometry":{"type":"Polygon","coordinates":[[[104.32073637738199,-3.358249036253435],[104.35173370604576,-3.375920745916147],[104.33684061100546,-3.4003930605354116],[104.32798817311578,-3.402354096106664],[104.31015136499353,-3.3937758444309023],[104.31381213632106,-3.3636490001849064],[104.32073637738199,-3.358249036253435]]]}},{"type":"Feature","properties":{"code":"1674032004","desa":"Muara Sungai","kecamatan":"Cambai","kecCode":"167403"},"geometry":{"type":"Polygon","coordinates":[[[104.22659871535848,-3.3614590646700875],[104.26262857374972,-3.361147409111978],[104.25619300540295,-3.387312780218837],[104.2434103143346,-3.393386597165366],[104.23433078233978,-3.407080568550282],[104.22659871535848,-3.3614590646700875]]]}},{"type":"Feature","properties":{"code":"1674041001","desa":"Tanjung Rambang","kecamatan":"Rambang Kpk Tengah","kecCode":"167404"},"geometry":{"type":"Polygon","coordinates":[[[104.25115280355907,-3.5776419181937467],[104.25183622536154,-3.5429735102102775],[104.26763386481103,-3.5428849242908798],[104.27098082940184,-3.552070601458245],[104.26221893795366,-3.579858375614961],[104.25115280355907,-3.5776419181937467]]]}},{"type":"Feature","properties":{"code":"1674042003","desa":"Karya Mulya","kecamatan":"Rambang Kpk Tengah","kecCode":"167404"},"geometry":{"type":"Polygon","coordinates":[[[104.14051656418815,-3.513506206268939],[104.12571567034193,-3.4949051192183807],[104.13690784831863,-3.475696053593124],[104.1437908743494,-3.4992019891184],[104.14300392888826,-3.4900953021041716],[104.16110799843545,-3.4804164924852237],[104.17282634186222,-3.501623509952346],[104.19500004601537,-3.514840417972066],[104.19533076630186,-3.551420644329208],[104.17795853086157,-3.546765261494519],[104.14933413626142,-3.5511665669656356],[104.14051656418815,-3.513506206268939]]]}},{"type":"Feature","properties":{"code":"1674042005","desa":"Rambang Senuling","kecamatan":"Rambang Kpk Tengah","kecCode":"167404"},"geometry":{"type":"Polygon","coordinates":[[[104.3038281732317,-3.4974878390323085],[104.31683640167864,-3.523454109231644],[104.31589987378022,-3.540905553341823],[104.29992605624255,-3.5359289758400982],[104.28091080528948,-3.5076377872829103],[104.28280412281208,-3.499337060994304],[104.29964183630176,-3.5029240924068823],[104.3038281732317,-3.4974878390323085]]]}},{"type":"Feature","properties":{"code":"1674042006","desa":"Jungai","kecamatan":"Rambang Kpk Tengah","kecCode":"167404"},"geometry":{"type":"Polygon","coordinates":[[[104.31458155489491,-3.56670623407095],[104.2987857149888,-3.5638150962582875],[104.28033791196513,-3.5814025637271403],[104.26221893795366,-3.579858375614961],[104.27035775480658,-3.5502166211833215],[104.29847639586905,-3.550119443141107],[104.31714471625571,-3.537848834152818],[104.31458155489491,-3.56670623407095]]]}},{"type":"Feature","properties":{"code":"1674042007","desa":"Talang Batu","kecamatan":"Rambang Kpk Tengah","kecCode":"167404"},"geometry":{"type":"Polygon","coordinates":[[[104.28091080528948,-3.5076377872829103],[104.29992605624255,-3.5359289758400982],[104.31209463985579,-3.5381495701426884],[104.31191387072862,-3.5441327372257696],[104.30038911806344,-3.544084652274675],[104.29842743677682,-3.55013032943442],[104.279817689235,-3.5461501710810874],[104.27241756292023,-3.5278155513538447],[104.27972747644195,-3.5224747133502987],[104.28091080528948,-3.5076377872829103]]]}},{"type":"Feature","properties":{"code":"1674042008","desa":"Karangan","kecamatan":"Rambang Kpk Tengah","kecCode":"167404"},"geometry":{"type":"Polygon","coordinates":[[[104.28280412281208,-3.499337060994304],[104.27457677939492,-3.5265181560966705],[104.24443551898406,-3.523344391042811],[104.24562785004531,-3.4898046529103994],[104.28280412281208,-3.499337060994304]]]}},{"type":"Feature","properties":{"code":"1674042009","desa":"Karang Bindu","kecamatan":"Rambang Kpk Tengah","kecCode":"167404"},"geometry":{"type":"Polygon","coordinates":[[[104.27035775480658,-3.5502166211833215],[104.26763386481103,-3.5428849242908798],[104.25308521730898,-3.544126084041279],[104.24667379575912,-3.5242242652487152],[104.27241756292023,-3.5278155513538447],[104.2837343959257,-3.5481382609573755],[104.27035775480658,-3.5502166211833215]]]}},{"type":"Feature","properties":{"code":"1674042010","desa":"Sinar Rambang","kecamatan":"Rambang Kpk Tengah","kecCode":"167404"},"geometry":{"type":"Polygon","coordinates":[[[104.25183622536154,-3.5429735102102775],[104.24344393728795,-3.5340320538367362],[104.23248153069811,-3.5401502990910103],[104.22525143020938,-3.52734996423718],[104.22366601357572,-3.487985996206737],[104.24445604421112,-3.5158458069585032],[104.25183622536154,-3.5429735102102775]]]}},{"type":"Feature","properties":{"code":"1674042011","desa":"Kemang Tanduk","kecamatan":"Rambang Kpk Tengah","kecCode":"167404"},"geometry":{"type":"Polygon","coordinates":[[[104.2136898745881,-3.468317473243901],[104.22484244462315,-3.48212784028385],[104.21042347666217,-3.487580569238268],[104.1948540096049,-3.5063824623109863],[104.19500004601537,-3.514840417972066],[104.17282634186222,-3.501623509952346],[104.16110799843545,-3.4804164924852237],[104.18996740567127,-3.4652542267755058],[104.2136898745881,-3.468317473243901]]]}},{"type":"Feature","properties":{"code":"1674051001","desa":"Pasar Prabumulih I","kecamatan":"Prabumulih Utara","kecCode":"167405"},"geometry":{"type":"Polygon","coordinates":[[[104.23877591537625,-3.428325813499532],[104.24092203502396,-3.433430974268599],[104.23686393332395,-3.4326504005050187],[104.23877591537625,-3.428325813499532]]]}},{"type":"Feature","properties":{"code":"1674051002","desa":"Pasar Prabumulih II","kecamatan":"Prabumulih Utara","kecCode":"167405"},"geometry":{"type":"Polygon","coordinates":[[[104.23462237132543,-3.4240447437885777],[104.24051276075534,-3.4265361212609626],[104.23693431426727,-3.4324724138803657],[104.23309398969592,-3.429679190654726],[104.23462237132543,-3.4240447437885777]]]}},{"type":"Feature","properties":{"code":"1674051003","desa":"Wonosari","kecamatan":"Prabumulih Utara","kecCode":"167405"},"geometry":{"type":"Polygon","coordinates":[[[104.24028903820862,-3.436569970632848],[104.2268344456532,-3.4334046861858782],[104.22200294767792,-3.4294747684585967],[104.23318640582801,-3.4222358429304425],[104.24028903820862,-3.436569970632848]]]}},{"type":"Feature","properties":{"code":"1674051004","desa":"Mangga Besar","kecamatan":"Prabumulih Utara","kecCode":"167405"},"geometry":{"type":"Polygon","coordinates":[[[104.24589573829773,-3.4207972172399415],[104.2421881923313,-3.4274383364250696],[104.2402879743106,-3.429649995963179],[104.23703931910933,-3.4226330015319824],[104.24589573829773,-3.4207972172399415]]]}},{"type":"Feature","properties":{"code":"1674051005","desa":"Anak Petai","kecamatan":"Prabumulih Utara","kecCode":"167405"},"geometry":{"type":"Polygon","coordinates":[[[104.22121989178464,-3.4325888230252115],[104.20859046587736,-3.4323244781019575],[104.1918014147036,-3.4187916688247943],[104.19916392417582,-3.3941616239106214],[104.2341535088774,-3.407088515859201],[104.2317994983482,-3.4217380070245644],[104.22121989178464,-3.4325888230252115]]]}},{"type":"Feature","properties":{"code":"1674061001","desa":"Majasari","kecamatan":"Prabumulih Selatan","kecCode":"167406"},"geometry":{"type":"Polygon","coordinates":[[[104.23814422977244,-3.447034052073798],[104.24310372105991,-3.434505625441691],[104.25146986134507,-3.452371362036937],[104.24486191274713,-3.4520049638466483],[104.23814422977244,-3.447034052073798]]]}},{"type":"Feature","properties":{"code":"1674061002","desa":"Tanjung Raman","kecamatan":"Prabumulih Selatan","kecCode":"167406"},"geometry":{"type":"Polygon","coordinates":[[[104.22188822925841,-3.4735015962871625],[104.22934167727662,-3.4556466560530037],[104.24179939022974,-3.4611165350788236],[104.26901538175451,-3.496314837101047],[104.24562785004531,-3.4898046529103994],[104.24826731978105,-3.50666230974766],[104.24188259190815,-3.512218230510906],[104.23095181627336,-3.503998165315862],[104.22188822925841,-3.4735015962871625]]]}},{"type":"Feature","properties":{"code":"1674061003","desa":"Sukaraja","kecamatan":"Prabumulih Selatan","kecCode":"167406"},"geometry":{"type":"Polygon","coordinates":[[[104.29582085524834,-3.476244715583721],[104.3038281732317,-3.4974878390323085],[104.29964183630176,-3.5029240924068823],[104.26901538175451,-3.496314837101047],[104.24728915596982,-3.4646280072517475],[104.22937606285505,-3.455660336540001],[104.23278051480895,-3.4448927420027076],[104.29582085524834,-3.476244715583721]]]}},{"type":"Feature","properties":{"code":"1674062004","desa":"Tanjung Menang","kecamatan":"Prabumulih Selatan","kecCode":"167406"},"geometry":{"type":"Polygon","coordinates":[[[104.22525143020938,-3.52734996423718],[104.21585180521667,-3.526841188078621],[104.20218729111063,-3.5389819610438873],[104.1933155546692,-3.533635909670488],[104.1948540096049,-3.5063824623109863],[104.21696314783105,-3.484529010359246],[104.22367208130156,-3.4879797899853036],[104.22525143020938,-3.52734996423718]]]}}]}