{"type":"FeatureCollection","features":[{"type":"Feature","properties":{"code":"1701012001","desa":"Batu Ampar","kecamatan":"Kedurang","kecCode":"170101"},"geometry":{"type":"Polygon","coordinates":[[[103.22405542112085,-4.240741661448043],[103.28886101562343,-4.262033288033007],[103.27961797339084,-4.290513777585979],[103.23757687197514,-4.290868502576142],[103.22452640417026,-4.296312651099116],[103.21862113815507,-4.307407199562105],[103.2009795611579,-4.307661149221873],[103.19713241702749,-4.350753897108667],[103.2046445377153,-4.375782848007761],[103.19816188896003,-4.382284629832721],[103.20131516116584,-4.393330440436821],[103.1676496725944,-4.3993015970741425],[103.15155578926834,-4.426335905732277],[103.13293278122296,-4.4248258073215005],[103.12776848822523,-4.4065229912186075],[103.11416009721079,-4.405736302065032],[103.10532003669039,-4.388195949178501],[103.12328972773878,-4.375889376301309],[103.13434946165842,-4.3366282691281475],[103.14964463818956,-4.328880744607606],[103.1519003663089,-4.3053335985483825],[103.15940042888673,-4.294197719942162],[103.20786428870599,-4.2730169806647735],[103.22405542112085,-4.240741661448043]]]}},{"type":"Feature","properties":{"code":"1701012002","desa":"Rantau Sialang","kecamatan":"Kedurang","kecCode":"170101"},"geometry":{"type":"Polygon","coordinates":[[[103.1077585915858,-4.409381700377755],[103.12776848822523,-4.4065229912186075],[103.13293278122296,-4.4248258073215005],[103.15155578926834,-4.426335905732277],[103.1532200476671,-4.434261055349934],[103.13009964788051,-4.434051022283592],[103.1077585915858,-4.409381700377755]]]}},{"type":"Feature","properties":{"code":"1701012003","desa":"Bumi Agung","kecamatan":"Kedurang","kecCode":"170101"},"geometry":{"type":"Polygon","coordinates":[[[103.09757444030822,-4.410799734291375],[103.11743340732596,-4.4310970623293775],[103.12193130538549,-4.439383136863428],[103.11581710887252,-4.438594463805441],[103.09757444030822,-4.410799734291375]]]}},{"type":"Feature","properties":{"code":"1701012004","desa":"Palak Siring","kecamatan":"Kedurang","kecCode":"170101"},"geometry":{"type":"Polygon","coordinates":[[[103.09757444030822,-4.410799734291375],[103.13607255010817,-4.45928379822905],[103.13117623529506,-4.464343245559398],[103.09200314742736,-4.414954104814779],[103.09757444030822,-4.410799734291375]]]}},{"type":"Feature","properties":{"code":"1701012005","desa":"Keban Agung I","kecamatan":"Kedurang","kecCode":"170101"},"geometry":{"type":"Polygon","coordinates":[[[103.09200314742736,-4.414954104814779],[103.13117623529506,-4.464343245559398],[103.12575148963958,-4.471477827247511],[103.09936642671924,-4.453289984072106],[103.08395205404412,-4.41673289097501],[103.09200314742736,-4.414954104814779]]]}},{"type":"Feature","properties":{"code":"1701012006","desa":"Keban Agung II","kecamatan":"Kedurang","kecCode":"170101"},"geometry":{"type":"Polygon","coordinates":[[[103.16116992595134,-4.512190914144497],[103.16112615324941,-4.512025787825112],[103.16131076967632,-4.512188501263392],[103.16116992595134,-4.512190914144497]]]}},{"type":"Feature","properties":{"code":"1701012006","desa":"Keban Agung II","kecamatan":"Kedurang","kecCode":"170101"},"geometry":{"type":"Polygon","coordinates":[[[103.15793568058722,-4.509213862298085],[103.15788947971578,-4.509202618973878],[103.15787130261856,-4.509157122271619],[103.15793568058722,-4.509213862298085]]]}},{"type":"Feature","properties":{"code":"1701012006","desa":"Keban Agung II","kecamatan":"Kedurang","kecCode":"170101"},"geometry":{"type":"Polygon","coordinates":[[[103.08151892835592,-4.414310232498609],[103.09936642671924,-4.453289984072106],[103.12575148963958,-4.471477827247511],[103.1202333071215,-4.482828545796496],[103.11372222540047,-4.485590949255746],[103.10804061268418,-4.479525655184027],[103.08151892835592,-4.414310232498609]]]}},{"type":"Feature","properties":{"code":"1701012007","desa":"Tanjung Alam","kecamatan":"Kedurang","kecCode":"170101"},"geometry":{"type":"Polygon","coordinates":[[[103.08033891440941,-4.415651056017393],[103.10842935722913,-4.473050031040077],[103.1060657176588,-4.47530289301772],[103.093158900363,-4.455230600536388],[103.08033891440941,-4.415651056017393]]]}},{"type":"Feature","properties":{"code":"1701012008","desa":"Tanjung Negara","kecamatan":"Kedurang","kecCode":"170101"},"geometry":{"type":"Polygon","coordinates":[[[103.10837105957681,-4.473970881955652],[103.11372222540047,-4.485590949255746],[103.10487503955146,-4.490815452758308],[103.08913765377973,-4.446053851837987],[103.10181782663147,-4.4730114833992385],[103.10837105957681,-4.473970881955652]]]}},{"type":"Feature","properties":{"code":"1701012009","desa":"Keban Agung III","kecamatan":"Kedurang","kecCode":"170101"},"geometry":{"type":"Polygon","coordinates":[[[103.07594014592102,-4.416578798437775],[103.09545872943686,-4.453236201915828],[103.09315132987,-4.4552358049130385],[103.07594014592102,-4.416578798437775]]]}},{"type":"Feature","properties":{"code":"1701012010","desa":"Suka Nanti","kecamatan":"Kedurang","kecCode":"170101"},"geometry":{"type":"Polygon","coordinates":[[[103.0904958737856,-4.454132911430421],[103.09805344441098,-4.46971305432346],[103.0938354936132,-4.473203011115824],[103.08581165688251,-4.455604545837295],[103.0904958737856,-4.454132911430421]]]}},{"type":"Feature","properties":{"code":"1701012011","desa":"Muara Tiga","kecamatan":"Kedurang","kecCode":"170101"},"geometry":{"type":"Polygon","coordinates":[[[103.07594014592102,-4.416578798437775],[103.08824493455614,-4.455051523933474],[103.07444500593232,-4.416759785200771],[103.07594014592102,-4.416578798437775]]]}},{"type":"Feature","properties":{"code":"1701012012","desa":"Tanjung Besar","kecamatan":"Kedurang","kecCode":"170101"},"geometry":{"type":"Polygon","coordinates":[[[103.07158709806617,-4.427367999187575],[103.10487503955146,-4.490815452758308],[103.09567199017027,-4.493884119440748],[103.07158709806617,-4.427367999187575]]]}},{"type":"Feature","properties":{"code":"1701012013","desa":"Pajar Bulan","kecamatan":"Kedurang","kecCode":"170101"},"geometry":{"type":"Polygon","coordinates":[[[103.07363678520954,-4.433307218201036],[103.09567199017027,-4.493884119440748],[103.08893275674137,-4.505293910857583],[103.07020141096638,-4.440578046279735],[103.07363678520954,-4.433307218201036]]]}},{"type":"Feature","properties":{"code":"1701012014","desa":"Durian Sebatang","kecamatan":"Kedurang","kecCode":"170101"},"geometry":{"type":"Polygon","coordinates":[[[103.07093199681424,-4.441889141808942],[103.08893275674137,-4.505293910857583],[103.0802963530943,-4.508601388911835],[103.081125188077,-4.515179428749627],[103.06361653807284,-4.441842340190437],[103.07093199681424,-4.441889141808942]]]}},{"type":"Feature","properties":{"code":"1701012015","desa":"Lawang Agung","kecamatan":"Kedurang","kecCode":"170101"},"geometry":{"type":"Polygon","coordinates":[[[103.06361653807284,-4.441842340190437],[103.07028109000036,-4.469165038046086],[103.06027607468116,-4.473493511022224],[103.05451151659327,-4.452903413189002],[103.06361653807284,-4.441842340190437]]]}},{"type":"Feature","properties":{"code":"1701012027","desa":"Nanti Agung","kecamatan":"Kedurang","kecCode":"170101"},"geometry":{"type":"Polygon","coordinates":[[[103.11881364543349,-4.4404450473410835],[103.12357939936982,-4.439718362753038],[103.13880256088953,-4.4569661949566814],[103.13607255010817,-4.45928379822905],[103.11881364543349,-4.4404450473410835]]]}},{"type":"Feature","properties":{"code":"1701012028","desa":"Karang Agung","kecamatan":"Kedurang","kecCode":"170101"},"geometry":{"type":"Polygon","coordinates":[[[103.13982297574978,-4.456099927493349],[103.12007901133734,-4.437759374038693],[103.10217670109392,-4.412005357331187],[103.1355211865536,-4.438104676831854],[103.13982297574978,-4.456099927493349]]]}},{"type":"Feature","properties":{"code":"1701012029","desa":"Lubuk Resam","kecamatan":"Kedurang","kecCode":"170101"},"geometry":{"type":"Polygon","coordinates":[[[103.1077585915858,-4.409381700377755],[103.13009964788051,-4.434051022283592],[103.14873611068303,-4.437507866937634],[103.14256732801982,-4.4509331217951615],[103.1077585915858,-4.409381700377755]]]}},{"type":"Feature","properties":{"code":"1701012030","desa":"Muara Tiga Ilir","kecamatan":"Kedurang","kecCode":"170101"},"geometry":{"type":"Polygon","coordinates":[[[103.07365698398269,-4.42025687991228],[103.08581165688251,-4.455604545837295],[103.08389501094604,-4.453017992213419],[103.07365698398269,-4.42025687991228]]]}},{"type":"Feature","properties":{"code":"1701021024","desa":"Pasar Baru","kecamatan":"Seginim","kecCode":"170102"},"geometry":{"type":"Polygon","coordinates":[[[103.01420779205601,-4.433662329000418],[103.02172935922259,-4.435283507173552],[103.0189131070543,-4.437849654280902],[103.01420779205601,-4.433662329000418]]]}},{"type":"Feature","properties":{"code":"1701022001","desa":"Padang Lebar","kecamatan":"Seginim","kecCode":"170102"},"geometry":{"type":"Polygon","coordinates":[[[103.01341731585649,-4.44640113313958],[103.02619649597159,-4.437413357183881],[103.0321075841977,-4.454203980355063],[103.01341731585649,-4.44640113313958]]]}},{"type":"Feature","properties":{"code":"1701022002","desa":"Sukaraja","kecamatan":"Seginim","kecCode":"170102"},"geometry":{"type":"Polygon","coordinates":[[[103.01699879126124,-4.430857963174507],[103.00670942290161,-4.436813227891982],[102.99932994592035,-4.432338292226905],[103.01302077598808,-4.429518191862538],[103.01306352885882,-4.420241869328024],[103.01699879126124,-4.430857963174507]]]}},{"type":"Feature","properties":{"code":"1701022004","desa":"Tanjung Menang","kecamatan":"Seginim","kecCode":"170102"},"geometry":{"type":"Polygon","coordinates":[[[102.99949338421237,-4.431569160537685],[102.99129823742378,-4.4378262683104195],[102.98347865741418,-4.433993627550696],[102.9873545177968,-4.422464690352023],[102.99899061732322,-4.417523625279151],[102.99949338421237,-4.431569160537685]]]}},{"type":"Feature","properties":{"code":"1701022005","desa":"Darat Sawah","kecamatan":"Seginim","kecCode":"170102"},"geometry":{"type":"Polygon","coordinates":[[[103.02976965984196,-4.442076413933668],[103.01306352885882,-4.420241869328024],[103.01660973375225,-4.394403128389901],[103.02842986244825,-4.42105887013107],[103.02371227260335,-4.426577375500019],[103.03441267070825,-4.43713358708888],[103.02976965984196,-4.442076413933668]]]}},{"type":"Feature","properties":{"code":"1701022006","desa":"Kota Agung","kecamatan":"Seginim","kecCode":"170102"},"geometry":{"type":"Polygon","coordinates":[[[103.0415929712387,-4.4339951447069295],[103.03120082475834,-4.4347376330813315],[103.03084910799998,-4.433036470104819],[103.03297694982643,-4.42151564209306],[103.0415929712387,-4.4339951447069295]]]}},{"type":"Feature","properties":{"code":"1701022007","desa":"Babatan Ilir","kecamatan":"Seginim","kecCode":"170102"},"geometry":{"type":"Polygon","coordinates":[[[103.04069768355129,-4.435258132802046],[103.03297694982643,-4.42151564209306],[103.03457213039957,-4.419587265401802],[103.04370942135277,-4.4295566109003035],[103.04069768355129,-4.435258132802046]]]}},{"type":"Feature","properties":{"code":"1701022008","desa":"Babatan Ulu","kecamatan":"Seginim","kecCode":"170102"},"geometry":{"type":"Polygon","coordinates":[[[103.04174531729262,-4.435075296133655],[103.04370942135277,-4.4295566109003035],[103.03402726894335,-4.415162464242808],[103.05916287586608,-4.433113364837647],[103.05785246741748,-4.437851842331402],[103.04174531729262,-4.435075296133655]]]}},{"type":"Feature","properties":{"code":"1701022009","desa":"Muara Danau","kecamatan":"Seginim","kecCode":"170102"},"geometry":{"type":"Polygon","coordinates":[[[103.0654249290173,-4.441442589742693],[103.0505869363381,-4.4562450214140865],[103.04219713758789,-4.453196232446881],[103.02675215558759,-4.461949529065027],[103.02314313574719,-4.457831297798012],[103.0321075841977,-4.454203980355063],[103.02976965984196,-4.442076413933668],[103.03971383962204,-4.433857029525196],[103.0654249290173,-4.441442589742693]]]}},{"type":"Feature","properties":{"code":"1701022011","desa":"Gunung Ayu","kecamatan":"Seginim","kecCode":"170102"},"geometry":{"type":"Polygon","coordinates":[[[103.01660973375225,-4.394403128389901],[103.00743151465275,-4.427740080193902],[103.00195841784675,-4.417236335053099],[103.00269840430798,-4.40380150331511],[103.01224052867752,-4.393217362380796],[103.01660973375225,-4.394403128389901]]]}},{"type":"Feature","properties":{"code":"1701022014","desa":"Muara Pulutan","kecamatan":"Seginim","kecCode":"170102"},"geometry":{"type":"Polygon","coordinates":[[[102.98347865741418,-4.433993627550696],[102.99096589386095,-4.437517032827924],[102.98286687830385,-4.446203910915756],[102.99331121783847,-4.451931720900225],[102.98121441631228,-4.463926747037196],[102.9742590128432,-4.458698746071238],[102.98217747870774,-4.450792760107033],[102.97729574820028,-4.443075558027857],[102.98347865741418,-4.433993627550696]]]}},{"type":"Feature","properties":{"code":"1701022015","desa":"Kota Bumi Baru","kecamatan":"Seginim","kecCode":"170102"},"geometry":{"type":"Polygon","coordinates":[[[103.00620400930762,-4.428640902308193],[102.99935913431663,-4.431533698470752],[103.00008562375255,-4.418730050514155],[103.0023606738061,-4.417900029326493],[103.00620400930762,-4.428640902308193]]]}},{"type":"Feature","properties":{"code":"1701022016","desa":"Sindang Bulan","kecamatan":"Seginim","kecCode":"170102"},"geometry":{"type":"Polygon","coordinates":[[[103.01136733283617,-4.422025699785536],[103.01489922232133,-4.42773305019345],[103.00656335861218,-4.429003525144525],[103.00606322134064,-4.42779226335556],[103.01136733283617,-4.422025699785536]]]}},{"type":"Feature","properties":{"code":"1701022017","desa":"Muara Payang","kecamatan":"Seginim","kecCode":"170102"},"geometry":{"type":"Polygon","coordinates":[[[102.98121441631228,-4.463926747037196],[102.98642103140556,-4.455220445391831],[102.99838246427935,-4.449649772149676],[102.99041820223829,-4.469424818910018],[102.98121441631228,-4.463926747037196]]]}},{"type":"Feature","properties":{"code":"1701022018","desa":"Durian Seginim","kecamatan":"Seginim","kecCode":"170102"},"geometry":{"type":"Polygon","coordinates":[[[103.0204778968375,-4.450290259417663],[103.02675215558759,-4.461949529065027],[103.0211906698136,-4.479695427401086],[102.99962834457249,-4.478450780979051],[102.99041820223829,-4.469424818910018],[102.99668594360145,-4.457488372812401],[103.00909685403666,-4.463355751282999],[103.0204778968375,-4.450290259417663]]]}},{"type":"Feature","properties":{"code":"1701022020","desa":"Banding Agung","kecamatan":"Seginim","kecCode":"170102"},"geometry":{"type":"Polygon","coordinates":[[[103.00645535632968,-4.442402474832335],[103.01934728624832,-4.449254716163041],[103.00956957997221,-4.45758698257531],[102.9968313756675,-4.456923770338564],[103.00645535632968,-4.442402474832335]]]}},{"type":"Feature","properties":{"code":"1701022021","desa":"Pajar Bulan","kecamatan":"Seginim","kecCode":"170102"},"geometry":{"type":"Polygon","coordinates":[[[103.01700887176209,-4.439312219924234],[103.01341731585649,-4.44640113313958],[103.00204410974794,-4.438023577768448],[103.01266986682093,-4.436108397728918],[103.01700887176209,-4.439312219924234]]]}},{"type":"Feature","properties":{"code":"1701022022","desa":"Dusun Tengah","kecamatan":"Seginim","kecCode":"170102"},"geometry":{"type":"Polygon","coordinates":[[[103.01266986682093,-4.436108397728918],[103.0189131070543,-4.437849654280902],[103.01700887176209,-4.439312219924234],[103.01266986682093,-4.436108397728918]]]}},{"type":"Feature","properties":{"code":"1701022023","desa":"Padang Siring","kecamatan":"Seginim","kecCode":"170102"},"geometry":{"type":"Polygon","coordinates":[[[103.01420779205601,-4.433662329000418],[103.00686101892097,-4.438606277299763],[103.00292291286216,-4.4375469721580965],[103.00179515941913,-4.435001323298139],[103.01420779205601,-4.433662329000418]]]}},{"type":"Feature","properties":{"code":"1701022029","desa":"Darat Sawah Ulu","kecamatan":"Seginim","kecCode":"170102"},"geometry":{"type":"Polygon","coordinates":[[[103.0309138097246,-4.431844542840432],[103.02371227260335,-4.426577375500019],[103.02842986244825,-4.42105887013107],[103.01925019184296,-4.3970228822856665],[103.03627210627273,-4.414524020234531],[103.0309138097246,-4.431844542840432]]]}},{"type":"Feature","properties":{"code":"1701022030","desa":"Tanjung Agung","kecamatan":"Seginim","kecCode":"170102"},"geometry":{"type":"Polygon","coordinates":[[[102.99932994592035,-4.432338292226905],[103.00563964605288,-4.443221602532013],[102.99316256709885,-4.452680495535685],[102.98645513729478,-4.449807082461107],[102.98277802168843,-4.44551223783422],[102.98760822643857,-4.438379992584764],[102.99932994592035,-4.432338292226905]]]}},{"type":"Feature","properties":{"code":"1701022031","desa":"Dusun Baru","kecamatan":"Seginim","kecCode":"170102"},"geometry":{"type":"Polygon","coordinates":[[[103.01934728624832,-4.449254716163041],[103.00936576661688,-4.463260281053328],[102.9991900347923,-4.460817949907173],[103.00956957997221,-4.45758698257531],[103.01934728624832,-4.449254716163041]]]}},{"type":"Feature","properties":{"code":"1701031018","desa":"Masat","kecamatan":"Pino","kecCode":"170103"},"geometry":{"type":"Polygon","coordinates":[[[102.94138427566384,-4.381360329117789],[102.96853926797291,-4.3762293775909376],[102.9537484663187,-4.383874210325779],[102.92637884540744,-4.382445421419822],[102.9243879901137,-4.37767032443171],[102.94138427566384,-4.381360329117789]]]}},{"type":"Feature","properties":{"code":"1701032001","desa":"Tanjung Aur I","kecamatan":"Pino","kecCode":"170103"},"geometry":{"type":"Polygon","coordinates":[[[102.96312377004602,-4.406177818827195],[102.95303426342058,-4.41054376205631],[102.94674942324734,-4.396102454950772],[102.92895984572039,-4.388258940392479],[102.94487551129589,-4.389658398809212],[102.96312377004602,-4.406177818827195]]]}},{"type":"Feature","properties":{"code":"1701032002","desa":"Anggut","kecamatan":"Pino","kecCode":"170103"},"geometry":{"type":"Polygon","coordinates":[[[102.98976244807858,-4.421747329934925],[102.98479245990414,-4.430675466449891],[102.94550226321896,-4.421564053498044],[102.95517101932717,-4.418456303178859],[102.98976244807858,-4.421747329934925]]]}},{"type":"Feature","properties":{"code":"1701032003","desa":"Tanjung Eran","kecamatan":"Pino","kecCode":"170103"},"geometry":{"type":"Polygon","coordinates":[[[103.00925652596794,-4.398360924201411],[103.00251975038623,-4.404265431182576],[103.00273656074374,-4.4157924537246265],[102.96402650771721,-4.414358141182592],[102.9663989912205,-4.402750353225705],[103.00925652596794,-4.398360924201411]]]}},{"type":"Feature","properties":{"code":"1701032004","desa":"Padang Lebar","kecamatan":"Pino","kecCode":"170103"},"geometry":{"type":"Polygon","coordinates":[[[102.92974916089516,-4.3922860865241224],[102.94674942324734,-4.396102454950772],[102.95303426342058,-4.41054376205631],[102.94618855385873,-4.416561657359638],[102.95495092014892,-4.418684137425835],[102.93473238798934,-4.4168270203154565],[102.92170106225426,-4.400101808433995],[102.92974916089516,-4.3922860865241224]]]}},{"type":"Feature","properties":{"code":"1701032005","desa":"Gedung Agung","kecamatan":"Pino","kecCode":"170103"},"geometry":{"type":"Polygon","coordinates":[[[103.00008562375255,-4.418730050514155],[102.9885319902592,-4.42175117273799],[102.94616475959606,-4.416282070726361],[102.95536186805583,-4.410295395387724],[103.00008562375255,-4.418730050514155]]]}},{"type":"Feature","properties":{"code":"1701032015","desa":"Batu Bandung","kecamatan":"Pino","kecCode":"170103"},"geometry":{"type":"Polygon","coordinates":[[[102.96234263330591,-4.369510089333498],[102.95498345132529,-4.368119589063578],[102.95415179067265,-4.36110134457451],[102.935988959423,-4.36336036690818],[102.93454986068758,-4.368737354960065],[102.92766077322614,-4.3625451539572975],[102.95797219975724,-4.35714908229162],[102.96440455842367,-4.35941354822155],[102.96234263330591,-4.369510089333498]]]}},{"type":"Feature","properties":{"code":"1701032016","desa":"Ulak Lebar","kecamatan":"Pino","kecCode":"170103"},"geometry":{"type":"Polygon","coordinates":[[[102.9624866750201,-4.373435381847566],[102.93062939033415,-4.381717449901944],[102.92346928408027,-4.374662202807355],[102.92766077322614,-4.3625451539572975],[102.93454986068758,-4.368737354960065],[102.94485225572707,-4.360723754321382],[102.95423643396428,-4.361136129451883],[102.9624866750201,-4.373435381847566]]]}},{"type":"Feature","properties":{"code":"1701032017","desa":"Kota Bumi","kecamatan":"Pino","kecCode":"170103"},"geometry":{"type":"Polygon","coordinates":[[[102.96569284265063,-4.374575304016068],[102.96409998682498,-4.358623566649988],[102.95797219975724,-4.35714908229162],[102.97288670136027,-4.3551964293010865],[102.97775363082546,-4.3650007905731165],[102.96569284265063,-4.374575304016068]]]}},{"type":"Feature","properties":{"code":"1701032019","desa":"Air Umban","kecamatan":"Pino","kecCode":"170103"},"geometry":{"type":"Polygon","coordinates":[[[102.96256689094929,-4.382073808060919],[102.97137222055159,-4.39116854848134],[102.96249827087853,-4.3920137835000475],[102.9649623323458,-4.4051256749869125],[102.95613742720059,-4.395186230147806],[102.96256689094929,-4.382073808060919]]]}},{"type":"Feature","properties":{"code":"1701032020","desa":"Sebilo","kecamatan":"Pino","kecCode":"170103"},"geometry":{"type":"Polygon","coordinates":[[[102.9686106516603,-4.375968826008085],[102.96708022856973,-4.370619124286312],[102.98130592233053,-4.363563543543289],[102.98213518898785,-4.35500346087053],[103.01625707180646,-4.361202499418841],[102.99899457074291,-4.37160551149727],[102.9686106516603,-4.375968826008085]]]}},{"type":"Feature","properties":{"code":"1701032021","desa":"Ganjuh","kecamatan":"Pino","kecCode":"170103"},"geometry":{"type":"Polygon","coordinates":[[[103.01527192655821,-4.393355714983583],[102.97754214265579,-4.396630044926554],[102.96503690592851,-4.386937865985829],[102.9643371398472,-4.377628500560651],[103.02074702705367,-4.36235894123397],[103.0234475526625,-4.372973882149645],[103.01527192655821,-4.393355714983583]]]}},{"type":"Feature","properties":{"code":"1701032022","desa":"Puding","kecamatan":"Pino","kecCode":"170103"},"geometry":{"type":"Polygon","coordinates":[[[103.00988108534386,-4.395438497176003],[102.96896652508512,-4.404568737434896],[102.96236598330353,-4.392632736501656],[102.97879135943373,-4.396719274760559],[103.00988108534386,-4.395438497176003]]]}},{"type":"Feature","properties":{"code":"1701032023","desa":"Padang Tambak","kecamatan":"Pino","kecCode":"170103"},"geometry":{"type":"Polygon","coordinates":[[[102.95303426342058,-4.41054376205631],[102.96494108226517,-4.40511538134675],[102.96725803083352,-4.407007249160252],[102.96402650771721,-4.414358141182592],[102.95303426342058,-4.41054376205631]]]}},{"type":"Feature","properties":{"code":"1701032024","desa":"Padang Mumpo","kecamatan":"Pino","kecCode":"170103"},"geometry":{"type":"Polygon","coordinates":[[[102.95741474059787,-4.390766842907489],[102.95496383261484,-4.381517576476734],[102.96256689094929,-4.382073808060919],[102.95741474059787,-4.390766842907489]]]}},{"type":"Feature","properties":{"code":"1701032025","desa":"Beringin Datar","kecamatan":"Pino","kecCode":"170103"},"geometry":{"type":"Polygon","coordinates":[[[102.92637884540744,-4.382445421419822],[102.9537484663187,-4.383874210325779],[102.9649623323458,-4.4051256749869125],[102.94487551129589,-4.389658398809212],[102.92895984572039,-4.388258940392479],[102.92637884540744,-4.382445421419822]]]}},{"type":"Feature","properties":{"code":"1701041022","desa":"Kayu Kunyit","kecamatan":"Manna","kecCode":"170104"},"geometry":{"type":"Polygon","coordinates":[[[102.92617570834233,-4.4680245708884],[102.93731689475895,-4.476318355310395],[102.9350655076671,-4.483464175826127],[102.92617570834233,-4.4680245708884]]]}},{"type":"Feature","properties":{"code":"1701042001","desa":"Tanjung Raman","kecamatan":"Manna","kecCode":"170104"},"geometry":{"type":"Polygon","coordinates":[[[102.92844166265269,-4.474615455742992],[102.93310547034122,-4.476379387800986],[102.93328452176331,-4.480812147960095],[102.93011474609868,-4.481506342740645],[102.92844166265269,-4.474615455742992]]]}},{"type":"Feature","properties":{"code":"1701042016","desa":"Tanjung Besar","kecamatan":"Manna","kecCode":"170104"},"geometry":{"type":"Polygon","coordinates":[[[102.93328452176331,-4.480812147960095],[102.9406353823171,-4.485315247693656],[102.93948006285466,-4.500763095817204],[102.92805845883088,-4.497533989182641],[102.9249665149927,-4.4879423022858145],[102.93328452176331,-4.480812147960095]]]}},{"type":"Feature","properties":{"code":"1701042017","desa":"Manggul","kecamatan":"Manna","kecCode":"170104"},"geometry":{"type":"Polygon","coordinates":[[[102.92233241600826,-4.496075063994885],[102.92907714789214,-4.492309564820419],[102.92805845883088,-4.497533989182641],[102.92233241600826,-4.496075063994885]]]}},{"type":"Feature","properties":{"code":"1701042018","desa":"Terulung","kecamatan":"Manna","kecCode":"170104"},"geometry":{"type":"Polygon","coordinates":[[[102.92468261700922,-4.486328119938909],[102.92233241600826,-4.496075063994885],[102.91674485259296,-4.494200373232528],[102.91888427678799,-4.484497065181399],[102.92468261700922,-4.486328119938909]]]}},{"type":"Feature","properties":{"code":"1701042019","desa":"Ketaping","kecamatan":"Manna","kecCode":"170104"},"geometry":{"type":"Polygon","coordinates":[[[102.91888427678799,-4.484497065181399],[102.91674485259296,-4.494200373232528],[102.89925426727069,-4.487613210671852],[102.90482133333789,-4.4757428188791],[102.91888427678799,-4.484497065181399]]]}},{"type":"Feature","properties":{"code":"1701042020","desa":"Lubuk Sirih Ulu","kecamatan":"Manna","kecCode":"170104"},"geometry":{"type":"Polygon","coordinates":[[[102.9685843114169,-4.480337117062671],[102.964786129976,-4.4908189349332694],[102.95410193855365,-4.496610050894452],[102.95558637031478,-4.483442844806561],[102.94604302196797,-4.4837661366926085],[102.9451293953054,-4.474426265364336],[102.9500732419866,-4.470886225327231],[102.9685843114169,-4.480337117062671]]]}},{"type":"Feature","properties":{"code":"1701042021","desa":"Lubuk Sirih Ilir","kecamatan":"Manna","kecCode":"170104"},"geometry":{"type":"Polygon","coordinates":[[[102.9350655076671,-4.483464175826127],[102.93548583999956,-4.474304194087949],[102.94250488309392,-4.467712397320836],[102.94554063459263,-4.483045374140212],[102.9350655076671,-4.483464175826127]]]}},{"type":"Feature","properties":{"code":"1701042023","desa":"Kota Padang","kecamatan":"Manna","kecCode":"170104"},"geometry":{"type":"Polygon","coordinates":[[[102.93951415975071,-4.46862792514918],[102.93287584734252,-4.472860615830884],[102.93081779920213,-4.46836330233537],[102.93951415975071,-4.46862792514918]]]}},{"type":"Feature","properties":{"code":"1701042024","desa":"Mela'o","kecamatan":"Manna","kecCode":"170104"},"geometry":{"type":"Polygon","coordinates":[[[102.94250488309392,-4.467712397320836],[102.9354226401428,-4.46686036612541],[102.93528928417317,-4.461600670352598],[102.93872070229861,-4.465026849923512],[102.94250488309392,-4.467712397320836]]]}},{"type":"Feature","properties":{"code":"1701042025","desa":"Gunung Sakti","kecamatan":"Manna","kecCode":"170104"},"geometry":{"type":"Polygon","coordinates":[[[102.93489078018541,-4.454753142368708],[102.94531249997198,-4.458312982779291],[102.94470214808574,-4.463500972008205],[102.93489078018541,-4.454753142368708]]]}},{"type":"Feature","properties":{"code":"1701042026","desa":"Jeranglah Rendah","kecamatan":"Manna","kecCode":"170104"},"geometry":{"type":"Polygon","coordinates":[[[102.9685843114169,-4.480337117062671],[102.94250488309392,-4.467712397320836],[102.94488525275226,-4.459777827304706],[102.96676906044382,-4.468664641770341],[102.9685843114169,-4.480337117062671]]]}},{"type":"Feature","properties":{"code":"1701042027","desa":"Jeranglah Tinggi","kecamatan":"Manna","kecCode":"170104"},"geometry":{"type":"Polygon","coordinates":[[[102.96676906044382,-4.468664641770341],[102.939972274401,-4.454336161809944],[102.94848632798168,-4.445495601275735],[102.97131211795994,-4.463030184112159],[102.96676906044382,-4.468664641770341]]]}},{"type":"Feature","properties":{"code":"1701042028","desa":"Kembang Ayun","kecamatan":"Manna","kecCode":"170104"},"geometry":{"type":"Polygon","coordinates":[[[102.94848632798168,-4.445495601275735],[102.94056719392091,-4.452808362043411],[102.9339925454197,-4.448671825975434],[102.94214136093512,-4.438855430875147],[102.94848632798168,-4.445495601275735]]]}},{"type":"Feature","properties":{"code":"1701042029","desa":"Tambangan","kecamatan":"Manna","kecCode":"170104"},"geometry":{"type":"Polygon","coordinates":[[[102.98479245990414,-4.430675466449891],[102.97913388332209,-4.445115946179074],[102.950927733728,-4.447509760699567],[102.9478759769948,-4.439208979552112],[102.93903517543303,-4.437351186151583],[102.94800883833727,-4.429083053092379],[102.93863193471604,-4.420042222531979],[102.98479245990414,-4.430675466449891]]]}},{"type":"Feature","properties":{"code":"1701042031","desa":"Padang Manis","kecamatan":"Manna","kecCode":"170104"},"geometry":{"type":"Polygon","coordinates":[[[102.94470214808574,-4.463500972008205],[102.93872070229861,-4.465026849923512],[102.9355619433291,-4.461391293791339],[102.94470214808574,-4.463500972008205]]]}},{"type":"Feature","properties":{"code":"1701042032","desa":"Padang Pandan","kecamatan":"Manna","kecCode":"170104"},"geometry":{"type":"Polygon","coordinates":[[[102.97869872926299,-4.445312494810759],[102.97722542841088,-4.4682211959624425],[102.95050048830694,-4.449523921022651],[102.9581298823882,-4.444274897504521],[102.97869872926299,-4.445312494810759]]]}},{"type":"Feature","properties":{"code":"1701042033","desa":"Gunung Kembang","kecamatan":"Manna","kecCode":"170104"},"geometry":{"type":"Polygon","coordinates":[[[102.92868560735496,-4.477858857101507],[102.92468261700922,-4.486328119938909],[102.91369628665439,-4.482482904858266],[102.91773636504126,-4.476844365177278],[102.92868560735496,-4.477858857101507]]]}},{"type":"Feature","properties":{"code":"1701051009","desa":"Gunung Ayu","kecamatan":"Kota Manna","kecCode":"170105"},"geometry":{"type":"Polygon","coordinates":[[[102.94056719392091,-4.452808362043411],[102.91144808226322,-4.438247305710892],[102.9147598312013,-4.432221670842045],[102.93188174484668,-4.440701184152087],[102.94056719392091,-4.452808362043411]]]}},{"type":"Feature","properties":{"code":"1701051010","desa":"Kota Medan","kecamatan":"Kota Manna","kecCode":"170105"},"geometry":{"type":"Polygon","coordinates":[[[102.91144808226322,-4.438247305710892],[102.9100940027361,-4.447462963577583],[102.92091269406562,-4.449841705460548],[102.91828739584668,-4.455168239747102],[102.90134918221906,-4.449804368307206],[102.90226531799009,-4.434356213514844],[102.91144808226322,-4.438247305710892]]]}},{"type":"Feature","properties":{"code":"1701051016","desa":"Kampung Baru","kecamatan":"Kota Manna","kecCode":"170105"},"geometry":{"type":"Polygon","coordinates":[[[102.89361641466586,-4.439369228848031],[102.90575181959088,-4.463611455520105],[102.90113915994436,-4.46899266229176],[102.90122278430414,-4.460336908840501],[102.8860682356606,-4.444038634811415],[102.89361641466586,-4.439369228848031]]]}},{"type":"Feature","properties":{"code":"1701051017","desa":"Pasar Baru","kecamatan":"Kota Manna","kecCode":"170105"},"geometry":{"type":"Polygon","coordinates":[[[102.90158720488563,-4.45025672100069],[102.91223287834468,-4.455295172758515],[102.91114409702254,-4.464519975831098],[102.90389182015144,-4.459910485400268],[102.90158720488563,-4.45025672100069]]]}},{"type":"Feature","properties":{"code":"1701051019","desa":"Ibul","kecamatan":"Kota Manna","kecCode":"170105"},"geometry":{"type":"Polygon","coordinates":[[[102.94081863267381,-4.460079994115973],[102.92521459297915,-4.453992066806303],[102.91778339958427,-4.45431710157849],[102.92601029244109,-4.446980490790239],[102.9404838438544,-4.45369933388334],[102.93496015568667,-4.454418848176692],[102.94081863267381,-4.460079994115973]]]}},{"type":"Feature","properties":{"code":"1701051020","desa":"Padang Kapuk","kecamatan":"Kota Manna","kecCode":"170105"},"geometry":{"type":"Polygon","coordinates":[[[102.91144808226322,-4.438247305710892],[102.92189953543527,-4.439655576584452],[102.92377658242339,-4.450057735206319],[102.91014406079982,-4.447536167492768],[102.91144808226322,-4.438247305710892]]]}},{"type":"Feature","properties":{"code":"1701052001","desa":"Pagar Dewa","kecamatan":"Kota Manna","kecCode":"170105"},"geometry":{"type":"Polygon","coordinates":[[[102.9147598312013,-4.432221670842045],[102.91144808226322,-4.438247305710892],[102.90226531799009,-4.434356213514844],[102.90086911691628,-4.449105578890286],[102.89361641466586,-4.439369228848031],[102.8860682356606,-4.444038634811415],[102.87529217129672,-4.432050132356594],[102.88254191207966,-4.416635015958224],[102.87858412435793,-4.410657153975667],[102.9147598312013,-4.432221670842045]]]}},{"type":"Feature","properties":{"code":"1701052004","desa":"Padang Niur","kecamatan":"Kota Manna","kecCode":"170105"},"geometry":{"type":"Polygon","coordinates":[[[102.94214136093512,-4.438855430875147],[102.9339925454197,-4.448671825975434],[102.92590074332469,-4.437777184212496],[102.93415224163272,-4.432540968838914],[102.94214136093512,-4.438855430875147]]]}},{"type":"Feature","properties":{"code":"1701052005","desa":"Tebat Kubu","kecamatan":"Kota Manna","kecCode":"170105"},"geometry":{"type":"Polygon","coordinates":[[[102.93422194268857,-4.427512967203233],[102.92310614773059,-4.438564912982322],[102.89002853698747,-4.413708596842287],[102.91189566944962,-4.415678845068598],[102.92496798088767,-4.427162479818492],[102.93422194268857,-4.427512967203233]]]}},{"type":"Feature","properties":{"code":"1701052006","desa":"Gelumbang","kecamatan":"Kota Manna","kecCode":"170105"},"geometry":{"type":"Polygon","coordinates":[[[102.91500865742363,-4.396502261156479],[102.9391933625837,-4.420841119082945],[102.93932884455057,-4.42501089589232],[102.93164339572621,-4.423075286853209],[102.93144167599262,-4.428917503192331],[102.91189566944962,-4.415678845068598],[102.90127761327129,-4.415908942909121],[102.91500865742363,-4.396502261156479]]]}},{"type":"Feature","properties":{"code":"1701052018","desa":"Padang Berangin","kecamatan":"Kota Manna","kecCode":"170105"},"geometry":{"type":"Polygon","coordinates":[[[102.93024796896866,-4.425013732354019],[102.94800883833727,-4.429083053092379],[102.93900570644826,-4.436599092118471],[102.93024796896866,-4.425013732354019]]]}},{"type":"Feature","properties":{"code":"1701062001","desa":"Selali","kecamatan":"Pino Raya","kecCode":"170106"},"geometry":{"type":"Polygon","coordinates":[[[102.83502473080677,-4.382494585557365],[102.83083485774256,-4.390000116005426],[102.81596846807041,-4.383299146038637],[102.80342597602807,-4.368486498068871],[102.79833299657058,-4.3491620701091165],[102.80504610469403,-4.344717098055948],[102.81409306504298,-4.349492747227804],[102.83502473080677,-4.382494585557365]]]}},{"type":"Feature","properties":{"code":"1701062002","desa":"Air Kemang","kecamatan":"Pino Raya","kecCode":"170106"},"geometry":{"type":"Polygon","coordinates":[[[102.89002853698747,-4.413708596842287],[102.87453399065123,-4.3942803943131326],[102.88921764527815,-4.391467651302396],[102.88680487034854,-4.385528516825124],[102.8946150407516,-4.383005744020098],[102.91097451096499,-4.401134757144523],[102.90128328259749,-4.414553285972503],[102.89002853698747,-4.413708596842287]]]}},{"type":"Feature","properties":{"code":"1701062003","desa":"Pasar Pino","kecamatan":"Pino Raya","kecCode":"170106"},"geometry":{"type":"Polygon","coordinates":[[[102.85099266767753,-4.410111525398332],[102.85118910479343,-4.410106392967474],[102.8513453655962,-4.410153367255803],[102.85099266767753,-4.410111525398332]]]}},{"type":"Feature","properties":{"code":"1701062003","desa":"Pasar Pino","kecamatan":"Pino Raya","kecCode":"170106"},"geometry":{"type":"Polygon","coordinates":[[[102.82487488596729,-4.3879241299895835],[102.83221639986705,-4.3898281287581655],[102.83507747244744,-4.380272920162171],[102.84009991897612,-4.383205576975749],[102.84704891657428,-4.37430004941701],[102.85389591756262,-4.406621059589674],[102.85022542276509,-4.409028497040388],[102.82487488596729,-4.3879241299895835]]]}},{"type":"Feature","properties":{"code":"1701062004","desa":"Tanggo Raso","kecamatan":"Pino Raya","kecCode":"170106"},"geometry":{"type":"Polygon","coordinates":[[[102.85176928712298,-4.409028967385801],[102.85205750634888,-4.393048053314633],[102.87514792993305,-4.417871103532275],[102.86492312300379,-4.422290031218987],[102.85176928712298,-4.409028967385801]]]}},{"type":"Feature","properties":{"code":"1701062005","desa":"Talang Padang","kecamatan":"Pino Raya","kecCode":"170106"},"geometry":{"type":"Polygon","coordinates":[[[102.85912373866965,-4.401587104442033],[102.85332509807489,-4.390199497501455],[102.84451047757652,-4.370428977928368],[102.85662674672703,-4.370423098160802],[102.86742033438098,-4.398623225865006],[102.85912373866965,-4.401587104442033]]]}},{"type":"Feature","properties":{"code":"1701062006","desa":"Tungkal I","kecamatan":"Pino Raya","kecCode":"170106"},"geometry":{"type":"Polygon","coordinates":[[[102.8763756942829,-4.3916261055514445],[102.8711299146139,-4.39921000112385],[102.8714868339503,-4.395026908052962],[102.8596495030222,-4.380284512423299],[102.85616346906892,-4.3686122961358045],[102.8763756942829,-4.3916261055514445]]]}},{"type":"Feature","properties":{"code":"1701062007","desa":"Tungkal II","kecamatan":"Pino Raya","kecCode":"170106"},"geometry":{"type":"Polygon","coordinates":[[[102.87189611091684,-4.384168722107791],[102.85944283971531,-4.376845323259683],[102.85676947273305,-4.3681156689187475],[102.86228009734866,-4.362692471002169],[102.87189611091684,-4.384168722107791]]]}},{"type":"Feature","properties":{"code":"1701062008","desa":"Bandung Ayu","kecamatan":"Pino Raya","kecCode":"170106"},"geometry":{"type":"Polygon","coordinates":[[[102.88390128681499,-4.38984588317397],[102.87769986325814,-4.392686155331779],[102.87189611091684,-4.384168722107791],[102.86600663879538,-4.369204121087924],[102.87282799741422,-4.363979730899955],[102.88390128681499,-4.38984588317397]]]}},{"type":"Feature","properties":{"code":"1701062009","desa":"Napal Melintang","kecamatan":"Pino Raya","kecCode":"170106"},"geometry":{"type":"Polygon","coordinates":[[[102.89156060134074,-4.383414008349542],[102.8864907812246,-4.3860210656167],[102.88963167066515,-4.391224945866146],[102.88390128681499,-4.38984588317397],[102.87282799741422,-4.363979730899955],[102.88453066206044,-4.362757373275564],[102.89156060134074,-4.383414008349542]]]}},{"type":"Feature","properties":{"code":"1701062010","desa":"Serang Bulan","kecamatan":"Pino Raya","kecCode":"170106"},"geometry":{"type":"Polygon","coordinates":[[[102.8946150407516,-4.383005744020098],[102.88393103728758,-4.362229133089939],[102.86600663879538,-4.369204121087924],[102.86228009734866,-4.362692471002169],[102.87936154959588,-4.342627936972257],[102.89212015502117,-4.35898759692538],[102.90109873361973,-4.359290482294951],[102.9023057326235,-4.371883528813589],[102.8946150407516,-4.383005744020098]]]}},{"type":"Feature","properties":{"code":"1701062011","desa":"Suka Bandung","kecamatan":"Pino Raya","kecCode":"170106"},"geometry":{"type":"Polygon","coordinates":[[[102.92816981828253,-4.360712565855766],[102.9158470746828,-4.381652383052645],[102.89751182001451,-4.379904691851456],[102.90109873361973,-4.359290482294951],[102.92816981828253,-4.360712565855766]]]}},{"type":"Feature","properties":{"code":"1701062012","desa":"Pagar Gading","kecamatan":"Pino Raya","kecCode":"170106"},"geometry":{"type":"Polygon","coordinates":[[[102.928558972019,-4.359205169008478],[102.89231229967294,-4.359120186672479],[102.88280780563575,-4.342005434346499],[102.92886514261234,-4.34091833116034],[102.928558972019,-4.359205169008478]]]}},{"type":"Feature","properties":{"code":"1701062013","desa":"Cinto Mandi","kecamatan":"Pino Raya","kecCode":"170106"},"geometry":{"type":"Polygon","coordinates":[[[102.88684113730868,-4.306818050992378],[102.8878382363456,-4.333592853979011],[102.88744837843996,-4.339554874403672],[102.8574922263852,-4.310864162926653],[102.85931880521872,-4.295296258907454],[102.88684113730868,-4.306818050992378]]]}},{"type":"Feature","properties":{"code":"1701062014","desa":"Kembang Seri","kecamatan":"Pino Raya","kecCode":"170106"},"geometry":{"type":"Polygon","coordinates":[[[102.92886514261234,-4.34091833116034],[102.88744837843996,-4.339554874403672],[102.88684113730868,-4.306818050992378],[102.9283804907671,-4.332670420256656],[102.92886514261234,-4.34091833116034]]]}},{"type":"Feature","properties":{"code":"1701062015","desa":"Karang Cayo","kecamatan":"Pino Raya","kecCode":"170106"},"geometry":{"type":"Polygon","coordinates":[[[102.9283804907671,-4.332670420256656],[102.85931880521872,-4.295296258907454],[102.86226752212849,-4.2823504650077675],[102.88531944393726,-4.263211662514137],[102.93264002801492,-4.325274149343236],[102.9283804907671,-4.332670420256656]]]}},{"type":"Feature","properties":{"code":"1701062016","desa":"Tanjung Aur II","kecamatan":"Pino Raya","kecCode":"170106"},"geometry":{"type":"Polygon","coordinates":[[[103.00270750005113,-4.160492217276132],[103.03766069458544,-4.174720382358836],[102.99094150784434,-4.202511415659124],[102.98208071075624,-4.221039523625441],[102.98705459929037,-4.228758310309928],[102.9678576960759,-4.2221202811952105],[102.94767136594083,-4.228433196397431],[102.94958564396234,-4.234689989407396],[102.9433020808264,-4.23276560031016],[102.95038692641559,-4.238065849211952],[102.94750891780238,-4.269678229585717],[102.93003599156782,-4.270632358114945],[102.92603849787844,-4.280959219199845],[102.94057507378068,-4.296607512717388],[102.94363868088048,-4.313501097470751],[102.93290456359478,-4.323416929710181],[102.88531944393726,-4.263211662514137],[102.91830821335344,-4.255779889064411],[102.90795340582507,-4.241551652935142],[102.88108288616631,-4.241495028021847],[102.89122273144396,-4.203428428268203],[102.90130218904483,-4.19657834710908],[102.8998444869336,-4.179640426678285],[102.91023362428241,-4.174801112700216],[102.92070633293098,-4.1821060583591985],[102.94150251313054,-4.182520187167762],[102.9602192467209,-4.164840508612113],[102.98728537521991,-4.168248146860436],[103.00270750005113,-4.160492217276132]]]}},{"type":"Feature","properties":{"code":"1701062017","desa":"Nanjungan","kecamatan":"Pino Raya","kecCode":"170106"},"geometry":{"type":"Polygon","coordinates":[[[102.83502473080677,-4.382494585557365],[102.81753258695937,-4.353013905099269],[102.80504610469403,-4.344717098055948],[102.81092186844955,-4.328485667037203],[102.83067740174079,-4.359210259171235],[102.84710542997169,-4.369868324377616],[102.84309713992114,-4.381026528653634],[102.83502473080677,-4.382494585557365]]]}},{"type":"Feature","properties":{"code":"1701062018","desa":"Kemang Manis","kecamatan":"Pino Raya","kecCode":"170106"},"geometry":{"type":"Polygon","coordinates":[[[102.92348280718583,-4.37470648632413],[102.92884799793683,-4.394583124099915],[102.91097451096499,-4.401134757144523],[102.8946150407516,-4.383005744020098],[102.91319563766858,-4.383116570173623],[102.92348280718583,-4.37470648632413]]]}},{"type":"Feature","properties":{"code":"1701062018","desa":"Kemang Manis","kecamatan":"Pino Raya","kecCode":"170106"},"geometry":{"type":"Polygon","coordinates":[[[102.89075158471792,-4.3817142779930816],[102.89121528955404,-4.379786914837771],[102.8914781290125,-4.382547731892993],[102.89075158471792,-4.3817142779930816]]]}},{"type":"Feature","properties":{"code":"1701062019","desa":"Padang Beriang","kecamatan":"Pino Raya","kecCode":"170106"},"geometry":{"type":"Polygon","coordinates":[[[102.85566620692998,-4.369577104114332],[102.83067740174079,-4.359210259171235],[102.81259048676161,-4.323625818838912],[102.82680555593174,-4.319777773591874],[102.84298134411381,-4.344587866377346],[102.8491399347602,-4.330538093513413],[102.86083265830057,-4.3664187075748435],[102.85566620692998,-4.369577104114332]]]}},{"type":"Feature","properties":{"code":"1701062020","desa":"Padang Serasan","kecamatan":"Pino Raya","kecCode":"170106"},"geometry":{"type":"Polygon","coordinates":[[[102.88534073358807,-4.4118131182508336],[102.87858412435793,-4.410657153975667],[102.88254191207966,-4.416635015958224],[102.87462746978194,-4.431781617276944],[102.86492312300379,-4.422290031218987],[102.87550904640545,-4.4153869988771675],[102.86146216484707,-4.397842760919331],[102.87508275066845,-4.396549066372261],[102.88534073358807,-4.4118131182508336]]]}},{"type":"Feature","properties":{"code":"1701062021","desa":"Telaga Dalam","kecamatan":"Pino Raya","kecCode":"170106"},"geometry":{"type":"Polygon","coordinates":[[[102.87102598805899,-4.347970618586072],[102.85966932408012,-4.3660193564261585],[102.8491399347602,-4.330538093513413],[102.8574922263852,-4.310864162926653],[102.88744837843996,-4.339554874403672],[102.87102598805899,-4.347970618586072]]]}},{"type":"Feature","properties":{"code":"1701072001","desa":"Karang Caya","kecamatan":"Kedurang Ilir","kecCode":"170107"},"geometry":{"type":"Polygon","coordinates":[[[103.07028109000036,-4.469165038046086],[103.07676910770823,-4.5049770563187215],[103.081125188077,-4.515179428749627],[103.0631268967889,-4.477920843772818],[103.03575814822,-4.457053900439859],[103.05451151659327,-4.452903413189002],[103.06027607468116,-4.473493511022224],[103.07028109000036,-4.469165038046086]]]}},{"type":"Feature","properties":{"code":"1701072002","desa":"Betungan","kecamatan":"Kedurang Ilir","kecCode":"170107"},"geometry":{"type":"Polygon","coordinates":[[[103.04942217939013,-4.4665368269257835],[103.0631268967889,-4.477920843772818],[103.06691513622462,-4.490138158936985],[103.06101346569892,-4.493034187263058],[103.04524374840031,-4.481011656260579],[103.04942217939013,-4.4665368269257835]]]}},{"type":"Feature","properties":{"code":"1701072003","desa":"Pagar Banyu","kecamatan":"Kedurang Ilir","kecCode":"170107"},"geometry":{"type":"Polygon","coordinates":[[[103.02675215558759,-4.461949529065027],[103.03575814822,-4.457053900439859],[103.04768899155378,-4.463608717983739],[103.04756641485822,-4.472466262214785],[103.02675215558759,-4.461949529065027]]]}},{"type":"Feature","properties":{"code":"1701072004","desa":"Nanjungan","kecamatan":"Kedurang Ilir","kecCode":"170107"},"geometry":{"type":"Polygon","coordinates":[[[103.06691513622462,-4.490138158936985],[103.07031734976594,-4.499418844982135],[103.04272039732854,-4.489490022934987],[103.02348267658431,-4.470902000335227],[103.06101346569892,-4.493034187263058],[103.06691513622462,-4.490138158936985]]]}},{"type":"Feature","properties":{"code":"1701072005","desa":"Suka Rami","kecamatan":"Kedurang Ilir","kecCode":"170107"},"geometry":{"type":"Polygon","coordinates":[[[103.02348267658431,-4.470902000335227],[103.02625273327709,-4.462561115719799],[103.04614203622604,-4.471217429448673],[103.04633407295916,-4.478507281785842],[103.02348267658431,-4.470902000335227]]]}},{"type":"Feature","properties":{"code":"1701072006","desa":"Padang Bindu","kecamatan":"Kedurang Ilir","kecCode":"170107"},"geometry":{"type":"Polygon","coordinates":[[[103.07031734976594,-4.499418844982135],[103.07500166199719,-4.5094162322412945],[103.03460501860677,-4.487770699049088],[103.03544615631512,-4.4842352419571005],[103.07031734976594,-4.499418844982135]]]}},{"type":"Feature","properties":{"code":"1701072007","desa":"Penindaian","kecamatan":"Kedurang Ilir","kecCode":"170107"},"geometry":{"type":"Polygon","coordinates":[[[103.03460501860677,-4.487770699049088],[103.07044368023175,-4.506875437022476],[103.06458630491407,-4.52029954074783],[103.05577073742967,-4.515314114816373],[103.05649478070961,-4.502976884050708],[103.03460501860677,-4.487770699049088]]]}},{"type":"Feature","properties":{"code":"1701072008","desa":"Limus","kecamatan":"Kedurang Ilir","kecCode":"170107"},"geometry":{"type":"Polygon","coordinates":[[[103.0211906698136,-4.479695427401086],[103.02348267658431,-4.470902000335227],[103.03485129165387,-4.476941607071415],[103.03583536221225,-4.491219863492878],[103.05649478070961,-4.502976884050708],[103.05577073742967,-4.515314114816373],[103.0229286393453,-4.490446040040488],[103.02683588606737,-4.481205409799279],[103.0211906698136,-4.479695427401086]]]}},{"type":"Feature","properties":{"code":"1701072009","desa":"Sukaraja","kecamatan":"Kedurang Ilir","kecCode":"170107"},"geometry":{"type":"Polygon","coordinates":[[[103.02967474179592,-4.495591932903761],[103.03763427969828,-4.499180899657427],[103.04742523928343,-4.5134026291917895],[103.04048483380808,-4.515243895751136],[103.02967474179592,-4.495591932903761]]]}},{"type":"Feature","properties":{"code":"1701072010","desa":"Lubuk Ladung","kecamatan":"Kedurang Ilir","kecCode":"170107"},"geometry":{"type":"Polygon","coordinates":[[[103.048722184881,-4.510368438919292],[103.06360366337843,-4.523056597737508],[103.0555633735509,-4.54235207921868],[103.01960109201684,-4.528006997773267],[103.01806895841577,-4.518977147035691],[103.02971951004741,-4.500455498000149],[103.04048483380808,-4.515243895751136],[103.048722184881,-4.510368438919292]]]}},{"type":"Feature","properties":{"code":"1701072011","desa":"Air Sulau","kecamatan":"Kedurang Ilir","kecCode":"170107"},"geometry":{"type":"Polygon","coordinates":[[[103.07044368023175,-4.506875437022476],[103.08362260539899,-4.527128181170099],[103.08459462594129,-4.555956041957218],[103.05739851932628,-4.53929284642454],[103.06360366337843,-4.523056597737508],[103.05976245567284,-4.519184403894863],[103.06458630491407,-4.52029954074783],[103.07044368023175,-4.506875437022476]]]}},{"type":"Feature","properties":{"code":"1701072012","desa":"Suka Jaya","kecamatan":"Kedurang Ilir","kecCode":"170107"},"geometry":{"type":"Polygon","coordinates":[[[103.05116831926256,-4.542297001139309],[103.05739851932628,-4.53929284642454],[103.08459462594129,-4.555956041957218],[103.06986019289366,-4.558797206242541],[103.05116831926256,-4.542297001139309]]]}},{"type":"Feature","properties":{"code":"1701082001","desa":"Keban Jati","kecamatan":"Air Nipis","kecCode":"170108"},"geometry":{"type":"Polygon","coordinates":[[[103.01992616366157,-4.375177606070064],[103.0230425789519,-4.368437856437377],[103.06099510873736,-4.417676332860341],[103.04670446324046,-4.407085511761889],[103.01992616366157,-4.375177606070064]]]}},{"type":"Feature","properties":{"code":"1701082002","desa":"Tanjung Beringin","kecamatan":"Air Nipis","kecCode":"170108"},"geometry":{"type":"Polygon","coordinates":[[[103.0737500035599,-4.417434862193255],[103.06099510873736,-4.417676332860341],[103.0230425789519,-4.368437856437377],[103.0285064487137,-4.353079800224148],[103.0737500035599,-4.417434862193255]]]}},{"type":"Feature","properties":{"code":"1701082003","desa":"Suka Negeri","kecamatan":"Air Nipis","kecCode":"170108"},"geometry":{"type":"Polygon","coordinates":[[[103.09486217764741,-4.41232315975548],[103.0795227589682,-4.4155023414260635],[103.07019351941545,-4.400548480110039],[103.06976756182358,-4.3852287539016865],[103.08770455981765,-4.378578310545432],[103.09366544890138,-4.383499220911968],[103.09486217764741,-4.41232315975548]]]}},{"type":"Feature","properties":{"code":"1701082004","desa":"Sukarami","kecamatan":"Air Nipis","kecCode":"170108"},"geometry":{"type":"Polygon","coordinates":[[[103.18023285356338,-4.239238461736759],[103.19069311559485,-4.236112338268227],[103.20369430235023,-4.248149994968069],[103.22405542112085,-4.240741661448043],[103.20786428870599,-4.2730169806647735],[103.15940042888673,-4.294197719942162],[103.1519003663089,-4.3053335985483825],[103.14964463818956,-4.328880744607606],[103.13434946165842,-4.3366282691281475],[103.12328972773878,-4.375889376301309],[103.10576737566389,-4.386606468510134],[103.11422398055231,-4.404476218780156],[103.09486217764741,-4.41232315975548],[103.09113229521931,-4.381408031857008],[103.18023285356338,-4.239238461736759]]]}},{"type":"Feature","properties":{"code":"1701082005","desa":"Palak Bengkerung","kecamatan":"Air Nipis","kecCode":"170108"},"geometry":{"type":"Polygon","coordinates":[[[103.0795227589682,-4.4155023414260635],[103.0737500035599,-4.417434862193255],[103.06487125780232,-4.407044125860725],[103.0285064487137,-4.353079800224148],[103.03096281468218,-4.342579511178027],[103.06961204026351,-4.387770733527737],[103.0795227589682,-4.4155023414260635]]]}},{"type":"Feature","properties":{"code":"1701082006","desa":"Sukamaju","kecamatan":"Air Nipis","kecCode":"170108"},"geometry":{"type":"Polygon","coordinates":[[[103.10331291086219,-4.255224389528293],[103.11896712912979,-4.249149293745599],[103.13779917559158,-4.257591866503248],[103.06640805798553,-4.387626289816717],[103.02971871414739,-4.340171898359485],[103.02980615882721,-4.32122405251303],[103.05961128683145,-4.307128125542334],[103.07733589193792,-4.314580595090349],[103.08084083863382,-4.2938364550820545],[103.09739712727564,-4.290198260339038],[103.10525688269905,-4.274109931242783],[103.11872972070012,-4.265163902715788],[103.10331291086219,-4.255224389528293]]]}},{"type":"Feature","properties":{"code":"1701082007","desa":"Pino Baru","kecamatan":"Air Nipis","kecCode":"170108"},"geometry":{"type":"Polygon","coordinates":[[[103.13779917559158,-4.257591866503248],[103.15924983830944,-4.236116661309309],[103.16675401798356,-4.24724096923806],[103.18023285356338,-4.239238461736759],[103.09700404979712,-4.377993743122177],[103.06981799490461,-4.385211115498438],[103.13779917559158,-4.257591866503248]]]}},{"type":"Feature","properties":{"code":"1701082008","desa":"Penandingan","kecamatan":"Air Nipis","kecCode":"170108"},"geometry":{"type":"Polygon","coordinates":[[[103.07366554462924,-4.419128314382544],[103.07099723003817,-4.4418911194181545],[103.04504967740077,-4.423264852249124],[103.05171957130125,-4.410383704316034],[103.07366554462924,-4.419128314382544]]]}},{"type":"Feature","properties":{"code":"1701082009","desa":"Suka Bandung","kecamatan":"Air Nipis","kecCode":"170108"},"geometry":{"type":"Polygon","coordinates":[[[103.01925019184296,-4.3970228822856665],[103.01732304002633,-4.387314899558632],[103.04858134924989,-4.416712095951341],[103.04588017792793,-4.423156591861373],[103.01925019184296,-4.3970228822856665]]]}},{"type":"Feature","properties":{"code":"1701082010","desa":"Maras","kecamatan":"Air Nipis","kecCode":"170108"},"geometry":{"type":"Polygon","coordinates":[[[103.01732304002633,-4.387314899558632],[103.01992616366157,-4.375177606070064],[103.05171957130125,-4.410383704316034],[103.04858134924989,-4.416712095951341],[103.01732304002633,-4.387314899558632]]]}},{"type":"Feature","properties":{"code":"1701092001","desa":"Batu Panco","kecamatan":"Ulu Manna","kecCode":"170109"},"geometry":{"type":"Polygon","coordinates":[[[102.97288670136027,-4.3551964293010865],[102.928558972019,-4.359205169008478],[102.92924355574557,-4.350064516399011],[103.02987338674744,-4.3447499089214245],[103.0239897809037,-4.364996878522155],[102.98466682641299,-4.354542663543045],[102.97775823985097,-4.365012113936941],[102.97288670136027,-4.3551964293010865]]]}},{"type":"Feature","properties":{"code":"1701092002","desa":"Batu Kuning","kecamatan":"Ulu Manna","kecCode":"170109"},"geometry":{"type":"Polygon","coordinates":[[[102.92924355574557,-4.350064516399011],[102.92937146002491,-4.343083212462318],[102.95909465979076,-4.3399272135154074],[103.0290883172721,-4.337237049898103],[103.03157122403279,-4.342236825412078],[102.95288413599415,-4.352420371435218],[102.92924355574557,-4.350064516399011]]]}},{"type":"Feature","properties":{"code":"1701092003","desa":"Bandar Agung","kecamatan":"Ulu Manna","kecCode":"170109"},"geometry":{"type":"Polygon","coordinates":[[[102.92937146002491,-4.343083212462318],[102.93275639669041,-4.323483373421553],[102.9470086033644,-4.31333470940258],[102.95769128302634,-4.312807260620438],[102.9578601343378,-4.325832783915959],[102.98456189081867,-4.316848990158344],[103.00539296201565,-4.322040457065558],[103.0102667937776,-4.305030955995796],[103.03591609435233,-4.319090772488371],[103.02992989025228,-4.32085285643956],[103.0290883172721,-4.337237049898103],[102.92937146002491,-4.343083212462318]]]}},{"type":"Feature","properties":{"code":"1701092004","desa":"Merambung","kecamatan":"Ulu Manna","kecCode":"170109"},"geometry":{"type":"Polygon","coordinates":[[[103.0102667937776,-4.305030955995796],[103.00539296201565,-4.322040457065558],[102.98737917271069,-4.3167538113089785],[102.96325836797932,-4.326223183213041],[102.95514754882036,-4.32292984250139],[102.97211312522063,-4.293815866902492],[102.98818795640913,-4.292938441550549],[103.0102667937776,-4.305030955995796]]]}},{"type":"Feature","properties":{"code":"1701092005","desa":"Simpang Pino","kecamatan":"Ulu Manna","kecCode":"170109"},"geometry":{"type":"Polygon","coordinates":[[[102.93923815691544,-4.320377883998035],[102.94363868088048,-4.313501097470751],[102.94057507378068,-4.296607512717388],[102.96750997230741,-4.302999408180217],[102.96212181467007,-4.3126650966908],[102.9470086033644,-4.31333470940258],[102.93923815691544,-4.320377883998035]]]}},{"type":"Feature","properties":{"code":"1701092006","desa":"Talang Tinggi","kecamatan":"Ulu Manna","kecCode":"170109"},"geometry":{"type":"Polygon","coordinates":[[[102.94057507378068,-4.296607512717388],[102.92603849787844,-4.280959219199845],[102.93003599156782,-4.270632358114945],[102.9462778313569,-4.272133698028282],[102.98818795640913,-4.292938441550549],[102.97211312522063,-4.293815866902492],[102.96750997230741,-4.302999408180217],[102.94057507378068,-4.296607512717388]]]}},{"type":"Feature","properties":{"code":"1701092007","desa":"Keban Jati","kecamatan":"Ulu Manna","kecCode":"170109"},"geometry":{"type":"Polygon","coordinates":[[[102.9462778313569,-4.272133698028282],[102.94908760840644,-4.244562003978874],[102.95871730965615,-4.245404502360555],[102.97803528320179,-4.273169004761215],[103.05094672720973,-4.306109072256743],[103.05452934295487,-4.309573263472546],[103.03858161025317,-4.320167571242479],[102.9462778313569,-4.272133698028282]]]}},{"type":"Feature","properties":{"code":"1701092008","desa":"Lubuk Tapi","kecamatan":"Ulu Manna","kecCode":"170109"},"geometry":{"type":"Polygon","coordinates":[[[102.94908760840644,-4.244562003978874],[102.95011923781266,-4.2372984729993055],[102.9433020808264,-4.23276560031016],[102.94958564396234,-4.234689989407396],[102.94767136594083,-4.228433196397431],[102.96377423259479,-4.22364267873421],[102.97942908398511,-4.2678716606696145],[102.993316433007,-4.2805802242056235],[102.97605557230689,-4.271570006567681],[102.9600878818503,-4.245932741646831],[102.94908760840644,-4.244562003978874]]]}},{"type":"Feature","properties":{"code":"1701092009","desa":"Kayu Ajaran","kecamatan":"Ulu Manna","kecCode":"170109"},"geometry":{"type":"Polygon","coordinates":[[[103.03916960769129,-4.177272786026697],[103.06223860043109,-4.199850953051692],[103.06314104312467,-4.211032675498399],[103.05113344805021,-4.218717171033364],[103.04684181939449,-4.243768842404518],[103.0342713125711,-4.258325486662953],[103.06274514267426,-4.308187288591137],[103.05598498831658,-4.31051171951642],[102.993316433007,-4.2805802242056235],[102.97942908398511,-4.2678716606696145],[102.96377423259479,-4.22364267873421],[102.98705459929037,-4.228758310309928],[102.98208071075624,-4.221039523625441],[102.99094150784434,-4.202511415659124],[103.03916960769129,-4.177272786026697]]]}},{"type":"Feature","properties":{"code":"1701092010","desa":"Air Tenam","kecamatan":"Ulu Manna","kecCode":"170109"},"geometry":{"type":"Polygon","coordinates":[[[103.05149288908562,-4.219473657355335],[103.06975913427668,-4.241088917568711],[103.06630097930679,-4.25358835275633],[103.0733041556623,-4.261606385254113],[103.0891066460549,-4.2669177947424615],[103.0991632833589,-4.253127919654305],[103.11860324544345,-4.2609793455486775],[103.09915555008864,-4.2888134132074365],[103.08074090057214,-4.293957808699514],[103.07733589193792,-4.314580595090349],[103.06274514267426,-4.308187288591137],[103.0342713125711,-4.258325486662953],[103.04684181939449,-4.243768842404518],[103.05149288908562,-4.219473657355335]]]}},{"type":"Feature","properties":{"code":"1701102001","desa":"Tumbuk Tebing","kecamatan":"Bunga Mas","kecCode":"170110"},"geometry":{"type":"Polygon","coordinates":[[[102.95218056398193,-4.495118297754141],[102.95873112324279,-4.495796679755132],[102.95884120475785,-4.506026398770767],[102.95037425496791,-4.504082319916688],[102.95218056398193,-4.495118297754141]]]}},{"type":"Feature","properties":{"code":"1701102002","desa":"Gunung Kayo","kecamatan":"Bunga Mas","kecCode":"170110"},"geometry":{"type":"Polygon","coordinates":[[[102.95884120475785,-4.506026398770767],[102.95933875737781,-4.497210323178577],[102.96907995567544,-4.496189315666189],[102.96664192058826,-4.50779126702302],[102.95884120475785,-4.506026398770767]]]}},{"type":"Feature","properties":{"code":"1701102003","desa":"Gindo Suli","kecamatan":"Bunga Mas","kecCode":"170110"},"geometry":{"type":"Polygon","coordinates":[[[102.96664192058826,-4.50779126702302],[102.969875846693,-4.500110911067377],[102.99155007187834,-4.499829890914717],[102.9793654758361,-4.5111552791590155],[102.96664192058826,-4.50779126702302]]]}},{"type":"Feature","properties":{"code":"1701102004","desa":"Talang Indah","kecamatan":"Bunga Mas","kecCode":"170110"},"geometry":{"type":"Polygon","coordinates":[[[102.99715497692068,-4.475451976331078],[102.99579501582735,-4.498681516917648],[102.97490806795305,-4.502074737234973],[102.9652026617735,-4.494819881115867],[102.97361007734327,-4.494916750690636],[102.99715497692068,-4.475451976331078]]]}},{"type":"Feature","properties":{"code":"1701102005","desa":"Kuripan","kecamatan":"Bunga Mas","kecCode":"170110"},"geometry":{"type":"Polygon","coordinates":[[[102.99041820223829,-4.469424818910018],[102.99715497692068,-4.475451976331078],[102.99276009260427,-4.481627198133644],[102.98717175667126,-4.479871302417482],[102.97361007734327,-4.494916750690636],[102.95933875737781,-4.497210323178577],[102.96757208758187,-4.486710082695857],[102.97604003921651,-4.489729549267806],[102.98142970681555,-4.474931631293744],[102.99041820223829,-4.469424818910018]]]}},{"type":"Feature","properties":{"code":"1701102006","desa":"Padang Nibung","kecamatan":"Bunga Mas","kecCode":"170110"},"geometry":{"type":"Polygon","coordinates":[[[102.98059026702725,-4.463769092285431],[102.99041820223829,-4.469424818910018],[102.97424160376704,-4.490644271303631],[102.96757208758187,-4.486710082695857],[102.96603601764815,-4.463696787692316],[102.97722542841088,-4.4682211959624425],[102.98059026702725,-4.463769092285431]]]}},{"type":"Feature","properties":{"code":"1701102007","desa":"Tanjung Tebat","kecamatan":"Bunga Mas","kecCode":"170110"},"geometry":{"type":"Polygon","coordinates":[[[102.99962834457249,-4.478450780979051],[103.01973425193427,-4.479273693025961],[103.0126735738264,-4.497305832079086],[103.00386322600711,-4.497736866343483],[102.98894330329084,-4.5142757890593],[102.9793654758361,-4.5111552791590155],[102.99652565833253,-4.497931964368654],[102.99962834457249,-4.478450780979051]]]}},{"type":"Feature","properties":{"code":"1701102008","desa":"Padang Jawi","kecamatan":"Bunga Mas","kecCode":"170110"},"geometry":{"type":"Polygon","coordinates":[[[103.01973425193427,-4.479273693025961],[103.02683588606737,-4.481205409799279],[103.02282240243198,-4.4902003650428615],[103.02931962290234,-4.503197836685304],[103.01519250113307,-4.506373737628977],[103.00836941581593,-4.519586695826698],[102.98894330329084,-4.5142757890593],[103.00386322600711,-4.497736866343483],[103.01236322858017,-4.497667900933114],[103.01973425193427,-4.479273693025961]]]}},{"type":"Feature","properties":{"code":"1701102009","desa":"Tanjung Aur","kecamatan":"Bunga Mas","kecCode":"170110"},"geometry":{"type":"Polygon","coordinates":[[[103.0223400060865,-4.508426540921131],[103.01960109201684,-4.528006997773267],[103.00542856437681,-4.520279343773319],[103.01519250113307,-4.506373737628977],[103.0223400060865,-4.508426540921131]]]}},{"type":"Feature","properties":{"code":"1701102010","desa":"Padang Burnai","kecamatan":"Bunga Mas","kecCode":"170110"},"geometry":{"type":"Polygon","coordinates":[[[102.93948006285466,-4.500763095817204],[102.94062642237157,-4.485314181097714],[102.95396414802705,-4.48133279427032],[102.95037425496791,-4.504082319916688],[102.93948006285466,-4.500763095817204]]]}},{"type":"Feature","properties":{"code":"1701111003","desa":"Tanjung Mulia","kecamatan":"Pasar Manna","kecCode":"170111"},"geometry":{"type":"Polygon","coordinates":[[[102.9354226401428,-4.46686036612541],[102.92402175290164,-4.462200302319409],[102.91327777185175,-4.469112952910506],[102.91254579385337,-4.45601319327802],[102.93286270824744,-4.4575149252957695],[102.9354226401428,-4.46686036612541]]]}},{"type":"Feature","properties":{"code":"1701111004","desa":"Pasar Mulia","kecamatan":"Pasar Manna","kecCode":"170111"},"geometry":{"type":"Polygon","coordinates":[[[102.9057343907296,-4.4644743127542235],[102.90389182015144,-4.459910485400268],[102.91114409702254,-4.464519975831098],[102.91449194744546,-4.458987152355864],[102.91311304932782,-4.465405949239104],[102.9057343907296,-4.4644743127542235]]]}},{"type":"Feature","properties":{"code":"1701111005","desa":"Belakang Gedung","kecamatan":"Pasar Manna","kecCode":"170111"},"geometry":{"type":"Polygon","coordinates":[[[102.90029345997526,-4.466922962537047],[102.90122278430414,-4.460336908840501],[102.90202937635466,-4.466775619411824],[102.90029345997526,-4.466922962537047]]]}},{"type":"Feature","properties":{"code":"1701111006","desa":"Gunung Mesir","kecamatan":"Pasar Manna","kecCode":"170111"},"geometry":{"type":"Polygon","coordinates":[[[102.92214129028837,-4.478204688696009],[102.90878961704725,-4.476027955228803],[102.91466407858438,-4.46694599777189],[102.92214129028837,-4.478204688696009]]]}},{"type":"Feature","properties":{"code":"1701111007","desa":"Padang Sialang","kecamatan":"Pasar Manna","kecCode":"170111"},"geometry":{"type":"Polygon","coordinates":[[[102.9058781212783,-4.464834789808236],[102.91345243368295,-4.467687886298432],[102.9118112725722,-4.473403337799395],[102.9058781212783,-4.464834789808236]]]}},{"type":"Feature","properties":{"code":"1701111008","desa":"Ketapang Besar","kecamatan":"Pasar Manna","kecCode":"170111"},"geometry":{"type":"Polygon","coordinates":[[[102.9118112725722,-4.473403337799395],[102.9031248693173,-4.4679992540735585],[102.90509430635721,-4.464468399711795],[102.9118112725722,-4.473403337799395]]]}},{"type":"Feature","properties":{"code":"1701111009","desa":"Pasar Bawah","kecamatan":"Pasar Manna","kecCode":"170111"},"geometry":{"type":"Polygon","coordinates":[[[102.90625820535193,-4.475634060266893],[102.89965085480314,-4.48141287440183],[102.89843335261719,-4.485739385956613],[102.90230211824819,-4.467937717063261],[102.90625820535193,-4.475634060266893]]]}},{"type":"Feature","properties":{"code":"1701112001","desa":"Batu Kuning","kecamatan":"Pasar Manna","kecCode":"170111"},"geometry":{"type":"Polygon","coordinates":[[[102.93081779920213,-4.46836330233537],[102.92617570834233,-4.4680245708884],[102.9288193617242,-4.477806242265258],[102.92214129028837,-4.478204688696009],[102.92028064603504,-4.469585106876705],[102.92707518956843,-4.4655088577614235],[102.93081779920213,-4.46836330233537]]]}},{"type":"Feature","properties":{"code":"1701112002","desa":"Batu Lambang","kecamatan":"Pasar Manna","kecCode":"170111"},"geometry":{"type":"Polygon","coordinates":[[[102.93425244679302,-4.467715826435785],[102.92028064603504,-4.469585106876705],[102.91466407858438,-4.46694599777189],[102.92402175290164,-4.462200302319409],[102.93425244679302,-4.467715826435785]]]}}]}