{"type":"FeatureCollection","features":[{"type":"Feature","properties":{"code":"1706021009","desa":"Pasar Muko-Muko","kecamatan":"Kota Mukomuko","kecCode":"170602"},"geometry":{"type":"Polygon","coordinates":[[[101.15347057670579,-2.5535692941510453],[101.11635719982496,-2.5869124530741954],[101.10858110293559,-2.579265702085812],[101.14654147480928,-2.5459818264718534],[101.15347057670579,-2.5535692941510453]]]}},{"type":"Feature","properties":{"code":"1706021017","desa":"Koto Jaya","kecamatan":"Kota Mukomuko","kecCode":"170602"},"geometry":{"type":"Polygon","coordinates":[[[101.11041311367431,-2.5827506091847985],[101.11635719982496,-2.5869124530741954],[101.12758296658069,-2.5828709771452174],[101.12784967762057,-2.6000864913110573],[101.19305378330552,-2.6582080787888334],[101.14163373231094,-2.627922419666003],[101.11041311367431,-2.5827506091847985]]]}},{"type":"Feature","properties":{"code":"1706021018","desa":"Bandar Ratu","kecamatan":"Kota Mukomuko","kecCode":"170602"},"geometry":{"type":"Polygon","coordinates":[[[101.13578478094296,-2.5090857788977408],[101.14341754298528,-2.531954556444724],[101.09757640392797,-2.567506470995019],[101.07595693666337,-2.5406911490548465],[101.0946441059408,-2.524239375142566],[101.12001140430293,-2.523721500542909],[101.10817109482025,-2.511756332797741],[101.13578478094296,-2.5090857788977408]]]}},{"type":"Feature","properties":{"code":"1706022007","desa":"Pasar Sebelah","kecamatan":"Kota Mukomuko","kecCode":"170602"},"geometry":{"type":"Polygon","coordinates":[[[101.0946441059408,-2.524239375142566],[101.07595693666337,-2.5406911490548465],[101.04759664416986,-2.508341625878275],[101.07000066829625,-2.507355562423345],[101.09382344399683,-2.5185834012047175],[101.0946441059408,-2.524239375142566]]]}},{"type":"Feature","properties":{"code":"1706022008","desa":"Ujung Padang","kecamatan":"Kota Mukomuko","kecCode":"170602"},"geometry":{"type":"Polygon","coordinates":[[[101.1587913580348,-2.5318039253980817],[101.10858110293559,-2.579265702085812],[101.09757640392797,-2.567506470995019],[101.12810276123348,-2.5397706614653988],[101.14375816930412,-2.5311858771144773],[101.1587913580348,-2.5318039253980817]]]}},{"type":"Feature","properties":{"code":"1706022010","desa":"Pondok Batu","kecamatan":"Kota Mukomuko","kecCode":"170602"},"geometry":{"type":"Polygon","coordinates":[[[101.12657535626771,-2.581992769383156],[101.15347057670579,-2.5535692941510453],[101.14948053389956,-2.5427197309061738],[101.16825738357147,-2.565788947551963],[101.19136553369246,-2.5630198477408817],[101.19405432674584,-2.555334188483541],[101.20108664833019,-2.5553714294093823],[101.20599071709795,-2.573139198357318],[101.17543616694557,-2.5973469827925326],[101.14839666467441,-2.598622341062346],[101.14779704259949,-2.5927688670101636],[101.14111217768492,-2.603850726937934],[101.12657535626771,-2.581992769383156]]]}},{"type":"Feature","properties":{"code":"1706022011","desa":"Tanah Rekah","kecamatan":"Kota Mukomuko","kecCode":"170602"},"geometry":{"type":"Polygon","coordinates":[[[101.19305378330552,-2.6582080787888334],[101.12912916827656,-2.6014511342734843],[101.13033356284369,-2.5961387049541407],[101.16725025079846,-2.6113505781668995],[101.20068728099331,-2.6365054962044367],[101.19305378330552,-2.6582080787888334]]]}},{"type":"Feature","properties":{"code":"1706022012","desa":"Selagan Jaya","kecamatan":"Kota Mukomuko","kecCode":"170602"},"geometry":{"type":"Polygon","coordinates":[[[101.14948053389956,-2.5427197309061738],[101.17669043791346,-2.535785687242587],[101.17891184160828,-2.52681138942682],[101.18402511067039,-2.5264413238011802],[101.18034808589549,-2.532417653338593],[101.19824276719002,-2.5391472244441062],[101.20119818944492,-2.5554372364007474],[101.19405432674584,-2.555334188483541],[101.19136553369246,-2.5630198477408817],[101.16825738357147,-2.565788947551963],[101.14948053389956,-2.5427197309061738]]]}},{"type":"Feature","properties":{"code":"1706022019","desa":"Tanah Harapan","kecamatan":"Kota Mukomuko","kecCode":"170602"},"geometry":{"type":"Polygon","coordinates":[[[101.14493018468033,-2.6014176120442483],[101.14779704259949,-2.5927688670101636],[101.14800643534873,-2.598536681536874],[101.1628180608049,-2.594878749373032],[101.16240256232844,-2.599284321227862],[101.16740842985519,-2.5950522115083987],[101.17079895400859,-2.5990655665362703],[101.18071195699126,-2.588935630000073],[101.2104116134053,-2.586619508810557],[101.20519460844446,-2.6127609102864553],[101.21697488638192,-2.63591920208289],[101.20068728099331,-2.6365054962044367],[101.14493018468033,-2.6014176120442483]]]}},{"type":"Feature","properties":{"code":"1706032008","desa":"Teras Terunjam","kecamatan":"Teras Terunjam","kecCode":"170603"},"geometry":{"type":"Polygon","coordinates":[[[101.27208480896682,-2.540122663308406],[101.27731942894853,-2.5794078822031885],[101.27206557876349,-2.5827200933891548],[101.26619306785585,-2.5707326854097676],[101.25895936828026,-2.5810980320818206],[101.24234962933201,-2.578949268429622],[101.23665979141627,-2.5698097768453794],[101.24939992206879,-2.552472498071964],[101.27208480896682,-2.540122663308406]]]}},{"type":"Feature","properties":{"code":"1706032009","desa":"Pondok Kopi","kecamatan":"Teras Terunjam","kecCode":"170603"},"geometry":{"type":"Polygon","coordinates":[[[101.1938033106743,-2.587102466332502],[101.19400031166508,-2.5803263813915427],[101.20587200928587,-2.5737951674543327],[101.20119818944492,-2.5554372364007474],[101.209982744708,-2.5416407854704093],[101.22933105778212,-2.5378288587954922],[101.25859698376381,-2.5497321828616046],[101.24939992206879,-2.552472498071964],[101.22539738178381,-2.581715848340359],[101.1938033106743,-2.587102466332502]]]}},{"type":"Feature","properties":{"code":"1706032013","desa":"Setia Budi","kecamatan":"Teras Terunjam","kecCode":"170603"},"geometry":{"type":"Polygon","coordinates":[[[101.20680857225783,-2.615933723857473],[101.21015624731302,-2.5865552540490717],[101.22540850909546,-2.581712475882719],[101.25010850870073,-2.6029495612826667],[101.2359798841644,-2.604586115164712],[101.21426691438666,-2.620079142529097],[101.20680857225783,-2.615933723857473]]]}},{"type":"Feature","properties":{"code":"1706032014","desa":"Tunggal Jaya","kecamatan":"Teras Terunjam","kecCode":"170603"},"geometry":{"type":"Polygon","coordinates":[[[101.26320515309537,-2.4967092405646887],[101.26204998381974,-2.5039188293083345],[101.28109406433964,-2.511366721306782],[101.24891342481476,-2.527360484890602],[101.23088136398384,-2.5280265012134713],[101.23632467884089,-2.5075038372461695],[101.26320515309537,-2.4967092405646887]]]}},{"type":"Feature","properties":{"code":"1706032024","desa":"Talang Kuning","kecamatan":"Teras Terunjam","kecCode":"170603"},"geometry":{"type":"Polygon","coordinates":[[[101.26028717321452,-2.5877958903940192],[101.26676414005304,-2.5707897923596286],[101.27257002378764,-2.582624911841822],[101.27959215155659,-2.571750124412267],[101.2875975063199,-2.585598299850064],[101.27646274915662,-2.5912138438660515],[101.26028717321452,-2.5877958903940192]]]}},{"type":"Feature","properties":{"code":"1706032025","desa":"Teruntung","kecamatan":"Teras Terunjam","kecCode":"170603"},"geometry":{"type":"Polygon","coordinates":[[[101.23670547787555,-2.570786308385994],[101.24324049865014,-2.5794974951482934],[101.26031929340076,-2.5800919443222123],[101.26036622362238,-2.5878478190475462],[101.28578079125059,-2.590904645255776],[101.28471565760155,-2.6062400007812068],[101.27058657620961,-2.6053609692401154],[101.26919320889954,-2.6142078079410798],[101.26162122034309,-2.614603485359277],[101.22539738178381,-2.581715848340359],[101.23670547787555,-2.570786308385994]]]}},{"type":"Feature","properties":{"code":"1706032026","desa":"Karang Jaya","kecamatan":"Teras Terunjam","kecCode":"170603"},"geometry":{"type":"Polygon","coordinates":[[[101.26023029559173,-2.5472268083409055],[101.22938144769567,-2.5394301268777353],[101.22983313579067,-2.5288418193849687],[101.24826772867277,-2.5269124543389303],[101.24787286244269,-2.536596961162808],[101.26023029559173,-2.5472268083409055]]]}},{"type":"Feature","properties":{"code":"1706032027","desa":"Mekar Jaya","kecamatan":"Teras Terunjam","kecCode":"170603"},"geometry":{"type":"Polygon","coordinates":[[[101.27208480896682,-2.540122663308406],[101.26023029559173,-2.5472268083409055],[101.24787286244269,-2.536596961162808],[101.24856692682225,-2.5273014578882025],[101.28109406433964,-2.511366721306782],[101.27396525719091,-2.518009896342018],[101.27208480896682,-2.540122663308406]]]}},{"type":"Feature","properties":{"code":"1706042001","desa":"Air Bikuk","kecamatan":"Pondok Suguh","kecCode":"170604"},"geometry":{"type":"Polygon","coordinates":[[[101.4016161300804,-2.7759051409300817],[101.39202324078002,-2.804032267964726],[101.37440103158241,-2.801026847903908],[101.38932818035128,-2.7594534875269088],[101.4178265196782,-2.7613096927246046],[101.458074110332,-2.7307226087312566],[101.47015410982438,-2.7111729437674987],[101.48342826600172,-2.71206002783821],[101.50951365503123,-2.69374804494652],[101.52541141330613,-2.667254752244161],[101.5861746487411,-2.6093354654617573],[101.62345417626925,-2.5990089623075203],[101.6517560793796,-2.532673296421853],[101.65061472369058,-2.56179401333746],[101.62785155530509,-2.589969951975304],[101.62942479421895,-2.603944750158416],[101.6104089002506,-2.6189982248800248],[101.59170219320174,-2.617829260005486],[101.57456968734122,-2.631325717785996],[101.57113195057912,-2.6285716222639732],[101.5709769830014,-2.6366830529530496],[101.5581210295619,-2.643785411931998],[101.55797174659887,-2.654658170491043],[101.53465738193267,-2.6667871776258005],[101.50899433701908,-2.7056716891943067],[101.48978090696335,-2.709853600555863],[101.47366757040207,-2.7342960316025238],[101.4537239960656,-2.7392989979109283],[101.45271272371326,-2.7522670599231858],[101.4403960892082,-2.765431845934916],[101.4016161300804,-2.7759051409300817]]]}},{"type":"Feature","properties":{"code":"1706042004","desa":"Tunggang","kecamatan":"Pondok Suguh","kecCode":"170604"},"geometry":{"type":"Polygon","coordinates":[[[101.56410648902329,-2.774481845083144],[101.60178688395757,-2.7787782059668733],[101.62284952338682,-2.8037882854911373],[101.60659185822772,-2.8187370368586744],[101.56477154666959,-2.8362963825268563],[101.5564074523421,-2.8505273606883974],[101.5444731025517,-2.8559226058769323],[101.54210078542299,-2.876970973042488],[101.53513336071609,-2.8835884175747033],[101.52790952130742,-2.8744794957453395],[101.51746155300833,-2.8799273890449966],[101.50993732744575,-2.8749395187564692],[101.48601521802793,-2.877827805718219],[101.45267849371758,-2.860513773520241],[101.43185176804472,-2.8720821307016178],[101.4334787729271,-2.8818691521448216],[101.41815491971386,-2.884391589502644],[101.41177298783315,-2.8506952776040397],[101.41568661704379,-2.8260001460559105],[101.42712613286483,-2.820028996613364],[101.43788738989122,-2.8251751538771335],[101.46463361604862,-2.821622760752568],[101.467509801736,-2.827988416695853],[101.48446382904251,-2.816582726188087],[101.4998670816006,-2.8158732096579304],[101.49898967423411,-2.8098681395865146],[101.51206492375731,-2.804801709020761],[101.53073564983043,-2.777855068974684],[101.53236399290398,-2.7830446329162544],[101.56410648902329,-2.774481845083144]]]}},{"type":"Feature","properties":{"code":"1706042005","desa":"Pondok Suguh","kecamatan":"Pondok Suguh","kecCode":"170604"},"geometry":{"type":"Polygon","coordinates":[[[101.37440103158241,-2.801026847903908],[101.39255624827229,-2.8041233989655088],[101.41394005538933,-2.819674871471042],[101.40694024339757,-2.8236005551900503],[101.4081034121428,-2.8295861045771504],[101.37623495068247,-2.8214312977871203],[101.37440103158241,-2.801026847903908]]]}},{"type":"Feature","properties":{"code":"1706042006","desa":"Air Berau","kecamatan":"Pondok Suguh","kecCode":"170604"},"geometry":{"type":"Polygon","coordinates":[[[101.39202324078002,-2.804032267964726],[101.40202178457776,-2.7934326470005244],[101.4115396290507,-2.804467397741632],[101.4238878378535,-2.7888105498734688],[101.44787702140746,-2.784277807586223],[101.45232333885104,-2.7886167819456036],[101.46071053136598,-2.7799820339598695],[101.48152912896619,-2.7793334626859862],[101.48867370123035,-2.7615849626121345],[101.51585890086761,-2.7354347900482083],[101.51664484808133,-2.72212892558864],[101.53117708475475,-2.7146103531727195],[101.53825745981395,-2.6951909990739757],[101.55149895531258,-2.6895720142518],[101.55198538421814,-2.678782677704935],[101.57614517276157,-2.667224835396973],[101.634175302848,-2.60919037154102],[101.65892503406313,-2.5659895323408684],[101.6710041477233,-2.529031480109022],[101.67733745056296,-2.5329741825984433],[101.68204271789715,-2.5411317260253656],[101.65842901838452,-2.5989196749168877],[101.62522089802609,-2.6466812352124647],[101.57676204023602,-2.692205838040853],[101.5485692500709,-2.710434782031535],[101.52367861577557,-2.7624705556068627],[101.51039404994548,-2.761929391264191],[101.50500901295567,-2.7825604298332687],[101.4862995216057,-2.7840637338658936],[101.48039309366641,-2.793275405037515],[101.45780919703684,-2.7966163936296895],[101.45162848576602,-2.804167731945063],[101.42672986189365,-2.8071355288680873],[101.41619935201858,-2.8204938516818987],[101.39202324078002,-2.804032267964726]]]}},{"type":"Feature","properties":{"code":"1706042010","desa":"Air Hitam","kecamatan":"Pondok Suguh","kecCode":"170604"},"geometry":{"type":"Polygon","coordinates":[[[101.41252904517931,-2.8887802945726095],[101.4043817333304,-2.8936834361339843],[101.38738330289713,-2.868792680457188],[101.37880733099361,-2.8674003068995715],[101.37376483138195,-2.8537181867807346],[101.39287735930276,-2.8434814251746006],[101.38953302343037,-2.86220243592025],[101.39883491370034,-2.8712890239859705],[101.40435611704123,-2.869529837650494],[101.41252904517931,-2.8887802945726095]]]}},{"type":"Feature","properties":{"code":"1706042014","desa":"Pondok Kandang","kecamatan":"Pondok Suguh","kecCode":"170604"},"geometry":{"type":"Polygon","coordinates":[[[101.41394005538933,-2.819674871471042],[101.41257159120602,-2.8495273406545696],[101.40140367513953,-2.8537972174033897],[101.39636061255231,-2.8319523827557407],[101.4081034121428,-2.8295861045771504],[101.40694024339757,-2.8236005551900503],[101.41394005538933,-2.819674871471042]]]}},{"type":"Feature","properties":{"code":"1706042022","desa":"Bumi Mekar Jaya","kecamatan":"Pondok Suguh","kecCode":"170604"},"geometry":{"type":"Polygon","coordinates":[[[101.41177298783315,-2.8506952776040397],[101.42008840275763,-2.880498194142995],[101.41294378193004,-2.888890210612247],[101.40435611704123,-2.869529837650494],[101.39883491370034,-2.8712890239859705],[101.38953302343037,-2.86220243592025],[101.38926334192972,-2.839282495941941],[101.3946822662736,-2.8351448950768505],[101.40140367513953,-2.8537972174033897],[101.41177298783315,-2.8506952776040397]]]}},{"type":"Feature","properties":{"code":"1706042027","desa":"Lubuk Bento","kecamatan":"Pondok Suguh","kecCode":"170604"},"geometry":{"type":"Polygon","coordinates":[[[101.39634292468628,-2.796927311743733],[101.4016161300804,-2.7759051409300817],[101.4403960892082,-2.765431845934916],[101.45271272371326,-2.7522670599231858],[101.4537239960656,-2.7392989979109283],[101.47366757040207,-2.7342960316025238],[101.48978090696335,-2.709853600555863],[101.50899433701908,-2.7056716891943067],[101.53465738193267,-2.6667871776258005],[101.55797174659887,-2.654658170491043],[101.5581210295619,-2.643785411931998],[101.5709769830014,-2.6366830529530496],[101.57113195057912,-2.6285716222639732],[101.57456968734122,-2.631325717785996],[101.59170219320174,-2.617829260005486],[101.6104089002506,-2.6189982248800248],[101.62942479421895,-2.603944750158416],[101.62785155530509,-2.589969951975304],[101.65061472369058,-2.56179401333746],[101.65263512531082,-2.5302114221084704],[101.65680635093241,-2.525877680903984],[101.6710041477233,-2.529031480109022],[101.65892503406313,-2.5659895323408684],[101.634175302848,-2.60919037154102],[101.57614517276157,-2.667224835396973],[101.55198538421814,-2.678782677704935],[101.55149895531258,-2.6895720142518],[101.53825745981395,-2.6951909990739757],[101.53117708475475,-2.7146103531727195],[101.51664484808133,-2.72212892558864],[101.51585890086761,-2.7354347900482083],[101.48867370123035,-2.7615849626121345],[101.48152912896619,-2.7793334626859862],[101.46071053136598,-2.7799820339598695],[101.45232333885104,-2.7886167819456036],[101.44787702140746,-2.784277807586223],[101.4238878378535,-2.7888105498734688],[101.4115396290507,-2.804467397741632],[101.40202178457776,-2.7934326470005244],[101.39634292468628,-2.796927311743733]]]}},{"type":"Feature","properties":{"code":"1706042029","desa":"Sinar Laut","kecamatan":"Pondok Suguh","kecCode":"170604"},"geometry":{"type":"Polygon","coordinates":[[[101.37880733099361,-2.8674003068995715],[101.38738330289713,-2.868792680457188],[101.40687170876241,-2.8954328315503353],[101.40345473644696,-2.905573167846776],[101.41145686264417,-2.910834155045865],[101.40947239343625,-2.9186435457282203],[101.40348328902263,-2.9202425439216926],[101.39697392680533,-2.911649675564873],[101.37880733099361,-2.8674003068995715]]]}},{"type":"Feature","properties":{"code":"1706042030","desa":"Karya Mulya","kecamatan":"Pondok Suguh","kecCode":"170604"},"geometry":{"type":"Polygon","coordinates":[[[101.58250644541619,-2.77780968378838],[101.56410648902329,-2.774481845083144],[101.53236399290398,-2.7830446329162544],[101.53073564983043,-2.777855068974684],[101.51206492375731,-2.804801709020761],[101.49898967423411,-2.8098681395865146],[101.4998670816006,-2.8158732096579304],[101.48446382904251,-2.816582726188087],[101.467509801736,-2.827988416695853],[101.46463361604862,-2.821622760752568],[101.43788738989122,-2.8251751538771335],[101.42712613286483,-2.820028996613364],[101.41383463685905,-2.825818306735623],[101.42672986189365,-2.8071355288680873],[101.45162848576602,-2.804167731945063],[101.45780919703684,-2.7966163936296895],[101.48039309366641,-2.793275405037515],[101.4862995216057,-2.7840637338658936],[101.50500901295567,-2.7825604298332687],[101.51039404994548,-2.761929391264191],[101.52367861577557,-2.7624705556068627],[101.5485692500709,-2.710434782031535],[101.57676204023602,-2.692205838040853],[101.62522089802609,-2.6466812352124647],[101.65842901838452,-2.5989196749168877],[101.68204271789715,-2.5411317260253656],[101.70747061617607,-2.5727409722605037],[101.62464128586669,-2.7265059781428165],[101.58250644541619,-2.77780968378838]]]}},{"type":"Feature","properties":{"code":"1706042031","desa":"Teluk Bakung","kecamatan":"Pondok Suguh","kecCode":"170604"},"geometry":{"type":"Polygon","coordinates":[[[101.37623495068247,-2.8214312977871203],[101.3995281938711,-2.830002487986006],[101.38441048325728,-2.8506102170270764],[101.37376483138195,-2.8537181867807346],[101.36398539391085,-2.8323140424181865],[101.37623495068247,-2.8214312977871203]]]}},{"type":"Feature","properties":{"code":"1706052004","desa":"Air Buluh","kecamatan":"Ipuh","kecCode":"170605"},"geometry":{"type":"Polygon","coordinates":[[[101.57192191956102,-3.0361636905394787],[101.55760269540815,-3.0501021992795496],[101.52994105383662,-3.044973680419035],[101.52803004395145,-3.064180059769105],[101.51393830420945,-3.0795369648496065],[101.4971449299946,-3.0607573704671855],[101.54178213134037,-3.030323124456521],[101.55122254328579,-3.033373834375522],[101.55401276907412,-3.021185007935615],[101.56031366124652,-3.019652698069054],[101.57192191956102,-3.0361636905394787]]]}},{"type":"Feature","properties":{"code":"1706052005","desa":"Pulau Baru","kecamatan":"Ipuh","kecCode":"170605"},"geometry":{"type":"Polygon","coordinates":[[[101.49675997968939,-3.0203880737053326],[101.51806178392422,-3.0492006676001613],[101.4971449299946,-3.0607573704671855],[101.48828600169769,-3.0520499221865034],[101.48500417320412,-3.024963551776221],[101.49675997968939,-3.0203880737053326]]]}},{"type":"Feature","properties":{"code":"1706052006","desa":"Pasar Ipuh","kecamatan":"Ipuh","kecCode":"170605"},"geometry":{"type":"Polygon","coordinates":[[[101.45356576934483,-2.9817078440384535],[101.48971390027633,-3.012018842459398],[101.4861900947971,-3.023377276291718],[101.45356576934483,-2.9817078440384535]]]}},{"type":"Feature","properties":{"code":"1706052007","desa":"Medan Jaya","kecamatan":"Ipuh","kecCode":"170605"},"geometry":{"type":"Polygon","coordinates":[[[101.49413482536198,-3.0003384126640604],[101.49452103022145,-3.0135430970984016],[101.49114748257034,-3.01408031881317],[101.48589410363002,-3.0020661290232],[101.49413482536198,-3.0003384126640604]]]}},{"type":"Feature","properties":{"code":"1706052008","desa":"Sibak","kecamatan":"Ipuh","kecCode":"170605"},"geometry":{"type":"Polygon","coordinates":[[[101.49653637225582,-3.003609460980719],[101.49492593288555,-2.9867972864567007],[101.48932356033413,-2.988418025760642],[101.48047837187943,-2.968397741973285],[101.46751089531163,-2.9647808413777526],[101.48432307165251,-2.963008081574673],[101.50173172423973,-2.947177797651399],[101.50109936234578,-2.9313018614431816],[101.497542162341,-2.9303300225649664],[101.49165659237791,-2.916650868410161],[101.50179577665381,-2.9256037785491826],[101.50925142261514,-2.9100639153919223],[101.52054434444601,-2.910249513878263],[101.52367333585583,-2.922866605569957],[101.54630795874539,-2.9033847683741465],[101.55071119956227,-2.895741989691112],[101.54440562821723,-2.8918753653501166],[101.55136555257825,-2.891637420025464],[101.58986267492257,-2.9735925957272165],[101.5785437455974,-2.9832321166638454],[101.54335804483799,-2.9846321857202818],[101.49653637225582,-3.003609460980719]]]}},{"type":"Feature","properties":{"code":"1706052009","desa":"Semundam","kecamatan":"Ipuh","kecCode":"170605"},"geometry":{"type":"Polygon","coordinates":[[[101.52762210517606,-3.0283317385649497],[101.49675997968939,-3.0203880737053326],[101.50036858943889,-3.0167042653482556],[101.4932170582207,-3.0062079719903814],[101.50241689342494,-3.002896278813883],[101.50891966630961,-3.020018753617673],[101.53784094690222,-3.015939046609271],[101.54201524820519,-3.0251686529604416],[101.52762210517606,-3.0283317385649497]]]}},{"type":"Feature","properties":{"code":"1706052014","desa":"Retak Ilir","kecamatan":"Ipuh","kecCode":"170605"},"geometry":{"type":"Polygon","coordinates":[[[101.39676342609131,-2.9109510696097165],[101.40348328902263,-2.9202425439216926],[101.41152774091256,-2.914949697339851],[101.42769915479221,-2.928006974797028],[101.43286900200292,-2.946430545568232],[101.44357397855633,-2.95758088617181],[101.45547103076353,-2.9494870803960946],[101.46725886480482,-2.9641939114355584],[101.45270610919965,-2.9832359423798067],[101.40689554978985,-2.9331538290353807],[101.39676342609131,-2.9109510696097165]]]}},{"type":"Feature","properties":{"code":"1706052015","desa":"Tanjung Harapan","kecamatan":"Ipuh","kecCode":"170605"},"geometry":{"type":"Polygon","coordinates":[[[101.48576689182863,-2.9948652924816814],[101.48001519674398,-3.007980239864292],[101.46985995777088,-2.996376926035049],[101.48576689182863,-2.9948652924816814]]]}},{"type":"Feature","properties":{"code":"1706052017","desa":"Tanjung Jaya","kecamatan":"Ipuh","kecCode":"170605"},"geometry":{"type":"Polygon","coordinates":[[[101.5237278788386,-2.9947284885114573],[101.53407196195155,-2.996546829553062],[101.53458160865436,-3.0177885239787368],[101.51902077418941,-3.015782083436071],[101.5237278788386,-2.9947284885114573]]]}},{"type":"Feature","properties":{"code":"1706052023","desa":"Manunggal Jaya","kecamatan":"Ipuh","kecCode":"170605"},"geometry":{"type":"Polygon","coordinates":[[[101.46985995777088,-2.996376926035049],[101.45356576934483,-2.9817078440384535],[101.46751089531163,-2.9647808413777526],[101.47462378266152,-2.964728393815431],[101.48648858877743,-2.9820015266454827],[101.46985995777088,-2.996376926035049]]]}},{"type":"Feature","properties":{"code":"1706052028","desa":"Pulai Payung","kecamatan":"Ipuh","kecCode":"170605"},"geometry":{"type":"Polygon","coordinates":[[[101.49413482536198,-3.0003384126640604],[101.48589410363002,-3.0020661290232],[101.48356580741614,-2.9916175366059448],[101.49230437764498,-2.9850198879505143],[101.49413482536198,-3.0003384126640604]]]}},{"type":"Feature","properties":{"code":"1706052029","desa":"Tanjung Medan","kecamatan":"Ipuh","kecCode":"170605"},"geometry":{"type":"Polygon","coordinates":[[[101.48648858877743,-2.9820015266454827],[101.48576689182863,-2.9948652924816814],[101.47749010008812,-2.997732932807874],[101.47732526065231,-2.9872405128300192],[101.48648858877743,-2.9820015266454827]]]}},{"type":"Feature","properties":{"code":"1706052030","desa":"Tirta Mulya","kecamatan":"Ipuh","kecCode":"170605"},"geometry":{"type":"Polygon","coordinates":[[[101.50241689342494,-3.002896278813883],[101.51536116028939,-2.9939590222744297],[101.5237278788386,-2.9947284885114573],[101.5139907517718,-3.020154912773951],[101.50891966630961,-3.020018753617673],[101.50241689342494,-3.002896278813883]]]}},{"type":"Feature","properties":{"code":"1706052033","desa":"Pasar Baru","kecamatan":"Ipuh","kecCode":"170605"},"geometry":{"type":"Polygon","coordinates":[[[101.48971390027633,-3.012018842459398],[101.48356514641443,-3.010100311546009],[101.48325505028043,-3.0075439859348214],[101.48749160175605,-3.0052640435718687],[101.48971390027633,-3.012018842459398]]]}},{"type":"Feature","properties":{"code":"1706052034","desa":"Pulau Makmur","kecamatan":"Ipuh","kecCode":"170605"},"geometry":{"type":"Polygon","coordinates":[[[101.50015125028006,-3.016371762605788],[101.48932467909071,-3.025449776535145],[101.48451898176563,-3.0240188499407634],[101.48971390027633,-3.012018842459398],[101.50015125028006,-3.016371762605788]]]}},{"type":"Feature","properties":{"code":"1706052035","desa":"Mundam Marap","kecamatan":"Ipuh","kecCode":"170605"},"geometry":{"type":"Polygon","coordinates":[[[101.54470546578465,-3.03101418779765],[101.5151999604099,-3.0450429075320447],[101.49743590744121,-3.0219143761006175],[101.52762210517606,-3.0283317385649497],[101.54201524820519,-3.0251686529604416],[101.54470546578465,-3.03101418779765]]]}},{"type":"Feature","properties":{"code":"1706062001","desa":"Talang Arah","kecamatan":"Malin Deman","kecCode":"170606"},"geometry":{"type":"Polygon","coordinates":[[[101.59994946919271,-2.9743944465510714],[101.6126981658877,-2.9935546969755036],[101.63625007028456,-2.977664656699597],[101.65831243387179,-2.981795402032747],[101.6583567200866,-2.9988801385855517],[101.6378883814437,-3.0185485878037444],[101.59881634409908,-3.015802074465799],[101.59994946919271,-2.9743944465510714]]]}},{"type":"Feature","properties":{"code":"1706062002","desa":"Serami Baru","kecamatan":"Malin Deman","kecCode":"170606"},"geometry":{"type":"Polygon","coordinates":[[[101.58986267492257,-2.9735925957272165],[101.55400917088656,-2.8924754847494314],[101.56753596731112,-2.8872483678172234],[101.56611107156874,-2.879044397788984],[101.5754999676494,-2.880208503626533],[101.573917799367,-2.8738113399352776],[101.5989749988971,-2.875826820463127],[101.60068478187725,-2.870271320582772],[101.62759777022097,-2.860732296186687],[101.63782498193738,-2.844283066456395],[101.64331597884939,-2.842742633913165],[101.65461500887561,-2.8585799415415973],[101.66389431986704,-2.8518051345372317],[101.66582664368472,-2.88110302778851],[101.64439691898268,-2.913486700022021],[101.6421528928418,-2.9281361354291318],[101.59994946919271,-2.9743944465510714],[101.58986267492257,-2.9735925957272165]]]}},{"type":"Feature","properties":{"code":"1706062003","desa":"Lubuk Talang","kecamatan":"Malin Deman","kecCode":"170606"},"geometry":{"type":"Polygon","coordinates":[[[101.86016841114332,-2.7305724138558007],[101.86582946985418,-2.7895314671092306],[101.83647919106187,-2.847332239434088],[101.80666998013555,-2.8842156785133204],[101.80873409060585,-2.911619056347186],[101.77615404867048,-2.924305031610969],[101.76973682379544,-2.942690159961902],[101.75586841269718,-2.9438020799399136],[101.74756613686776,-2.9569907195695695],[101.72888829625792,-2.963561315718495],[101.72902381689568,-2.970264807384003],[101.71585486700855,-2.9745705994579796],[101.72126609405507,-2.9620628986018795],[101.71427438225696,-2.955374320393801],[101.70488691429972,-2.9601488238292304],[101.69767714838171,-2.971313728054012],[101.7070607465563,-2.98092781706262],[101.7060704248103,-2.988202383622687],[101.69327762176488,-2.9992387585394886],[101.69488112106693,-3.009694253253457],[101.70426129282446,-3.014429678448071],[101.70111527904697,-3.018353610287779],[101.67911128595715,-3.0133024726933315],[101.67722895005608,-2.9830614918895115],[101.66429241556261,-2.987066719744131],[101.63637380170962,-2.977640861537565],[101.62056942274073,-2.991910489862758],[101.60625347481805,-2.9892669479997154],[101.59994946919271,-2.9743944465510714],[101.6421528928418,-2.9281361354291318],[101.64439691898268,-2.913486700022021],[101.66582664368472,-2.88110302778851],[101.66389349788669,-2.8514481648392307],[101.6752021470615,-2.8385482795317754],[101.66386795444261,-2.8305133280886836],[101.66852153683953,-2.8276106420816665],[101.66324866869114,-2.8269630978336187],[101.6631292899848,-2.796137123328101],[101.6842796160115,-2.7757283009410454],[101.67915901477674,-2.7488879805459123],[101.72261987141002,-2.683569395732362],[101.74732628857743,-2.6154574716807133],[101.76991700206804,-2.646301519861263],[101.81330858842067,-2.6757167899277894],[101.81211680864384,-2.692022492356232],[101.84735554422302,-2.7048882870628708],[101.86016841114332,-2.7305724138558007]]]}},{"type":"Feature","properties":{"code":"1706062004","desa":"Gajah Makmur","kecamatan":"Malin Deman","kecCode":"170606"},"geometry":{"type":"Polygon","coordinates":[[[101.7070607465563,-2.98092781706262],[101.69767714838171,-2.971313728054012],[101.71427438225696,-2.955374320393801],[101.72128405441565,-2.96347610585403],[101.7070607465563,-2.98092781706262]]]}},{"type":"Feature","properties":{"code":"1706062005","desa":"Semambang Makmur","kecamatan":"Malin Deman","kecCode":"170606"},"geometry":{"type":"Polygon","coordinates":[[[101.66110792968725,-3.0120374925999633],[101.65462667128389,-2.98997997728174],[101.65896814396471,-2.982120093263901],[101.66429241556261,-2.987066719744131],[101.67722895005608,-2.9830614918895115],[101.67771971639182,-3.012141796870089],[101.66110792968725,-3.0120374925999633]]]}},{"type":"Feature","properties":{"code":"1706062006","desa":"Talang Baru","kecamatan":"Malin Deman","kecCode":"170606"},"geometry":{"type":"Polygon","coordinates":[[[101.56031366124652,-3.019652698069054],[101.54568865680613,-3.0333124205723707],[101.53407196195155,-2.996546829553062],[101.52727973776973,-2.9954158628335663],[101.5323607022846,-2.987741330887811],[101.56277115856214,-2.9838516380370073],[101.56031366124652,-3.019652698069054]]]}},{"type":"Feature","properties":{"code":"1706062007","desa":"Air Merah","kecamatan":"Malin Deman","kecCode":"170606"},"geometry":{"type":"Polygon","coordinates":[[[101.56277115856214,-2.9838516380370073],[101.5785437455974,-2.9832321166638454],[101.58986267492257,-2.9735925957272165],[101.5993740658605,-2.9761363470175426],[101.59812651462698,-3.01547774206418],[101.5782293156305,-3.021269685401368],[101.56348112385484,-3.0135024648290436],[101.56277115856214,-2.9838516380370073]]]}},{"type":"Feature","properties":{"code":"1706072001","desa":"Arga Jaya","kecamatan":"Air Rami","kecCode":"170607"},"geometry":{"type":"Polygon","coordinates":[[[101.52142830517221,-3.074449671810966],[101.52803004395145,-3.064180059769105],[101.54780200785642,-3.064955381491995],[101.54954386605664,-3.0817361966562857],[101.54129107991945,-3.093674900951155],[101.53223828656773,-3.09435129634972],[101.52142830517221,-3.074449671810966]]]}},{"type":"Feature","properties":{"code":"1706072002","desa":"Air Rami","kecamatan":"Air Rami","kecCode":"170607"},"geometry":{"type":"Polygon","coordinates":[[[101.53655143600002,-3.1257142083845304],[101.53187532288791,-3.128626575593389],[101.52090891701293,-3.1140736167571266],[101.5254274464196,-3.1001678748157464],[101.51393830420945,-3.0795369648496065],[101.52142830517221,-3.074449671810966],[101.53227911129197,-3.094065040344114],[101.52687512468731,-3.1145899867910156],[101.53655143600002,-3.1257142083845304]]]}},{"type":"Feature","properties":{"code":"1706072003","desa":"Rami Mulya","kecamatan":"Air Rami","kecCode":"170607"},"geometry":{"type":"Polygon","coordinates":[[[101.58161367043459,-3.103638641874269],[101.54646503883053,-3.120414513465289],[101.55334172643956,-3.1145893482723785],[101.54612710777987,-3.114875483768793],[101.54174972606904,-3.1021047483015756],[101.53187079660005,-3.096928067148251],[101.54551462629905,-3.0926573585266235],[101.56116084779495,-3.093920063335197],[101.56693899733692,-3.1011806256524608],[101.5769322792014,-3.098684351371555],[101.58161367043459,-3.103638641874269]]]}},{"type":"Feature","properties":{"code":"1706072004","desa":"Talang Rio","kecamatan":"Air Rami","kecCode":"170607"},"geometry":{"type":"Polygon","coordinates":[[[101.53696070667132,-3.094169268171897],[101.56367527399478,-3.0741155754698632],[101.56343213508501,-3.083635070188451],[101.56985780819133,-3.0820751817120686],[101.58685425831743,-3.0977617935427073],[101.58161367043459,-3.103638641874269],[101.56040677165525,-3.0937176843987912],[101.53696070667132,-3.094169268171897]]]}},{"type":"Feature","properties":{"code":"1706072005","desa":"Makmur Jaya","kecamatan":"Air Rami","kecCode":"170607"},"geometry":{"type":"Polygon","coordinates":[[[101.52803004395145,-3.064180059769105],[101.52994105383662,-3.044973680419035],[101.55094290988744,-3.0513411305098934],[101.57069125219958,-3.039520804875156],[101.57523771904556,-3.046862786414384],[101.56195310105483,-3.0609975784861225],[101.52803004395145,-3.064180059769105]]]}},{"type":"Feature","properties":{"code":"1706072006","desa":"Marga Mulia","kecamatan":"Air Rami","kecCode":"170607"},"geometry":{"type":"Polygon","coordinates":[[[101.57192191956102,-3.0361636905394787],[101.56031366124652,-3.019652698069054],[101.56348112385484,-3.0135024648290436],[101.5782293156305,-3.021269685401368],[101.59442360286704,-3.015390591462759],[101.61046580305441,-3.049025866374273],[101.6203153912424,-3.0526852635337534],[101.61232310093044,-3.0639492172899745],[101.59135509356274,-3.0629638768899206],[101.58276306786138,-3.0369180157905316],[101.57192191956102,-3.0361636905394787]]]}},{"type":"Feature","properties":{"code":"1706072007","desa":"Mekar Jaya","kecamatan":"Air Rami","kecCode":"170607"},"geometry":{"type":"Polygon","coordinates":[[[101.60981665711307,-3.1060327495736013],[101.58821438668468,-3.1024847649256326],[101.57987614426872,-3.1193789396337084],[101.57414582606907,-3.1106985798323725],[101.5903268384129,-3.0941944563837303],[101.61402108120795,-3.0921562868600168],[101.6203198842553,-3.0848348251518583],[101.60981665711307,-3.1060327495736013]]]}},{"type":"Feature","properties":{"code":"1706072008","desa":"Dusun Pulau","kecamatan":"Air Rami","kecCode":"170607"},"geometry":{"type":"Polygon","coordinates":[[[101.76141789971636,-2.9819999933013754],[101.71761227898355,-3.0447062553177484],[101.70026872831919,-3.04513457992476],[101.69306493210097,-3.061853175493348],[101.67612356904755,-3.0707341902307794],[101.64895067483383,-3.0685067466914853],[101.62712097215518,-3.0781435984403718],[101.61402108120795,-3.0921562868600168],[101.58685425831743,-3.0977617935427073],[101.56985780819133,-3.0820751817120686],[101.56284699839034,-3.0828549325960317],[101.57154903186238,-3.0666210320395475],[101.61232310093044,-3.0639492172899745],[101.66160469090381,-3.0123753094363157],[101.70111527904697,-3.018353610287779],[101.70426129282446,-3.014429678448071],[101.69488112106693,-3.009694253253457],[101.69327762176488,-2.9992387585394886],[101.70562837115243,-2.98889746603409],[101.70787272284791,-2.9776585251219188],[101.7297370674118,-2.9697841925960153],[101.72888829625792,-2.963561315718495],[101.74756613686776,-2.9569907195695695],[101.75586841269718,-2.9438020799399136],[101.76973682379544,-2.942690159961902],[101.77615404867048,-2.924305031610969],[101.80873409060585,-2.911619056347186],[101.81079864534125,-2.9200203385314967],[101.8009735456926,-2.935249994039118],[101.79181434095914,-2.931772848988692],[101.78453064537301,-2.937601092560937],[101.78398895132909,-2.963466407565146],[101.79080963275838,-2.982956407007932],[101.76141789971636,-2.9819999933013754]]]}},{"type":"Feature","properties":{"code":"1706072009","desa":"Bukit Harapan","kecamatan":"Air Rami","kecCode":"170607"},"geometry":{"type":"Polygon","coordinates":[[[101.59812651462698,-3.01547774206418],[101.63246172742684,-3.020065883488734],[101.64491853656124,-3.015634710633223],[101.6583567200866,-2.9988801385855517],[101.66160469090381,-3.0123753094363157],[101.62190365692828,-3.0532613062832707],[101.61046580305441,-3.049025866374273],[101.59812651462698,-3.01547774206418]]]}},{"type":"Feature","properties":{"code":"1706072010","desa":"Tirta Kencana","kecamatan":"Air Rami","kecCode":"170607"},"geometry":{"type":"Polygon","coordinates":[[[101.54954386605664,-3.0817361966562857],[101.54515194230832,-3.0752963016781205],[101.54881934433735,-3.063852092307773],[101.57704721255884,-3.0617756953018853],[101.56600164206219,-3.0760462885996724],[101.557855597358,-3.074230374828269],[101.54954386605664,-3.0817361966562857]]]}},{"type":"Feature","properties":{"code":"1706072011","desa":"Cinta Asih","kecamatan":"Air Rami","kecCode":"170607"},"geometry":{"type":"Polygon","coordinates":[[[101.57069125219958,-3.039520804875156],[101.58276306786138,-3.0369180157905316],[101.59135509356274,-3.0629638768899206],[101.56175015374662,-3.0608032053145604],[101.57523771904556,-3.046862786414384],[101.57069125219958,-3.039520804875156]]]}},{"type":"Feature","properties":{"code":"1706072012","desa":"Bukit Mulya","kecamatan":"Air Rami","kecCode":"170607"},"geometry":{"type":"Polygon","coordinates":[[[101.55334172643956,-3.1145893482723785],[101.53655143600002,-3.1257142083845304],[101.52687512468731,-3.1145899867910156],[101.53163639820127,-3.0945146177296965],[101.53460380931841,-3.0934684381933018],[101.53825490124274,-3.09559784573714],[101.53144283441935,-3.099535774625184],[101.54174972606904,-3.1021047483015756],[101.54612710777987,-3.114875483768793],[101.55334172643956,-3.1145893482723785]]]}},{"type":"Feature","properties":{"code":"1706082001","desa":"Pasar Bantal","kecamatan":"Teramang Jaya","kecCode":"170608"},"geometry":{"type":"Polygon","coordinates":[[[101.3087191529666,-2.711191645169456],[101.33060756158979,-2.7368753906498977],[101.3354705277427,-2.7494680720433022],[101.32850163084565,-2.751808628712089],[101.34515004333991,-2.784640863895798],[101.32459719990088,-2.7520704105675455],[101.32246499636256,-2.738204434848471],[101.29427714617343,-2.7132399518512345],[101.29360090905476,-2.703773973089646],[101.3087191529666,-2.711191645169456]]]}},{"type":"Feature","properties":{"code":"1706082002","desa":"Nenggalo","kecamatan":"Teramang Jaya","kecCode":"170608"},"geometry":{"type":"Polygon","coordinates":[[[101.3354705277427,-2.7494680720433022],[101.34315877975394,-2.742409796931647],[101.3479066533694,-2.7483527265477043],[101.3556406502958,-2.7439244782874828],[101.35718479434284,-2.7546665302798967],[101.34878951422475,-2.7573033065432044],[101.3354705277427,-2.7494680720433022]]]}},{"type":"Feature","properties":{"code":"1706082003","desa":"Pondok Baru","kecamatan":"Teramang Jaya","kecCode":"170608"},"geometry":{"type":"Polygon","coordinates":[[[101.3556406502958,-2.7439244782874828],[101.3479066533694,-2.7483527265477043],[101.34315877975394,-2.742409796931647],[101.35103241261584,-2.7389882128965297],[101.34550016560024,-2.724842316895621],[101.3659851309091,-2.6882094936894254],[101.37433228021062,-2.6926067378221554],[101.39392868925768,-2.683289839675971],[101.395362401054,-2.6889480583217216],[101.37512884482038,-2.6937061680154732],[101.37224969766548,-2.7042709762232824],[101.366098172093,-2.701574163018867],[101.36718081194499,-2.714511223601587],[101.3556406502958,-2.7439244782874828]]]}},{"type":"Feature","properties":{"code":"1706082004","desa":"Bunga Tanjung","kecamatan":"Teramang Jaya","kecCode":"170608"},"geometry":{"type":"Polygon","coordinates":[[[101.55101866877656,-2.64285338334278],[101.52541141330613,-2.667254752244161],[101.50951365503123,-2.69374804494652],[101.48342826600172,-2.71206002783821],[101.44784955431355,-2.7090313162357633],[101.42931363841377,-2.727456917676015],[101.40125844542099,-2.74042789798834],[101.38570599533544,-2.7432630053395743],[101.3730881167233,-2.737627678936562],[101.36508792316918,-2.708812771086241],[101.37512884482038,-2.6937061680154732],[101.39751929457987,-2.691763100898785],[101.43060569979325,-2.6743168926418877],[101.44959379841515,-2.681737796885172],[101.46871990699816,-2.66896961009666],[101.48856849763813,-2.6682357048519485],[101.50603374186376,-2.652236208989406],[101.5278324593006,-2.6519204543214028],[101.55101866877656,-2.64285338334278]]]}},{"type":"Feature","properties":{"code":"1706082005","desa":"Bandar Jaya","kecamatan":"Teramang Jaya","kecCode":"170608"},"geometry":{"type":"Polygon","coordinates":[[[101.3087191529666,-2.711191645169456],[101.29449724894891,-2.7038982126315174],[101.29703180377476,-2.6981254608267813],[101.32827129738251,-2.6770408977476983],[101.34017079484634,-2.652851007123154],[101.35778094593392,-2.673872585283489],[101.39669121772556,-2.67269439606273],[101.38797135069733,-2.685982319946835],[101.37433228021062,-2.6926067378221554],[101.36386537758516,-2.6841448080571637],[101.34033384193332,-2.682647213820161],[101.3087191529666,-2.711191645169456]]]}},{"type":"Feature","properties":{"code":"1706082006","desa":"Teramang Jaya","kecamatan":"Teramang Jaya","kecCode":"170608"},"geometry":{"type":"Polygon","coordinates":[[[101.38932818035128,-2.7594534875269088],[101.37387786627055,-2.801711899277144],[101.37742575109756,-2.8191622516101003],[101.36386353757227,-2.8320280058472185],[101.33878055357974,-2.772494227350985],[101.35840896230383,-2.7631187491654514],[101.36090143515315,-2.754563349263019],[101.36832408229058,-2.754118872832018],[101.37022860806388,-2.756937716843357],[101.36347790558095,-2.761206652001973],[101.38932818035128,-2.7594534875269088]]]}},{"type":"Feature","properties":{"code":"1706082007","desa":"Brangan Mulya","kecamatan":"Teramang Jaya","kecCode":"170608"},"geometry":{"type":"Polygon","coordinates":[[[101.35718479434284,-2.7546665302798967],[101.35673022032346,-2.7337277509015725],[101.36508792316918,-2.708812771086241],[101.37484299261008,-2.738379408744178],[101.37022860806388,-2.756937716843357],[101.35718479434284,-2.7546665302798967]]]}},{"type":"Feature","properties":{"code":"1706082008","desa":"Sido Makmur","kecamatan":"Teramang Jaya","kecCode":"170608"},"geometry":{"type":"Polygon","coordinates":[[[101.3218612778757,-2.7224796279113423],[101.3087191529666,-2.711191645169456],[101.3240190176636,-2.6959030687794474],[101.34033384193332,-2.682647213820161],[101.36386537758516,-2.6841448080571637],[101.35318705244059,-2.7179312536082683],[101.3218612778757,-2.7224796279113423]]]}},{"type":"Feature","properties":{"code":"1706082009","desa":"Lubuk Selandak","kecamatan":"Teramang Jaya","kecCode":"170608"},"geometry":{"type":"Polygon","coordinates":[[[101.64570685528717,-2.5386727610188435],[101.62345417626925,-2.5990089623075203],[101.5861746487411,-2.6093354654617573],[101.54474281372995,-2.647408678828272],[101.50603374186376,-2.652236208989406],[101.48856849763813,-2.6682357048519485],[101.46871990699816,-2.66896961009666],[101.44959379841515,-2.681737796885172],[101.43022736580035,-2.6743882772285734],[101.39751929457987,-2.691763100898785],[101.39033177609063,-2.6830984126833863],[101.39922577974602,-2.669586392134882],[101.41153447233806,-2.668431623058801],[101.42407013942545,-2.645284296696124],[101.43372089290494,-2.640342558930505],[101.43401022459228,-2.630346310213488],[101.46617188032809,-2.6073135889556287],[101.4907167954438,-2.6143533164493657],[101.49928411856727,-2.6042769318428705],[101.54332685904733,-2.609228145764857],[101.56555751097038,-2.598213430120286],[101.56920594000216,-2.5795331442742335],[101.57999285018997,-2.562713586316384],[101.58866582386872,-2.5607567604716848],[101.59926815989775,-2.532976305897795],[101.60967691325901,-2.5498757740152302],[101.64570685528717,-2.5386727610188435]]]}},{"type":"Feature","properties":{"code":"1706082010","desa":"Nelan Indah","kecamatan":"Teramang Jaya","kecCode":"170608"},"geometry":{"type":"Polygon","coordinates":[[[101.33398121895817,-2.7589306729512924],[101.32888234534401,-2.7500716241548946],[101.34373907809605,-2.752215955048675],[101.34333984026146,-2.7575336795762664],[101.33398121895817,-2.7589306729512924]]]}},{"type":"Feature","properties":{"code":"1706082011","desa":"Mandi Angin Jaya","kecamatan":"Teramang Jaya","kecCode":"170608"},"geometry":{"type":"Polygon","coordinates":[[[101.33878055357974,-2.772494227350985],[101.33415767223885,-2.7586467821626517],[101.36043520861806,-2.75656522035033],[101.35840896230383,-2.7631187491654514],[101.33878055357974,-2.772494227350985]]]}},{"type":"Feature","properties":{"code":"1706082012","desa":"Batu Ejung","kecamatan":"Teramang Jaya","kecCode":"170608"},"geometry":{"type":"Polygon","coordinates":[[[101.47015410982438,-2.7111729437674987],[101.458074110332,-2.7307226087312566],[101.41741249429124,-2.7615381196247113],[101.37854988476941,-2.7562336600973905],[101.36347790558095,-2.761206652001973],[101.37159750931765,-2.7553114485075687],[101.3760046019309,-2.737450554761759],[101.39328325571773,-2.7430883408106204],[101.42931363841377,-2.727456917676015],[101.44387770479233,-2.710127350589045],[101.47015410982438,-2.7111729437674987]]]}},{"type":"Feature","properties":{"code":"1706082013","desa":"Pernyah","kecamatan":"Teramang Jaya","kecCode":"170608"},"geometry":{"type":"Polygon","coordinates":[[[101.33443982823553,-2.74679907397037],[101.3218612778757,-2.7224796279113423],[101.34680711975285,-2.720403017766147],[101.35103241261584,-2.7389882128965297],[101.33443982823553,-2.74679907397037]]]}},{"type":"Feature","properties":{"code":"1706102001","desa":"Penarik","kecamatan":"Penarik","kecCode":"170610"},"geometry":{"type":"Polygon","coordinates":[[[101.46801758504358,-2.5243854214454533],[101.44469097790635,-2.5456494010711244],[101.39654217668014,-2.5561249929347167],[101.38991062087852,-2.580967756290369],[101.39627567877959,-2.583347216731546],[101.39597824599929,-2.5975050098636525],[101.38838200992187,-2.6002451640954156],[101.38954344657287,-2.6155049864616355],[101.34565905871862,-2.608117794204611],[101.31682076666509,-2.6246899900367007],[101.29112162206525,-2.6171547684716483],[101.28907451687553,-2.604781740192555],[101.32317260543147,-2.5963272783978333],[101.32327028439617,-2.564694514891211],[101.33217188282616,-2.5584965501337513],[101.43106726694087,-2.5180707561627376],[101.43435719023222,-2.52367698949765],[101.46801758504358,-2.5243854214454533]]]}},{"type":"Feature","properties":{"code":"1706102002","desa":"Lubuk Mukti","kecamatan":"Penarik","kecCode":"170610"},"geometry":{"type":"Polygon","coordinates":[[[101.35247061472717,-2.609225498160749],[101.37797553634199,-2.613832336490665],[101.37702337103178,-2.6264090540184086],[101.35421733466234,-2.627722128955386],[101.35247061472717,-2.609225498160749]]]}},{"type":"Feature","properties":{"code":"1706102003","desa":"Bumi Mulya","kecamatan":"Penarik","kecCode":"170610"},"geometry":{"type":"Polygon","coordinates":[[[101.32365794705667,-2.6793130546796515],[101.30085494859706,-2.6946264829350883],[101.27440905733219,-2.677571844892608],[101.2942117267898,-2.6701638270349393],[101.29618958777934,-2.6597345304715803],[101.30606224267842,-2.6591578662904904],[101.32365794705667,-2.6793130546796515]]]}},{"type":"Feature","properties":{"code":"1706102004","desa":"Suka Maju","kecamatan":"Penarik","kecCode":"170610"},"geometry":{"type":"Polygon","coordinates":[[[101.3797857780912,-2.6153610490689707],[101.38954344657287,-2.6155049864616355],[101.39105820527203,-2.6071263105356715],[101.40041277333084,-2.604448307551119],[101.40511873674033,-2.630886537462611],[101.40089707893708,-2.647304442007325],[101.38409398305095,-2.6473915089718116],[101.38439900431062,-2.628868650348995],[101.37467902102009,-2.6289473707055477],[101.3797857780912,-2.6153610490689707]]]}},{"type":"Feature","properties":{"code":"1706102005","desa":"Bukit Makmur","kecamatan":"Penarik","kecCode":"170610"},"geometry":{"type":"Polygon","coordinates":[[[101.59926815989775,-2.532976305897795],[101.58866582386872,-2.5607567604716848],[101.57999285018997,-2.562713586316384],[101.56920594000216,-2.5795331442742335],[101.56537183334346,-2.5984147064879113],[101.53659183174767,-2.610276881174553],[101.49928411856727,-2.6042769318428705],[101.4907167954438,-2.6143533164493657],[101.46617188032809,-2.6073135889556287],[101.43401022459228,-2.630346310213488],[101.43372089290494,-2.640342558930505],[101.42407013942545,-2.645284296696124],[101.41129296120123,-2.6686503327842277],[101.39361106399946,-2.6677163832431146],[101.40508327197546,-2.631324722236495],[101.40041277333084,-2.604448307551119],[101.42250148885267,-2.606757361868024],[101.43952474776893,-2.594334950016807],[101.44777291318945,-2.5963583850480796],[101.46207290534039,-2.5780497422384956],[101.5408375949791,-2.557512699010939],[101.54201637595501,-2.5713819653493943],[101.56433514435149,-2.5706235607734573],[101.56880431536695,-2.5477901607571187],[101.59052719387493,-2.5442148241285296],[101.59044593563146,-2.5317282321595425],[101.59926815989775,-2.532976305897795]]]}},{"type":"Feature","properties":{"code":"1706102006","desa":"Sumber Mulya","kecamatan":"Penarik","kecCode":"170610"},"geometry":{"type":"Polygon","coordinates":[[[101.4027449744011,-2.670647671288444],[101.35778094593392,-2.673872585283489],[101.34194807734195,-2.6565016511810886],[101.40089707893708,-2.647304442007325],[101.39339340288329,-2.666883090321874],[101.40106353535396,-2.669001288715712],[101.4027449744011,-2.670647671288444]]]}},{"type":"Feature","properties":{"code":"1706102007","desa":"Sido Dadi","kecamatan":"Penarik","kecCode":"170610"},"geometry":{"type":"Polygon","coordinates":[[[101.2939826856525,-2.6215560640501647],[101.31682076666509,-2.6246899900367007],[101.31315576402731,-2.6484779133846463],[101.30877155376423,-2.650477770889916],[101.2939826856525,-2.6215560640501647]]]}},{"type":"Feature","properties":{"code":"1706102008","desa":"Maju Makmur","kecamatan":"Penarik","kecCode":"170610"},"geometry":{"type":"Polygon","coordinates":[[[101.37466006331135,-2.6289679004292164],[101.38439900431062,-2.628868650348995],[101.38409398305095,-2.6473915089718116],[101.37385526360957,-2.6478931490098665],[101.37466006331135,-2.6289679004292164]]]}},{"type":"Feature","properties":{"code":"1706102009","desa":"Sendang Mulyo","kecamatan":"Penarik","kecCode":"170610"},"geometry":{"type":"Polygon","coordinates":[[[101.5408375949791,-2.557512699010939],[101.46207290534039,-2.5780497422384956],[101.44777291318945,-2.5963583850480796],[101.43952474776893,-2.594334950016807],[101.42250148885267,-2.606757361868024],[101.40041277333084,-2.604448307551119],[101.43031506408897,-2.569902715483523],[101.43872269279808,-2.5781683763060403],[101.44979270237137,-2.562831260807309],[101.46201406269886,-2.5637836923158144],[101.46928965179602,-2.55391280639399],[101.49587879157303,-2.552640286384584],[101.50388701337505,-2.5594200270696494],[101.52687604289513,-2.5493035300020135],[101.53423368343778,-2.534934124594018],[101.52987646902386,-2.523524545417766],[101.54864216080716,-2.508693722150172],[101.5408375949791,-2.557512699010939]]]}},{"type":"Feature","properties":{"code":"1706102010","desa":"Marga Mulya Sakti","kecamatan":"Penarik","kecCode":"170610"},"geometry":{"type":"Polygon","coordinates":[[[101.32915344057885,-2.617517733050464],[101.33512988433675,-2.6107963169972512],[101.35247061472717,-2.609225498160749],[101.35421733466234,-2.627722128955386],[101.32915344057885,-2.617517733050464]]]}},{"type":"Feature","properties":{"code":"1706102011","desa":"Wonosobo","kecamatan":"Penarik","kecCode":"170610"},"geometry":{"type":"Polygon","coordinates":[[[101.34220192357998,-2.6557182859218926],[101.33110117068253,-2.649638935446898],[101.33153847142334,-2.6256888562402545],[101.37294669473424,-2.626827557129359],[101.37334186043859,-2.6516122368714354],[101.34220192357998,-2.6557182859218926]]]}},{"type":"Feature","properties":{"code":"1706102012","desa":"Mekar Mulya","kecamatan":"Penarik","kecCode":"170610"},"geometry":{"type":"Polygon","coordinates":[[[101.34016992070535,-2.652862715396882],[101.33956829224299,-2.6613911940938295],[101.32365794705667,-2.6793130546796515],[101.30606224267842,-2.6591578662904904],[101.29618958777934,-2.6597345304715803],[101.2942117267898,-2.6701638270349393],[101.28138621090493,-2.675479748421794],[101.269277443899,-2.6742783512963237],[101.28294343199383,-2.667028633903674],[101.28341104258561,-2.65166038387579],[101.30393514728927,-2.639123371416332],[101.30877155376423,-2.650477770889916],[101.33062537985745,-2.641045531993505],[101.33110117068253,-2.649638935446898],[101.34016992070535,-2.652862715396882]]]}},{"type":"Feature","properties":{"code":"1706102013","desa":"Sido Mulyo","kecamatan":"Penarik","kecCode":"170610"},"geometry":{"type":"Polygon","coordinates":[[[101.39105820527203,-2.6071263105356715],[101.38838200992187,-2.6002451640954156],[101.39597824599929,-2.5975050098636525],[101.39627567877959,-2.583347216731546],[101.38991062087852,-2.580967756290369],[101.39745588967763,-2.555296941262407],[101.44469097790635,-2.5456494010711244],[101.4712316127488,-2.5224475524101693],[101.48974708975645,-2.5331091996157107],[101.51209096092917,-2.510647010961202],[101.54759370778345,-2.5062190621752967],[101.52987646902386,-2.523524545417766],[101.53423368343778,-2.534934124594018],[101.52687604289513,-2.5493035300020135],[101.50388701337505,-2.5594200270696494],[101.49587879157303,-2.552640286384584],[101.46928965179602,-2.55391280639399],[101.46201406269886,-2.5637836923158144],[101.44979270237137,-2.562831260807309],[101.43872269279808,-2.5781683763060403],[101.43031506408897,-2.569902715483523],[101.40041277333084,-2.604448307551119],[101.39105820527203,-2.6071263105356715]]]}},{"type":"Feature","properties":{"code":"1706102014","desa":"Marga Mukti","kecamatan":"Penarik","kecCode":"170610"},"geometry":{"type":"Polygon","coordinates":[[[101.31682076666509,-2.6246899900367007],[101.33274412234346,-2.6165024704072657],[101.33607948208248,-2.622904050668976],[101.33062537985745,-2.641045531993505],[101.31491513742372,-2.6508626780272264],[101.31131178331219,-2.6381598098982098],[101.31682076666509,-2.6246899900367007]]]}},{"type":"Feature","properties":{"code":"1706142001","desa":"Dusun Baru V Koto","kecamatan":"Air Dikit","kecCode":"170614"},"geometry":{"type":"Polygon","coordinates":[[[101.22851704092875,-2.6103550610385233],[101.23537565666129,-2.605153395819581],[101.27471101370236,-2.643495352693425],[101.2695420918941,-2.6499812470949093],[101.28341104258561,-2.65166038387579],[101.28294343199383,-2.667028633903674],[101.269277443899,-2.6742783512963237],[101.22851704092875,-2.6103550610385233]]]}},{"type":"Feature","properties":{"code":"1706142002","desa":"Air Dikit","kecamatan":"Air Dikit","kecCode":"170614"},"geometry":{"type":"Polygon","coordinates":[[[101.19327914531634,-2.658317799675603],[101.20068728099331,-2.6365054962044367],[101.21697488638192,-2.63591920208289],[101.21007487665428,-2.6145537573467914],[101.24661794666099,-2.675899128371783],[101.29441059837045,-2.7036605191169936],[101.29479011856915,-2.7127037337797972],[101.19327914531634,-2.658317799675603]]]}},{"type":"Feature","properties":{"code":"1706142003","desa":"Pondok Lunang","kecamatan":"Air Dikit","kecCode":"170614"},"geometry":{"type":"Polygon","coordinates":[[[101.21426691438666,-2.620079142529097],[101.22851704092875,-2.6103550610385233],[101.26434404464203,-2.6688740427402196],[101.28131681471928,-2.6841695160310164],[101.30101784999385,-2.691502231855163],[101.29441059837045,-2.7036605191169936],[101.24661794666099,-2.675899128371783],[101.21426691438666,-2.620079142529097]]]}},{"type":"Feature","properties":{"code":"1706142004","desa":"Sari Bulan","kecamatan":"Air Dikit","kecCode":"170614"},"geometry":{"type":"Polygon","coordinates":[[[101.26150291542727,-2.614499978787756],[101.27627229882755,-2.6093180132181715],[101.29112162206525,-2.6171547684716483],[101.29676288759725,-2.6313421448025056],[101.28999035137365,-2.644599881143512],[101.26150291542727,-2.614499978787756]]]}},{"type":"Feature","properties":{"code":"1706142005","desa":"Sari Makmur","kecamatan":"Air Dikit","kecCode":"170614"},"geometry":{"type":"Polygon","coordinates":[[[101.29385591002227,-2.621336970314239],[101.30435863534278,-2.6383212642856746],[101.29460485283175,-2.6494596780802677],[101.28341104258561,-2.65166038387579],[101.29088203457832,-2.6480845760024674],[101.29676288759725,-2.6313421448025056],[101.29385591002227,-2.621336970314239]]]}},{"type":"Feature","properties":{"code":"1706142006","desa":"Sumber Sari","kecamatan":"Air Dikit","kecCode":"170614"},"geometry":{"type":"Polygon","coordinates":[[[101.27072783632063,-2.6102142658771923],[101.27058657620961,-2.6053609692401154],[101.29303870237423,-2.602412233447771],[101.28799002891672,-2.6080380585134093],[101.29112162206525,-2.6171547684716483],[101.27072783632063,-2.6102142658771923]]]}},{"type":"Feature","properties":{"code":"1706142007","desa":"Air Kasai","kecamatan":"Air Dikit","kecCode":"170614"},"geometry":{"type":"Polygon","coordinates":[[[101.23537565666129,-2.605153395819581],[101.25061999991311,-2.603310286549486],[101.29062505420296,-2.64843435741934],[101.2695420918941,-2.6499812470949093],[101.27471101370236,-2.643495352693425],[101.23537565666129,-2.605153395819581]]]}},{"type":"Feature","properties":{"code":"1706152001","desa":"Retak Mudik","kecamatan":"Sungai Rumbai","kecCode":"170615"},"geometry":{"type":"Polygon","coordinates":[[[101.49529946090144,-2.8762756442168635],[101.51746155300833,-2.8799273890449966],[101.52790952130742,-2.8744794957453395],[101.53513336071609,-2.8835884175747033],[101.54210078542299,-2.876970973042488],[101.5444731025517,-2.8559226058769323],[101.5564074523421,-2.8505273606883974],[101.56477154666959,-2.8362963825268563],[101.60659185822772,-2.8187370368586744],[101.62284952338682,-2.8037882854911373],[101.60178688395757,-2.7787782059668733],[101.58250644541619,-2.77780968378838],[101.62464128586669,-2.7265059781428165],[101.70747061617607,-2.5727409722605037],[101.73521998481452,-2.6106294109196195],[101.74732628857743,-2.6154574716807133],[101.72261987141002,-2.683569395732362],[101.67915901477674,-2.7488879805459123],[101.6842796160115,-2.7757283009410454],[101.66365581696245,-2.794477576479332],[101.66324866869114,-2.8269630978336187],[101.66852153683953,-2.8276106420816665],[101.66386795444261,-2.8305133280886836],[101.66994850641849,-2.8325823506537633],[101.66721425533369,-2.8376224436741797],[101.67512970307342,-2.8383134827336254],[101.6717204793167,-2.8449050357841887],[101.65461500887561,-2.8585799415415973],[101.64331597884939,-2.842742633913165],[101.63804053324405,-2.8442102717328264],[101.62776379766119,-2.8606189438375003],[101.60068478187725,-2.870271320582772],[101.59941373585531,-2.8756912431682125],[101.573917799367,-2.8738113399352776],[101.57546043255297,-2.880241573496713],[101.56606464676611,-2.8791009606489992],[101.56728836056942,-2.8874982921115233],[101.55382249771013,-2.894193867944423],[101.54440562821723,-2.8918753653501166],[101.55071119956227,-2.895741989691112],[101.54630795874539,-2.9033847683741465],[101.52367333585583,-2.922866605569957],[101.52054434444601,-2.910249513878263],[101.50925142261514,-2.9100639153919223],[101.50179577665381,-2.9256037785491826],[101.49165659237791,-2.916650868410161],[101.50109936234578,-2.9313018614431816],[101.50109242137819,-2.9483596390189732],[101.48432307165251,-2.963008081574673],[101.4654302238258,-2.9648747234047],[101.45147844557384,-2.9341791640854633],[101.46450377373026,-2.925005127742717],[101.45469200743025,-2.9151352247797853],[101.47103834934039,-2.907321423822149],[101.49529946090144,-2.8762756442168635]]]}},{"type":"Feature","properties":{"code":"1706152002","desa":"Padang Gading","kecamatan":"Sungai Rumbai","kecCode":"170615"},"geometry":{"type":"Polygon","coordinates":[[[101.40345473644696,-2.905573167846776],[101.4166262799789,-2.8857652643563387],[101.4319055367112,-2.90311925073488],[101.43850725930264,-2.9240234556772475],[101.42855159338136,-2.928944776134481],[101.41139717194197,-2.918662534013864],[101.41145686264417,-2.910834155045865],[101.40345473644696,-2.905573167846776]]]}},{"type":"Feature","properties":{"code":"1706152003","desa":"Gajah Mati","kecamatan":"Sungai Rumbai","kecCode":"170615"},"geometry":{"type":"Polygon","coordinates":[[[101.46593831739949,-2.9095475615458226],[101.45463002255758,-2.919280837704981],[101.44081707085121,-2.9198513244429365],[101.42998848068389,-2.9001864590231112],[101.44473019284418,-2.8969582418181568],[101.46593831739949,-2.9095475615458226]]]}},{"type":"Feature","properties":{"code":"1706152004","desa":"Mekar Sari","kecamatan":"Sungai Rumbai","kecCode":"170615"},"geometry":{"type":"Polygon","coordinates":[[[101.45655643782942,-2.862565987756287],[101.47100527677217,-2.86757854983092],[101.44443108822418,-2.8968852249619674],[101.44114635581973,-2.891472348564762],[101.44980016134845,-2.885713059610968],[101.45655643782942,-2.862565987756287]]]}},{"type":"Feature","properties":{"code":"1706152005","desa":"Sido Dadi","kecamatan":"Sungai Rumbai","kecCode":"170615"},"geometry":{"type":"Polygon","coordinates":[[[101.47100527677217,-2.86757854983092],[101.49559485401937,-2.877899032024163],[101.46593831739949,-2.9095475615458226],[101.44443108822418,-2.8968852249619674],[101.47100527677217,-2.86757854983092]]]}},{"type":"Feature","properties":{"code":"1706152006","desa":"Sumber Makmur","kecamatan":"Sungai Rumbai","kecCode":"170615"},"geometry":{"type":"Polygon","coordinates":[[[101.43301211471736,-2.9466354507002195],[101.4289549123394,-2.9276562976553833],[101.44098629628057,-2.91962919369646],[101.46342176700102,-2.92309027235853],[101.45147844557384,-2.9341791640854633],[101.4561089126962,-2.9395361880870534],[101.43301211471736,-2.9466354507002195]]]}},{"type":"Feature","properties":{"code":"1706152007","desa":"Talang Gading","kecamatan":"Sungai Rumbai","kecCode":"170615"},"geometry":{"type":"Polygon","coordinates":[[[101.45547103076353,-2.9494870803960946],[101.44357397855633,-2.95758088617181],[101.43301211471736,-2.9466354507002195],[101.4561089126962,-2.9395361880870534],[101.45547103076353,-2.9494870803960946]]]}},{"type":"Feature","properties":{"code":"1706152008","desa":"Gading Jaya","kecamatan":"Sungai Rumbai","kecCode":"170615"},"geometry":{"type":"Polygon","coordinates":[[[101.41825052034528,-2.8844984370554974],[101.43553730580209,-2.8783942769832525],[101.44443108822418,-2.8968852249619674],[101.42998848068389,-2.9001864590231112],[101.41825052034528,-2.8844984370554974]]]}},{"type":"Feature","properties":{"code":"1706152009","desa":"Banjar Sari","kecamatan":"Sungai Rumbai","kecCode":"170615"},"geometry":{"type":"Polygon","coordinates":[[[101.4411157078237,-2.891568389863929],[101.43185176804472,-2.8720821307016178],[101.44402677281738,-2.8621912960180587],[101.45655643782942,-2.862565987756287],[101.44980016134845,-2.885713059610968],[101.4411157078237,-2.891568389863929]]]}},{"type":"Feature","properties":{"code":"1706012009","desa":"Tanjung Alai","kecamatan":"Lubuk Pinang","kecCode":"170601"},"geometry":{"type":"Polygon","coordinates":[[[101.13285273566527,-2.462191075121538],[101.1252344617011,-2.4778878861633653],[101.1070222558725,-2.4462965544233737],[101.11881095236363,-2.4379623086037605],[101.12808202826307,-2.435446559503996],[101.12616502979235,-2.450304874147187],[101.13285273566527,-2.462191075121538]]]}},{"type":"Feature","properties":{"code":"1706092001","desa":"Sungai Ipuh","kecamatan":"Selagan Raya","kecCode":"170609"},"geometry":{"type":"Polygon","coordinates":[[[101.32274248577716,-2.535131400777154],[101.2990747343116,-2.4504341750735574],[101.32132980192887,-2.445840105318091],[101.32997295588727,-2.525424072757023],[101.32962609996463,-2.5338156161828054],[101.32274248577716,-2.535131400777154]]]}},{"type":"Feature","properties":{"code":"1706092002","desa":"Lubuk Sahung","kecamatan":"Selagan Raya","kecCode":"170609"},"geometry":{"type":"Polygon","coordinates":[[[101.28505906192625,-2.5796803767828362],[101.2758384802617,-2.55593629904744],[101.27208480896682,-2.540122663308406],[101.30743260802846,-2.560263465242877],[101.29578951807184,-2.5790869024740934],[101.28505906192625,-2.5796803767828362]]]}},{"type":"Feature","properties":{"code":"1706092003","desa":"Surian Bungkal","kecamatan":"Selagan Raya","kecCode":"170609"},"geometry":{"type":"Polygon","coordinates":[[[101.27208480896682,-2.540122663308406],[101.27406392900718,-2.5179664330069214],[101.31646272407549,-2.540570774799039],[101.30755355605184,-2.5603183580618163],[101.27208480896682,-2.540122663308406]]]}},{"type":"Feature","properties":{"code":"1706092004","desa":"Sungai Gading","kecamatan":"Selagan Raya","kecCode":"170609"},"geometry":{"type":"Polygon","coordinates":[[[101.32274248577716,-2.535131400777154],[101.26204998381974,-2.5039188293083345],[101.26615760129232,-2.4974154862606026],[101.24734162931281,-2.487315600570497],[101.27395718127893,-2.47843407142101],[101.28093577556564,-2.4540411876231696],[101.2990747343116,-2.4504341750735574],[101.32274248577716,-2.535131400777154]]]}},{"type":"Feature","properties":{"code":"1706092005","desa":"Pondok Baru","kecamatan":"Selagan Raya","kecCode":"170609"},"geometry":{"type":"Polygon","coordinates":[[[101.47997367234716,-2.4042666702977056],[101.49840810335131,-2.4199177031493875],[101.548485689563,-2.4429885916347414],[101.5139186117546,-2.4563634502829435],[101.48440568157702,-2.4587358915154742],[101.48395358429053,-2.4732149125895995],[101.46883211001392,-2.485790362972502],[101.4418252270526,-2.4917033244799964],[101.43878237270836,-2.487457890405129],[101.41281910531751,-2.4988504580056023],[101.37080736406863,-2.5301005069219937],[101.3566805040021,-2.526609836967331],[101.33041019277624,-2.5395045430790115],[101.32243205329665,-2.5368519117680366],[101.33502600184856,-2.5249166042127427],[101.36162822496264,-2.52477577847438],[101.38297726069209,-2.5140379640874766],[101.38474294732924,-2.503042564981138],[101.39360894159944,-2.5008908470560627],[101.40000788775387,-2.4883720134924303],[101.411017888265,-2.487707768833993],[101.42740666288722,-2.464840197277897],[101.44004160163865,-2.458272886352505],[101.44229404993051,-2.4225186441271767],[101.45975572384764,-2.4142404980166776],[101.46365803958689,-2.4047416913025623],[101.47997367234716,-2.4042666702977056]]]}},{"type":"Feature","properties":{"code":"1706092006","desa":"Sungai Jerinjing","kecamatan":"Selagan Raya","kecCode":"170609"},"geometry":{"type":"Polygon","coordinates":[[[101.27406392900718,-2.5179664330069214],[101.28109406433964,-2.511366721306782],[101.32173952765714,-2.5359687397482498],[101.32128034731022,-2.5430656641240263],[101.27406392900718,-2.5179664330069214]]]}},{"type":"Feature","properties":{"code":"1706092007","desa":"Lubuk Bangko","kecamatan":"Selagan Raya","kecCode":"170609"},"geometry":{"type":"Polygon","coordinates":[[[101.44999145074489,-2.386330954756515],[101.47997367234716,-2.4042666702977056],[101.46365803958689,-2.4047416913025623],[101.45975572384764,-2.4142404980166776],[101.44229404993051,-2.4225186441271767],[101.44004160163865,-2.458272886352505],[101.42740666288722,-2.464840197277897],[101.411017888265,-2.487707768833993],[101.40000788775387,-2.4883720134924303],[101.39360894159944,-2.5008908470560627],[101.38474294732924,-2.503042564981138],[101.38269403989807,-2.514242111091057],[101.36251009386581,-2.524529811197038],[101.34010280969699,-2.5270333259197693],[101.37747800440646,-2.5003734958618073],[101.38878163356561,-2.4714567002199357],[101.38944300668946,-2.431846599437858],[101.39678478229193,-2.4293969702934213],[101.3993139987421,-2.4199688269096753],[101.42628496278087,-2.4098241010224233],[101.44999145074489,-2.386330954756515]]]}},{"type":"Feature","properties":{"code":"1706092008","desa":"Talang Buai","kecamatan":"Selagan Raya","kecCode":"170609"},"geometry":{"type":"Polygon","coordinates":[[[101.46801758504358,-2.5243854214454533],[101.43435719023222,-2.52367698949765],[101.43106726694087,-2.5180707561627376],[101.32719595193169,-2.564006347367062],[101.32683900021975,-2.5459442554948057],[101.32128034731022,-2.5430656641240263],[101.32173952765714,-2.5359687397482498],[101.33041019277624,-2.5395045430790115],[101.3566805040021,-2.526609836967331],[101.37080736406863,-2.5301005069219937],[101.39622236427074,-2.507148828070194],[101.40594246357392,-2.5080292301780815],[101.41189706369858,-2.4994155811868795],[101.43878237270836,-2.487457890405129],[101.4418252270526,-2.4917033244799964],[101.46883211001392,-2.485790362972502],[101.48395358429053,-2.4732149125895995],[101.48440568157702,-2.4587358915154742],[101.5139186117546,-2.4563634502829435],[101.548485689563,-2.4429885916347414],[101.55577600505865,-2.448466225514511],[101.56073272103829,-2.458948462468644],[101.55458422618113,-2.4660178774823662],[101.54759370778345,-2.5062190621752967],[101.51209096092917,-2.510647010961202],[101.48974708975645,-2.5331091996157107],[101.46801758504358,-2.5243854214454533]]]}},{"type":"Feature","properties":{"code":"1706092009","desa":"Aur Cina","kecamatan":"Selagan Raya","kecCode":"170609"},"geometry":{"type":"Polygon","coordinates":[[[101.35693135999433,-2.518945189470276],[101.33507148506108,-2.521942387029645],[101.36743772127386,-2.4863851457948467],[101.36327322617846,-2.4768158322323686],[101.37032636167231,-2.430135252538584],[101.38748182092932,-2.4293822492908808],[101.38878163356561,-2.4714567002199357],[101.37747800440646,-2.5003734958618073],[101.35693135999433,-2.518945189470276]]]}},{"type":"Feature","properties":{"code":"1706092010","desa":"Talang Medan","kecamatan":"Selagan Raya","kecCode":"170609"},"geometry":{"type":"Polygon","coordinates":[[[101.2878057722187,-2.6033256982314015],[101.28767938329696,-2.5779588270749683],[101.29578951807184,-2.5790869024740934],[101.3009505690136,-2.5665590370191667],[101.3053478122518,-2.567629795926399],[101.31646272407549,-2.540570774799039],[101.32683900021975,-2.5459442554948057],[101.32317260543147,-2.5963272783978333],[101.2878057722187,-2.6033256982314015]]]}},{"type":"Feature","properties":{"code":"1706092011","desa":"Sungai Ipuh Satu","kecamatan":"Selagan Raya","kecCode":"170609"},"geometry":{"type":"Polygon","coordinates":[[[101.32962609996463,-2.5338156161828054],[101.32132980192887,-2.445840105318091],[101.33605200599531,-2.4470038721111798],[101.34291343660588,-2.4409766985026184],[101.34157519593862,-2.4916618855188557],[101.3297147974,-2.5149496338242896],[101.32962609996463,-2.5338156161828054]]]}},{"type":"Feature","properties":{"code":"1706092012","desa":"Sungai Ipuh Dua","kecamatan":"Selagan Raya","kecCode":"170609"},"geometry":{"type":"Polygon","coordinates":[[[101.36743772127386,-2.4863851457948467],[101.33322651868895,-2.52876336252976],[101.32968816757494,-2.515139513982883],[101.34157519593862,-2.4916618855188557],[101.34291343660588,-2.4409766985026184],[101.3609453139751,-2.4386011654008684],[101.36993667104058,-2.429936625573729],[101.36327322617846,-2.4768158322323686],[101.36743772127386,-2.4863851457948467]]]}},{"type":"Feature","properties":{"code":"1706112001","desa":"Lubuk Sanai","kecamatan":"XIV Koto","kecCode":"170611"},"geometry":{"type":"Polygon","coordinates":[[[101.05813390435627,-2.4532869738879852],[101.07021257644931,-2.4447951632487825],[101.105920268006,-2.4746462088053667],[101.105035841431,-2.485069510487949],[101.09681470063799,-2.4910728133914968],[101.09485752495488,-2.4762288546261013],[101.08416185368667,-2.4897033068954473],[101.07778468821283,-2.483501555092868],[101.08279329867183,-2.4794047483750954],[101.05813390435627,-2.4532869738879852]]]}},{"type":"Feature","properties":{"code":"1706112002","desa":"Rawa Mulya","kecamatan":"XIV Koto","kecCode":"170611"},"geometry":{"type":"Polygon","coordinates":[[[101.13578478094296,-2.5090857788977408],[101.10817109482025,-2.511756332797741],[101.09635488536975,-2.49132569645531],[101.105035841431,-2.485069510487949],[101.13557835775508,-2.5029237699349065],[101.13578478094296,-2.5090857788977408]]]}},{"type":"Feature","properties":{"code":"1706112003","desa":"Rawa Bangun","kecamatan":"XIV Koto","kecCode":"170611"},"geometry":{"type":"Polygon","coordinates":[[[101.03373346172992,-2.4704593125017404],[101.05813390435627,-2.4532869738879852],[101.08279329867183,-2.4794047483750954],[101.06266922140746,-2.49586529517384],[101.03373346172992,-2.4704593125017404]]]}},{"type":"Feature","properties":{"code":"1706112004","desa":"Tanjung Mulya","kecamatan":"XIV Koto","kecCode":"170611"},"geometry":{"type":"Polygon","coordinates":[[[101.07021257644931,-2.4447951632487825],[101.09268334735866,-2.4290408900249556],[101.1070222558725,-2.4462965544233737],[101.0961312734396,-2.468227040502469],[101.07021257644931,-2.4447951632487825]]]}},{"type":"Feature","properties":{"code":"1706112005","desa":"Pauh Tarenja","kecamatan":"XIV Koto","kecCode":"170611"},"geometry":{"type":"Polygon","coordinates":[[[101.1070222558725,-2.4462965544233737],[101.11028398002173,-2.4569651605829304],[101.11958738924669,-2.461978511362978],[101.1252344617011,-2.4778878861633653],[101.0961312734396,-2.468227040502469],[101.1070222558725,-2.4462965544233737]]]}},{"type":"Feature","properties":{"code":"1706112006","desa":"Dusun Baru Pelokan","kecamatan":"XIV Koto","kecCode":"170611"},"geometry":{"type":"Polygon","coordinates":[[[101.09702447469982,-2.4918585501630055],[101.12001140430293,-2.523721500542909],[101.10324572291182,-2.5267434150693777],[101.07000066829625,-2.507355562423345],[101.04727290891763,-2.5082698051204724],[101.0299207688285,-2.4951416871665466],[101.02239169142346,-2.478443517000471],[101.03373346172992,-2.4704593125017404],[101.06266922140746,-2.49586529517384],[101.07778468821283,-2.483501555092868],[101.09702447469982,-2.4918585501630055]]]}},{"type":"Feature","properties":{"code":"1706112007","desa":"Lubuk Sanai II","kecamatan":"XIV Koto","kecCode":"170611"},"geometry":{"type":"Polygon","coordinates":[[[101.105035841431,-2.485069510487949],[101.105920268006,-2.4746462088053667],[101.1252344617011,-2.4778878861633653],[101.13560501995578,-2.490100461899746],[101.13118419289621,-2.493220812619942],[101.13557835775508,-2.5029237699349065],[101.105035841431,-2.485069510487949]]]}},{"type":"Feature","properties":{"code":"1706112009","desa":"Lubuk Sanai III","kecamatan":"XIV Koto","kecCode":"170611"},"geometry":{"type":"Polygon","coordinates":[[[101.08416185368667,-2.4897033068954473],[101.09231893666963,-2.4829930208519606],[101.09485752495488,-2.4762288546261013],[101.0955581552847,-2.4954845222199786],[101.08416185368667,-2.4897033068954473]]]}},{"type":"Feature","properties":{"code":"1706122001","desa":"Lalang Luas","kecamatan":"V Koto","kecCode":"170612"},"geometry":{"type":"Polygon","coordinates":[[[101.29696770909253,-2.288653687171978],[101.35514570481045,-2.327468424839282],[101.26091084855688,-2.415246432891585],[101.2481603703049,-2.4396516203142804],[101.23180057273828,-2.4401404674962697],[101.22489649627634,-2.4651352252707186],[101.2135661689436,-2.4600324836780536],[101.22615562358322,-2.443495245393302],[101.23226585138798,-2.4215461694282854],[101.20924337068503,-2.4208939082360783],[101.21649679868837,-2.415029336549849],[101.22558535178261,-2.3820508940849647],[101.24895503734518,-2.3440917336397114],[101.26617543664712,-2.299939784035473],[101.27761323386368,-2.291385102691388],[101.29696770909253,-2.288653687171978]]]}},{"type":"Feature","properties":{"code":"1706122002","desa":"Resno","kecamatan":"V Koto","kecCode":"170612"},"geometry":{"type":"Polygon","coordinates":[[[101.20924337068503,-2.4208939082360783],[101.23226585138798,-2.4215461694282854],[101.22615562358322,-2.443495245393302],[101.21383222078042,-2.4578938023253287],[101.21175450356752,-2.47459568129558],[101.2054345196874,-2.4718039059784553],[101.2013815522169,-2.45195133046427],[101.20924337068503,-2.4208939082360783]]]}},{"type":"Feature","properties":{"code":"1706122003","desa":"Pondok Panjang","kecamatan":"V Koto","kecCode":"170612"},"geometry":{"type":"Polygon","coordinates":[[[101.2544988802192,-2.3227989945944403],[101.24895503734518,-2.3440917336397114],[101.22558535178261,-2.3820508940849647],[101.21649679868837,-2.415029336549849],[101.20924337068503,-2.4208939082360783],[101.2014747318734,-2.4470100351651776],[101.2054345196874,-2.4718039059784553],[101.19594818026438,-2.4655241838538835],[101.17366368233314,-2.464947637484003],[101.16872630267676,-2.458651673603295],[101.17569349625789,-2.446151427227715],[101.19262378595903,-2.4395482882113337],[101.1969011549644,-2.4236219135262997],[101.21370329397188,-2.4147901564560814],[101.20541621668512,-2.4156120936377996],[101.20349645279911,-2.408079700440687],[101.19222684859021,-2.4035315365790644],[101.20170269472362,-2.3981621073291612],[101.2037826377586,-2.379361085699925],[101.19142864271775,-2.3680989629635527],[101.20130532388161,-2.367095109119873],[101.2544988802192,-2.3227989945944403]]]}},{"type":"Feature","properties":{"code":"1706122004","desa":"Talang Petai","kecamatan":"V Koto","kecCode":"170612"},"geometry":{"type":"Polygon","coordinates":[[[101.26918386134616,-2.479419437002091],[101.26175825543919,-2.482288141226252],[101.24994277623819,-2.4715169619915316],[101.2387963395795,-2.4759863812149545],[101.26502392401493,-2.464291275383294],[101.27130600776609,-2.4694656713591927],[101.26918386134616,-2.479419437002091]]]}},{"type":"Feature","properties":{"code":"1706122005","desa":"Sungai Lintang","kecamatan":"V Koto","kecCode":"170612"},"geometry":{"type":"Polygon","coordinates":[[[101.24460947005105,-2.501955938435795],[101.20550560120262,-2.500363362301067],[101.19335666417881,-2.4925499633404153],[101.18371969370895,-2.4974672908077302],[101.17220633455473,-2.488614358300564],[101.18999148741726,-2.4817328979969635],[101.20157839402769,-2.484021584468168],[101.20291446642953,-2.4926384062675964],[101.21298782842558,-2.491538036282716],[101.21666100590078,-2.482303239944042],[101.21214291626262,-2.4714733970330234],[101.24460947005105,-2.501955938435795]]]}},{"type":"Feature","properties":{"code":"1706122006","desa":"Pondok Tengah","kecamatan":"V Koto","kecCode":"170612"},"geometry":{"type":"Polygon","coordinates":[[[101.20119818944492,-2.5554372364007474],[101.19824276719002,-2.5391472244441062],[101.18034808589549,-2.532417653338593],[101.18429760525034,-2.514473689215636],[101.20185737002168,-2.50733802564341],[101.20129115506279,-2.499263325065314],[101.22299550393939,-2.4970896394006084],[101.2390842035732,-2.5053327200452147],[101.23231141643878,-2.511993220519646],[101.2356995852677,-2.5199884875788396],[101.22933105778212,-2.5378288587954922],[101.209982744708,-2.5416407854704093],[101.20119818944492,-2.5554372364007474]]]}},{"type":"Feature","properties":{"code":"1706122007","desa":"Talang Sakti","kecamatan":"V Koto","kecCode":"170612"},"geometry":{"type":"Polygon","coordinates":[[[101.26175825543919,-2.482288141226252],[101.24958249703467,-2.485562105144967],[101.24141404392303,-2.477403692972911],[101.24994277623819,-2.4715169619915316],[101.26175825543919,-2.482288141226252]]]}},{"type":"Feature","properties":{"code":"1706122008","desa":"Talang Sepakat","kecamatan":"V Koto","kecCode":"170612"},"geometry":{"type":"Polygon","coordinates":[[[101.42000627037315,-2.3714751501211273],[101.44999145074489,-2.386330954756515],[101.42628496278087,-2.4098241010224233],[101.3996444483327,-2.4196418864740745],[101.39488485655096,-2.4315100884170446],[101.37326675895382,-2.4282472913801647],[101.33605200599531,-2.4470038721111798],[101.32892182738048,-2.4432191283444573],[101.28093577556564,-2.4540411876231696],[101.27055122026267,-2.4797918318717738],[101.26699663368775,-2.4646783489874067],[101.2387963395795,-2.4759863812149545],[101.22670461382693,-2.4694083656591705],[101.24673720126088,-2.452776280374933],[101.26797392785453,-2.444748201550903],[101.27347111030355,-2.4478665674673645],[101.28281668873926,-2.437069916734347],[101.31983182637777,-2.433736441977954],[101.3829547776409,-2.4028133469870228],[101.39110457161875,-2.3842948042108256],[101.41355478672409,-2.3795834700552168],[101.42000627037315,-2.3714751501211273]]]}},{"type":"Feature","properties":{"code":"1706122009","desa":"Lubuk Cabau","kecamatan":"V Koto","kecCode":"170612"},"geometry":{"type":"Polygon","coordinates":[[[101.35514570481045,-2.327468424839282],[101.38784352465899,-2.3381183340935294],[101.38128874128243,-2.345214836687284],[101.36999392817728,-2.3473004490460454],[101.38253469172271,-2.356265875949165],[101.40563895137655,-2.356726336030801],[101.42000627037315,-2.3714751501211273],[101.41355478672409,-2.3795834700552168],[101.39110457161875,-2.3842948042108256],[101.3829547776409,-2.4028133469870228],[101.31983182637777,-2.433736441977954],[101.28281668873926,-2.437069916734347],[101.27329725066765,-2.44796325537906],[101.26797392785453,-2.444748201550903],[101.24673720126088,-2.452776280374933],[101.22670461382693,-2.4694083656591705],[101.22230834005791,-2.46530975849863],[101.23180057273828,-2.4401404674962697],[101.2481603703049,-2.4396516203142804],[101.26091084855688,-2.415246432891585],[101.35514570481045,-2.327468424839282]]]}},{"type":"Feature","properties":{"code":"1706122010","desa":"Sungai Rengas","kecamatan":"V Koto","kecCode":"170612"},"geometry":{"type":"Polygon","coordinates":[[[101.26320515309537,-2.4967092405646887],[101.24460947005105,-2.501955938435795],[101.23223063483601,-2.493970050406217],[101.21214291626262,-2.4714733970330234],[101.2135661689436,-2.4600324836780536],[101.26320515309537,-2.4967092405646887]]]}},{"type":"Feature","properties":{"code":"1706132001","desa":"Pondok Makmur","kecamatan":"Air Majunto","kecCode":"170613"},"geometry":{"type":"Polygon","coordinates":[[[101.17220633455473,-2.488614358300564],[101.18371969370895,-2.4974672908077302],[101.19843897138149,-2.4939440582004497],[101.20185737002168,-2.50733802564341],[101.16216460081574,-2.5049747772807875],[101.16134327607142,-2.489627080358964],[101.17220633455473,-2.488614358300564]]]}},{"type":"Feature","properties":{"code":"1706132002","desa":"Manjunto Jaya","kecamatan":"Air Majunto","kecCode":"170613"},"geometry":{"type":"Polygon","coordinates":[[[101.17133607140259,-2.4614956806454824],[101.19594818026438,-2.4655241838538835],[101.19815513275323,-2.4835476165693495],[101.16134327607142,-2.489627080358964],[101.16932202439199,-2.4816356543042524],[101.16528447489866,-2.4684297908588393],[101.17133607140259,-2.4614956806454824]]]}},{"type":"Feature","properties":{"code":"1706132003","desa":"Tirta Makmur","kecamatan":"Air Majunto","kecCode":"170613"},"geometry":{"type":"Polygon","coordinates":[[[101.16872630267676,-2.458651673603295],[101.16774585998348,-2.4850568570268177],[101.15199495920005,-2.500107085195792],[101.13557835775508,-2.5029237699349065],[101.13714957589228,-2.4942643931156168],[101.14869004690819,-2.492861448926655],[101.14893496467691,-2.4800583603490205],[101.14124697167044,-2.4792695290103532],[101.14022994455637,-2.471154417396193],[101.14645058212875,-2.4602179661519084],[101.16872630267676,-2.458651673603295]]]}},{"type":"Feature","properties":{"code":"1706132004","desa":"Agung Jaya","kecamatan":"Air Majunto","kecCode":"170613"},"geometry":{"type":"Polygon","coordinates":[[[101.15366489142167,-2.538318192510732],[101.15917303121044,-2.5255198613466745],[101.1679614049949,-2.525678699606243],[101.16473934724313,-2.5090313438336436],[101.13557835775508,-2.5029237699349065],[101.15199495920005,-2.500107085195792],[101.16134327607142,-2.489627080358964],[101.16216460081574,-2.5049747772807875],[101.17044034304746,-2.510510644061574],[101.17843000104375,-2.5338676806339264],[101.15366489142167,-2.538318192510732]]]}},{"type":"Feature","properties":{"code":"1706132005","desa":"Tirta Mulya","kecamatan":"Air Majunto","kecCode":"170613"},"geometry":{"type":"Polygon","coordinates":[[[101.1252344617011,-2.4778878861633653],[101.13285273566527,-2.462191075121538],[101.14645058212875,-2.4602179661519084],[101.14022994455637,-2.471154417396193],[101.14124697167044,-2.4792695290103532],[101.14893496467691,-2.4800583603490205],[101.14869004690819,-2.492861448926655],[101.13714957589228,-2.4942643931156168],[101.13557835775508,-2.5029237699349065],[101.13118419289621,-2.493220812619942],[101.13560501995578,-2.490100461899746],[101.1252344617011,-2.4778878861633653]]]}},{"type":"Feature","properties":{"code":"1706132006","desa":"Kota Praja","kecamatan":"Air Majunto","kecCode":"170613"},"geometry":{"type":"Polygon","coordinates":[[[101.1679614049949,-2.525678699606243],[101.13977107897215,-2.5318186032331793],[101.13557835775508,-2.5029237699349065],[101.14606916256184,-2.5088745074649452],[101.16246909237474,-2.506637243328932],[101.1679614049949,-2.525678699606243]]]}},{"type":"Feature","properties":{"code":"1706132007","desa":"Sinar Jaya","kecamatan":"Air Majunto","kecCode":"170613"},"geometry":{"type":"Polygon","coordinates":[[[101.1977917625798,-2.470562125695931],[101.21666100590078,-2.482303239944042],[101.20953114294791,-2.4926849605725954],[101.20029152083707,-2.4909392793562795],[101.19815513275323,-2.4835476165693495],[101.1977917625798,-2.470562125695931]]]}},{"type":"Feature","properties":{"code":"1706132008","desa":"Sido Makmur","kecamatan":"Air Majunto","kecCode":"170613"},"geometry":{"type":"Polygon","coordinates":[[[101.18402511067039,-2.5264413238011802],[101.17227814272216,-2.524494744831885],[101.16699462839944,-2.506534124365282],[101.1988448785883,-2.5045067637932745],[101.19877600400945,-2.5099344592191417],[101.18429760525034,-2.514473689215636],[101.18402511067039,-2.5264413238011802]]]}},{"type":"Feature","properties":{"code":"1706012005","desa":"Suka Pindah","kecamatan":"Lubuk Pinang","kecCode":"170601"},"geometry":{"type":"Polygon","coordinates":[[[101.18285094501515,-2.4045004841368454],[101.20349645279911,-2.408079700440687],[101.20541621668512,-2.4156120936377996],[101.21370329397188,-2.4147901564560814],[101.1969011549644,-2.4236219135262997],[101.19262378595903,-2.4395482882113337],[101.17800126544608,-2.4449119680953344],[101.18285094501515,-2.4045004841368454]]]}},{"type":"Feature","properties":{"code":"1706012006","desa":"Lubuk Pinang","kecamatan":"Lubuk Pinang","kecCode":"170601"},"geometry":{"type":"Polygon","coordinates":[[[101.19142864271775,-2.3680989629635527],[101.2037826377586,-2.379361085699925],[101.20170269472362,-2.3981621073291612],[101.18285094501515,-2.4045004841368454],[101.1795252206125,-2.430803875996047],[101.16913597894232,-2.425696073018908],[101.16161148897906,-2.431158046104519],[101.16350392696472,-2.4224099961315693],[101.14256519522762,-2.3948269427465996],[101.19142864271775,-2.3680989629635527]]]}},{"type":"Feature","properties":{"code":"1706012007","desa":"Arah Tiga","kecamatan":"Lubuk Pinang","kecCode":"170601"},"geometry":{"type":"Polygon","coordinates":[[[101.17053745004334,-2.454712300404067],[101.14828545271153,-2.461378092489438],[101.14049691370167,-2.4319391162938695],[101.15086405093524,-2.4210864782669685],[101.14331581167544,-2.401516418477989],[101.16350392696472,-2.4224099961315693],[101.17053745004334,-2.454712300404067]]]}},{"type":"Feature","properties":{"code":"1706012008","desa":"Lubuk Gedang","kecamatan":"Lubuk Pinang","kecCode":"170601"},"geometry":{"type":"Polygon","coordinates":[[[101.13285273566527,-2.462191075121538],[101.12636967591986,-2.437928508484015],[101.14049691370167,-2.4319391162938695],[101.14777745806327,-2.4601814689653816],[101.13285273566527,-2.462191075121538]]]}},{"type":"Feature","properties":{"code":"1706012013","desa":"Sumber Makmur","kecamatan":"Lubuk Pinang","kecCode":"170601"},"geometry":{"type":"Polygon","coordinates":[[[101.14407287896023,-2.4302611720140055],[101.1070222558725,-2.4462965544233737],[101.09268334735866,-2.4290408900249556],[101.14256519522762,-2.3948269427465996],[101.14313619457977,-2.410903956572134],[101.15086405093524,-2.4210864782669685],[101.14407287896023,-2.4302611720140055]]]}},{"type":"Feature","properties":{"code":"1706012018","desa":"Ranah Karya","kecamatan":"Lubuk Pinang","kecCode":"170601"},"geometry":{"type":"Polygon","coordinates":[[[101.18094479326764,-2.4321766641181815],[101.17053745004334,-2.454712300404067],[101.1643926028364,-2.427675148990331],[101.18094479326764,-2.4321766641181815]]]}}]}