{"type":"FeatureCollection","features":[{"type":"Feature","properties":{"code":"1708011007","desa":"Keban Agung","kecamatan":"Bermani Ilir","kecCode":"170801"},"geometry":{"type":"Polygon","coordinates":[[[102.67965775699996,-3.645382542751433],[102.69645054125952,-3.672159486124015],[102.71896572968471,-3.679844496071083],[102.69822669420664,-3.7087995093034207],[102.6782839166695,-3.6769953089338236],[102.6729375352391,-3.658834969724992],[102.67048768575815,-3.6339635081029127],[102.67903397194033,-3.631149106742398],[102.67965775699996,-3.645382542751433]]]}},{"type":"Feature","properties":{"code":"1708012001","desa":"Kota Agung","kecamatan":"Bermani Ilir","kecCode":"170801"},"geometry":{"type":"Polygon","coordinates":[[[102.67543543639634,-3.698315090593673],[102.67638537318648,-3.7071733021214466],[102.66407237104318,-3.7108228373154235],[102.66022618109344,-3.7034511232899368],[102.64638180257816,-3.70276306278512],[102.65504191055577,-3.6922381700867146],[102.67543543639634,-3.698315090593673]]]}},{"type":"Feature","properties":{"code":"1708012002","desa":"Kembang Seri","kecamatan":"Bermani Ilir","kecCode":"170801"},"geometry":{"type":"Polygon","coordinates":[[[102.72041912224478,-3.7500047555845213],[102.71371396232956,-3.7519435689080396],[102.70688362577873,-3.735308884582569],[102.71592665968767,-3.73285097088344],[102.71764968968147,-3.728884434561112],[102.71384926443203,-3.719023005909633],[102.72000502041544,-3.714677657155448],[102.72810556392068,-3.7122343340571287],[102.73280850201081,-3.7131270029177648],[102.71880049094993,-3.7326272708199943],[102.72041912224478,-3.7500047555845213]]]}},{"type":"Feature","properties":{"code":"1708012003","desa":"Pagar Agung","kecamatan":"Bermani Ilir","kecCode":"170801"},"geometry":{"type":"Polygon","coordinates":[[[102.72672786459935,-3.7022569836933257],[102.71231091022037,-3.7217538026955364],[102.7181291722236,-3.7254441491239514],[102.7158515869812,-3.7328893107808785],[102.70688362577873,-3.735308884582569],[102.6872404070192,-3.7272740131789477],[102.71107935522811,-3.7025243881102323],[102.72672786459935,-3.7022569836933257]]]}},{"type":"Feature","properties":{"code":"1708012004","desa":"Embong Ijuk","kecamatan":"Bermani Ilir","kecCode":"170801"},"geometry":{"type":"Polygon","coordinates":[[[102.69340083228263,-3.7030020297395776],[102.70216785256439,-3.7134685717257576],[102.69732197982557,-3.7205066696481133],[102.65588909080896,-3.7211084770749174],[102.65382231384876,-3.7050483246379806],[102.66022618109344,-3.7034511232899368],[102.66407237104318,-3.7108228373154235],[102.69340083228263,-3.7030020297395776]]]}},{"type":"Feature","properties":{"code":"1708012005","desa":"Gunung Agung","kecamatan":"Bermani Ilir","kecCode":"170801"},"geometry":{"type":"Polygon","coordinates":[[[102.69012469739691,-3.6934380815321695],[102.69704626207539,-3.701460458654579],[102.69009190901441,-3.7066235519512367],[102.67579248073842,-3.703497133505073],[102.67543543639634,-3.698315090593673],[102.69012469739691,-3.6934380815321695]]]}},{"type":"Feature","properties":{"code":"1708012006","desa":"Talang Pito","kecamatan":"Bermani Ilir","kecCode":"170801"},"geometry":{"type":"Polygon","coordinates":[[[102.6979036990965,-3.708836904013365],[102.7100883383062,-3.6987169616427433],[102.71453357026809,-3.6836461569849543],[102.72508395605978,-3.6825944430206428],[102.7228113512629,-3.70223896757484],[102.71107935522811,-3.7025243881102323],[102.70314112406366,-3.7142890735895557],[102.6979036990965,-3.708836904013365]]]}},{"type":"Feature","properties":{"code":"1708012008","desa":"Cinto Mandi","kecamatan":"Bermani Ilir","kecCode":"170801"},"geometry":{"type":"Polygon","coordinates":[[[102.77097895281649,-3.7068743638763455],[102.76465038670602,-3.699659887317219],[102.73734882468858,-3.696385876633659],[102.73774143541897,-3.7075288940580844],[102.73130692917152,-3.708302315513495],[102.73030494141994,-3.7015546266659287],[102.74394249924698,-3.6856005708479915],[102.74224581129522,-3.6679277136502595],[102.75793088979877,-3.6730249406002686],[102.77049478030993,-3.668396406125928],[102.77010853408166,-3.67900296535989],[102.77806184507813,-3.6861697086028333],[102.77097895281649,-3.7068743638763455]]]}},{"type":"Feature","properties":{"code":"1708012009","desa":"Lembur Lama","kecamatan":"Bermani Ilir","kecCode":"170801"},"geometry":{"type":"Polygon","coordinates":[[[102.74394249924698,-3.6856005708479915],[102.72240616980895,-3.7012595312239727],[102.7247389338548,-3.684690750117329],[102.72938871032079,-3.685196515345626],[102.73332156523809,-3.6682079100239218],[102.74295285379122,-3.6673170191229874],[102.74495268971492,-3.6681116340016864],[102.74394249924698,-3.6856005708479915]]]}},{"type":"Feature","properties":{"code":"1708012010","desa":"Taba Baru","kecamatan":"Bermani Ilir","kecCode":"170801"},"geometry":{"type":"Polygon","coordinates":[[[102.71805070997239,-3.646568366317074],[102.71803147167515,-3.6622020791259766],[102.71341960343197,-3.6631592590548743],[102.70404877473123,-3.6477333615841285],[102.71057740492336,-3.6376332492646313],[102.71805070997239,-3.646568366317074]]]}},{"type":"Feature","properties":{"code":"1708012011","desa":"Bukit Menyan","kecamatan":"Bermani Ilir","kecCode":"170801"},"geometry":{"type":"Polygon","coordinates":[[[102.67965775699996,-3.645382542751433],[102.67903397194033,-3.631149106742398],[102.67126373773135,-3.6352141530029196],[102.66667163119085,-3.628198225167689],[102.66714968381092,-3.6074065730768083],[102.68822754876243,-3.613101562303082],[102.71057740492336,-3.6376332492646313],[102.70401107784902,-3.6477920009787743],[102.69606610176925,-3.642774120313491],[102.67965775699996,-3.645382542751433]]]}},{"type":"Feature","properties":{"code":"1708012016","desa":"Batu Belarik","kecamatan":"Bermani Ilir","kecCode":"170801"},"geometry":{"type":"Polygon","coordinates":[[[102.70404877473123,-3.6477333615841285],[102.71803147167515,-3.6622020791259766],[102.71642349644723,-3.671087022102213],[102.689344957304,-3.6434331623939102],[102.70404877473123,-3.6477333615841285]]]}},{"type":"Feature","properties":{"code":"1708012017","desa":"Embong Sido","kecamatan":"Bermani Ilir","kecCode":"170801"},"geometry":{"type":"Polygon","coordinates":[[[102.71570405409885,-3.678171813724502],[102.69645054125952,-3.672159486124015],[102.67965775699996,-3.645382542751433],[102.689344957304,-3.6434331623939102],[102.71642349644723,-3.671087022102213],[102.71570405409885,-3.678171813724502]]]}},{"type":"Feature","properties":{"code":"1708012022","desa":"Talang Sawah","kecamatan":"Bermani Ilir","kecCode":"170801"},"geometry":{"type":"Polygon","coordinates":[[[102.71371396232956,-3.7519435689080396],[102.70126839112339,-3.7579110491167382],[102.69661020419763,-3.7699769175489495],[102.69294789323071,-3.758379532050387],[102.67185940368859,-3.7671183747644794],[102.66076509623224,-3.7429530239399633],[102.67112793290784,-3.744648808071341],[102.6872404070192,-3.7272740131789477],[102.70828862581949,-3.736050388199275],[102.71371396232956,-3.7519435689080396]]]}},{"type":"Feature","properties":{"code":"1708012023","desa":"Sosokan Cinta Mandi","kecamatan":"Bermani Ilir","kecCode":"170801"},"geometry":{"type":"Polygon","coordinates":[[[102.76919633014658,-3.7098992641520576],[102.74631346289607,-3.713391400001694],[102.73280850201081,-3.7131270029177648],[102.73734882468858,-3.696385876633659],[102.76609831498529,-3.7002608089118185],[102.76919633014658,-3.7098992641520576]]]}},{"type":"Feature","properties":{"code":"1708012024","desa":"Muara Langkap","kecamatan":"Bermani Ilir","kecCode":"170801"},"geometry":{"type":"Polygon","coordinates":[[[102.73303405287929,-3.7466324750818187],[102.72041912224478,-3.7500047555845213],[102.71735255277814,-3.743063916643395],[102.72256600092027,-3.7218383848331933],[102.73041024843427,-3.7130441016129896],[102.74631346289607,-3.713391400001694],[102.73403967479123,-3.71802391577477],[102.73303405287929,-3.7466324750818187]]]}},{"type":"Feature","properties":{"code":"1708012025","desa":"Air Raman","kecamatan":"Bermani Ilir","kecCode":"170801"},"geometry":{"type":"Polygon","coordinates":[[[102.64638180257816,-3.70276306278512],[102.65382231384876,-3.7050483246379806],[102.65885533640471,-3.7233301352755563],[102.69272994972744,-3.7214614169108797],[102.6668734660377,-3.7456923660839583],[102.64666040535349,-3.7231869650045613],[102.64638180257816,-3.70276306278512]]]}},{"type":"Feature","properties":{"code":"1708012028","desa":"Langgar Jaya","kecamatan":"Bermani Ilir","kecCode":"170801"},"geometry":{"type":"Polygon","coordinates":[[[102.79001070722842,-3.6601734055436967],[102.77337468559335,-3.6782179147711394],[102.77022886696868,-3.6792462661473357],[102.77416905495794,-3.648830694558534],[102.78381956022456,-3.6468636982807854],[102.79001070722842,-3.6601734055436967]]]}},{"type":"Feature","properties":{"code":"1708012029","desa":"Cinta Mandi Baru","kecamatan":"Bermani Ilir","kecCode":"170801"},"geometry":{"type":"Polygon","coordinates":[[[102.73280850201081,-3.7131270029177648],[102.72810556392068,-3.7122343340571287],[102.72708084490512,-3.7137015339069412],[102.72000502041544,-3.714677657155448],[102.72672786459935,-3.7022569836933257],[102.73280850201081,-3.7131270029177648]]]}},{"type":"Feature","properties":{"code":"1708021002","desa":"Ujan Mas Atas","kecamatan":"Ujan Mas","kecCode":"170802"},"geometry":{"type":"Polygon","coordinates":[[[102.59411614874129,-3.5254307732213914],[102.60102985784174,-3.525873947434005],[102.59889345177146,-3.5340367204188756],[102.55311653330143,-3.5619910903870533],[102.52561378484835,-3.570730292829973],[102.50805253439698,-3.5857939334883215],[102.49118262337942,-3.5754198148287517],[102.50234492497839,-3.559820464215967],[102.51433935487738,-3.554324686513815],[102.53347801170094,-3.56215760076307],[102.55946120806833,-3.5515670071933787],[102.59411614874129,-3.5254307732213914]]]}},{"type":"Feature","properties":{"code":"1708022001","desa":"Daspeta","kecamatan":"Ujan Mas","kecCode":"170802"},"geometry":{"type":"Polygon","coordinates":[[[102.58889188085566,-3.5780387017780684],[102.54943811367802,-3.595110071707543],[102.53930441706524,-3.5915994170183145],[102.5134584455509,-3.6055173627600325],[102.51014922640576,-3.6019529816725373],[102.57898518661709,-3.5643980538950535],[102.5843977590494,-3.5636861082960287],[102.58889188085566,-3.5780387017780684]]]}},{"type":"Feature","properties":{"code":"1708022003","desa":"Suro Lembak","kecamatan":"Ujan Mas","kecCode":"170802"},"geometry":{"type":"Polygon","coordinates":[[[102.58887823993886,-3.521523296277072],[102.59156619572342,-3.5292927372756298],[102.55946120806833,-3.5515670071933787],[102.53347801170094,-3.56215760076307],[102.51433935487738,-3.554324686513815],[102.55436612060004,-3.547494682719562],[102.58887823993886,-3.521523296277072]]]}},{"type":"Feature","properties":{"code":"1708022004","desa":"Tanjung Alam","kecamatan":"Ujan Mas","kecCode":"170802"},"geometry":{"type":"Polygon","coordinates":[[[102.45000125765198,-3.525739610304241],[102.49024055925447,-3.5153522410336664],[102.49989860173912,-3.536010958037748],[102.49544714467005,-3.54300552247778],[102.48230213743373,-3.5445339751521536],[102.47561468876692,-3.552131348863817],[102.43371820463146,-3.549057822245134],[102.45000125765198,-3.525739610304241]]]}},{"type":"Feature","properties":{"code":"1708022005","desa":"Suro Ilir","kecamatan":"Ujan Mas","kecCode":"170802"},"geometry":{"type":"Polygon","coordinates":[[[102.58727104891983,-3.520354798150639],[102.5796443806837,-3.5321695048213253],[102.55436612060004,-3.547494682719562],[102.51445976330751,-3.552220466282556],[102.49177018014973,-3.571985714029333],[102.48605305590388,-3.5594549113883107],[102.4981393038858,-3.5522733149424703],[102.5219193132258,-3.5445944518616943],[102.54173784492565,-3.5470893169050366],[102.58727104891983,-3.520354798150639]]]}},{"type":"Feature","properties":{"code":"1708022006","desa":"Suro Muncar","kecamatan":"Ujan Mas","kecCode":"170802"},"geometry":{"type":"Polygon","coordinates":[[[102.57921737268366,-3.5152591162359457],[102.58727104891983,-3.520354798150639],[102.54173784492565,-3.5470893169050366],[102.50733320176589,-3.5488007339514223],[102.50701861441758,-3.540335053113995],[102.53668824066983,-3.5402133046941966],[102.55814747932276,-3.532738939352514],[102.55969575755323,-3.5257398792015184],[102.57330429066052,-3.522145936499098],[102.57584307409864,-3.5264227937856423],[102.5828689772216,-3.521103347955585],[102.57921737268366,-3.5152591162359457]]]}},{"type":"Feature","properties":{"code":"1708022007","desa":"Suro Baru","kecamatan":"Ujan Mas","kecCode":"170802"},"geometry":{"type":"Polygon","coordinates":[[[102.55252983628299,-3.534013714861602],[102.53668824066983,-3.5402133046941966],[102.5068735240939,-3.539607125662913],[102.5172621056617,-3.5304467958873067],[102.54587700701829,-3.5284789650387087],[102.55252983628299,-3.534013714861602]]]}},{"type":"Feature","properties":{"code":"1708022008","desa":"Pekalongan","kecamatan":"Ujan Mas","kecCode":"170802"},"geometry":{"type":"Polygon","coordinates":[[[102.54336852173992,-3.5283043122009587],[102.53345237742535,-3.5330457637525776],[102.51100995584483,-3.5327357440612928],[102.52159039877795,-3.5223035822576465],[102.54336852173992,-3.5283043122009587]],[[102.51907965080527,-3.529756399843118],[102.519373546552,-3.528112670270406],[102.51890190609817,-3.528265369757721],[102.51907965080527,-3.529756399843118]]]}},{"type":"Feature","properties":{"code":"1708022009","desa":"Bumi Sari","kecamatan":"Ujan Mas","kecCode":"170802"},"geometry":{"type":"Polygon","coordinates":[[[102.51774974325609,-3.524019726140722],[102.51186135122043,-3.5269862802007625],[102.50855782658248,-3.5231492003875386],[102.5145770196138,-3.5170356199167374],[102.51774974325609,-3.524019726140722]]]}},{"type":"Feature","properties":{"code":"1708022016","desa":"Cugung Lalang","kecamatan":"Ujan Mas","kecCode":"170802"},"geometry":{"type":"Polygon","coordinates":[[[102.51100995584483,-3.5327357440612928],[102.50511508329451,-3.537622442418479],[102.49876454944445,-3.515091615706328],[102.51085804866007,-3.519325906281888],[102.51100995584483,-3.5327357440612928]]]}},{"type":"Feature","properties":{"code":"1708022017","desa":"Ujan Mas Bawah","kecamatan":"Ujan Mas","kecCode":"170802"},"geometry":{"type":"Polygon","coordinates":[[[102.50805253439698,-3.5857939334883215],[102.52561378484835,-3.570730292829973],[102.55311653330143,-3.5619910903870533],[102.59889345177146,-3.5340367204188756],[102.58609559633476,-3.554727444294486],[102.53404797773202,-3.57222094699873],[102.52563694059239,-3.588560570955701],[102.5134959517768,-3.5929435239618517],[102.50805253439698,-3.5857939334883215]]]}},{"type":"Feature","properties":{"code":"1708022018","desa":"Suro Bali","kecamatan":"Ujan Mas","kecCode":"170802"},"geometry":{"type":"Polygon","coordinates":[[[102.47561468876692,-3.552131348863817],[102.48230213743373,-3.5445339751521536],[102.49544714467005,-3.54300552247778],[102.50023506959285,-3.5346684464914606],[102.50718075768589,-3.5384385456981478],[102.50733320176589,-3.5488007339514223],[102.49000578403972,-3.5586488814148973],[102.47561468876692,-3.552131348863817]]]}},{"type":"Feature","properties":{"code":"1708022019","desa":"Pungguk Meranti","kecamatan":"Ujan Mas","kecCode":"170802"},"geometry":{"type":"Polygon","coordinates":[[[102.52058834807389,-3.529025430884865],[102.51907965080527,-3.529756399843118],[102.51890190609817,-3.528265369757721],[102.52058834807389,-3.529025430884865]]]}},{"type":"Feature","properties":{"code":"1708022019","desa":"Pungguk Meranti","kecamatan":"Ujan Mas","kecCode":"170802"},"geometry":{"type":"Polygon","coordinates":[[[102.57584307409864,-3.5264227937856423],[102.57330429066052,-3.522145936499098],[102.55969575755323,-3.5257398792015184],[102.55252983628299,-3.534013714861602],[102.54343393662691,-3.528308803415256],[102.5588548689571,-3.518989517568856],[102.55450577991787,-3.514816158759863],[102.56562587993044,-3.5139691484794757],[102.57917485633457,-3.515305992498205],[102.5828689772216,-3.521103347955585],[102.57584307409864,-3.5264227937856423]]]}},{"type":"Feature","properties":{"code":"1708022020","desa":"Pungguk Meringang","kecamatan":"Ujan Mas","kecCode":"170802"},"geometry":{"type":"Polygon","coordinates":[[[102.5843977590494,-3.5636861082960287],[102.53987166894245,-3.583565226401519],[102.51003655933981,-3.6018306792703045],[102.53404797773202,-3.57222094699873],[102.54403219532963,-3.572561408741262],[102.57391648525766,-3.55521476442767],[102.58609559633476,-3.554727444294486],[102.5843977590494,-3.5636861082960287]]]}},{"type":"Feature","properties":{"code":"1708022021","desa":"Meranti Jaya","kecamatan":"Ujan Mas","kecCode":"170802"},"geometry":{"type":"Polygon","coordinates":[[[102.56034153733214,-3.506008418084617],[102.57921737268366,-3.5152591162359457],[102.55450577991787,-3.514816158759863],[102.5588548689571,-3.518989517568856],[102.54343393662691,-3.528308803415256],[102.51774974325609,-3.524019726140722],[102.51815931699895,-3.5176995498124297],[102.54406236308762,-3.5166248347875246],[102.56034153733214,-3.506008418084617]]]}},{"type":"Feature","properties":{"code":"1708022023","desa":"Air Hitam","kecamatan":"Ujan Mas","kecCode":"170802"},"geometry":{"type":"Polygon","coordinates":[[[102.49024055925447,-3.5153522410336664],[102.49876454944445,-3.515091615706328],[102.50511508329451,-3.537622442418479],[102.49608829563839,-3.535299684232214],[102.49024055925447,-3.5153522410336664]]]}},{"type":"Feature","properties":{"code":"1708022024","desa":"Daspetah II","kecamatan":"Ujan Mas","kecCode":"170802"},"geometry":{"type":"Polygon","coordinates":[[[102.5134584455509,-3.6055173627600325],[102.53930441706524,-3.5915994170183145],[102.54943811367802,-3.595110071707543],[102.58889188085566,-3.5780387017780684],[102.54295210865295,-3.6002370302443523],[102.51725544618193,-3.6095422974587463],[102.5134584455509,-3.6055173627600325]]]}},{"type":"Feature","properties":{"code":"1708031008","desa":"Tebat Karai","kecamatan":"Tebat Karai","kecCode":"170803"},"geometry":{"type":"Polygon","coordinates":[[[102.6188928569199,-3.664422376652314],[102.63857408642502,-3.6764216098175346],[102.63406944165149,-3.6863396166175306],[102.61807677612238,-3.685791318852391],[102.61294356279524,-3.6676547136515483],[102.6188928569199,-3.664422376652314]]]}},{"type":"Feature","properties":{"code":"1708032006","desa":"Taba Santing","kecamatan":"Tebat Karai","kecCode":"170803"},"geometry":{"type":"Polygon","coordinates":[[[102.6188928569199,-3.664422376652314],[102.60636452020651,-3.669931844733919],[102.61675332480614,-3.6560036377276606],[102.61302947143305,-3.6473713619779433],[102.6210846252553,-3.644877835125838],[102.6188928569199,-3.664422376652314]]]}},{"type":"Feature","properties":{"code":"1708032007","desa":"Tertik","kecamatan":"Tebat Karai","kecCode":"170803"},"geometry":{"type":"Polygon","coordinates":[[[102.61294356279524,-3.6676547136515483],[102.6172753650661,-3.671665475034846],[102.61780565570649,-3.6890414696227176],[102.60142680780098,-3.681783117838967],[102.60159978879926,-3.6738158026080923],[102.61294356279524,-3.6676547136515483]]]}},{"type":"Feature","properties":{"code":"1708032009","desa":"Talang Karet","kecamatan":"Tebat Karai","kecCode":"170803"},"geometry":{"type":"Polygon","coordinates":[[[102.62433598022136,-3.6712227405906552],[102.61874461357313,-3.6655453987608437],[102.62265928689662,-3.6390763230019902],[102.64605784789144,-3.6414311770926457],[102.63303234076993,-3.651303546896109],[102.62578623234879,-3.6490886300135963],[102.62433598022136,-3.6712227405906552]]]}},{"type":"Feature","properties":{"code":"1708032010","desa":"Peraduan Binjai","kecamatan":"Tebat Karai","kecCode":"170803"},"geometry":{"type":"Polygon","coordinates":[[[102.63857408642502,-3.6764216098175346],[102.6284452569431,-3.6727206513890485],[102.63303234076993,-3.651303546896109],[102.66346724062072,-3.6326129260406677],[102.64447741979717,-3.6576770997864427],[102.63857408642502,-3.6764216098175346]]]}},{"type":"Feature","properties":{"code":"1708032011","desa":"Penanjung Panjang","kecamatan":"Tebat Karai","kecCode":"170803"},"geometry":{"type":"Polygon","coordinates":[[[102.67048768575815,-3.6339635081029127],[102.66412591577846,-3.6853309523001814],[102.65222605858575,-3.6962233565496367],[102.64180894872408,-3.691043453125386],[102.67048768575815,-3.6339635081029127]]]}},{"type":"Feature","properties":{"code":"1708032012","desa":"Nanti Agung","kecamatan":"Tebat Karai","kecCode":"170803"},"geometry":{"type":"Polygon","coordinates":[[[102.66557562921194,-3.6179584724162135],[102.66502850686015,-3.6321723238890584],[102.64605784789144,-3.6414311770926457],[102.62179201039305,-3.6423193979064523],[102.60875687333112,-3.63366501412296],[102.60861850004379,-3.6286918513470585],[102.62622710699543,-3.6348155680765877],[102.64678164565645,-3.631929614855498],[102.66557562921194,-3.6179584724162135]]]}},{"type":"Feature","properties":{"code":"1708032013","desa":"Taba Air Pauh","kecamatan":"Tebat Karai","kecCode":"170803"},"geometry":{"type":"Polygon","coordinates":[[[102.67034658932367,-3.6369742629421946],[102.6782839166695,-3.6769953089338236],[102.69012469739691,-3.6934380815321695],[102.67519620144361,-3.6984363129101165],[102.65162619729125,-3.6948765876127974],[102.66412591577846,-3.6853309523001814],[102.67034658932367,-3.6369742629421946]]]}},{"type":"Feature","properties":{"code":"1708032014","desa":"Karang Tengah","kecamatan":"Tebat Karai","kecCode":"170803"},"geometry":{"type":"Polygon","coordinates":[[[102.66429603693263,-3.6079005616830147],[102.63313277166013,-3.6279251829008516],[102.61034459132986,-3.6268115407212083],[102.61169714470753,-3.6182736209411384],[102.61968998090794,-3.6218225552732064],[102.64296974865503,-3.6163868909545456],[102.64734134502709,-3.604951131614043],[102.66429603693263,-3.6079005616830147]]]}},{"type":"Feature","properties":{"code":"1708032019","desa":"Tapak Gedung","kecamatan":"Tebat Karai","kecCode":"170803"},"geometry":{"type":"Polygon","coordinates":[[[102.64734134502709,-3.604951131614043],[102.64296974865503,-3.6163868909545456],[102.61968998090794,-3.6218225552732064],[102.61169714470753,-3.6182736209411384],[102.62300172355076,-3.603070767028827],[102.64734134502709,-3.604951131614043]]]}},{"type":"Feature","properties":{"code":"1708032020","desa":"Tebing Penyamun","kecamatan":"Tebat Karai","kecCode":"170803"},"geometry":{"type":"Polygon","coordinates":[[[102.6284452569431,-3.6727206513890485],[102.62433598022136,-3.6712227405906552],[102.62578623234879,-3.6490886300135963],[102.63305258091196,-3.6514591781733308],[102.6284452569431,-3.6727206513890485]]]}},{"type":"Feature","properties":{"code":"1708032021","desa":"Sinar Gunung","kecamatan":"Tebat Karai","kecCode":"170803"},"geometry":{"type":"Polygon","coordinates":[[[102.66714968381092,-3.6074065730768083],[102.65684115089846,-3.628778803198272],[102.62622710699543,-3.6348155680765877],[102.60861850004379,-3.6286918513470585],[102.63313277166013,-3.6279251829008516],[102.66714968381092,-3.6074065730768083]]]}},{"type":"Feature","properties":{"code":"1708032022","desa":"Taba Saling","kecamatan":"Tebat Karai","kecCode":"170803"},"geometry":{"type":"Polygon","coordinates":[[[102.61325528400418,-3.6523075949933705],[102.61674142857414,-3.6560423049783166],[102.60498621744004,-3.6706161379786777],[102.6018755047508,-3.6612368322782762],[102.61325528400418,-3.6523075949933705]]]}},{"type":"Feature","properties":{"code":"1708032023","desa":"Penanjung Panjang Atas","kecamatan":"Tebat Karai","kecCode":"170803"},"geometry":{"type":"Polygon","coordinates":[[[102.66673648040434,-3.628294109984744],[102.6705028087577,-3.6338624458887914],[102.66259395844445,-3.6585517327434443],[102.64345156403851,-3.689284798289183],[102.63755116785217,-3.689955545945342],[102.63406944165149,-3.6863396166175306],[102.64447741979717,-3.6576770997864427],[102.66673648040434,-3.628294109984744]]]}},{"type":"Feature","properties":{"code":"1708041003","desa":"Pensiunan","kecamatan":"Kepahiang","kecCode":"170804"},"geometry":{"type":"Polygon","coordinates":[[[102.57465444284833,-3.639192117909783],[102.57940043867937,-3.644791420169838],[102.57373628630063,-3.6467744810372387],[102.57465444284833,-3.639192117909783]]]}},{"type":"Feature","properties":{"code":"1708041004","desa":"Pasar Kepahiangan","kecamatan":"Kepahiang","kecCode":"170804"},"geometry":{"type":"Polygon","coordinates":[[[102.58158518420896,-3.651954284636833],[102.57777257944103,-3.645039114145468],[102.5849619289499,-3.646334576759583],[102.58158518420896,-3.651954284636833]]]}},{"type":"Feature","properties":{"code":"1708041005","desa":"Pasar Ujung","kecamatan":"Kepahiang","kecCode":"170804"},"geometry":{"type":"Polygon","coordinates":[[[102.58353740642622,-3.6484794598372017],[102.58735849989488,-3.642604743798165],[102.59275855826091,-3.6463013522059593],[102.59644282977284,-3.653543232007109],[102.60026476770491,-3.65505998719961],[102.60268685781226,-3.657528203532083],[102.60278221023087,-3.659415458722751],[102.58353740642622,-3.6484794598372017]]]}},{"type":"Feature","properties":{"code":"1708041011","desa":"Dusun Kepahiang","kecamatan":"Kepahiang","kecCode":"170804"},"geometry":{"type":"Polygon","coordinates":[[[102.57557608786624,-3.630012654158457],[102.5649999688735,-3.658421339140847],[102.54863167810953,-3.6727813592243597],[102.53935439598865,-3.6593212970066427],[102.56986755394449,-3.629294523022357],[102.57557608786624,-3.630012654158457]]]}},{"type":"Feature","properties":{"code":"1708041025","desa":"Kampung Pensiunan","kecamatan":"Kepahiang","kecCode":"170804"},"geometry":{"type":"Polygon","coordinates":[[[102.57465444284833,-3.639192117909783],[102.57373628630063,-3.6467744810372387],[102.57157573523203,-3.64710031710542],[102.57103583623488,-3.6411817941902704],[102.57465444284833,-3.639192117909783]]]}},{"type":"Feature","properties":{"code":"1708041026","desa":"Pasar Sejantung","kecamatan":"Kepahiang","kecCode":"170804"},"geometry":{"type":"Polygon","coordinates":[[[102.57777257944103,-3.645039114145468],[102.58264062496494,-3.6405513640406792],[102.58645581888099,-3.642378393432653],[102.58431041779158,-3.6459340609888504],[102.57777257944103,-3.645039114145468]]]}},{"type":"Feature","properties":{"code":"1708041027","desa":"Padang Lekat","kecamatan":"Kepahiang","kecCode":"170804"},"geometry":{"type":"Polygon","coordinates":[[[102.60278221023087,-3.659415458722751],[102.60271804540156,-3.6654156670592313],[102.5920758001581,-3.669959283049528],[102.58158518420896,-3.651954284636833],[102.58468680475231,-3.6480343619747115],[102.60278221023087,-3.659415458722751]]]}},{"type":"Feature","properties":{"code":"1708042001","desa":"Kelilik","kecamatan":"Kepahiang","kecCode":"170804"},"geometry":{"type":"Polygon","coordinates":[[[102.58743429385765,-3.657072391146731],[102.5920758001581,-3.669959283049528],[102.5636122906747,-3.681114137350674],[102.58537806594508,-3.665267500155058],[102.58743429385765,-3.657072391146731]]]}},{"type":"Feature","properties":{"code":"1708042002","desa":"Tebat Monok","kecamatan":"Kepahiang","kecCode":"170804"},"geometry":{"type":"Polygon","coordinates":[[[102.57373628630063,-3.6467744810372387],[102.58695933490543,-3.655563799100423],[102.58537806594508,-3.665267500155058],[102.5636122906747,-3.681114137350674],[102.54958248904067,-3.675572819778805],[102.57373628630063,-3.6467744810372387]]]}},{"type":"Feature","properties":{"code":"1708042006","desa":"Permu","kecamatan":"Kepahiang","kecCode":"170804"},"geometry":{"type":"Polygon","coordinates":[[[102.59587701411293,-3.6507667478626087],[102.59628565975544,-3.642588068568794],[102.60600945167492,-3.648177434219481],[102.59587701411293,-3.6507667478626087]]]}},{"type":"Feature","properties":{"code":"1708042007","desa":"Imigrasi Permu","kecamatan":"Kepahiang","kecCode":"170804"},"geometry":{"type":"Polygon","coordinates":[[[102.61315248699776,-3.6519153763678207],[102.6034325010092,-3.6594801325682664],[102.59953844374421,-3.6547356089324916],[102.60408134297965,-3.648373704061299],[102.61315248699776,-3.6519153763678207]]]}},{"type":"Feature","properties":{"code":"1708042008","desa":"Karang Endah","kecamatan":"Kepahiang","kecCode":"170804"},"geometry":{"type":"Polygon","coordinates":[[[102.60861850004379,-3.6286918513470585],[102.60165833106718,-3.645591132405929],[102.59470615076832,-3.6443158119076386],[102.59260884092531,-3.6249426523846484],[102.60009892642438,-3.6216046900112113],[102.60861850004379,-3.6286918513470585]]]}},{"type":"Feature","properties":{"code":"1708042009","desa":"Westkust","kecamatan":"Kepahiang","kecCode":"170804"},"geometry":{"type":"Polygon","coordinates":[[[102.59275855826091,-3.6463013522059593],[102.58529130385061,-3.640730759902889],[102.59260884092531,-3.6249426523846484],[102.59677459866883,-3.636984376717867],[102.59275855826091,-3.6463013522059593]]]}},{"type":"Feature","properties":{"code":"1708042010","desa":"Kampung Bogor","kecamatan":"Kepahiang","kecCode":"170804"},"geometry":{"type":"Polygon","coordinates":[[[102.57537621264214,-3.6303457792317055],[102.58411490967539,-3.6221648804110553],[102.59260884092531,-3.6249426523846484],[102.58464266872426,-3.6433741965454014],[102.57537621264214,-3.6303457792317055]]]}},{"type":"Feature","properties":{"code":"1708042012","desa":"Kuto Rejo","kecamatan":"Kepahiang","kecCode":"170804"},"geometry":{"type":"Polygon","coordinates":[[[102.58411490967539,-3.6221648804110553],[102.56482958871459,-3.633724399055541],[102.56405597030685,-3.6130206098292468],[102.58411490967539,-3.6221648804110553]]]}},{"type":"Feature","properties":{"code":"1708042013","desa":"Karang Anyar","kecamatan":"Kepahiang","kecCode":"170804"},"geometry":{"type":"Polygon","coordinates":[[[102.56482958871459,-3.633724399055541],[102.56029497673181,-3.644231390748556],[102.53935439598865,-3.6593212970066427],[102.52894862387996,-3.656668439066457],[102.56044753682443,-3.6316034523335032],[102.56482958871459,-3.633724399055541]]]}},{"type":"Feature","properties":{"code":"1708042014","desa":"Taba Tebelet","kecamatan":"Kepahiang","kecCode":"170804"},"geometry":{"type":"Polygon","coordinates":[[[102.5625781566567,-3.62176039863009],[102.56704195692083,-3.6308967138090695],[102.52819479505382,-3.6561459500453606],[102.52954296423648,-3.6446488893168287],[102.55447780380769,-3.6323462851481993],[102.5625781566567,-3.62176039863009]]]}},{"type":"Feature","properties":{"code":"1708042015","desa":"Pelangkian","kecamatan":"Kepahiang","kecCode":"170804"},"geometry":{"type":"Polygon","coordinates":[[[102.56405597030685,-3.6130206098292468],[102.55675660583273,-3.6305333139584706],[102.52954296423648,-3.6446488893168287],[102.52491973935456,-3.636975898808975],[102.55183579168852,-3.6227426921270713],[102.55956927690066,-3.607207000025161],[102.55456658577936,-3.6004709142306472],[102.56405597030685,-3.6130206098292468]]]}},{"type":"Feature","properties":{"code":"1708042016","desa":"Kelobak","kecamatan":"Kepahiang","kecCode":"170804"},"geometry":{"type":"Polygon","coordinates":[[[102.55041010903938,-3.5961612802528613],[102.55955348480552,-3.6069101023418226],[102.55183579168852,-3.6227426921270713],[102.52491973935456,-3.636975898808975],[102.51588459160068,-3.625004692115944],[102.53642646960593,-3.623804583718921],[102.5483357256133,-3.6138681929777645],[102.55041010903938,-3.5961612802528613]]]}},{"type":"Feature","properties":{"code":"1708042017","desa":"Pagar Gunung","kecamatan":"Kepahiang","kecCode":"170804"},"geometry":{"type":"Polygon","coordinates":[[[102.51725544618193,-3.6095422974587463],[102.5262435378091,-3.602396758431012],[102.55041010903938,-3.5961612802528613],[102.5483357256133,-3.6138681929777645],[102.53642646960593,-3.623804583718921],[102.51475338116364,-3.6257868315992554],[102.51725544618193,-3.6095422974587463]]]}},{"type":"Feature","properties":{"code":"1708042023","desa":"Sukamerindu","kecamatan":"Kepahiang","kecCode":"170804"},"geometry":{"type":"Polygon","coordinates":[[[102.6210846252553,-3.644877835125838],[102.61315248699776,-3.6519153763678207],[102.60153450341464,-3.6445657119202797],[102.612655102551,-3.6323607246629472],[102.6210846252553,-3.644877835125838]]]}},{"type":"Feature","properties":{"code":"1708042028","desa":"Bogor Baru","kecamatan":"Kepahiang","kecCode":"170804"},"geometry":{"type":"Polygon","coordinates":[[[102.5828834886821,-3.637949568706842],[102.57302665375708,-3.6396831036796975],[102.57346298772676,-3.6305352672859184],[102.5828834886821,-3.637949568706842]]]}},{"type":"Feature","properties":{"code":"1708042029","desa":"Permu bawah","kecamatan":"Kepahiang","kecCode":"170804"},"geometry":{"type":"Polygon","coordinates":[[[102.60247100613206,-3.6493634853136125],[102.59893829017,-3.654991727757061],[102.5982125525673,-3.6544385053043946],[102.59748213579199,-3.6527430494256294],[102.59646662403553,-3.653572976184416],[102.59478639187853,-3.6500207961991347],[102.60247100613206,-3.6493634853136125]]]}},{"type":"Feature","properties":{"code":"1708051002","desa":"Durian Depun","kecamatan":"Merigi","kecCode":"170805"},"geometry":{"type":"Polygon","coordinates":[[[102.53836279720535,-3.505009681383388],[102.52044119560475,-3.511810146945121],[102.51295457429421,-3.5123667778283583],[102.5136471907653,-3.5031804891219642],[102.53836279720535,-3.505009681383388]]]}},{"type":"Feature","properties":{"code":"1708052001","desa":"Pulo Geto","kecamatan":"Merigi","kecCode":"170805"},"geometry":{"type":"Polygon","coordinates":[[[102.53473953570108,-3.5093765662025898],[102.51220408824814,-3.5149738971486313],[102.51528465206508,-3.511133422394634],[102.53836279720535,-3.505009681383388],[102.54160562659843,-3.515477602030182],[102.53473953570108,-3.5093765662025898]]]}},{"type":"Feature","properties":{"code":"1708052003","desa":"Taba Mulan","kecamatan":"Merigi","kecCode":"170805"},"geometry":{"type":"Polygon","coordinates":[[[102.5136471907653,-3.5031804891219642],[102.53074688306224,-3.494312882376769],[102.5381644175539,-3.502254755787009],[102.5136471907653,-3.5031804891219642]]]}},{"type":"Feature","properties":{"code":"1708052004","desa":"Lubuk Penyamun","kecamatan":"Merigi","kecCode":"170805"},"geometry":{"type":"Polygon","coordinates":[[[102.49782592972291,-3.499692310289288],[102.5121281512932,-3.497807742272916],[102.50330390085439,-3.509439005232846],[102.50646848922946,-3.518659551813929],[102.49451934379272,-3.51424771708023],[102.49782592972291,-3.499692310289288]]]}},{"type":"Feature","properties":{"code":"1708052005","desa":"SP. Kota Bingin","kecamatan":"Merigi","kecCode":"170805"},"geometry":{"type":"Polygon","coordinates":[[[102.5121281512932,-3.497807742272916],[102.51948547977116,-3.498985717455076],[102.51242907704034,-3.5014210419830123],[102.5121281512932,-3.497807742272916]]]}},{"type":"Feature","properties":{"code":"1708052006","desa":"Bukit Barisan","kecamatan":"Merigi","kecCode":"170805"},"geometry":{"type":"Polygon","coordinates":[[[102.51187780072,-3.517839500510469],[102.50646848922946,-3.518659551813929],[102.50330390085439,-3.509439005232846],[102.51402282769139,-3.5012352195654297],[102.51187780072,-3.517839500510469]]]}},{"type":"Feature","properties":{"code":"1708052007","desa":"Batu Ampar","kecamatan":"Merigi","kecCode":"170805"},"geometry":{"type":"Polygon","coordinates":[[[102.53741259601456,-3.497763938994051],[102.54213589385647,-3.500176227387835],[102.56034532707525,-3.506525198209385],[102.54406236308762,-3.5166248347875246],[102.53741259601456,-3.497763938994051]]]}},{"type":"Feature","properties":{"code":"1708052008","desa":"Pulo Geto Baru","kecamatan":"Merigi","kecCode":"170805"},"geometry":{"type":"Polygon","coordinates":[[[102.53649408423468,-3.515192390137461],[102.5153779423382,-3.514364508436958],[102.53597315193946,-3.5114118237215535],[102.53649408423468,-3.515192390137461]]]}},{"type":"Feature","properties":{"code":"1708061005","desa":"Tangsi Baru","kecamatan":"Kebawetan","kecCode":"170806"},"geometry":{"type":"Polygon","coordinates":[[[102.60895162511747,-3.606279129001744],[102.59039300763122,-3.6086998953044906],[102.5841623147391,-3.6020540178063514],[102.60003917636698,-3.6019406141957786],[102.60434301331946,-3.5900658813758337],[102.60895162511747,-3.606279129001744]]]}},{"type":"Feature","properties":{"code":"1708062001","desa":"Bandung Baru","kecamatan":"Kebawetan","kecCode":"170806"},"geometry":{"type":"Polygon","coordinates":[[[102.64513052905073,-3.5361098223087484],[102.66714637880239,-3.5430362235337474],[102.65046132972662,-3.558816408024785],[102.65365480522512,-3.5698002382526233],[102.64814154469661,-3.57849236388438],[102.6430828527915,-3.5722513027150566],[102.64513052905073,-3.5361098223087484]]]}},{"type":"Feature","properties":{"code":"1708062002","desa":"Bukit Sari","kecamatan":"Kebawetan","kecCode":"170806"},"geometry":{"type":"Polygon","coordinates":[[[102.64044472304562,-3.533944053376005],[102.64513052905073,-3.5361098223087484],[102.64395373467717,-3.569909915072595],[102.63857135068736,-3.585968862417944],[102.64044472304562,-3.533944053376005]]]}},{"type":"Feature","properties":{"code":"1708062003","desa":"Tugu Rejo","kecamatan":"Kebawetan","kecCode":"170806"},"geometry":{"type":"Polygon","coordinates":[[[102.61603494095982,-3.5198337543400346],[102.6282052143992,-3.516432456312234],[102.6243071281715,-3.58393378386412],[102.6290559226927,-3.591474169336396],[102.61597345161357,-3.5986434990295475],[102.61603494095982,-3.5198337543400346]]]}},{"type":"Feature","properties":{"code":"1708062004","desa":"Suka Sari","kecamatan":"Kebawetan","kecCode":"170806"},"geometry":{"type":"Polygon","coordinates":[[[102.66429603693263,-3.6079005616830147],[102.62744924608592,-3.601478785345947],[102.6290559226927,-3.591474169336396],[102.64334402490685,-3.5829444073066585],[102.66031529761295,-3.584717641951809],[102.66429603693263,-3.6079005616830147]]]}},{"type":"Feature","properties":{"code":"1708062006","desa":"Air Sempiang","kecamatan":"Kebawetan","kecCode":"170806"},"geometry":{"type":"Polygon","coordinates":[[[102.60102985784174,-3.525873947434005],[102.61603494095982,-3.5198337543400346],[102.61681838356162,-3.545617051174083],[102.60474979196935,-3.5861671476404338],[102.59614759223761,-3.593473768736277],[102.5843977590494,-3.5636861082960287],[102.60102985784174,-3.525873947434005]]]}},{"type":"Feature","properties":{"code":"1708062007","desa":"Tangsi Duren","kecamatan":"Kebawetan","kecCode":"170806"},"geometry":{"type":"Polygon","coordinates":[[[102.61824059572693,-3.562314650271131],[102.60861850004379,-3.6286918513470585],[102.59875990424626,-3.622199523195567],[102.60909053260205,-3.6078980210981824],[102.60433000192813,-3.5901905696793968],[102.61384737605562,-3.554892206388437],[102.61824059572693,-3.562314650271131]]]}},{"type":"Feature","properties":{"code":"1708062008","desa":"Babakan Bogor","kecamatan":"Kebawetan","kecCode":"170806"},"geometry":{"type":"Polygon","coordinates":[[[102.55313811703051,-3.5951245768728075],[102.57048461567251,-3.5885325255977354],[102.58467940243253,-3.6025168961649863],[102.57815839759206,-3.6165411129941285],[102.56450200166607,-3.614019589347464],[102.55313811703051,-3.5951245768728075]]]}},{"type":"Feature","properties":{"code":"1708062009","desa":"Barat Wetan","kecamatan":"Kebawetan","kecCode":"170806"},"geometry":{"type":"Polygon","coordinates":[[[102.57048461567251,-3.5885325255977354],[102.58951770198041,-3.5800373487958486],[102.58944977708556,-3.600528472640213],[102.5841623147391,-3.6020540178063514],[102.57048461567251,-3.5885325255977354]]]}},{"type":"Feature","properties":{"code":"1708062010","desa":"Pematang Donok","kecamatan":"Kebawetan","kecCode":"170806"},"geometry":{"type":"Polygon","coordinates":[[[102.60895162511747,-3.606279129001744],[102.59260884092531,-3.6249426523846484],[102.57815839759206,-3.6165411129941285],[102.58467940243253,-3.6025168961649863],[102.59039300763122,-3.6086998953044906],[102.60895162511747,-3.606279129001744]]]}},{"type":"Feature","properties":{"code":"1708062011","desa":"Sumber Sari","kecamatan":"Kebawetan","kecCode":"170806"},"geometry":{"type":"Polygon","coordinates":[[[102.63395625028079,-3.527790682401356],[102.64044472304562,-3.533944053376005],[102.63964761344664,-3.5873579723359548],[102.63523890744966,-3.5898073487709503],[102.63037355719399,-3.586121240847339],[102.63395625028079,-3.527790682401356]]]}},{"type":"Feature","properties":{"code":"1708062012","desa":"Mekar Sari","kecamatan":"Kebawetan","kecCode":"170806"},"geometry":{"type":"Polygon","coordinates":[[[102.6282052143992,-3.516432456312234],[102.63395625028079,-3.527790682401356],[102.63037355719399,-3.586121240847339],[102.63523890744966,-3.5898073487709503],[102.6290559226927,-3.591474169336396],[102.6243071281715,-3.58393378386412],[102.6282052143992,-3.516432456312234]]]}},{"type":"Feature","properties":{"code":"1708062013","desa":"Sido Makmur","kecamatan":"Kebawetan","kecCode":"170806"},"geometry":{"type":"Polygon","coordinates":[[[102.60434301331946,-3.5900658813758337],[102.60003917636698,-3.6019406141957786],[102.58944977708556,-3.600528472640213],[102.59072479901035,-3.590598503058369],[102.60434301331946,-3.5900658813758337]]]}},{"type":"Feature","properties":{"code":"1708062014","desa":"Sido Rejo","kecamatan":"Kebawetan","kecCode":"170806"},"geometry":{"type":"Polygon","coordinates":[[[102.63155390928556,-3.5990702300379245],[102.62231598869198,-3.603453766704123],[102.6133587384151,-3.6097193739693876],[102.62421726701331,-3.5918722479444156],[102.63155390928556,-3.5990702300379245]]]}},{"type":"Feature","properties":{"code":"1708062015","desa":"Bandung Jaya","kecamatan":"Kebawetan","kecCode":"170806"},"geometry":{"type":"Polygon","coordinates":[[[102.66714637880239,-3.5430362235337474],[102.68092708801474,-3.5457308244060166],[102.67670603905252,-3.5609771380561783],[102.66031529761295,-3.584717641951809],[102.64155421755316,-3.582280489102177],[102.64336714198008,-3.573473976900769],[102.64814154469661,-3.57849236388438],[102.65240478805059,-3.5743174699326277],[102.65062551355668,-3.5585594258511035],[102.66714637880239,-3.5430362235337474]]]}},{"type":"Feature","properties":{"code":"1708072001","desa":"Benuang Galing","kecamatan":"Seberang Musi","kecCode":"170807"},"geometry":{"type":"Polygon","coordinates":[[[102.66076509623224,-3.7429530239399633],[102.66541243733417,-3.7530757479136847],[102.65644578644395,-3.75272974904532],[102.65024283044232,-3.766592693150135],[102.62574583300385,-3.763485686570348],[102.6226936985554,-3.752561858209989],[102.63049064982367,-3.7336003831382456],[102.63383888965306,-3.7403345362896507],[102.65104972466514,-3.7329227008097776],[102.64931628861586,-3.7439229490609236],[102.6544969312884,-3.747576112120018],[102.66076509623224,-3.7429530239399633]],[[102.64434317979395,-3.759090003660602],[102.64508081272936,-3.7556814256208173],[102.64457517700288,-3.756401213308095],[102.64434317979395,-3.759090003660602]],[[102.64508871956882,-3.7612593150229188],[102.64531582266714,-3.7605659638064846],[102.64484244472311,-3.76108442476413],[102.64508871956882,-3.7612593150229188]],[[102.64264744872081,-3.7630874532789242],[102.64195473961962,-3.762843795460653],[102.64194870876594,-3.762967134781123],[102.64264744872081,-3.7630874532789242]]]}},{"type":"Feature","properties":{"code":"1708072002","desa":"Air Selimang","kecamatan":"Seberang Musi","kecCode":"170807"},"geometry":{"type":"Polygon","coordinates":[[[102.65693531261462,-3.7732754482480875],[102.641235765818,-3.7935560237146504],[102.62033333341667,-3.8021999960469053],[102.60131785673376,-3.771852740557769],[102.6226936985554,-3.752561858209989],[102.6275622099281,-3.7654154922842755],[102.64184562577508,-3.7636936341088654],[102.65693531261462,-3.7732754482480875]]]}},{"type":"Feature","properties":{"code":"1708072002","desa":"Air Selimang","kecamatan":"Seberang Musi","kecCode":"170807"},"geometry":{"type":"Polygon","coordinates":[[[102.64273691597595,-3.762874252800334],[102.6421030288318,-3.763026538599551],[102.64195473961962,-3.762843795460653],[102.64273691597595,-3.762874252800334]]]}},{"type":"Feature","properties":{"code":"1708072002","desa":"Air Selimang","kecamatan":"Seberang Musi","kecCode":"170807"},"geometry":{"type":"Polygon","coordinates":[[[102.64484244472311,-3.76108442476413],[102.64542065483943,-3.760863134883753],[102.64508871956882,-3.7612593150229188],[102.64484244472311,-3.76108442476413]]]}},{"type":"Feature","properties":{"code":"1708072002","desa":"Air Selimang","kecamatan":"Seberang Musi","kecCode":"170807"},"geometry":{"type":"Polygon","coordinates":[[[102.64757924628528,-3.757430330007359],[102.64425180867407,-3.7585496280233706],[102.64530686182229,-3.7555684006248367],[102.64757924628528,-3.757430330007359]]]}},{"type":"Feature","properties":{"code":"1708072003","desa":"Tebat Laut","kecamatan":"Seberang Musi","kecCode":"170807"},"geometry":{"type":"Polygon","coordinates":[[[102.64409519084046,-3.713169789063389],[102.64666040535349,-3.7231869650045613],[102.65699756458598,-3.730182323546088],[102.6544969312884,-3.747576112120018],[102.64867978174657,-3.742074107512095],[102.65299136635855,-3.7338935207561286],[102.63383888965306,-3.7403345362896507],[102.63049064982367,-3.7336003831382456],[102.6333637310514,-3.7210812842743084],[102.64409519084046,-3.713169789063389]]]}},{"type":"Feature","properties":{"code":"1708072004","desa":"Temdak","kecamatan":"Seberang Musi","kecCode":"170807"},"geometry":{"type":"Polygon","coordinates":[[[102.64905819487984,-3.6950956768521475],[102.64409519084046,-3.713169789063389],[102.63400618423805,-3.7212240516489223],[102.62662364056858,-3.7075994827447727],[102.60577716038767,-3.693856215021794],[102.61073753570876,-3.6873494320670774],[102.63108580406667,-3.6851254176427535],[102.64905819487984,-3.6950956768521475]]]}},{"type":"Feature","properties":{"code":"1708072005","desa":"Taba Padang","kecamatan":"Seberang Musi","kecCode":"170807"},"geometry":{"type":"Polygon","coordinates":[[[102.60715632740266,-3.702605730889934],[102.6127066067246,-3.7300364292286985],[102.6034952898758,-3.730054530782815],[102.59327064122714,-3.7154764089155554],[102.58038922168525,-3.719975959024847],[102.57873481266154,-3.709490776790678],[102.60715632740266,-3.702605730889934]]]}},{"type":"Feature","properties":{"code":"1708072006","desa":"Lubuk Saung","kecamatan":"Seberang Musi","kecCode":"170807"},"geometry":{"type":"Polygon","coordinates":[[[102.60680206826089,-3.6945181673083067],[102.62051339297875,-3.7035162099243197],[102.60880346001174,-3.7115669687511774],[102.6072800588277,-3.7027009097392285],[102.59857014099924,-3.699691336609132],[102.60680206826089,-3.6945181673083067]]]}},{"type":"Feature","properties":{"code":"1708072007","desa":"Kandang","kecamatan":"Seberang Musi","kecCode":"170807"},"geometry":{"type":"Polygon","coordinates":[[[102.60203741509469,-3.677893371928123],[102.61073753570876,-3.6873494320670774],[102.60502787583583,-3.697298155211522],[102.59865150806068,-3.695654557839092],[102.60011890756158,-3.7035463650917744],[102.5787965978847,-3.709298743655058],[102.57348967061188,-3.698886637632314],[102.57785602033914,-3.6833985223645733],[102.60203741509469,-3.677893371928123]]]}},{"type":"Feature","properties":{"code":"1708072008","desa":"Cirebon Baru","kecamatan":"Seberang Musi","kecCode":"170807"},"geometry":{"type":"Polygon","coordinates":[[[102.60172649068504,-3.6648634338608406],[102.60203741509469,-3.677893371928123],[102.56765872367123,-3.683049794953136],[102.60172649068504,-3.6648634338608406]]]}},{"type":"Feature","properties":{"code":"1708072009","desa":"Talang Gelompok","kecamatan":"Seberang Musi","kecCode":"170807"},"geometry":{"type":"Polygon","coordinates":[[[102.62930198979507,-3.7150872237031938],[102.63500924578011,-3.7315040769409027],[102.63049064982367,-3.7336003831382456],[102.62134252923437,-3.7238289127715833],[102.62930198979507,-3.7150872237031938]]]}},{"type":"Feature","properties":{"code":"1708072010","desa":"Air Pesi","kecamatan":"Seberang Musi","kecCode":"170807"},"geometry":{"type":"Polygon","coordinates":[[[102.63049064982367,-3.7336003831382456],[102.6226936985554,-3.752561858209989],[102.60131785673376,-3.771852740557769],[102.59699417803891,-3.7479536538098155],[102.58297000706021,-3.7453620909622747],[102.58219272031783,-3.7368559730083373],[102.6127066067246,-3.7300364292286985],[102.61116405357824,-3.721975606988159],[102.61779673623045,-3.717414482096991],[102.63049064982367,-3.7336003831382456]]]}},{"type":"Feature","properties":{"code":"1708072011","desa":"Talang Babatan","kecamatan":"Seberang Musi","kecCode":"170807"},"geometry":{"type":"Polygon","coordinates":[[[102.62051339297875,-3.7035162099243197],[102.63003667924941,-3.715004705509656],[102.62176264932685,-3.7222554130560352],[102.61779673623045,-3.717414482096991],[102.61221911482033,-3.7209963235220305],[102.60822239634653,-3.712310313280133],[102.62051339297875,-3.7035162099243197]]]}},{"type":"Feature","properties":{"code":"1708072012","desa":"Bayung","kecamatan":"Seberang Musi","kecCode":"170807"},"geometry":{"type":"Polygon","coordinates":[[[102.58038922168525,-3.719975959024847],[102.59327064122714,-3.7154764089155554],[102.6034952898758,-3.730054530782815],[102.58219272031783,-3.7368559730083373],[102.58038922168525,-3.719975959024847]]]}},{"type":"Feature","properties":{"code":"1708072013","desa":"Sungai Jernih","kecamatan":"Seberang Musi","kecCode":"170807"},"geometry":{"type":"Polygon","coordinates":[[[102.67185940368859,-3.7671183747644794],[102.65683327283732,-3.7722611029133777],[102.65066744444704,-3.762814289603647],[102.65705182338303,-3.7609632078436044],[102.65644578644395,-3.75272974904532],[102.66541243733417,-3.7530757479136847],[102.67185940368859,-3.7671183747644794]]]}},{"type":"Feature","properties":{"code":"1708082001","desa":"Limbur Baru","kecamatan":"Muara Kemumu","kecCode":"170808"},"geometry":{"type":"Polygon","coordinates":[[[102.72903995323134,-3.6857728989382754],[102.71451331483767,-3.6752453550384714],[102.72382843143703,-3.66441654724682],[102.73423435643049,-3.669976686729718],[102.72903995323134,-3.6857728989382754]]]}},{"type":"Feature","properties":{"code":"1708082002","desa":"Batu Kalung","kecamatan":"Muara Kemumu","kecCode":"170808"},"geometry":{"type":"Polygon","coordinates":[[[102.73332156523809,-3.6682079100239218],[102.72754039037676,-3.6703176098244916],[102.72382843143703,-3.66441654724682],[102.71644825028659,-3.6711426676537084],[102.71781287706267,-3.6451603175761167],[102.72832170698125,-3.652340535361287],[102.73912192533663,-3.643532540177845],[102.73332156523809,-3.6682079100239218]]]}},{"type":"Feature","properties":{"code":"1708082003","desa":"Batu Bandung","kecamatan":"Muara Kemumu","kecCode":"170808"},"geometry":{"type":"Polygon","coordinates":[[[102.81021371259281,-3.529921625087886],[102.81030500007574,-3.5551989957149113],[102.79508299958081,-3.578015995695057],[102.80777993039953,-3.6128187282178517],[102.79941098063232,-3.627238446198043],[102.77974612058705,-3.6299384789754563],[102.76484790031043,-3.6450708584150147],[102.74665959396515,-3.6344741341669127],[102.73912192533663,-3.643532540177845],[102.70513516925273,-3.611209948997772],[102.71624699370386,-3.579501285407799],[102.75526180269009,-3.5854235441067734],[102.7753502524123,-3.5466018744640344],[102.81021371259281,-3.529921625087886]]]}},{"type":"Feature","properties":{"code":"1708082003","desa":"Batu Bandung","kecamatan":"Muara Kemumu","kecCode":"170808"},"geometry":{"type":"Polygon","coordinates":[[[102.66988577221069,-3.570870496237446],[102.69492569756294,-3.588048935852382],[102.69161344680316,-3.5931812363621414],[102.67642364743347,-3.591745503790687],[102.66522897833475,-3.57643698313536],[102.66988577221069,-3.570870496237446]]]}},{"type":"Feature","properties":{"code":"1708082004","desa":"Sosokan Baru","kecamatan":"Muara Kemumu","kecCode":"170808"},"geometry":{"type":"Polygon","coordinates":[[[102.7287794250305,-3.652183888749468],[102.6989920433482,-3.623012995958198],[102.70513516925273,-3.611209948997772],[102.73620950596397,-3.638979752002096],[102.7287794250305,-3.652183888749468]]]}},{"type":"Feature","properties":{"code":"1708082005","desa":"Sosokan Taba","kecamatan":"Muara Kemumu","kecCode":"170808"},"geometry":{"type":"Polygon","coordinates":[[[102.79941098063232,-3.627238446198043],[102.7895580397718,-3.653952613294585],[102.78173604778043,-3.646035831868715],[102.77416905495794,-3.648830694558534],[102.77049478030993,-3.668396406125928],[102.75793088979877,-3.6730249406002686],[102.73332156523809,-3.6682079100239218],[102.74665959396515,-3.6344741341669127],[102.76484790031043,-3.6450708584150147],[102.77974612058705,-3.6299384789754563],[102.79941098063232,-3.627238446198043]]]}},{"type":"Feature","properties":{"code":"1708082006","desa":"Talang Tige","kecamatan":"Muara Kemumu","kecCode":"170808"},"geometry":{"type":"Polygon","coordinates":[[[102.6989920433482,-3.623012995958198],[102.66226277860441,-3.601691778980477],[102.65895818107525,-3.59154193774915],[102.66522897833475,-3.57643698313536],[102.67642364743347,-3.591745503790687],[102.7121244546799,-3.589155630769201],[102.6989920433482,-3.623012995958198]]]}},{"type":"Feature","properties":{"code":"1708082007","desa":"Renah Kurung","kecamatan":"Muara Kemumu","kecCode":"170808"},"geometry":{"type":"Polygon","coordinates":[[[102.68092708801474,-3.5457308244060166],[102.70824160116898,-3.547865160234646],[102.74403013098583,-3.585406967802821],[102.71966827826849,-3.578722045338751],[102.7121244546799,-3.589155630769201],[102.68178502955554,-3.583762686046366],[102.66988577221069,-3.570870496237446],[102.67236295298795,-3.564232809764541],[102.68092708801474,-3.5457308244060166]]]}},{"type":"Feature","properties":{"code":"1708082008","desa":"Warung Pojok","kecamatan":"Muara Kemumu","kecCode":"170808"},"geometry":{"type":"Polygon","coordinates":[[[102.72672985210107,-3.5517639173524214],[102.75125503788973,-3.5430990879434145],[102.77554811135631,-3.5474336987923505],[102.75526180269009,-3.5854235441067734],[102.73685134221574,-3.5809405127447334],[102.70804809674235,-3.5486379476680345],[102.72672985210107,-3.5517639173524214]]]}}]}