{"type":"FeatureCollection","features":[{"type":"Feature","properties":{"code":"1804041001","desa":"Pasar Liwa","kecamatan":"Balik Bukit","kecCode":"180404"},"geometry":{"type":"Polygon","coordinates":[[[104.07953575397194,-5.0018621503760405],[104.08914401808202,-5.026760830880196],[104.08835879572187,-5.03788243184988],[104.0813060730169,-5.041737157261187],[104.07145510436963,-5.032514366871181],[104.07598084004377,-5.024762082238901],[104.06781333931421,-5.01154655647656],[104.07953575397194,-5.0018621503760405]]]}},{"type":"Feature","properties":{"code":"1804041003","desa":"Way Mengaku","kecamatan":"Balik Bukit","kecCode":"180404"},"geometry":{"type":"Polygon","coordinates":[[[104.06983008878763,-5.01347811676783],[104.07598084004377,-5.024762082238901],[104.06386115077156,-5.0452212396820935],[104.0195243733512,-5.053107481930272],[104.01606828142609,-5.036290900727228],[104.03969433672431,-5.028186057571592],[104.04423448043694,-5.017524067723596],[104.06983008878763,-5.01347811676783]]]}},{"type":"Feature","properties":{"code":"1804042002","desa":"Kubu Perahu","kecamatan":"Balik Bukit","kecCode":"180404"},"geometry":{"type":"Polygon","coordinates":[[[104.07152648895637,-5.032343045122213],[104.09067107141287,-5.044294529683357],[104.08719115374879,-5.0713346686468865],[104.09859492241782,-5.085448805090709],[104.08921656369351,-5.113979812261736],[104.08144444360624,-5.118888883053654],[104.06671927987092,-5.101311853115706],[104.0459166668208,-5.093916661388578],[104.0238333328421,-5.09197221651029],[104.00313889024767,-5.098499993239127],[104.0195243733512,-5.053107481930272],[104.05414419100167,-5.049413234242672],[104.07152648895637,-5.032343045122213]]]}},{"type":"Feature","properties":{"code":"1804042004","desa":"Padang Cahya","kecamatan":"Balik Bukit","kecCode":"180404"},"geometry":{"type":"Polygon","coordinates":[[[104.06031388557744,-5.014688563771111],[104.04423448043694,-5.017524067723596],[104.03969433672431,-5.028186057571592],[104.01606828142609,-5.036290900727228],[104.00786528085808,-5.0243647383769545],[104.01976256239237,-5.011040044810932],[104.00344613732942,-4.987793682405112],[103.99643228961855,-4.9861823967743835],[103.99782427377129,-4.97825879129249],[104.01444771568958,-4.965433504747957],[104.01665967200631,-4.992098756820269],[104.03605822840454,-4.991819167489001],[104.04655087682157,-5.007549956717378],[104.06031388557744,-5.014688563771111]]]}},{"type":"Feature","properties":{"code":"1804042005","desa":"Sebarus","kecamatan":"Balik Bukit","kecCode":"180404"},"geometry":{"type":"Polygon","coordinates":[[[104.08362950030123,-5.041270381240725],[104.08914401808202,-5.026760830880196],[104.07947864702203,-5.002490327723916],[104.08692882960183,-4.995508001257884],[104.08939569425591,-5.011198889365794],[104.09979541212863,-5.015161786131954],[104.10252419083878,-5.040298640388609],[104.08362950030123,-5.041270381240725]]]}},{"type":"Feature","properties":{"code":"1804042006","desa":"Way Empulau Ulu","kecamatan":"Balik Bukit","kecCode":"180404"},"geometry":{"type":"Polygon","coordinates":[[[104.09859492241782,-5.085448805090709],[104.08719115374879,-5.0713346686468865],[104.09069019909349,-5.0441395072472055],[104.12909240788838,-5.031282494419495],[104.09859492241782,-5.085448805090709]]]}},{"type":"Feature","properties":{"code":"1804042007","desa":"Gunung Sugih","kecamatan":"Balik Bukit","kecCode":"180404"},"geometry":{"type":"Polygon","coordinates":[[[104.10252419083878,-5.040298640388609],[104.09857461302799,-5.023614233445863],[104.11853087679856,-5.032391876510669],[104.11774705378353,-5.034572099347404],[104.10252419083878,-5.040298640388609]]]}},{"type":"Feature","properties":{"code":"1804042008","desa":"Wates","kecamatan":"Balik Bukit","kecCode":"180404"},"geometry":{"type":"Polygon","coordinates":[[[104.09857461302799,-5.023614233445863],[104.09979541212863,-5.015161786131954],[104.11116012593914,-5.022317008160506],[104.12071643801328,-5.004159421775637],[104.12961416935848,-5.007441196306507],[104.12504134967861,-5.015772952803361],[104.12909240788838,-5.031282494419495],[104.09857461302799,-5.023614233445863]]]}},{"type":"Feature","properties":{"code":"1804042009","desa":"Padang Dalom","kecamatan":"Balik Bukit","kecCode":"180404"},"geometry":{"type":"Polygon","coordinates":[[[104.11116012593914,-5.022317008160506],[104.08939569425591,-5.011198889365794],[104.08755098958653,-4.995928447803838],[104.11858747832952,-5.006587191998548],[104.11116012593914,-5.022317008160506]]]}},{"type":"Feature","properties":{"code":"1804042010","desa":"Sukarame","kecamatan":"Balik Bukit","kecCode":"180404"},"geometry":{"type":"Polygon","coordinates":[[[104.12961416935848,-5.007441196306507],[104.08755098958653,-4.995928447803838],[104.09254008835443,-4.976704189930355],[104.1152344172346,-4.9855694143718186],[104.13737188140726,-4.981422255511721],[104.14244352894576,-4.997902638658021],[104.1345040153481,-4.995444180868971],[104.12961416935848,-5.007441196306507]]]}},{"type":"Feature","properties":{"code":"1804042011","desa":"Bahway","kecamatan":"Balik Bukit","kecCode":"180404"},"geometry":{"type":"Polygon","coordinates":[[[104.13717043057095,-4.918289114095367],[104.14443087688352,-4.92375651998581],[104.14154496682681,-4.978305864506311],[104.1152344172346,-4.9855694143718186],[104.09254008835443,-4.976704189930355],[104.08554305886514,-4.960919660813846],[104.09342784691768,-4.953518113577878],[104.10400427167986,-4.954842747501215],[104.10311385292204,-4.936767905939142],[104.13717043057095,-4.918289114095367]]]}},{"type":"Feature","properties":{"code":"1804042012","desa":"Sedampah Indah","kecamatan":"Balik Bukit","kecCode":"180404"},"geometry":{"type":"Polygon","coordinates":[[[103.99896289911857,-4.976466140284316],[103.99643228961855,-4.9861823967743835],[104.00344613732942,-4.987793682405112],[104.01976256239237,-5.011040044810932],[104.00786528085808,-5.0243647383769545],[104.00480555613154,-5.006333327774411],[103.98122135438204,-4.991807181324753],[103.98061099979786,-4.98316135638877],[103.99416600975358,-4.971835529275246],[103.99896289911857,-4.976466140284316]]]}},{"type":"Feature","properties":{"code":"1804051016","desa":"Tugu Sari","kecamatan":"Sumber Jaya","kecCode":"180405"},"geometry":{"type":"Polygon","coordinates":[[[104.49730749174739,-5.0041541679362735],[104.50595456225328,-5.024007308226058],[104.49373351129258,-5.038373496760088],[104.46542764666862,-5.053487473373325],[104.4606509839558,-5.0416887818290474],[104.4701865342812,-5.015821654689387],[104.48029625496827,-5.017196923141871],[104.48060219623441,-5.008297638676567],[104.49730749174739,-5.0041541679362735]]]}},{"type":"Feature","properties":{"code":"1804052001","desa":"Simpang Sari","kecamatan":"Sumber Jaya","kecCode":"180405"},"geometry":{"type":"Polygon","coordinates":[[[104.47015654279026,-5.007820362171934],[104.4606509839558,-5.0416887818290474],[104.46542764666862,-5.053487473373325],[104.45648741696078,-5.061394030407214],[104.44648670309891,-5.058901273374618],[104.43765966206381,-5.050623955539196],[104.44114234784114,-5.031537538554211],[104.44961817124168,-5.027905210088764],[104.45770781226577,-5.010016140582123],[104.47015654279026,-5.007820362171934]]]}},{"type":"Feature","properties":{"code":"1804052010","desa":"Suka Jaya","kecamatan":"Sumber Jaya","kecCode":"180405"},"geometry":{"type":"Polygon","coordinates":[[[104.44164146797942,-5.030688709844602],[104.43272137768945,-5.033544743520741],[104.42188365580614,-5.0220881307000305],[104.43923288838715,-5.016264047391165],[104.44164146797942,-5.030688709844602]]]}},{"type":"Feature","properties":{"code":"1804052011","desa":"Sindang Pagar","kecamatan":"Sumber Jaya","kecCode":"180405"},"geometry":{"type":"Polygon","coordinates":[[[104.45886859241163,-5.000148509306107],[104.44961817124168,-5.027905210088764],[104.43992326464702,-5.0296286411784],[104.43923288838715,-5.016264047391165],[104.42661209327353,-5.018587837099932],[104.42973878241895,-5.01307980073881],[104.41995029776807,-5.00461963724173],[104.42265640277081,-5.000429490787928],[104.39959442024633,-4.9937748448995904],[104.39109400038784,-4.975987858337665],[104.40607596733207,-4.98042082624029],[104.42312371478766,-4.968135004319733],[104.45513730524249,-4.989859856817322],[104.45886859241163,-5.000148509306107]]]}},{"type":"Feature","properties":{"code":"1804052012","desa":"Sukapura","kecamatan":"Sumber Jaya","kecCode":"180405"},"geometry":{"type":"Polygon","coordinates":[[[104.50956999336056,-4.942924111577146],[104.49376856866455,-4.97653947999709],[104.4986432008231,-4.9772056510034535],[104.49730749174739,-5.0041541679362735],[104.48261420897865,-5.009230834585868],[104.46903383184593,-4.982941504524367],[104.47807602129141,-4.980338347616823],[104.48001820977261,-4.968846110851392],[104.46984891979189,-4.95290163640979],[104.47957496091577,-4.943935508934244],[104.47864812231306,-4.931775853802732],[104.50956999336056,-4.942924111577146]]]}},{"type":"Feature","properties":{"code":"1804052013","desa":"Way Petai","kecamatan":"Sumber Jaya","kecCode":"180405"},"geometry":{"type":"Polygon","coordinates":[[[104.48226131141045,-5.008354880524756],[104.48029625496827,-5.017196923141871],[104.4701865342812,-5.015821654689387],[104.47000157071595,-5.007779329704325],[104.45581614140183,-5.011122590883461],[104.45151803942606,-5.019275400279745],[104.45886859241163,-5.000148509306107],[104.45610739404106,-4.9909505806740295],[104.42314113465568,-4.968197667281226],[104.43792883634677,-4.957165907684526],[104.44393440734706,-4.943920218660806],[104.4784290330735,-4.931758719019854],[104.47957496091577,-4.943935508934244],[104.46984891979189,-4.95290163640979],[104.47971222084237,-4.965596705618817],[104.47807602129141,-4.980338347616823],[104.46903383184593,-4.982941504524367],[104.48226131141045,-5.008354880524756]]]}},{"type":"Feature","properties":{"code":"1804062001","desa":"Kenali","kecamatan":"Belalau","kecCode":"180406"},"geometry":{"type":"Polygon","coordinates":[[[104.20983755575865,-4.9604948714418],[104.20878546587657,-4.992971333927154],[104.19875094919699,-4.999494996257635],[104.18392747157559,-4.99556707412575],[104.20983755575865,-4.9604948714418]]]}},{"type":"Feature","properties":{"code":"1804062002","desa":"Kejadian","kecamatan":"Belalau","kecCode":"180406"},"geometry":{"type":"Polygon","coordinates":[[[104.18392747157559,-4.99556707412575],[104.19875094919699,-4.999494996257635],[104.18660644942815,-5.020854214988624],[104.17614047490302,-5.0062692052132185],[104.18392747157559,-4.99556707412575]]]}},{"type":"Feature","properties":{"code":"1804062003","desa":"Bumi Agung","kecamatan":"Belalau","kecCode":"180406"},"geometry":{"type":"Polygon","coordinates":[[[104.17284420599537,-4.98730278117147],[104.14401614373007,-4.953869782671769],[104.16542911676038,-4.9604300285236995],[104.16858295643833,-4.971661209186569],[104.18846973858761,-4.9887529352713145],[104.18392747157559,-4.99556707412575],[104.17301816995261,-4.994884164937513],[104.17284420599537,-4.98730278117147]]]}},{"type":"Feature","properties":{"code":"1804062004","desa":"Turgak","kecamatan":"Belalau","kecCode":"180406"},"geometry":{"type":"Polygon","coordinates":[[[104.1397047245934,-4.990927437520583],[104.1437457616576,-4.958738018846911],[104.17981295630295,-4.998117889590878],[104.15870485074834,-4.996874966269882],[104.15245119456705,-4.989106287896049],[104.1397047245934,-4.990927437520583]]]}},{"type":"Feature","properties":{"code":"1804062005","desa":"Bedudu","kecamatan":"Belalau","kecCode":"180406"},"geometry":{"type":"Polygon","coordinates":[[[104.22357219090394,-5.052590677523819],[104.21436022474461,-5.062417482276955],[104.20247243825246,-5.062450793165547],[104.19487836234663,-5.074185344162239],[104.1903719962707,-5.070638209373454],[104.18916484258347,-5.052250063795813],[104.20800442806194,-5.048371452390995],[104.21471890855082,-5.032217635562352],[104.22357219090394,-5.052590677523819]]]}},{"type":"Feature","properties":{"code":"1804062005","desa":"Bedudu","kecamatan":"Belalau","kecCode":"180406"},"geometry":{"type":"Polygon","coordinates":[[[104.19914595572133,-4.998198024581064],[104.20878546587657,-4.992971333927154],[104.21908119424177,-5.013389268246372],[104.19209621606757,-5.02395422844034],[104.18660644942815,-5.020854214988624],[104.19914595572133,-4.998198024581064]]]}},{"type":"Feature","properties":{"code":"1804062006","desa":"Sukarame","kecamatan":"Belalau","kecCode":"180406"},"geometry":{"type":"Polygon","coordinates":[[[104.19352984062971,-5.023847152459616],[104.21908119424177,-5.013389268246372],[104.23890081681928,-5.03176074129259],[104.22592146560322,-5.051581999716591],[104.21471890855082,-5.032217635562352],[104.20800442806194,-5.048371452390995],[104.19526677594102,-5.049992289721083],[104.20168477333368,-5.038759709713054],[104.19352984062971,-5.023847152459616]]]}},{"type":"Feature","properties":{"code":"1804062007","desa":"Hujung","kecamatan":"Belalau","kecCode":"180406"},"geometry":{"type":"Polygon","coordinates":[[[104.14443087688352,-4.92375651998581],[104.17730200598282,-4.9023041989401],[104.19226356101461,-4.875636453947157],[104.19129744002491,-4.863022537760906],[104.2100035427294,-4.860728174768853],[104.20398318957263,-4.898044965667556],[104.22570312190162,-4.9232307925060255],[104.22962984074461,-4.947515249543064],[104.21598831420935,-4.9436253480493],[104.2130602448345,-4.963037809745135],[104.20313806966624,-4.956947255515692],[104.2059366600489,-4.944233689050824],[104.19186484388752,-4.9446818886750465],[104.16269991536886,-4.922011500670452],[104.14443087688352,-4.92375651998581]]]}},{"type":"Feature","properties":{"code":"1804062013","desa":"Serungkuk","kecamatan":"Belalau","kecCode":"180406"},"geometry":{"type":"Polygon","coordinates":[[[104.20983755575865,-4.9604948714418],[104.18846973858761,-4.9887529352713145],[104.16858295643833,-4.971661209186569],[104.16542911676038,-4.9604300285236995],[104.18056029472187,-4.958160252996304],[104.19007466871106,-4.943661572741333],[104.2059366600489,-4.944233689050824],[104.20313806966624,-4.956947255515692],[104.20983755575865,-4.9604948714418]]]}},{"type":"Feature","properties":{"code":"1804062019","desa":"Suka Makmur","kecamatan":"Belalau","kecCode":"180406"},"geometry":{"type":"Polygon","coordinates":[[[104.21958018757567,-4.860308374835438],[104.23406923610638,-4.880808196024104],[104.25039773996376,-4.882410710566882],[104.24401460928685,-4.891926028834323],[104.24506197682882,-4.922163451921826],[104.23615588178858,-4.938093673907554],[104.20398318957263,-4.898044965667556],[104.20563691601092,-4.869955427594765],[104.2100035427294,-4.860728174768853],[104.21958018757567,-4.860308374835438]]]}},{"type":"Feature","properties":{"code":"1804062020","desa":"Fajar Agung","kecamatan":"Belalau","kecCode":"180406"},"geometry":{"type":"Polygon","coordinates":[[[104.14401614373007,-4.953869782671769],[104.14144256192473,-4.928466829813935],[104.14637768877934,-4.924202832832442],[104.16269991536886,-4.922011500670452],[104.19007466871106,-4.943661572741333],[104.17468120797145,-4.9606342546675615],[104.14401614373007,-4.953869782671769]]]}},{"type":"Feature","properties":{"code":"1804071001","desa":"Pajar Bulan","kecamatan":"Way Tenong","kecCode":"180407"},"geometry":{"type":"Polygon","coordinates":[[[104.44114234784114,-5.031537538554211],[104.43765966206381,-5.050623955539196],[104.44594782932892,-5.058593345506381],[104.44488611670094,-5.067425591808507],[104.42970472958967,-5.074602063917619],[104.4241804190911,-5.056064023838119],[104.3954274583106,-5.062342761205524],[104.40030967804925,-5.045363817299757],[104.40811460000883,-5.045263786608025],[104.41059111798573,-5.03422802772618],[104.42317681525788,-5.024783019355442],[104.43272137768945,-5.033544743520741],[104.44114234784114,-5.031537538554211]]]}},{"type":"Feature","properties":{"code":"1804072002","desa":"Puralaksana","kecamatan":"Way Tenong","kecCode":"180407"},"geometry":{"type":"Polygon","coordinates":[[[104.42973878241895,-5.01307980073881],[104.41050381270087,-5.034347629464251],[104.40811460000883,-5.045263786608025],[104.40261530505232,-5.046083756073228],[104.40424740459412,-5.0230262503975025],[104.42256487157162,-5.009263479976089],[104.42973878241895,-5.01307980073881]]]}},{"type":"Feature","properties":{"code":"1804072003","desa":"Karang Agung","kecamatan":"Way Tenong","kecCode":"180407"},"geometry":{"type":"Polygon","coordinates":[[[104.38977886330393,-4.982507521382989],[104.40132379855453,-4.9948724368787625],[104.42265640277081,-5.000429490787928],[104.42256487157162,-5.009263479976089],[104.40424740459412,-5.0230262503975025],[104.39698606885207,-5.055912022224724],[104.3964396182938,-5.04330310626889],[104.38469491843581,-5.036493585433172],[104.37633263804086,-5.002814738366594],[104.38977886330393,-4.982507521382989]]]}},{"type":"Feature","properties":{"code":"1804072004","desa":"Mutar Alam","kecamatan":"Way Tenong","kecCode":"180407"},"geometry":{"type":"Polygon","coordinates":[[[104.3964396182938,-5.04330310626889],[104.39631261693381,-5.062723474804203],[104.40192124876666,-5.059069439402528],[104.405852590125,-5.059640944173034],[104.4089128778271,-5.057800432144956],[104.40964332697803,-5.058105710610444],[104.41027586693775,-5.071409685595297],[104.40196566628252,-5.0700206026569035],[104.40080726934008,-5.075018631687562],[104.3954578176242,-5.067716823762928],[104.38806684101195,-5.070364769606274],[104.38224372087107,-5.030094479206013],[104.3964396182938,-5.04330310626889]]]}},{"type":"Feature","properties":{"code":"1804072005","desa":"Tanjung Raya","kecamatan":"Way Tenong","kecCode":"180407"},"geometry":{"type":"Polygon","coordinates":[[[104.38031253199779,-5.0238013427933215],[104.38806684101195,-5.070364769606274],[104.37496110087413,-5.080241216037002],[104.37225492932157,-5.076642866656421],[104.38051787330126,-5.070941989568442],[104.37253673907928,-5.061428160578152],[104.37798141191267,-5.056144352182505],[104.38031253199779,-5.0238013427933215]]]}},{"type":"Feature","properties":{"code":"1804072006","desa":"Sukananti","kecamatan":"Way Tenong","kecCode":"180407"},"geometry":{"type":"Polygon","coordinates":[[[104.36478000909021,-5.079644030226198],[104.38505800532276,-5.075671853355762],[104.34857709016062,-5.121544481228337],[104.34357854041735,-5.120113146341534],[104.36478000909021,-5.079644030226198]]]}},{"type":"Feature","properties":{"code":"1804072006","desa":"Sukananti","kecamatan":"Way Tenong","kecCode":"180407"},"geometry":{"type":"Polygon","coordinates":[[[104.37880876031606,-5.018562077818603],[104.37798141191267,-5.056144352182505],[104.36900570395015,-5.0609962746557855],[104.37880876031606,-5.018562077818603]]]}},{"type":"Feature","properties":{"code":"1804072007","desa":"Sukaraja","kecamatan":"Way Tenong","kecCode":"180407"},"geometry":{"type":"Polygon","coordinates":[[[104.37626600097525,-4.9984726595472],[104.37880876031606,-5.018562077818603],[104.36855282605217,-5.060405814874491],[104.37522564724587,-5.065437962384954],[104.34012891821504,-5.126555265343564],[104.33385860928745,-5.127903564027217],[104.33275290722094,-5.102060097151172],[104.36540667467835,-5.058711125218048],[104.36519246695882,-5.0504177517860995],[104.34267381884172,-5.046259420648252],[104.35373497458949,-5.038834808499758],[104.35882482440616,-5.007976020428819],[104.37626600097525,-4.9984726595472]]]}},{"type":"Feature","properties":{"code":"1804072008","desa":"Padang Tambak","kecamatan":"Way Tenong","kecCode":"180407"},"geometry":{"type":"Polygon","coordinates":[[[104.33705232670358,-5.047607972940741],[104.36519246695882,-5.0504177517860995],[104.36540667467835,-5.058711125218048],[104.33221143980613,-5.103778169180813],[104.31703205188772,-5.0770532309028935],[104.33290656088911,-5.0634185437258115],[104.33705232670358,-5.047607972940741]]]}},{"type":"Feature","properties":{"code":"1804072008","desa":"Padang Tambak","kecamatan":"Way Tenong","kecCode":"180407"},"geometry":{"type":"Polygon","coordinates":[[[104.37418034095003,-5.067741684621571],[104.37581060227751,-5.075340427101795],[104.36892775341316,-5.075767132929171],[104.37418034095003,-5.067741684621571]]]}},{"type":"Feature","properties":{"code":"1804072008","desa":"Padang Tambak","kecamatan":"Way Tenong","kecCode":"180407"},"geometry":{"type":"Polygon","coordinates":[[[104.35882482440616,-5.007976020428819],[104.35373497458949,-5.038834808499758],[104.34327990974009,-5.045047239752075],[104.34550487564955,-5.010692029662502],[104.35882482440616,-5.007976020428819]]]}},{"type":"Feature","properties":{"code":"1804072009","desa":"Tambak Jaya","kecamatan":"Way Tenong","kecCode":"180407"},"geometry":{"type":"Polygon","coordinates":[[[104.34327990974009,-5.045047239752075],[104.33705232670358,-5.047607972940741],[104.33290656088911,-5.0634185437258115],[104.31703205188772,-5.0770532309028935],[104.32543055157873,-5.01556576159463],[104.34550487564955,-5.010692029662502],[104.34327990974009,-5.045047239752075]]]}},{"type":"Feature","properties":{"code":"1804081005","desa":"Sekincau","kecamatan":"Sekincau","kecCode":"180408"},"geometry":{"type":"Polygon","coordinates":[[[104.3226552446439,-5.026792060737534],[104.31728906194068,-5.062392800383431],[104.29982509205439,-5.071726763166036],[104.28541171158126,-5.046404208799627],[104.30860017565766,-5.040116822652056],[104.3226552446439,-5.026792060737534]]]}},{"type":"Feature","properties":{"code":"1804082001","desa":"Pampangan","kecamatan":"Sekincau","kecCode":"180408"},"geometry":{"type":"Polygon","coordinates":[[[104.30392191406514,-4.967543650612331],[104.34763026862207,-5.00863162350181],[104.30005283996667,-5.01694361469869],[104.2961879378231,-5.023535053535746],[104.28677330044752,-5.01181150214699],[104.27585589323496,-5.009077189911069],[104.2805244862161,-4.969124500487046],[104.30392191406514,-4.967543650612331]]]}},{"type":"Feature","properties":{"code":"1804082006","desa":"Waspada","kecamatan":"Sekincau","kecCode":"180408"},"geometry":{"type":"Polygon","coordinates":[[[104.28533473770801,-5.048147863843477],[104.27582587026774,-5.058961229376738],[104.26495638882636,-5.06044634731907],[104.25484036389173,-5.043115856627211],[104.2736466124013,-5.030921860883398],[104.27869976987853,-5.0457098035776715],[104.28533473770801,-5.048147863843477]]]}},{"type":"Feature","properties":{"code":"1804082007","desa":"Tiga Jaya","kecamatan":"Sekincau","kecCode":"180408"},"geometry":{"type":"Polygon","coordinates":[[[104.33065641666035,-5.094537770065127],[104.33218602766313,-5.1175518213989815],[104.31320687369832,-5.128252217694258],[104.30438236875135,-5.1411094346681745],[104.28814041834568,-5.145166259326751],[104.30019611365975,-5.123450385660328],[104.29665110486468,-5.103685591170829],[104.28959284503384,-5.102695780240845],[104.28744676855361,-5.089384218575219],[104.27322899332349,-5.105927326736157],[104.26714825968452,-5.10565799687077],[104.26313774830851,-5.076139674388409],[104.28193367170167,-5.053026163432264],[104.29233319442146,-5.05561406244196],[104.29982509205439,-5.071726763166036],[104.31728906194068,-5.062392800383431],[104.31739929993778,-5.079202668147362],[104.33065641666035,-5.094537770065127]]]}},{"type":"Feature","properties":{"code":"1804082008","desa":"Giham Sukamaju","kecamatan":"Sekincau","kecCode":"180408"},"geometry":{"type":"Polygon","coordinates":[[[104.34794287656258,-5.008993599725649],[104.32543055157873,-5.01556576159463],[104.3226552446439,-5.026792060737534],[104.30860017565766,-5.040116822652056],[104.2785842924312,-5.045516320734906],[104.275978242402,-5.009087966487153],[104.28677330044752,-5.01181150214699],[104.2961879378231,-5.023535053535746],[104.30005283996667,-5.01694361469869],[104.34794287656258,-5.008993599725649]]]}},{"type":"Feature","properties":{"code":"1804092003","desa":"Suka Marga","kecamatan":"Suoh","kecCode":"180409"},"geometry":{"type":"Polygon","coordinates":[[[104.24197655937076,-5.206353460292831],[104.29125472922243,-5.252280057380883],[104.27211370538328,-5.259394110244866],[104.2615219363883,-5.282568917193092],[104.2263611108766,-5.2231944383044455],[104.21055228476018,-5.2110856955924305],[104.24197655937076,-5.206353460292831]]]}},{"type":"Feature","properties":{"code":"1804092004","desa":"Sumber Agung","kecamatan":"Suoh","kecCode":"180409"},"geometry":{"type":"Polygon","coordinates":[[[104.29473405693123,-5.261889751403213],[104.3057029638208,-5.290059070133684],[104.27809376801304,-5.311771056930373],[104.26736556017254,-5.293272041132208],[104.29473405693123,-5.261889751403213]]]}},{"type":"Feature","properties":{"code":"1804092005","desa":"Tuguratu","kecamatan":"Suoh","kecCode":"180409"},"geometry":{"type":"Polygon","coordinates":[[[104.27809376801304,-5.311771056930373],[104.3057029638208,-5.290059070133684],[104.3022857486884,-5.277877152284847],[104.30752420787591,-5.277175116315321],[104.31176975886734,-5.298529672961091],[104.33387745907754,-5.324411553479226],[104.31494444483029,-5.354249994140508],[104.27809376801304,-5.311771056930373]]]}},{"type":"Feature","properties":{"code":"1804092006","desa":"Banding Agung","kecamatan":"Suoh","kecCode":"180409"},"geometry":{"type":"Polygon","coordinates":[[[104.33387745907754,-5.324411553479226],[104.32507738421394,-5.309296861005458],[104.32758933008358,-5.285958600476888],[104.31669728195406,-5.274355498886814],[104.32262639169466,-5.2645159543374955],[104.33878483375314,-5.258869907115969],[104.35551858111768,-5.280495791021386],[104.36241712225244,-5.310841743394333],[104.35247406842359,-5.316044153252373],[104.34106167795413,-5.31308992080351],[104.33387745907754,-5.324411553479226]]]}},{"type":"Feature","properties":{"code":"1804092010","desa":"Roworejo","kecamatan":"Suoh","kecCode":"180409"},"geometry":{"type":"Polygon","coordinates":[[[104.36006288509412,-5.302561090872694],[104.35551858111768,-5.280495791021386],[104.389111072618,-5.282637619102078],[104.3996559122906,-5.301872139139592],[104.36006288509412,-5.302561090872694]]]}},{"type":"Feature","properties":{"code":"1804092017","desa":"Sidorejo","kecamatan":"Suoh","kecCode":"180409"},"geometry":{"type":"Polygon","coordinates":[[[104.33427406729442,-5.325166716898546],[104.34106167795413,-5.31308992080351],[104.35247406842359,-5.316044153252373],[104.36241712225244,-5.310841743394333],[104.37268188426162,-5.318950977939671],[104.37403308415956,-5.329264374375279],[104.34843792457063,-5.340776441192032],[104.33427406729442,-5.325166716898546]]]}},{"type":"Feature","properties":{"code":"1804092018","desa":"Ringin Sari","kecamatan":"Suoh","kecCode":"180409"},"geometry":{"type":"Polygon","coordinates":[[[104.2615219363883,-5.282568917193092],[104.27211370538328,-5.259394110244866],[104.2785244803206,-5.255259023883898],[104.289828568134,-5.263969782569658],[104.27399857467452,-5.2892251872571165],[104.26736556017254,-5.293272041132208],[104.2615219363883,-5.282568917193092]]]}},{"type":"Feature","properties":{"code":"1804102001","desa":"Kembahang","kecamatan":"Batu Brak","kecCode":"180410"},"geometry":{"type":"Polygon","coordinates":[[[104.12676158008293,-5.023438006794545],[104.13000479708374,-4.99967845975351],[104.13845900258099,-4.993126685515207],[104.15067266740971,-5.003619085708546],[104.15115106087285,-5.014325738587279],[104.14431725473757,-5.029681921513031],[104.12676158008293,-5.023438006794545]]]}},{"type":"Feature","properties":{"code":"1804102002","desa":"Negeri Ratu","kecamatan":"Batu Brak","kecCode":"180410"},"geometry":{"type":"Polygon","coordinates":[[[104.13338027468001,-5.039847250869055],[104.12676158008293,-5.023438006794545],[104.15125047373043,-5.036024277821205],[104.13912999665204,-5.087329554585787],[104.1353840883051,-5.066155270641379],[104.12513916803823,-5.054433354220069],[104.13338027468001,-5.039847250869055]]]}},{"type":"Feature","properties":{"code":"1804102003","desa":"Kegeringan","kecamatan":"Batu Brak","kecCode":"180410"},"geometry":{"type":"Polygon","coordinates":[[[104.21356643724135,-5.097548321657751],[104.21920303259395,-5.10741623262295],[104.20233873784254,-5.106888181294984],[104.20536606359302,-5.10053396652631],[104.21356643724135,-5.097548321657751]]]}},{"type":"Feature","properties":{"code":"1804102003","desa":"Kegeringan","kecamatan":"Batu Brak","kecCode":"180410"},"geometry":{"type":"Polygon","coordinates":[[[104.19001464525974,-5.067006540110977],[104.20352510639862,-5.084057265204456],[104.19583013735104,-5.090220143812126],[104.18027643900649,-5.069109648780392],[104.19001464525974,-5.067006540110977]]]}},{"type":"Feature","properties":{"code":"1804102003","desa":"Kegeringan","kecamatan":"Batu Brak","kecCode":"180410"},"geometry":{"type":"Polygon","coordinates":[[[104.14708441291536,-5.023463863202702],[104.15092251076533,-5.004083079226563],[104.16732313485481,-5.009822587592236],[104.15460950992099,-5.0235999504131765],[104.14708441291536,-5.023463863202702]]]}},{"type":"Feature","properties":{"code":"1804102004","desa":"Gunung Sugih","kecamatan":"Batu Brak","kecCode":"180410"},"geometry":{"type":"Polygon","coordinates":[[[104.17603676958129,-4.999933879804813],[104.17967909671302,-5.019385955737377],[104.15092251076533,-5.004083079226563],[104.15834216405966,-4.996750948860598],[104.17603676958129,-4.999933879804813]]]}},{"type":"Feature","properties":{"code":"1804102005","desa":"Pekon Balak","kecamatan":"Batu Brak","kecCode":"180410"},"geometry":{"type":"Polygon","coordinates":[[[104.18300325269801,-5.075028226554494],[104.18750638301321,-5.084293845358252],[104.1958846812331,-5.092863241410249],[104.16750624941392,-5.090358983847422],[104.1693343948665,-5.079003853224227],[104.18300325269801,-5.075028226554494]]]}},{"type":"Feature","properties":{"code":"1804102005","desa":"Pekon Balak","kecamatan":"Batu Brak","kecCode":"180410"},"geometry":{"type":"Polygon","coordinates":[[[104.18092034279965,-5.063982179428436],[104.19001464525974,-5.067006540110977],[104.18181086228151,-5.068778024675564],[104.18092034279965,-5.063982179428436]]]}},{"type":"Feature","properties":{"code":"1804102005","desa":"Pekon Balak","kecamatan":"Batu Brak","kecCode":"180410"},"geometry":{"type":"Polygon","coordinates":[[[104.16732313485481,-5.009822587592236],[104.16456272429036,-5.023817122297943],[104.15460950992099,-5.0235999504131765],[104.15884738489892,-5.019007464680461],[104.16732313485481,-5.009822587592236]]]}},{"type":"Feature","properties":{"code":"1804102006","desa":"Sukabumi","kecamatan":"Batu Brak","kecCode":"180410"},"geometry":{"type":"Polygon","coordinates":[[[104.14431725473757,-5.029681921513031],[104.14708441291536,-5.023463863202702],[104.16566332180491,-5.025345747642129],[104.15967702687334,-5.03614215376033],[104.16961564524586,-5.048368313757093],[104.16152445289123,-5.056578404571683],[104.15800061143915,-5.078082803558469],[104.1693343948665,-5.079003853224227],[104.16904813886062,-5.091348839743469],[104.18900760241898,-5.095145206348653],[104.19417473097911,-5.115429892617151],[104.16670201988238,-5.108062247124259],[104.14282808444857,-5.0839350347480226],[104.15158651620482,-5.04776828878649],[104.15125047373043,-5.036024277821205],[104.14431725473757,-5.029681921513031]]]}},{"type":"Feature","properties":{"code":"1804102007","desa":"Canggu","kecamatan":"Batu Brak","kecCode":"180410"},"geometry":{"type":"Polygon","coordinates":[[[104.18092034279965,-5.063982179428436],[104.1738866038837,-5.076380291598874],[104.17224614334492,-5.068312232513442],[104.18092034279965,-5.063982179428436]]]}},{"type":"Feature","properties":{"code":"1804102007","desa":"Canggu","kecamatan":"Batu Brak","kecCode":"180410"},"geometry":{"type":"Polygon","coordinates":[[[104.17049437641441,-5.014627034854811],[104.17715686799511,-5.018291403466752],[104.17287609595512,-5.025705419802919],[104.16456272429036,-5.023817122297943],[104.17049437641441,-5.014627034854811]]]}},{"type":"Feature","properties":{"code":"1804102008","desa":"Kota Besi","kecamatan":"Batu Brak","kecCode":"180410"},"geometry":{"type":"Polygon","coordinates":[[[104.1805302312852,-5.0167858313438165],[104.20071514318937,-5.033501100321133],[104.20167882431831,-5.041406860555662],[104.18916484258347,-5.052250063795813],[104.18934954264732,-5.062956825492538],[104.17484686489098,-5.065045753651941],[104.1738866038837,-5.076380291598874],[104.16336551530634,-5.081946957462116],[104.15800061143915,-5.078082803558469],[104.16152445289123,-5.056578404571683],[104.16961564524586,-5.048368313757093],[104.15967702687334,-5.03614215376033],[104.16456272429036,-5.023817122297943],[104.17287609595512,-5.025705419802919],[104.1805302312852,-5.0167858313438165]]]}},{"type":"Feature","properties":{"code":"1804102009","desa":"Sukaraja","kecamatan":"Batu Brak","kecCode":"180410"},"geometry":{"type":"Polygon","coordinates":[[[104.15092251076533,-5.004083079226563],[104.1388003060893,-4.992972051586124],[104.14452265179898,-4.988382261703927],[104.15834216405966,-4.996750948860598],[104.15092251076533,-5.004083079226563]]]}},{"type":"Feature","properties":{"code":"1804102010","desa":"Kerang","kecamatan":"Batu Brak","kecCode":"180410"},"geometry":{"type":"Polygon","coordinates":[[[104.18660644942815,-5.020854214988624],[104.19644468097731,-5.026405073468252],[104.1996271658611,-5.032979089739357],[104.19365314487679,-5.032792017264124],[104.18660644942815,-5.020854214988624]]]}},{"type":"Feature","properties":{"code":"1804102011","desa":"Teba Liyokh","kecamatan":"Batu Brak","kecCode":"180410"},"geometry":{"type":"Polygon","coordinates":[[[104.24079369727137,-5.1335988904995755],[104.24092290556769,-5.13367770618428],[104.2408738070806,-5.133655741142654],[104.24079369727137,-5.1335988904995755]]]}},{"type":"Feature","properties":{"code":"1804102011","desa":"Teba Liyokh","kecamatan":"Batu Brak","kecCode":"180410"},"geometry":{"type":"Polygon","coordinates":[[[104.23957526068978,-5.132097882435999],[104.23949063358593,-5.131745262758708],[104.23954424487106,-5.1319288413677775],[104.23957526068978,-5.132097882435999]]]}},{"type":"Feature","properties":{"code":"1804102011","desa":"Teba Liyokh","kecamatan":"Batu Brak","kecCode":"180410"},"geometry":{"type":"Polygon","coordinates":[[[104.19909379594196,-5.087662060026224],[104.21358240200628,-5.093623672158744],[104.20233873784254,-5.106888181294984],[104.22135286824033,-5.108026560226887],[104.23806613264593,-5.126671539590154],[104.22088793043372,-5.1298304847160985],[104.19601115828839,-5.1211609860265686],[104.1879722264372,-5.09594354532004],[104.19909379594196,-5.087662060026224]]]}},{"type":"Feature","properties":{"code":"1804112001","desa":"Tanjung Raya","kecamatan":"Sukau","kecCode":"180411"},"geometry":{"type":"Polygon","coordinates":[[[104.0583649009195,-5.011297605248705],[104.04655087682157,-5.007549956717378],[104.03605822840454,-4.991819167489001],[104.01665967200631,-4.992098756820269],[104.01429272293085,-4.965433267326952],[104.02648654691664,-4.955734786836468],[104.04124438302192,-4.955673244430229],[104.04167572665351,-4.968958935298563],[104.05479774272168,-4.9819749167875305],[104.06915824485718,-4.979714802676889],[104.0583649009195,-5.011297605248705]]]}},{"type":"Feature","properties":{"code":"1804112002","desa":"Hanakau","kecamatan":"Sukau","kecCode":"180411"},"geometry":{"type":"Polygon","coordinates":[[[104.08755098958653,-4.995928447803838],[104.06983008878763,-5.01347811676783],[104.05832920862615,-5.013046510534674],[104.06940073265775,-4.977085040226006],[104.07758420534685,-4.970959277538439],[104.07505024497289,-4.9646664432980145],[104.08567515668317,-4.961259958879826],[104.09254008835443,-4.976704189930355],[104.08755098958653,-4.995928447803838]]]}},{"type":"Feature","properties":{"code":"1804112003","desa":"Buay Nyerupa","kecamatan":"Sukau","kecCode":"180411"},"geometry":{"type":"Polygon","coordinates":[[[104.04961323116572,-4.975066610821017],[104.04167572665351,-4.968958935298563],[104.04124438302192,-4.955673244430229],[104.02240208608748,-4.952327169272454],[104.02964985825439,-4.936791062582458],[104.02476022990072,-4.93210777198586],[104.04976553405221,-4.928573605421014],[104.0633410215709,-4.918696875703906],[104.07270347938214,-4.922949361363187],[104.0781593137014,-4.940679358786365],[104.05040290067336,-4.954658692251478],[104.04961323116572,-4.975066610821017]]]}},{"type":"Feature","properties":{"code":"1804112004","desa":"Tapak Siring","kecamatan":"Sukau","kecCode":"180411"},"geometry":{"type":"Polygon","coordinates":[[[103.98122135438204,-4.991807181324753],[103.97757165101092,-4.989386134433483],[103.9727797996481,-4.982600578731587],[103.98061099979786,-4.98316135638877],[103.98122135438204,-4.991807181324753]]]}},{"type":"Feature","properties":{"code":"1804112004","desa":"Tapak Siring","kecamatan":"Sukau","kecCode":"180411"},"geometry":{"type":"Polygon","coordinates":[[[103.99659826759603,-4.960676938290481],[103.98738975393405,-4.951254273575985],[103.97449921976323,-4.9552507429334485],[103.9687067008536,-4.946523449312698],[103.98688755541637,-4.949146308567552],[104.01369726831432,-4.9343516749173615],[104.01652817223743,-4.953548704017212],[103.99659826759603,-4.960676938290481]]]}},{"type":"Feature","properties":{"code":"1804112005","desa":"Jaga Raga","kecamatan":"Sukau","kecCode":"180411"},"geometry":{"type":"Polygon","coordinates":[[[103.97189206086995,-4.911732913394061],[104.00224787613865,-4.907274743789722],[104.0091683076713,-4.929290520673687],[103.98209198985353,-4.9277955524570265],[103.96817010866361,-4.933734652760187],[103.97189206086995,-4.911732913394061]]]}},{"type":"Feature","properties":{"code":"1804112009","desa":"Pagar Dewa","kecamatan":"Sukau","kecCode":"180411"},"geometry":{"type":"Polygon","coordinates":[[[104.00224787613865,-4.907274743789722],[104.00572072872869,-4.902451860425359],[104.02410317891861,-4.915601044099688],[104.02951987384317,-4.91344421532731],[104.0426566010214,-4.92620285491372],[104.02476022990072,-4.93210777198586],[104.0091683076713,-4.929290520673687],[104.00224787613865,-4.907274743789722]]]}},{"type":"Feature","properties":{"code":"1804112012","desa":"Suka Mulya","kecamatan":"Sukau","kecCode":"180411"},"geometry":{"type":"Polygon","coordinates":[[[104.01426994310343,-4.907500578843747],[104.0488009212256,-4.901709897255041],[104.06237684221753,-4.886135643122595],[104.07116684827152,-4.90802360026354],[104.09552361082604,-4.918431910248331],[104.07798350973125,-4.923839566980744],[104.05788421688315,-4.918925191987375],[104.04616204684106,-4.928568435218596],[104.01426994310343,-4.907500578843747]]]}},{"type":"Feature","properties":{"code":"1804112018","desa":"Bandar Baru","kecamatan":"Sukau","kecCode":"180411"},"geometry":{"type":"Polygon","coordinates":[[[104.09552361082604,-4.918431910248331],[104.1215919280251,-4.924143134935746],[104.10311385292204,-4.936767905939142],[104.10400427167986,-4.954842747501215],[104.09342784691768,-4.953518113577878],[104.08293572820133,-4.964225595631487],[104.07640476786581,-4.9626349035763235],[104.07526162882117,-4.974608001544139],[104.05479774272168,-4.9819749167875305],[104.04911799070275,-4.973504023479121],[104.05040290067336,-4.954658692251478],[104.07765962699023,-4.942071343836978],[104.07270347938214,-4.922949361363187],[104.09552361082604,-4.918431910248331]]]}},{"type":"Feature","properties":{"code":"1804112019","desa":"Bumi Jaya","kecamatan":"Sukau","kecCode":"180411"},"geometry":{"type":"Polygon","coordinates":[[[104.02703657497801,-4.960382971497701],[104.00206821587551,-4.977127843458695],[103.988972680345,-4.964481712657411],[104.01428267120838,-4.956209788955586],[104.01363635633281,-4.934229037967318],[104.02243299128956,-4.9312869868356275],[104.02964985825439,-4.936791062582458],[104.02240208608748,-4.952327169272454],[104.02703657497801,-4.960382971497701]]]}},{"type":"Feature","properties":{"code":"1804112020","desa":"Teba Pering Jaya","kecamatan":"Sukau","kecCode":"180411"},"geometry":{"type":"Polygon","coordinates":[[[104.01369726831432,-4.9343516749173615],[103.98688755541637,-4.949146308567552],[103.9687067008536,-4.946523449312698],[103.96726277275882,-4.940292415583923],[103.97031365804895,-4.931364744917629],[103.98209198985353,-4.9277955524570265],[104.01441306031455,-4.9277448810557045],[104.01369726831432,-4.9343516749173615]]]}},{"type":"Feature","properties":{"code":"1804152001","desa":"Gedung Surian","kecamatan":"Gedung Surian","kecCode":"180415"},"geometry":{"type":"Polygon","coordinates":[[[104.46542764666862,-5.053487473373325],[104.48534002442267,-5.038490661335489],[104.49884244832037,-5.0471119051020255],[104.47337149859582,-5.070682194315352],[104.48091389765828,-5.087449693219121],[104.46545899973313,-5.121068694000971],[104.44851279922635,-5.107689694873181],[104.45422049767791,-5.103457894520178],[104.46542764666862,-5.053487473373325]]]}},{"type":"Feature","properties":{"code":"1804152002","desa":"Pura Mekar","kecamatan":"Gedung Surian","kecCode":"180415"},"geometry":{"type":"Polygon","coordinates":[[[104.47176219866655,-5.105050194563131],[104.48091389765828,-5.087449693219121],[104.47337149859582,-5.070682194315352],[104.49434639926697,-5.056618194176236],[104.51006409887913,-5.067775395708432],[104.51610980032704,-5.08942669445477],[104.49697624355883,-5.102327861296872],[104.49372675558539,-5.11203846824591],[104.48720343768856,-5.1153727281107],[104.47176219866655,-5.105050194563131]]]}},{"type":"Feature","properties":{"code":"1804152003","desa":"Cipta Waras","kecamatan":"Gedung Surian","kecCode":"180415"},"geometry":{"type":"Polygon","coordinates":[[[104.46545899973313,-5.121068694000971],[104.47148319929028,-5.1048791947714784],[104.48472260026784,-5.112530594356131],[104.48572578681569,-5.139072062842984],[104.46981088656321,-5.146197461553918],[104.46545899973313,-5.121068694000971]]]}},{"type":"Feature","properties":{"code":"1804152004","desa":"Tri Mulyo","kecamatan":"Gedung Surian","kecCode":"180415"},"geometry":{"type":"Polygon","coordinates":[[[104.45281499941274,-5.103992294162476],[104.44935431824723,-5.109883192602611],[104.46545899973313,-5.121068694000971],[104.47129009865921,-5.140036094706533],[104.46981088656321,-5.146197461553918],[104.44217199963809,-5.148819693981292],[104.43711879989273,-5.122671594352949],[104.4441378780607,-5.1046675492207685],[104.45281499941274,-5.103992294162476]]]}},{"type":"Feature","properties":{"code":"1804152005","desa":"Mekar Jaya","kecamatan":"Gedung Surian","kecCode":"180415"},"geometry":{"type":"Polygon","coordinates":[[[104.48495859856051,-5.11398389428454],[104.51602940003681,-5.089418694085788],[104.53444370781092,-5.103429283488676],[104.51633794394102,-5.120935877624767],[104.51932293590481,-5.131839761720546],[104.51425170025584,-5.136233242190823],[104.50069136001832,-5.125126190453157],[104.48850402014449,-5.133388920385731],[104.48495859856051,-5.11398389428454]]]}},{"type":"Feature","properties":{"code":"1804182001","desa":"Pura Jaya","kecamatan":"Kebun Tebu","kecCode":"180418"},"geometry":{"type":"Polygon","coordinates":[[[104.53784435922984,-5.013782768405914],[104.5677588816671,-5.022517414883706],[104.53437300131303,-5.044058094320382],[104.5335582614047,-5.054606744409743],[104.52081839875018,-5.049258294544126],[104.52161383920736,-5.038656523300242],[104.54115065467902,-5.028301040391678],[104.53784435922984,-5.013782768405914]]]}},{"type":"Feature","properties":{"code":"1804182002","desa":"Pura Wiwitan","kecamatan":"Kebun Tebu","kecCode":"180418"},"geometry":{"type":"Polygon","coordinates":[[[104.52137819884484,-5.049314794451631],[104.53363873184206,-5.054614646752535],[104.52963939993838,-5.065836294601819],[104.52167853733471,-5.061612137586868],[104.52137819884484,-5.049314794451631]]]}},{"type":"Feature","properties":{"code":"1804182003","desa":"Tribudi Syukur","kecamatan":"Kebun Tebu","kecCode":"180418"},"geometry":{"type":"Polygon","coordinates":[[[104.50749053685882,-5.020258726198476],[104.52465235432275,-5.025889921116431],[104.53784435922984,-5.013782768405914],[104.54115065467902,-5.028301040391678],[104.52161383920736,-5.038656523300242],[104.52174109867279,-5.048029294527096],[104.5202677996193,-5.050730894822859],[104.4904962046362,-5.045916048699572],[104.50749053685882,-5.020258726198476]]]}},{"type":"Feature","properties":{"code":"1804182004","desa":"Muara Jaya I","kecamatan":"Kebun Tebu","kecCode":"180418"},"geometry":{"type":"Polygon","coordinates":[[[104.57221568970238,-5.080595316897749],[104.56559963911212,-5.092049148115327],[104.5465504189667,-5.094316001745427],[104.53501499224814,-5.073570176407096],[104.5461773999671,-5.064991494854934],[104.57221568970238,-5.080595316897749]]]}},{"type":"Feature","properties":{"code":"1804182005","desa":"Muara Jaya II","kecamatan":"Kebun Tebu","kecCode":"180418"},"geometry":{"type":"Polygon","coordinates":[[[104.51607994823108,-5.089135826725638],[104.51011239966755,-5.067257094830115],[104.51983809994839,-5.061128094583214],[104.5376800998568,-5.068835994075294],[104.54086744557623,-5.091454207911593],[104.53538947084746,-5.094150423067062],[104.53379630025908,-5.080214794854648],[104.51607994823108,-5.089135826725638]]]}},{"type":"Feature","properties":{"code":"1804182006","desa":"Tribudi Makmur","kecamatan":"Kebun Tebu","kecCode":"180418"},"geometry":{"type":"Polygon","coordinates":[[[104.49434639926697,-5.056618194176236],[104.49884244832037,-5.0471119051020255],[104.50885780044717,-5.046461594539282],[104.52005599938491,-5.050207494788549],[104.52167853733471,-5.061612137586868],[104.51006409887913,-5.067775395708432],[104.49434639926697,-5.056618194176236]]]}},{"type":"Feature","properties":{"code":"1804182007","desa":"Tugu Mulya","kecamatan":"Kebun Tebu","kecCode":"180418"},"geometry":{"type":"Polygon","coordinates":[[[104.52963939993838,-5.065836294601819],[104.53155449994027,-5.05551869473502],[104.54524929871621,-5.056292194431475],[104.5376800998568,-5.068835994075294],[104.52963939993838,-5.065836294601819]]]}},{"type":"Feature","properties":{"code":"1804182008","desa":"Cipta Mulya","kecamatan":"Kebun Tebu","kecCode":"180418"},"geometry":{"type":"Polygon","coordinates":[[[104.5677588816671,-5.022517414883706],[104.57295434426766,-5.043713290650981],[104.5651134071581,-5.052166369288998],[104.53552370005877,-5.056642194383672],[104.53437300131303,-5.044058094320382],[104.5677588816671,-5.022517414883706]]]}},{"type":"Feature","properties":{"code":"1804182009","desa":"Muara Baru","kecamatan":"Kebun Tebu","kecCode":"180418"},"geometry":{"type":"Polygon","coordinates":[[[104.51610980032704,-5.08942669445477],[104.53527690000895,-5.08092009446382],[104.53444370781092,-5.103429283488676],[104.52577109925686,-5.099370394885991],[104.51610980032704,-5.08942669445477]]]}},{"type":"Feature","properties":{"code":"1804182010","desa":"Sinar Luas","kecamatan":"Kebun Tebu","kecCode":"180418"},"geometry":{"type":"Polygon","coordinates":[[[104.59045147305709,-5.069288137226731],[104.57399430229526,-5.073550582877697],[104.57221568970238,-5.080595316897749],[104.55678820041514,-5.067417394488053],[104.5376800998568,-5.068835994075294],[104.54524929871621,-5.056292194431475],[104.5651134071581,-5.052166369288998],[104.57295434426766,-5.043713290650981],[104.59045147305709,-5.069288137226731]]]}},{"type":"Feature","properties":{"code":"1804192001","desa":"Sidodadi","kecamatan":"Air Hitam","kecCode":"180419"},"geometry":{"type":"Polygon","coordinates":[[[104.41383965897313,-5.074492380802378],[104.41673136965703,-5.106181568675621],[104.40072818475795,-5.114634386510286],[104.39260245933609,-5.090482879848232],[104.41383965897313,-5.074492380802378]]]}},{"type":"Feature","properties":{"code":"1804192002","desa":"Semarang Jaya","kecamatan":"Air Hitam","kecCode":"180419"},"geometry":{"type":"Polygon","coordinates":[[[104.40964332697803,-5.058105710610444],[104.42519959468557,-5.056667423064982],[104.42970472958967,-5.074602063917619],[104.4235859923997,-5.087212687686006],[104.41378873036568,-5.09188666760141],[104.40964332697803,-5.058105710610444]]]}},{"type":"Feature","properties":{"code":"1804192003","desa":"Sumber Alam","kecamatan":"Air Hitam","kecCode":"180419"},"geometry":{"type":"Polygon","coordinates":[[[104.40072818475795,-5.114634386510286],[104.41648923169276,-5.106535696516011],[104.4130301342334,-5.09244083164435],[104.4235859923997,-5.087212687686006],[104.42019094195848,-5.096650512272291],[104.426430021928,-5.113679148217625],[104.41337470857599,-5.108897581506582],[104.40072818475795,-5.114634386510286]]]}},{"type":"Feature","properties":{"code":"1804192004","desa":"Gunung Terang","kecamatan":"Air Hitam","kecCode":"180419"},"geometry":{"type":"Polygon","coordinates":[[[104.45342740355186,-5.095675202910203],[104.45281499941274,-5.103992294162476],[104.424827743006,-5.092212848109952],[104.42586297869353,-5.080527240916858],[104.45342740355186,-5.095675202910203]]]}},{"type":"Feature","properties":{"code":"1804192005","desa":"Suka Jadi","kecamatan":"Air Hitam","kecCode":"180419"},"geometry":{"type":"Polygon","coordinates":[[[104.437562999333,-5.122145181589742],[104.44191449855532,-5.148520493134144],[104.45391291514898,-5.148658770193827],[104.42392465100191,-5.174973880221272],[104.41461499598533,-5.14886691828121],[104.42088859733097,-5.118008348745399],[104.426430021928,-5.113679148217625],[104.437562999333,-5.122145181589742]]]}},{"type":"Feature","properties":{"code":"1804192006","desa":"Sri Menanti","kecamatan":"Air Hitam","kecCode":"180419"},"geometry":{"type":"Polygon","coordinates":[[[104.35151186128341,-5.118144411674176],[104.3954578176242,-5.067716823762928],[104.3975923917755,-5.074537050128371],[104.40196566628252,-5.0700206026569035],[104.4107374556691,-5.074863047175151],[104.3703127255519,-5.103878243040004],[104.36614151791677,-5.1146730915324286],[104.35151186128341,-5.118144411674176]]]}},{"type":"Feature","properties":{"code":"1804192007","desa":"Sinar Jaya","kecamatan":"Air Hitam","kecCode":"180419"},"geometry":{"type":"Polygon","coordinates":[[[104.4480188492905,-5.102192038487052],[104.43858965998487,-5.122682939300531],[104.426430021928,-5.113679148217625],[104.42018142443322,-5.096517263322099],[104.42434091030479,-5.090295521388655],[104.4480188492905,-5.102192038487052]]]}},{"type":"Feature","properties":{"code":"1804192008","desa":"Rigis Jaya","kecamatan":"Air Hitam","kecCode":"180419"},"geometry":{"type":"Polygon","coordinates":[[[104.44594782932892,-5.058593345506381],[104.45648741696078,-5.061394030407214],[104.46542764666862,-5.053487473373325],[104.45224563412876,-5.0965175484072],[104.42637023230043,-5.080072137197266],[104.43233097299606,-5.0707159692540555],[104.44488611670094,-5.067425591808507],[104.44594782932892,-5.058593345506381]]]}},{"type":"Feature","properties":{"code":"1804192009","desa":"Suka Damai","kecamatan":"Air Hitam","kecCode":"180419"},"geometry":{"type":"Polygon","coordinates":[[[104.38943509385454,-5.12743534009837],[104.41337470857599,-5.108897581506582],[104.42344373134318,-5.114459261528427],[104.41461499598533,-5.14886691828121],[104.42392465100191,-5.174973880221272],[104.3645016922993,-5.190219223503719],[104.35767993528083,-5.179253391407425],[104.34966601087773,-5.179988256228807],[104.35002866698942,-5.162621395154786],[104.36284689027183,-5.149410331828345],[104.38699969557956,-5.140760403285819],[104.38943509385454,-5.12743534009837]]]}},{"type":"Feature","properties":{"code":"1804192010","desa":"Manggarai","kecamatan":"Air Hitam","kecCode":"180419"},"geometry":{"type":"Polygon","coordinates":[[[104.39225715384462,-5.091210053667583],[104.40219160655745,-5.115966678160859],[104.38943509385454,-5.12743534009837],[104.38699969557956,-5.140760403285819],[104.36028421184695,-5.151908765381647],[104.36160703633571,-5.116420269220753],[104.3703127255519,-5.103878243040004],[104.39225715384462,-5.091210053667583]]]}},{"type":"Feature","properties":{"code":"1804202001","desa":"Pahayu Jaya","kecamatan":"Pagar Dewa","kecCode":"180420"},"geometry":{"type":"Polygon","coordinates":[[[104.31987690789306,-4.980569008432977],[104.30392191406514,-4.967543650612331],[104.30540362627642,-4.930739786243354],[104.31766922695334,-4.9159350289249035],[104.32698234525905,-4.923878746844972],[104.32184075204913,-4.93093237336137],[104.33162944444338,-4.93482780028974],[104.33850414185274,-4.9473546018474925],[104.34420863422115,-4.946388918828646],[104.36452158620233,-4.973607296226878],[104.35428631925828,-4.985361722240703],[104.32998758995534,-4.972216197008452],[104.31987690789306,-4.980569008432977]]]}},{"type":"Feature","properties":{"code":"1804202002","desa":"Basungan","kecamatan":"Pagar Dewa","kecCode":"180420"},"geometry":{"type":"Polygon","coordinates":[[[104.41550200091666,-4.87215739334059],[104.4225413381123,-4.902635936359499],[104.44237159787097,-4.921436767333769],[104.42082050066561,-4.949252659694682],[104.3848917512534,-4.951065967230945],[104.37340266390186,-4.943157321971261],[104.37543354981852,-4.9228590352556045],[104.39785647859365,-4.881367501491113],[104.41550200091666,-4.87215739334059]]]}},{"type":"Feature","properties":{"code":"1804202003","desa":"Mekar Sari","kecamatan":"Pagar Dewa","kecCode":"180420"},"geometry":{"type":"Polygon","coordinates":[[[104.30392191406514,-4.967543650612331],[104.2805244862161,-4.969124500487046],[104.28543554181687,-4.9501017285232365],[104.27280981931779,-4.933840797043148],[104.28124743502116,-4.9277479729248945],[104.27726604189439,-4.911023482299365],[104.28149012696787,-4.90007389555666],[104.29488072736375,-4.92190697606638],[104.28734762729123,-4.946721532187724],[104.3053833690473,-4.9537437786599785],[104.30392191406514,-4.967543650612331]]]}},{"type":"Feature","properties":{"code":"1804202004","desa":"Sidomulyo","kecamatan":"Pagar Dewa","kecCode":"180420"},"geometry":{"type":"Polygon","coordinates":[[[104.28227154789369,-4.8562451461045715],[104.32571513124839,-4.870823972141575],[104.34804659807213,-4.869855103723993],[104.34988587173562,-4.90015989682454],[104.33199651802494,-4.893352748400369],[104.30539795964819,-4.930847668016549],[104.3036253068625,-4.924352539375993],[104.29251847005139,-4.925170502453704],[104.28020705521145,-4.898956284668766],[104.28777766240925,-4.872051004442007],[104.28227154789369,-4.8562451461045715]]]}},{"type":"Feature","properties":{"code":"1804202005","desa":"Sidodadi","kecamatan":"Pagar Dewa","kecCode":"180420"},"geometry":{"type":"Polygon","coordinates":[[[104.36221354092224,-4.946378279848826],[104.31766922695334,-4.9159350289249035],[104.33199651802494,-4.893352748400369],[104.34988587173562,-4.90015989682454],[104.35461977528244,-4.916018006672043],[104.37508138969444,-4.929074187856423],[104.373678680227,-4.94302407122247],[104.36221354092224,-4.946378279848826]]]}},{"type":"Feature","properties":{"code":"1804202006","desa":"Marga Jaya","kecamatan":"Pagar Dewa","kecCode":"180420"},"geometry":{"type":"Polygon","coordinates":[[[104.43792883634677,-4.957165907684526],[104.40607596733207,-4.98042082624029],[104.39109400038784,-4.975987858337665],[104.36880890440743,-4.953980448745956],[104.37056677323807,-4.9472197269231],[104.36305246180173,-4.946405318865451],[104.42082050066561,-4.949252659694682],[104.43608950332799,-4.928004072863723],[104.44005007804871,-4.924328730724172],[104.43721699596766,-4.934405484053302],[104.44393440734706,-4.943920218660806],[104.43792883634677,-4.957165907684526]]]}},{"type":"Feature","properties":{"code":"1804202007","desa":"Suka Jaya","kecamatan":"Pagar Dewa","kecCode":"180420"},"geometry":{"type":"Polygon","coordinates":[[[104.3665583267055,-5.005641415473159],[104.34794287656258,-5.008993599725649],[104.32031983389328,-4.979704891248597],[104.32998758995534,-4.972216197008452],[104.34513051755943,-4.984462213136594],[104.3578005127835,-4.9840125916841895],[104.35879238855794,-4.999720891566157],[104.3665583267055,-5.005641415473159]]]}},{"type":"Feature","properties":{"code":"1804202008","desa":"Batu Api","kecamatan":"Pagar Dewa","kecCode":"180420"},"geometry":{"type":"Polygon","coordinates":[[[104.41550200091666,-4.87215739334059],[104.39785647859365,-4.881367501491113],[104.37508138969444,-4.929074187856423],[104.35108032699553,-4.911853950450124],[104.3501666139981,-4.882008370970973],[104.35740609261717,-4.871227381930686],[104.39406300060705,-4.871433178290829],[104.41183823035009,-4.864029853994556],[104.41550200091666,-4.87215739334059]]]}},{"type":"Feature","properties":{"code":"1804202009","desa":"Pagar Dewa","kecamatan":"Pagar Dewa","kecCode":"180420"},"geometry":{"type":"Polygon","coordinates":[[[104.39109400038784,-4.975987858337665],[104.38880880778031,-4.987316482342858],[104.36373906540558,-5.003827085407728],[104.35557322302587,-4.990003994758829],[104.3642930253029,-4.9717007928464145],[104.35935683904692,-4.97263090587975],[104.34743344299903,-4.950061743765766],[104.32205718109405,-4.929745366287804],[104.32698234525905,-4.923878746844972],[104.3473450882053,-4.939344013937466],[104.37056677323807,-4.9472197269231],[104.36880890440743,-4.953980448745956],[104.39109400038784,-4.975987858337665]]]}},{"type":"Feature","properties":{"code":"1804202010","desa":"Suka Mulya","kecamatan":"Pagar Dewa","kecCode":"180420"},"geometry":{"type":"Polygon","coordinates":[[[104.3036253068625,-4.924352539375993],[104.3053833690473,-4.9537437786599785],[104.28734762729123,-4.946721532187724],[104.29251847005139,-4.925170502453704],[104.3036253068625,-4.924352539375993]]]}},{"type":"Feature","properties":{"code":"1804212001","desa":"Argomulyo","kecamatan":"Batu Ketulis","kecCode":"180421"},"geometry":{"type":"Polygon","coordinates":[[[104.24383483840711,-4.92486667639324],[104.24796247029182,-4.901591812673252],[104.24401460928685,-4.891926028834323],[104.28604793786211,-4.881701742623053],[104.27728507784411,-4.910847402237517],[104.27953517440879,-4.929989423405146],[104.26245577801181,-4.937255515653977],[104.25497346625251,-4.926910033206612],[104.24383483840711,-4.92486667639324]]]}},{"type":"Feature","properties":{"code":"1804212002","desa":"Batu Kebayan","kecamatan":"Batu Ketulis","kecCode":"180421"},"geometry":{"type":"Polygon","coordinates":[[[104.23655805141298,-5.03589824682978],[104.24380439725518,-5.002610229835624],[104.26223970869567,-4.9803476987674475],[104.27124978694815,-4.998760860786376],[104.25871265306654,-5.007548880228878],[104.26120610797557,-5.016568877994343],[104.254020135421,-5.02204163844823],[104.2528582518069,-5.033468382085851],[104.26151839485811,-5.035225701428854],[104.26080747718339,-5.0404928498835595],[104.25308260567776,-5.046591760613465],[104.24392241438795,-5.032417795871318],[104.23655805141298,-5.03589824682978]]]}},{"type":"Feature","properties":{"code":"1804212003","desa":"Atar Bawang","kecamatan":"Batu Ketulis","kecCode":"180421"},"geometry":{"type":"Polygon","coordinates":[[[104.21805317021767,-5.060087624842352],[104.22958588368164,-5.046106456760305],[104.25013532228733,-5.059789521168168],[104.27582587026774,-5.058961229376738],[104.26142788079208,-5.0800907297812765],[104.2384755678932,-5.081322854043091],[104.21805317021767,-5.060087624842352]]]}},{"type":"Feature","properties":{"code":"1804212004","desa":"Campang Tiga","kecamatan":"Batu Ketulis","kecCode":"180421"},"geometry":{"type":"Polygon","coordinates":[[[104.22962984074461,-4.947515249543064],[104.22631278940376,-4.927727098760891],[104.23615588178858,-4.938093673907554],[104.24469419368216,-4.924530572765295],[104.26182631373348,-4.9342149788658025],[104.25680344902003,-4.9501861307965],[104.22962984074461,-4.947515249543064]]]}},{"type":"Feature","properties":{"code":"1804212005","desa":"Luas","kecamatan":"Batu Ketulis","kecCode":"180421"},"geometry":{"type":"Polygon","coordinates":[[[104.20835156097581,-4.990328637426625],[104.21598831420935,-4.9436253480493],[104.25293606384832,-4.951577542978984],[104.2393009656671,-4.958664457900907],[104.22302922341999,-4.982927757487596],[104.20835156097581,-4.990328637426625]]]}},{"type":"Feature","properties":{"code":"1804212005","desa":"Luas","kecamatan":"Batu Ketulis","kecCode":"180421"},"geometry":{"type":"Polygon","coordinates":[[[104.25132474943767,-4.882401528488779],[104.26983262357679,-4.87674711127699],[104.2789588573654,-4.857754405447869],[104.28427985543107,-4.858892585629583],[104.28604793786211,-4.881701742623053],[104.26211192672412,-4.888411444107693],[104.25078561486428,-4.888053435692648],[104.25132474943767,-4.882401528488779]]]}},{"type":"Feature","properties":{"code":"1804212006","desa":"Bakhu","kecamatan":"Batu Ketulis","kecCode":"180421"},"geometry":{"type":"Polygon","coordinates":[[[104.21908119424177,-5.013389268246372],[104.20878546587657,-4.992971333927154],[104.2257904883404,-4.980472057019865],[104.24482331924081,-4.95359916497717],[104.25680344902003,-4.9501861307965],[104.26245577801181,-4.937255515653977],[104.27280683626657,-4.934975684806884],[104.28543554181687,-4.9501017285232365],[104.2805244862161,-4.969124500487046],[104.26673585127854,-4.976006535457878],[104.24380439725518,-5.002610229835624],[104.23890081681928,-5.03176074129259],[104.21908119424177,-5.013389268246372]]]}},{"type":"Feature","properties":{"code":"1804212007","desa":"Way Ngison","kecamatan":"Batu Ketulis","kecCode":"180421"},"geometry":{"type":"Polygon","coordinates":[[[104.22958588368164,-5.046106456760305],[104.24392241438795,-5.032417795871318],[104.26495638882636,-5.06044634731907],[104.25013532228733,-5.059789521168168],[104.22958588368164,-5.046106456760305]]]}},{"type":"Feature","properties":{"code":"1804212008","desa":"Kubu Liku Jaya","kecamatan":"Batu Ketulis","kecCode":"180421"},"geometry":{"type":"Polygon","coordinates":[[[104.2805244862161,-4.969124500487046],[104.27847348606257,-5.029281809537785],[104.25373490104487,-5.034429619755785],[104.254020135421,-5.02204163844823],[104.26120610797557,-5.016568877994343],[104.25871265306654,-5.007548880228878],[104.27124978694815,-4.998760860786376],[104.26223970869567,-4.9803476987674475],[104.2805244862161,-4.969124500487046]]]}},{"type":"Feature","properties":{"code":"1804212009","desa":"Sumber Rejo","kecamatan":"Batu Ketulis","kecCode":"180421"},"geometry":{"type":"Polygon","coordinates":[[[104.26142788079208,-5.0800907297812765],[104.26714825968452,-5.10565799687077],[104.27322899332349,-5.105927326736157],[104.28744676855361,-5.089384218575219],[104.28959284503384,-5.102695780240845],[104.29665110486468,-5.103685591170829],[104.30019611365975,-5.123450385660328],[104.28797454199155,-5.145008036203428],[104.28146055725898,-5.13233428722199],[104.29012666641256,-5.121798085548424],[104.25058622887144,-5.123036455601851],[104.24164713141003,-5.134095942196609],[104.23630977737439,-5.120817423421601],[104.21613073804319,-5.103722539817015],[104.21574226599284,-5.098364474400151],[104.23338491588123,-5.098746176353805],[104.23405781201846,-5.091421062498336],[104.22400318829654,-5.088840166509375],[104.23453764529614,-5.086854827659131],[104.23274167938506,-5.081104795426794],[104.26142788079208,-5.0800907297812765]]]}},{"type":"Feature","properties":{"code":"1804212010","desa":"Atar Kuwau","kecamatan":"Batu Ketulis","kecCode":"180421"},"geometry":{"type":"Polygon","coordinates":[[[104.194411776982,-5.08022584572398],[104.20247243825246,-5.062450793165547],[104.21805317021767,-5.060087624842352],[104.2346369223561,-5.083144412859086],[104.22400318829654,-5.088840166509375],[104.23405781201846,-5.091421062498336],[104.23338491588123,-5.098746176353805],[104.21356643724135,-5.097548321657751],[104.194411776982,-5.08022584572398]]]}},{"type":"Feature","properties":{"code":"1804222001","desa":"Lombok","kecamatan":"Lumbok Seminung","kecCode":"180422"},"geometry":{"type":"Polygon","coordinates":[[[103.957858696122,-4.912561850898611],[103.93446661204455,-4.943719306518661],[103.94713248297778,-4.955214481369297],[103.95333699210858,-4.972743526180778],[103.93615249644061,-4.974747329011996],[103.93391550569606,-4.953742298375895],[103.92082635175477,-4.950686369690872],[103.91789647294394,-4.936587234838205],[103.94283834881081,-4.913989526443932],[103.957858696122,-4.912561850898611]]]}},{"type":"Feature","properties":{"code":"1804222002","desa":"Heni Arong","kecamatan":"Lumbok Seminung","kecCode":"180422"},"geometry":{"type":"Polygon","coordinates":[[[103.86360403140098,-4.917499708089899],[103.93559913009585,-4.884599380735584],[103.96120505456969,-4.910196949581905],[103.93047549364917,-4.906678599393843],[103.91396441392664,-4.960491299334621],[103.86360403140098,-4.917499708089899]]]}},{"type":"Feature","properties":{"code":"1804222003","desa":"Suka Banjar","kecamatan":"Lumbok Seminung","kecCode":"180422"},"geometry":{"type":"Polygon","coordinates":[[[103.87698402069606,-4.927275213714957],[103.89896909834528,-4.94793448200427],[103.88227971813454,-4.950002035976586],[103.8733549315849,-4.9641060973154145],[103.86089809007484,-4.949722342323906],[103.87698402069606,-4.927275213714957]]]}},{"type":"Feature","properties":{"code":"1804222004","desa":"Lombok Timur","kecamatan":"Lumbok Seminung","kecCode":"180422"},"geometry":{"type":"Polygon","coordinates":[[[103.99416600975358,-4.971835529275246],[103.98061099979786,-4.98316135638877],[103.9727797996481,-4.982600578731587],[103.97263888937327,-4.9690833277251505],[103.95333699210858,-4.972743526180778],[103.94569319358607,-4.953307897049808],[103.9682102966679,-4.956719399685074],[103.98738975393405,-4.951254273575985],[103.99659826759603,-4.960676938290481],[103.988972680345,-4.964481712657411],[103.99416600975358,-4.971835529275246]]]}},{"type":"Feature","properties":{"code":"1804222005","desa":"Suka Banjar II Ujung Rembun","kecamatan":"Lumbok Seminung","kecCode":"180422"},"geometry":{"type":"Polygon","coordinates":[[[103.8557027812584,-4.891922495398049],[103.8452760711338,-4.911128001507459],[103.8216050155591,-4.916555038629933],[103.81231757739435,-4.89182051497607],[103.8557027812584,-4.891922495398049]]]}},{"type":"Feature","properties":{"code":"1804222006","desa":"Suka Maju","kecamatan":"Lumbok Seminung","kecCode":"180422"},"geometry":{"type":"Polygon","coordinates":[[[103.94569319358607,-4.953307897049808],[103.93446661204455,-4.943719306518661],[103.94433146082832,-4.927873682858318],[103.95312836738032,-4.936971709401639],[103.94569319358607,-4.953307897049808]]]}},{"type":"Feature","properties":{"code":"1804222007","desa":"Ujung","kecamatan":"Lumbok Seminung","kecCode":"180422"},"geometry":{"type":"Polygon","coordinates":[[[103.957858696122,-4.912561850898611],[103.94283834881081,-4.913989526443932],[103.93189282789177,-4.928563726368324],[103.92189039902274,-4.9321959388211996],[103.93064681359964,-4.906497761019038],[103.957858696122,-4.912561850898611]]]}},{"type":"Feature","properties":{"code":"1804222008","desa":"Keagungan","kecamatan":"Lumbok Seminung","kecCode":"180422"},"geometry":{"type":"Polygon","coordinates":[[[103.91903077075352,-4.947640539493107],[103.93391550569606,-4.953742298375895],[103.93615249644061,-4.974747329011996],[103.89723876315843,-4.97293145750858],[103.8733549315849,-4.9641060973154145],[103.88442464258328,-4.948820831328893],[103.89896909834528,-4.94793448200427],[103.91541112542312,-4.960243835585388],[103.91903077075352,-4.947640539493107]]]}},{"type":"Feature","properties":{"code":"1804222009","desa":"Tawan Suka Mulya","kecamatan":"Lumbok Seminung","kecCode":"180422"},"geometry":{"type":"Polygon","coordinates":[[[103.84841655408076,-4.919495536632483],[103.86360403140098,-4.917499708089899],[103.8769483284027,-4.926081914984416],[103.86089809007484,-4.949722342323906],[103.83606944514882,-4.943069439321711],[103.83561398529724,-4.93365356358928],[103.84841655408076,-4.919495536632483]]]}},{"type":"Feature","properties":{"code":"1804222010","desa":"Pancur Mas","kecamatan":"Lumbok Seminung","kecCode":"180422"},"geometry":{"type":"Polygon","coordinates":[[[103.8452760711338,-4.911128001507459],[103.84841655408076,-4.919495536632483],[103.83155555624398,-4.943055550192067],[103.8216050155591,-4.916555038629933],[103.8452760711338,-4.911128001507459]]]}},{"type":"Feature","properties":{"code":"1804222011","desa":"Lombok Selatan","kecamatan":"Lumbok Seminung","kecCode":"180422"},"geometry":{"type":"Polygon","coordinates":[[[103.96120505456969,-4.910196949581905],[103.97189206086995,-4.911732913394061],[103.96726277275882,-4.940292415583923],[103.97449921976323,-4.9552507429334485],[103.9682102966679,-4.956719399685074],[103.9471345046537,-4.951983729874631],[103.95312836738032,-4.936971709401639],[103.94627116088542,-4.927860384583312],[103.96120505456969,-4.910196949581905]]]}},{"type":"Feature","properties":{"code":"1804232001","desa":"Suoh","kecamatan":"Bandar Negeri Suoh","kecCode":"180423"},"geometry":{"type":"Polygon","coordinates":[[[104.33385860928745,-5.127903564027217],[104.36160703633571,-5.116420269220753],[104.36442480206301,-5.124992612351111],[104.36043839521584,-5.152603663432072],[104.34977132598594,-5.16334308850553],[104.3510033603169,-5.177932813426459],[104.33921803988068,-5.183831130374222],[104.33376430367973,-5.175045220741189],[104.32077877322187,-5.199255883008678],[104.29759788323577,-5.210216381225966],[104.30316670567896,-5.234852238459908],[104.29758129524066,-5.236989056417551],[104.27654552935275,-5.20334279538567],[104.29191154728016,-5.201432008534296],[104.29677246927412,-5.18755850369002],[104.30846276374562,-5.184086239260184],[104.30971323058115,-5.169852952537807],[104.33037586595349,-5.158206677194402],[104.32667811720141,-5.153567142212608],[104.29738031385045,-5.168266297539344],[104.28892046600673,-5.158164525970144],[104.28814041834568,-5.145166259326751],[104.30438236875135,-5.1411094346681745],[104.33143436440446,-5.112671421893156],[104.33385860928745,-5.127903564027217]]]}},{"type":"Feature","properties":{"code":"1804232001","desa":"Suoh","kecamatan":"Bandar Negeri Suoh","kecCode":"180423"},"geometry":{"type":"Polygon","coordinates":[[[104.33281709093603,-5.104808784150663],[104.33190308655827,-5.110583815737215],[104.33148635780924,-5.111990833855143],[104.33137440570431,-5.107418091521644],[104.33281709093603,-5.104808784150663]]]}},{"type":"Feature","properties":{"code":"1804232002","desa":"Srimulyo","kecamatan":"Bandar Negeri Suoh","kecCode":"180423"},"geometry":{"type":"Polygon","coordinates":[[[104.2785244803206,-5.255259023883898],[104.29125472922243,-5.252280057380883],[104.29996235737696,-5.260090648658668],[104.31497215923783,-5.251018876023754],[104.32080687793513,-5.267612990133908],[104.3022857486884,-5.277877152284847],[104.29473405693123,-5.261889751403213],[104.28989281929823,-5.264408104040497],[104.2785244803206,-5.255259023883898]]]}},{"type":"Feature","properties":{"code":"1804232003","desa":"Bandar Agung","kecamatan":"Bandar Negeri Suoh","kecCode":"180423"},"geometry":{"type":"Polygon","coordinates":[[[104.35551858111768,-5.280495791021386],[104.33878483375314,-5.258869907115969],[104.32080687793513,-5.267612990133908],[104.29953047864869,-5.230013429001337],[104.29693163488707,-5.211215755546648],[104.32077877322187,-5.199255883008678],[104.33376430367973,-5.175045220741189],[104.33921803988068,-5.183831130374222],[104.35767993528083,-5.179253391407425],[104.3645016922993,-5.190219223503719],[104.39449951623975,-5.184316641071475],[104.37400445604088,-5.199481709069461],[104.38085730262247,-5.213187404017381],[104.37724052343144,-5.254304491559105],[104.36639017956321,-5.278860528565612],[104.35551858111768,-5.280495791021386]]]}},{"type":"Feature","properties":{"code":"1804232004","desa":"Ringin Jaya","kecamatan":"Bandar Negeri Suoh","kecCode":"180423"},"geometry":{"type":"Polygon","coordinates":[[[104.28146055725898,-5.13233428722199],[104.29355359871965,-5.170317151101271],[104.26427755356633,-5.184685886515456],[104.24164713141003,-5.134095942196609],[104.25058622887144,-5.123036455601851],[104.29012666641256,-5.121798085548424],[104.28146055725898,-5.13233428722199]]]}},{"type":"Feature","properties":{"code":"1804232005","desa":"Bumi Hantatai","kecamatan":"Bandar Negeri Suoh","kecCode":"180423"},"geometry":{"type":"Polygon","coordinates":[[[104.08144444360624,-5.118888883053654],[104.09047685022652,-5.112530271499551],[104.09315270293494,-5.091756632828275],[104.12874523090773,-5.033375154765362],[104.13338027468001,-5.039847250869055],[104.12513916803823,-5.054433354220069],[104.1353840883051,-5.066155270641379],[104.13583107294572,-5.084723319298889],[104.1460912987745,-5.085328347197976],[104.16670201988238,-5.108062247124259],[104.21868283774283,-5.125881097565669],[104.22088793043372,-5.1298304847160985],[104.2113449508089,-5.130664948554723],[104.23081874808679,-5.154732482819375],[104.23502446540681,-5.17279079933907],[104.24273153663118,-5.173895023818294],[104.2521141968128,-5.164306876652827],[104.2601372664218,-5.168225362198491],[104.26790845661003,-5.21369870637164],[104.25913533532751,-5.217956971973738],[104.24197655937076,-5.206353460292831],[104.21253917314436,-5.213172173099262],[104.14925326472644,-5.1903560427623585],[104.12077777807207,-5.174777772257475],[104.0852219694184,-5.142885795356878],[104.08144444360624,-5.118888883053654]]]}},{"type":"Feature","properties":{"code":"1804232006","desa":"Gunungratu","kecamatan":"Bandar Negeri Suoh","kecCode":"180423"},"geometry":{"type":"Polygon","coordinates":[[[104.28523099731274,-5.246238509907579],[104.25997588937588,-5.2229993384806495],[104.27169330829958,-5.196044563165462],[104.29530688190715,-5.233239370022429],[104.29566590475774,-5.241233112731297],[104.28523099731274,-5.246238509907579]]]}},{"type":"Feature","properties":{"code":"1804232007","desa":"Tanjungsari","kecamatan":"Bandar Negeri Suoh","kecCode":"180423"},"geometry":{"type":"Polygon","coordinates":[[[104.32507738421394,-5.309296861005458],[104.31176975886734,-5.298529672961091],[104.30752420787591,-5.277175116315321],[104.31704472963065,-5.274323943474886],[104.3274940702952,-5.285728729265592],[104.32507738421394,-5.309296861005458]]]}},{"type":"Feature","properties":{"code":"1804232008","desa":"Negeri Jaya","kecamatan":"Bandar Negeri Suoh","kecCode":"180423"},"geometry":{"type":"Polygon","coordinates":[[[104.29480055729994,-5.165471061630752],[104.30239969638893,-5.168918204398689],[104.32667811720141,-5.153567142212608],[104.33037586595349,-5.158206677194402],[104.30971323058115,-5.169852952537807],[104.30846276374562,-5.184086239260184],[104.29677246927412,-5.18755850369002],[104.29191154728016,-5.201432008534296],[104.27654552935275,-5.20334279538567],[104.27208728240218,-5.1959851845280625],[104.26737118003598,-5.201411767493053],[104.26284954527033,-5.1844561537996325],[104.28912185299116,-5.174564489041288],[104.29480055729994,-5.165471061630752]]]}},{"type":"Feature","properties":{"code":"1804232009","desa":"Tembelang","kecamatan":"Bandar Negeri Suoh","kecCode":"180423"},"geometry":{"type":"Polygon","coordinates":[[[104.2113449508089,-5.130664948554723],[104.23809850464232,-5.126656643219774],[104.25839373278461,-5.167581386460237],[104.2521141968128,-5.164306876652827],[104.24273153663118,-5.173895023818294],[104.23502446540681,-5.17279079933907],[104.23081874808679,-5.154732482819375],[104.2113449508089,-5.130664948554723]]]}},{"type":"Feature","properties":{"code":"1804232010","desa":"Tri Mekar Jaya","kecamatan":"Bandar Negeri Suoh","kecCode":"180423"},"geometry":{"type":"Polygon","coordinates":[[[104.29936287020034,-5.260139872151463],[104.28523099731274,-5.246238509907579],[104.29566590475774,-5.241233112731297],[104.29550901622817,-5.234250216994369],[104.30355267491608,-5.235052018355626],[104.31498304373251,-5.250951225422175],[104.29936287020034,-5.260139872151463]]]}}]}