{"type":"FeatureCollection","features":[{"type":"Feature","properties":{"code":"1810011001","desa":"Fajaresuk","kecamatan":"Pringsewu","kecCode":"181001"},"geometry":{"type":"Polygon","coordinates":[[[104.96977984006764,-5.342860561575766],[104.96206129978924,-5.351313307464682],[104.96575295113784,-5.366130836055729],[104.94054839499249,-5.355077453159665],[104.96977984006764,-5.342860561575766]]]}},{"type":"Feature","properties":{"code":"1810011002","desa":"Pringsewu Utara","kecamatan":"Pringsewu","kecCode":"181001"},"geometry":{"type":"Polygon","coordinates":[[[104.98015229499246,-5.348706248398831],[104.98715798675175,-5.357657080205159],[104.97700242672067,-5.356097500196195],[104.97470787217058,-5.342549943835287],[104.98170494842469,-5.341360518484756],[104.98015229499246,-5.348706248398831]]]}},{"type":"Feature","properties":{"code":"1810011003","desa":"Pringsewu Selatan","kecamatan":"Pringsewu","kecCode":"181001"},"geometry":{"type":"Polygon","coordinates":[[[104.96575295113784,-5.366130836055729],[104.96445673489045,-5.356017382293074],[104.97693228679564,-5.356095407473798],[104.9772963233667,-5.368222983788078],[104.96575295113784,-5.366130836055729]]]}},{"type":"Feature","properties":{"code":"1810011004","desa":"Pringsewu Barat","kecamatan":"Pringsewu","kecCode":"181001"},"geometry":{"type":"Polygon","coordinates":[[[104.97700242672067,-5.356097500196195],[104.96206129978924,-5.351313307464682],[104.97338710173341,-5.341425747212014],[104.97700242672067,-5.356097500196195]]]}},{"type":"Feature","properties":{"code":"1810011005","desa":"Pringsewu Timur","kecamatan":"Pringsewu","kecCode":"181001"},"geometry":{"type":"Polygon","coordinates":[[[104.97700242672067,-5.356097500196195],[104.98715798675175,-5.357657080205159],[104.98191169806647,-5.369983717856909],[104.9772963233667,-5.368222983788078],[104.97700242672067,-5.356097500196195]]]}},{"type":"Feature","properties":{"code":"1810012006","desa":"Margakaya","kecamatan":"Pringsewu","kecCode":"181001"},"geometry":{"type":"Polygon","coordinates":[[[104.96700977797893,-5.366880140391935],[104.99071067575714,-5.372502376263726],[104.99272979494413,-5.379543718041085],[104.97940692608881,-5.387602039267463],[104.96505582186875,-5.387071326845553],[104.96700977797893,-5.366880140391935]]]}},{"type":"Feature","properties":{"code":"1810012007","desa":"Waluyojati","kecamatan":"Pringsewu","kecCode":"181001"},"geometry":{"type":"Polygon","coordinates":[[[104.96045695242645,-5.365513727563622],[104.96700977797893,-5.366880140391935],[104.96493830296039,-5.384571199868829],[104.94417343085921,-5.389187219377812],[104.94398279526983,-5.380383236069559],[104.96045695242645,-5.365513727563622]]]}},{"type":"Feature","properties":{"code":"1810012008","desa":"Sidoharjo","kecamatan":"Pringsewu","kecCode":"181001"},"geometry":{"type":"Polygon","coordinates":[[[104.9816771198033,-5.366573173898928],[104.99660592242543,-5.350032528980837],[105.00471334394575,-5.3600125485329935],[104.98798895942296,-5.372524071508731],[104.9816771198033,-5.366573173898928]]]}},{"type":"Feature","properties":{"code":"1810012009","desa":"Podomoro","kecamatan":"Pringsewu","kecCode":"181001"},"geometry":{"type":"Polygon","coordinates":[[[104.98806350602604,-5.352738711322567],[104.97883462002174,-5.340389609505496],[104.99179633373386,-5.332262195165036],[104.99969595520422,-5.332388779239476],[105.00177324433979,-5.343151252138377],[105.01192295607962,-5.343133794498806],[105.00629096255796,-5.3477385580931385],[104.99709373538764,-5.340347572495135],[104.99888501133425,-5.347438279858182],[104.98806350602604,-5.352738711322567]]]}},{"type":"Feature","properties":{"code":"1810012010","desa":"Bumi Arum","kecamatan":"Pringsewu","kecCode":"181001"},"geometry":{"type":"Polygon","coordinates":[[[104.95603344268926,-5.345294214264202],[104.94184536577107,-5.35278206044383],[104.94625172363817,-5.34558316553803],[104.9390795179055,-5.34113745424201],[104.9414940096409,-5.3311108704923065],[104.95656798622366,-5.3306968981657965],[104.95603344268926,-5.345294214264202]]]}},{"type":"Feature","properties":{"code":"1810012011","desa":"Fajar Agung","kecamatan":"Pringsewu","kecCode":"181001"},"geometry":{"type":"Polygon","coordinates":[[[104.94303626061497,-5.358569946939682],[104.96055628434509,-5.3648261985580845],[104.94762062579133,-5.380882787881933],[104.93761803234638,-5.379593409181343],[104.94303626061497,-5.358569946939682]]]}},{"type":"Feature","properties":{"code":"1810012012","desa":"Rejo Sari","kecamatan":"Pringsewu","kecCode":"181001"},"geometry":{"type":"Polygon","coordinates":[[[104.97601366979505,-5.341728294436491],[104.95603344268926,-5.345294214264202],[104.95659745880572,-5.330818659176086],[104.97332755042616,-5.331674730126155],[104.97601366979505,-5.341728294436491]]]}},{"type":"Feature","properties":{"code":"1810012013","desa":"Bumi Ayu","kecamatan":"Pringsewu","kecCode":"181001"},"geometry":{"type":"Polygon","coordinates":[[[104.94625172363817,-5.34558316553803],[104.93274044591493,-5.356302273127907],[104.92174345409717,-5.330107413249576],[104.93736855141759,-5.332824854203961],[104.94625172363817,-5.34558316553803]]]}},{"type":"Feature","properties":{"code":"1810012014","desa":"Podosari","kecamatan":"Pringsewu","kecCode":"181001"},"geometry":{"type":"Polygon","coordinates":[[[104.97925454226339,-5.341494396061022],[104.97332755042616,-5.331674730126155],[104.98808616084771,-5.327195829350042],[104.9922302125543,-5.332215700215309],[104.97925454226339,-5.341494396061022]]]}},{"type":"Feature","properties":{"code":"1810012015","desa":"Fajar Agung Barat","kecamatan":"Pringsewu","kecCode":"181001"},"geometry":{"type":"Polygon","coordinates":[[[104.94233776527567,-5.361655473212573],[104.94286938691272,-5.370062082081971],[104.93392696195978,-5.3790705685253535],[104.93036024173182,-5.367172937166749],[104.94233776527567,-5.361655473212573]]]}},{"type":"Feature","properties":{"code":"1810022001","desa":"Parerejo","kecamatan":"Gading Rejo","kecCode":"181002"},"geometry":{"type":"Polygon","coordinates":[[[104.99963019138026,-5.401497724990744],[105.00134348801163,-5.422948368801202],[104.97730601356174,-5.4403310435542656],[104.97885259387215,-5.403482631267068],[104.99128025238178,-5.407545044312942],[104.99963019138026,-5.401497724990744]]]}},{"type":"Feature","properties":{"code":"1810022002","desa":"Blitarejo","kecamatan":"Gading Rejo","kecCode":"181002"},"geometry":{"type":"Polygon","coordinates":[[[105.00092666483381,-5.390256927876995],[104.99855573985559,-5.40546440790283],[104.97885259387215,-5.403482631267068],[104.98356640296718,-5.388889956569708],[105.00092666483381,-5.390256927876995]]]}},{"type":"Feature","properties":{"code":"1810022003","desa":"Panjerejo","kecamatan":"Gading Rejo","kecCode":"181002"},"geometry":{"type":"Polygon","coordinates":[[[105.00982121437761,-5.395667857242439],[105.00273047013515,-5.38703666247734],[104.98009691743886,-5.385954447106487],[104.9982579626349,-5.369857333431984],[105.00276203184232,-5.380233683310036],[105.01624017584349,-5.383517758306813],[105.00982121437761,-5.395667857242439]]]}},{"type":"Feature","properties":{"code":"1810022004","desa":"Bulokarto","kecamatan":"Gading Rejo","kecCode":"181002"},"geometry":{"type":"Polygon","coordinates":[[[104.99555164629152,-5.36962812052431],[105.00477190420008,-5.359506545883641],[104.99660360757048,-5.351053941188208],[104.99709373538764,-5.340347572495135],[105.01311544632085,-5.362919944289739],[105.00587600637266,-5.371748029428851],[104.99555164629152,-5.36962812052431]]]}},{"type":"Feature","properties":{"code":"1810022005","desa":"Wates","kecamatan":"Gading Rejo","kecCode":"181002"},"geometry":{"type":"Polygon","coordinates":[[[105.01624017584349,-5.383517758306813],[105.00035201873072,-5.374353454426515],[105.01468682543668,-5.362636133540792],[105.01089262529449,-5.370250597969048],[105.01624017584349,-5.383517758306813]]]}},{"type":"Feature","properties":{"code":"1810022006","desa":"Tambahrejo","kecamatan":"Gading Rejo","kecCode":"181002"},"geometry":{"type":"Polygon","coordinates":[[[105.04288354473988,-5.377943413132547],[105.03141681363506,-5.389286446975027],[105.0212835990589,-5.371684361025302],[105.03562719843653,-5.366954293091817],[105.04288354473988,-5.377943413132547]]]}},{"type":"Feature","properties":{"code":"1810022007","desa":"Wonodadi","kecamatan":"Gading Rejo","kecCode":"181002"},"geometry":{"type":"Polygon","coordinates":[[[105.0617684569488,-5.387997481962575],[105.05390549544234,-5.388662652922762],[105.03739502635943,-5.368399702368579],[105.05666453633933,-5.370464007989695],[105.0617684569488,-5.387997481962575]]]}},{"type":"Feature","properties":{"code":"1810022008","desa":"Gadingrejo","kecamatan":"Gading Rejo","kecCode":"181002"},"geometry":{"type":"Polygon","coordinates":[[[105.0733655852536,-5.3936842064195964],[105.0617684569488,-5.387997481962575],[105.06059712415801,-5.373842558565948],[105.07519423792382,-5.371366134121033],[105.0733655852536,-5.3936842064195964]]]}},{"type":"Feature","properties":{"code":"1810022009","desa":"Tegalsari","kecamatan":"Gading Rejo","kecCode":"181002"},"geometry":{"type":"Polygon","coordinates":[[[105.07000472973452,-5.336310190279813],[105.06835363920912,-5.360856738539504],[105.05668319996975,-5.362517982409172],[105.05382274702218,-5.339673526125654],[105.07000472973452,-5.336310190279813]]]}},{"type":"Feature","properties":{"code":"1810022010","desa":"Tulung Agung","kecamatan":"Gading Rejo","kecCode":"181002"},"geometry":{"type":"Polygon","coordinates":[[[105.03734994694257,-5.369231985351234],[105.03273721085365,-5.3616060338824685],[105.03919041400643,-5.355843022634303],[105.03684332555905,-5.349881510326396],[105.05382274702218,-5.339673526125654],[105.05523002774362,-5.3626447661330845],[105.03734994694257,-5.369231985351234]]]}},{"type":"Feature","properties":{"code":"1810022011","desa":"Bulurejo","kecamatan":"Gading Rejo","kecCode":"181002"},"geometry":{"type":"Polygon","coordinates":[[[105.00692276507361,-5.3475576198935535],[105.01808783568515,-5.344804879649565],[105.01590362525218,-5.356088325312693],[105.02306743131696,-5.352313652153839],[105.02514637430579,-5.361778277436452],[105.03562719843653,-5.366954293091817],[105.03032542517826,-5.37062742110056],[105.01863898430173,-5.359737007050258],[105.01151715139547,-5.362031986977297],[105.00692276507361,-5.3475576198935535]]]}},{"type":"Feature","properties":{"code":"1810022012","desa":"Yogyakarta","kecamatan":"Gading Rejo","kecCode":"181002"},"geometry":{"type":"Polygon","coordinates":[[[105.02648795955173,-5.3275589683973195],[105.02935523925294,-5.3492597208630475],[105.02267285466854,-5.350895407798808],[105.00654115125319,-5.335382544086824],[105.02648795955173,-5.3275589683973195]]]}},{"type":"Feature","properties":{"code":"1810022013","desa":"Kediri","kecamatan":"Gading Rejo","kecCode":"181002"},"geometry":{"type":"Polygon","coordinates":[[[105.041950210334,-5.347363922112868],[105.03133821828419,-5.3622755494674506],[105.03282488665924,-5.35121959630895],[105.02533727879243,-5.343040942195624],[105.02885467480348,-5.332422144087388],[105.041950210334,-5.347363922112868]]]}},{"type":"Feature","properties":{"code":"1810022014","desa":"Mataram","kecamatan":"Gading Rejo","kecCode":"181002"},"geometry":{"type":"Polygon","coordinates":[[[105.06368205598216,-5.322214197658146],[105.06113565978289,-5.3366166261728045],[105.04339588671087,-5.347465660617158],[105.03120281635694,-5.33816828495325],[105.03817737898294,-5.3247675734931414],[105.04475064072955,-5.329419624339886],[105.05574313863501,-5.324990409308203],[105.05447710633341,-5.315050110112826],[105.06368205598216,-5.322214197658146]]]}},{"type":"Feature","properties":{"code":"1810022015","desa":"Wonosari","kecamatan":"Gading Rejo","kecCode":"181002"},"geometry":{"type":"Polygon","coordinates":[[[105.05390549544234,-5.388662652922762],[105.03915022060626,-5.386238302821607],[105.03928214035854,-5.378784983413978],[105.04700002682982,-5.375742031945989],[105.05390549544234,-5.388662652922762]]]}},{"type":"Feature","properties":{"code":"1810022016","desa":"Klaten","kecamatan":"Gading Rejo","kecCode":"181002"},"geometry":{"type":"Polygon","coordinates":[[[105.01826694556314,-5.344978407435521],[105.00065887190948,-5.339234854818488],[105.01905209777611,-5.342352403251402],[105.02306743131696,-5.352313652153839],[105.01590362525218,-5.356088325312693],[105.01826694556314,-5.344978407435521]]]}},{"type":"Feature","properties":{"code":"1810022017","desa":"Wates Timur","kecamatan":"Gading Rejo","kecCode":"181002"},"geometry":{"type":"Polygon","coordinates":[[[105.01687906231894,-5.37939213011583],[105.01089262529449,-5.370250597969048],[105.01863898430173,-5.359737007050258],[105.02542684767093,-5.3779262981347],[105.01687906231894,-5.37939213011583]]]}},{"type":"Feature","properties":{"code":"1810022018","desa":"Wates Selatan","kecamatan":"Gading Rejo","kecCode":"181002"},"geometry":{"type":"Polygon","coordinates":[[[105.02544867871359,-5.3939648623468655],[105.00982121437761,-5.395667857242439],[105.01787530430191,-5.382105005212152],[105.02544867871359,-5.3939648623468655]]]}},{"type":"Feature","properties":{"code":"1810022019","desa":"Gading Rejo Timur","kecamatan":"Gading Rejo","kecCode":"181002"},"geometry":{"type":"Polygon","coordinates":[[[105.07690186702762,-5.360550862024815],[105.07663303178906,-5.381812012385121],[105.07344605209369,-5.375905034966017],[105.07690186702762,-5.360550862024815]]]}},{"type":"Feature","properties":{"code":"1810022020","desa":"Gading Rejo Utara","kecamatan":"Gading Rejo","kecCode":"181002"},"geometry":{"type":"Polygon","coordinates":[[[105.06100513757708,-5.362434374237229],[105.07622333124179,-5.360840593010871],[105.07519423792382,-5.371366134121033],[105.06149090997758,-5.3744373521801485],[105.06100513757708,-5.362434374237229]]]}},{"type":"Feature","properties":{"code":"1810022021","desa":"Tambah Rejo Barat","kecamatan":"Gading Rejo","kecCode":"181002"},"geometry":{"type":"Polygon","coordinates":[[[105.03141681363506,-5.389286446975027],[105.02544867871359,-5.3939648623468655],[105.01918093465247,-5.385199924004498],[105.01687906231894,-5.37939213011583],[105.02542684767093,-5.3779262981347],[105.02024091878343,-5.372053767447911],[105.02308794665146,-5.3717192790024315],[105.03141681363506,-5.389286446975027]]]}},{"type":"Feature","properties":{"code":"1810022022","desa":"Wonodadi Utara","kecamatan":"Gading Rejo","kecCode":"181002"},"geometry":{"type":"Polygon","coordinates":[[[105.05954009340063,-5.373210601367528],[105.0493120093418,-5.365749016290969],[105.05562696241446,-5.360328822109814],[105.06100513757708,-5.362434374237229],[105.05954009340063,-5.373210601367528]]]}},{"type":"Feature","properties":{"code":"1810022023","desa":"Yogyakarta Selatan","kecamatan":"Gading Rejo","kecCode":"181002"},"geometry":{"type":"Polygon","coordinates":[[[105.03146241106147,-5.361104912753147],[105.02514637430579,-5.361778277436452],[105.02267285466854,-5.350895407798808],[105.0320535489322,-5.349728458304841],[105.03146241106147,-5.361104912753147]]]}},{"type":"Feature","properties":{"code":"1810032001","desa":"Ambarawa","kecamatan":"Ambarawa","kecCode":"181003"},"geometry":{"type":"Polygon","coordinates":[[[104.96723619669318,-5.436334905147262],[104.95862759738577,-5.438497302521808],[104.95291105410195,-5.429045988104757],[104.95427954076824,-5.4040163744043],[104.96618745408777,-5.403998483291534],[104.97134817767629,-5.425825389056576],[104.96723619669318,-5.436334905147262]]]}},{"type":"Feature","properties":{"code":"1810032002","desa":"Ambarawa Barat","kecamatan":"Ambarawa","kecCode":"181003"},"geometry":{"type":"Polygon","coordinates":[[[104.95427954076824,-5.4040163744043],[104.95609978297863,-5.427333164518499],[104.94951150974843,-5.428178344678606],[104.93931231371238,-5.404597095427194],[104.95427954076824,-5.4040163744043]]]}},{"type":"Feature","properties":{"code":"1810032003","desa":"Kresno Mulyo","kecamatan":"Ambarawa","kecCode":"181003"},"geometry":{"type":"Polygon","coordinates":[[[104.92217581036537,-5.43285485078974],[104.90095559982113,-5.422316660714966],[104.90400454797155,-5.415881595095673],[104.9391634048673,-5.417319528308299],[104.94934998791165,-5.425183667918654],[104.93831788566193,-5.423412608733422],[104.92217581036537,-5.43285485078974]]]}},{"type":"Feature","properties":{"code":"1810032004","desa":"Sumber Agung","kecamatan":"Ambarawa","kecCode":"181003"},"geometry":{"type":"Polygon","coordinates":[[[104.91292562301912,-5.416104981295795],[104.9443817642071,-5.406825532717494],[104.94385252757218,-5.4230926731172024],[104.9391634048673,-5.417319528308299],[104.91292562301912,-5.416104981295795]]]}},{"type":"Feature","properties":{"code":"1810032005","desa":"Tanjung Anom","kecamatan":"Ambarawa","kecCode":"181003"},"geometry":{"type":"Polygon","coordinates":[[[104.93664172293722,-5.404722397967716],[104.92649628837307,-5.4061654914902],[104.92696598269401,-5.389316683081483],[104.93644575526747,-5.387867590181676],[104.9388656672168,-5.388581427954324],[104.93664172293722,-5.404722397967716]]]}},{"type":"Feature","properties":{"code":"1810032006","desa":"Jati Agung","kecamatan":"Ambarawa","kecCode":"181003"},"geometry":{"type":"Polygon","coordinates":[[[104.9367539115638,-5.388426213063192],[104.95867126576637,-5.386390343105872],[104.95325165703838,-5.4038777475083535],[104.93664172293722,-5.404722397967716],[104.9367539115638,-5.388426213063192]]]}},{"type":"Feature","properties":{"code":"1810032007","desa":"Margodadi","kecamatan":"Ambarawa","kecCode":"181003"},"geometry":{"type":"Polygon","coordinates":[[[104.95893978444353,-5.384900350838029],[104.98230057391243,-5.386785882927744],[104.98441548888377,-5.394289992447197],[104.97994503993169,-5.399949522304868],[104.95325165703838,-5.4038777475083535],[104.95893978444353,-5.384900350838029]]]}},{"type":"Feature","properties":{"code":"1810032008","desa":"Ambarawa Timur","kecamatan":"Ambarawa","kecCode":"181003"},"geometry":{"type":"Polygon","coordinates":[[[104.98151169221084,-5.414394055279136],[104.97729810672227,-5.441152370096456],[104.97477185893422,-5.440607861175017],[104.96723619669318,-5.436334905147262],[104.97134817767629,-5.425825389056576],[104.96616076400814,-5.403527368042235],[104.97381310968734,-5.400162810017724],[104.97932748177794,-5.400133304160756],[104.98151169221084,-5.414394055279136]]]}},{"type":"Feature","properties":{"code":"1810042001","desa":"Kedaung","kecamatan":"Pardasuka","kecCode":"181004"},"geometry":{"type":"Polygon","coordinates":[[[104.92728799664377,-5.5701478723071265],[104.91693017368863,-5.571615306880035],[104.9115085279962,-5.559387625230135],[104.91610395933031,-5.538185310316584],[104.91207979534636,-5.5346461048502205],[104.92150164798271,-5.517155379251259],[104.914962999343,-5.512625994132804],[104.91668949172674,-5.503051298127101],[104.92818766672752,-5.505279419755341],[104.92567818320161,-5.533265925200006],[104.93196983933666,-5.546069912201516],[104.92728799664377,-5.5701478723071265]]]}},{"type":"Feature","properties":{"code":"1810042002","desa":"Pardasuka","kecamatan":"Pardasuka","kecCode":"181004"},"geometry":{"type":"Polygon","coordinates":[[[104.94320334116132,-5.458778432871185],[104.9442207639771,-5.469120376486609],[104.93194400001568,-5.485026993966907],[104.92457499923687,-5.479786994246026],[104.91932027041423,-5.458057710788253],[104.94320334116132,-5.458778432871185]]]}},{"type":"Feature","properties":{"code":"1810042003","desa":"Suka Negeri","kecamatan":"Pardasuka","kecCode":"181004"},"geometry":{"type":"Polygon","coordinates":[[[104.92200650489633,-5.485235783270884],[104.92417699976879,-5.48946199433738],[104.92069404599351,-5.489378188314671],[104.92200650489633,-5.485235783270884]]]}},{"type":"Feature","properties":{"code":"1810042004","desa":"Tanjung Rusia","kecamatan":"Pardasuka","kecCode":"181004"},"geometry":{"type":"Polygon","coordinates":[[[104.90286111574795,-5.495989844810743],[104.91052780021789,-5.460527772529775],[104.91425031809774,-5.455164806706918],[104.92146017124996,-5.459216398210584],[104.92512247682089,-5.484789068427282],[104.90286111574795,-5.495989844810743]]]}},{"type":"Feature","properties":{"code":"1810042005","desa":"Warga Mulyo","kecamatan":"Pardasuka","kecCode":"181004"},"geometry":{"type":"Polygon","coordinates":[[[104.912611100422,-5.455499993925687],[104.9267363228231,-5.446044387044471],[104.93938626316553,-5.449302502211086],[104.96234166793367,-5.438507758039879],[104.9446640991689,-5.459007086400497],[104.912611100422,-5.455499993925687]]]}},{"type":"Feature","properties":{"code":"1810042006","desa":"Pujodadi","kecamatan":"Pardasuka","kecCode":"181004"},"geometry":{"type":"Polygon","coordinates":[[[104.952991839302,-5.427705016197723],[104.95854551356467,-5.438972574437592],[104.95126013264904,-5.441458738540244],[104.93334739386717,-5.440774492959478],[104.93250985164838,-5.432754624045753],[104.91949801871863,-5.434057238068845],[104.93831788566193,-5.423412608733422],[104.952991839302,-5.427705016197723]]]}},{"type":"Feature","properties":{"code":"1810042007","desa":"Sukorejo","kecamatan":"Pardasuka","kecCode":"181004"},"geometry":{"type":"Polygon","coordinates":[[[104.89143871672347,-5.4286683420934985],[104.91985524202585,-5.431250896432335],[104.92090354306414,-5.441939846156788],[104.90469439992665,-5.4477777718305855],[104.89799883487836,-5.437086421815629],[104.88714983279861,-5.4394955922601165],[104.89143871672347,-5.4286683420934985]]]}},{"type":"Feature","properties":{"code":"1810042008","desa":"Selapan","kecamatan":"Pardasuka","kecCode":"181004"},"geometry":{"type":"Polygon","coordinates":[[[104.91693017368863,-5.571615306880035],[104.88911610782219,-5.552889229352399],[104.89846792575422,-5.533863944682422],[104.89116735079267,-5.508252172842447],[104.92130112344813,-5.516161551049691],[104.91207979534636,-5.5346461048502205],[104.91693017368863,-5.571615306880035]]]}},{"type":"Feature","properties":{"code":"1810042009","desa":"Rantau Tijang","kecamatan":"Pardasuka","kecCode":"181004"},"geometry":{"type":"Polygon","coordinates":[[[104.96288499964305,-5.575613883349142],[104.92728799664377,-5.5701478723071265],[104.93196983933666,-5.546069912201516],[104.92567818320161,-5.533265925200006],[104.92571399960146,-5.5048239940784685],[104.93305820787003,-5.496705204236319],[104.95607708498953,-5.520841722797467],[104.95512889917943,-5.532490264432636],[104.96749900017873,-5.555042775599445],[104.96288499964305,-5.575613883349142]]]}},{"type":"Feature","properties":{"code":"1810042010","desa":"Sidodadi","kecamatan":"Pardasuka","kecCode":"181004"},"geometry":{"type":"Polygon","coordinates":[[[104.91636710725624,-5.452841667207961],[104.91117044136286,-5.442315894972009],[104.92075280589734,-5.442162297061954],[104.92105160834511,-5.434423870082951],[104.93250985164838,-5.432754624045753],[104.93334739386717,-5.440774492959478],[104.95034668135433,-5.441329809933182],[104.9394934830379,-5.449267602220489],[104.9267363228231,-5.446044387044471],[104.91636710725624,-5.452841667207961]]]}},{"type":"Feature","properties":{"code":"1810042011","desa":"Pardasuka Timur","kecamatan":"Pardasuka","kecCode":"181004"},"geometry":{"type":"Polygon","coordinates":[[[104.94178874985096,-5.47217106032549],[104.93418407273685,-5.486405264356375],[104.93427162533531,-5.497971401112556],[104.93114700013399,-5.485870994216505],[104.94178874985096,-5.47217106032549]]]}},{"type":"Feature","properties":{"code":"1810042012","desa":"Tanjung Rusia Timur","kecamatan":"Pardasuka","kecCode":"181004"},"geometry":{"type":"Polygon","coordinates":[[[104.90056051055916,-5.508410813251188],[104.90286111574795,-5.495989844810743],[104.92431766003205,-5.489591743126122],[104.914962999343,-5.512625994132804],[104.90681943406969,-5.515339538324801],[104.90056051055916,-5.508410813251188]]]}},{"type":"Feature","properties":{"code":"1810042013","desa":"Pardasuka Selatan","kecamatan":"Pardasuka","kecCode":"181004"},"geometry":{"type":"Polygon","coordinates":[[[104.93305820787003,-5.496705204236319],[104.91977199987798,-5.5038309941524615],[104.92645290058095,-5.479372492218791],[104.93305820787003,-5.496705204236319]]]}},{"type":"Feature","properties":{"code":"1810052001","desa":"Candi Retno","kecamatan":"Pagelaran","kecCode":"181005"},"geometry":{"type":"Polygon","coordinates":[[[104.92649628837307,-5.4061654914902],[104.91752492143802,-5.411079228864288],[104.91461959681698,-5.388405750788721],[104.92696598269401,-5.389316683081483],[104.92649628837307,-5.4061654914902]]]}},{"type":"Feature","properties":{"code":"1810052002","desa":"Tanjung Dalom","kecamatan":"Pagelaran","kecCode":"181005"},"geometry":{"type":"Polygon","coordinates":[[[104.8989337736748,-5.413500094092607],[104.8903871376563,-5.402045527229453],[104.91434553741668,-5.389667243311267],[104.91933421979847,-5.407527919422556],[104.90738674620144,-5.406452457060978],[104.8989337736748,-5.413500094092607]]]}},{"type":"Feature","properties":{"code":"1810052003","desa":"Way Ngison","kecamatan":"Pagelaran","kecCode":"181005"},"geometry":{"type":"Polygon","coordinates":[[[104.8903871376563,-5.402045527229453],[104.88763944620352,-5.390427783777133],[104.90709991642807,-5.3931721549301335],[104.90061907620947,-5.401184197044106],[104.8903871376563,-5.402045527229453]]]}},{"type":"Feature","properties":{"code":"1810052004","desa":"Suka Wangi","kecamatan":"Pagelaran","kecCode":"181005"},"geometry":{"type":"Polygon","coordinates":[[[104.86645829861163,-5.37438583451682],[104.86713875355069,-5.361319104284613],[104.87589919888897,-5.3542667871810465],[104.87761871433224,-5.360751700422633],[104.86645829861163,-5.37438583451682]]]}},{"type":"Feature","properties":{"code":"1810052005","desa":"Suka Ratu","kecamatan":"Pagelaran","kecCode":"181005"},"geometry":{"type":"Polygon","coordinates":[[[104.87113399533769,-5.372385807938846],[104.86924455389311,-5.36488451239811],[104.87987433902957,-5.361580886140151],[104.88334805496885,-5.368235548216317],[104.87113399533769,-5.372385807938846]]]}},{"type":"Feature","properties":{"code":"1810052006","desa":"Pagelaran","kecamatan":"Pagelaran","kecCode":"181005"},"geometry":{"type":"Polygon","coordinates":[[[104.88061728785759,-5.378859548902686],[104.88532538715695,-5.3628210836159935],[104.88083758398739,-5.354484316096633],[104.891749515228,-5.351480195555953],[104.88817954395084,-5.381841343773615],[104.88061728785759,-5.378859548902686]]]}},{"type":"Feature","properties":{"code":"1810052007","desa":"Patoman","kecamatan":"Pagelaran","kecCode":"181005"},"geometry":{"type":"Polygon","coordinates":[[[104.88817954395084,-5.381841343773615],[104.89059791266362,-5.37119589515581],[104.90749840242938,-5.36435777497968],[104.90157751608956,-5.382152650394783],[104.88817954395084,-5.381841343773615]]]}},{"type":"Feature","properties":{"code":"1810052008","desa":"Karangsari","kecamatan":"Pagelaran","kecCode":"181005"},"geometry":{"type":"Polygon","coordinates":[[[104.94398279526983,-5.380383236069559],[104.94330861310208,-5.391151416066133],[104.9193471763312,-5.386440963245795],[104.90979041099871,-5.393556017954608],[104.9024878179585,-5.390629365914195],[104.907732361959,-5.3892279784515456],[104.90638721989433,-5.380186026436234],[104.91583974480841,-5.376844488358114],[104.94398279526983,-5.380383236069559]]]}},{"type":"Feature","properties":{"code":"1810052009","desa":"Gumuk Mas","kecamatan":"Pagelaran","kecCode":"181005"},"geometry":{"type":"Polygon","coordinates":[[[104.9079465328063,-5.373320015585469],[104.90600486683121,-5.361400622432106],[104.9173224588644,-5.358896416130564],[104.91546926009835,-5.377654492435725],[104.9079465328063,-5.373320015585469]]]}},{"type":"Feature","properties":{"code":"1810052010","desa":"Bumi Ratu","kecamatan":"Pagelaran","kecCode":"181005"},"geometry":{"type":"Polygon","coordinates":[[[104.92174345409717,-5.330107413249576],[104.92877275665745,-5.345869075304592],[104.9241253049389,-5.361849248335001],[104.91821657023858,-5.362660485383136],[104.90825346962195,-5.3450358678189875],[104.92174345409717,-5.330107413249576]]]}},{"type":"Feature","properties":{"code":"1810052011","desa":"Panutan","kecamatan":"Pagelaran","kecCode":"181005"},"geometry":{"type":"Polygon","coordinates":[[[104.89059791266362,-5.37119589515581],[104.89156379263498,-5.355619429590166],[104.90600486683121,-5.361400622432106],[104.90749840242938,-5.36435777497968],[104.89059791266362,-5.37119589515581]]]}},{"type":"Feature","properties":{"code":"1810052012","desa":"Lugusari","kecamatan":"Pagelaran","kecCode":"181005"},"geometry":{"type":"Polygon","coordinates":[[[104.8720493801748,-5.355941052334544],[104.86603553271374,-5.337463979094936],[104.8906642016916,-5.342957992327528],[104.88712188007077,-5.353716076534805],[104.88081881783421,-5.354544842268877],[104.88487210006741,-5.364430789137833],[104.8720493801748,-5.355941052334544]]]}},{"type":"Feature","properties":{"code":"1810052019","desa":"Pamenang","kecamatan":"Pagelaran","kecCode":"181005"},"geometry":{"type":"Polygon","coordinates":[[[104.91521039564333,-5.358868989506129],[104.89845806828528,-5.360160089509052],[104.90212603778649,-5.342735326484359],[104.91347983202871,-5.341689414945816],[104.9091816958786,-5.354688633971413],[104.91521039564333,-5.358868989506129]]]}},{"type":"Feature","properties":{"code":"1810052020","desa":"Gemah Ripah","kecamatan":"Pagelaran","kecCode":"181005"},"geometry":{"type":"Polygon","coordinates":[[[104.90032102559489,-5.389091062965502],[104.89087210966017,-5.392711452930802],[104.88672923966271,-5.382557164551412],[104.90157751608956,-5.382152650394783],[104.90032102559489,-5.389091062965502]]]}},{"type":"Feature","properties":{"code":"1810052023","desa":"Pasir Ukir","kecamatan":"Pagelaran","kecCode":"181005"},"geometry":{"type":"Polygon","coordinates":[[[104.89156379263498,-5.355619429590166],[104.89110329388194,-5.342418050163444],[104.90212603778649,-5.342735326484359],[104.90004709299899,-5.357337839764935],[104.89156379263498,-5.355619429590166]]]}},{"type":"Feature","properties":{"code":"1810052024","desa":"Gumukrejo","kecamatan":"Pagelaran","kecCode":"181005"},"geometry":{"type":"Polygon","coordinates":[[[104.93036024173182,-5.367172937166749],[104.93406905574238,-5.379359380404215],[104.9137276096415,-5.376898471962559],[104.91982182141999,-5.362477549789364],[104.93036024173182,-5.367172937166749]]]}},{"type":"Feature","properties":{"code":"1810052027","desa":"Puji Harjo","kecamatan":"Pagelaran","kecCode":"181005"},"geometry":{"type":"Polygon","coordinates":[[[104.86658472800285,-5.374647156818687],[104.88033955832401,-5.370844367255462],[104.88071851194987,-5.37862983777063],[104.87071703995946,-5.3797981272544115],[104.86658472800285,-5.374647156818687]]]}},{"type":"Feature","properties":{"code":"1810052028","desa":"Padang Rejo","kecamatan":"Pagelaran","kecCode":"181005"},"geometry":{"type":"Polygon","coordinates":[[[104.9024878179585,-5.390629365914195],[104.90454839229454,-5.374228386609078],[104.91537028431121,-5.377577190310008],[104.90638721989433,-5.380186026436234],[104.907732361959,-5.3892279784515456],[104.9024878179585,-5.390629365914195]]]}},{"type":"Feature","properties":{"code":"1810052029","desa":"Sidodadi","kecamatan":"Pagelaran","kecCode":"181005"},"geometry":{"type":"Polygon","coordinates":[[[104.88944307343917,-5.390210496779151],[104.87509554762148,-5.376855600381282],[104.88355928413368,-5.379645925991537],[104.88944307343917,-5.390210496779151]]]}},{"type":"Feature","properties":{"code":"1810052030","desa":"Sumber Rejo","kecamatan":"Pagelaran","kecCode":"181005"},"geometry":{"type":"Polygon","coordinates":[[[104.91729649363832,-5.408858002338169],[104.8989337736748,-5.413500094092607],[104.90738674620144,-5.406452457060978],[104.91729649363832,-5.408858002338169]]]}},{"type":"Feature","properties":{"code":"1810052031","desa":"Ganjaran","kecamatan":"Pagelaran","kecCode":"181005"},"geometry":{"type":"Polygon","coordinates":[[[104.94054839499249,-5.355077453159665],[104.94013506658011,-5.364507941076757],[104.9270084226007,-5.368618543395094],[104.92579638559475,-5.362950429508487],[104.93406112641992,-5.363848248786482],[104.94054839499249,-5.355077453159665]]]}},{"type":"Feature","properties":{"code":"1810052032","desa":"Bumi Rejo","kecamatan":"Pagelaran","kecCode":"181005"},"geometry":{"type":"Polygon","coordinates":[[[104.92877275665745,-5.345869075304592],[104.93772623967429,-5.3584273090674275],[104.93398443583311,-5.363875212260031],[104.92308969243544,-5.361565888146351],[104.92877275665745,-5.345869075304592]]]}},{"type":"Feature","properties":{"code":"1810062001","desa":"Banyumas","kecamatan":"Banyumas","kecCode":"181006"},"geometry":{"type":"Polygon","coordinates":[[[104.91959660599859,-5.292413827097754],[104.8980626669586,-5.290654960021471],[104.91188839623254,-5.269081829447896],[104.9123314049704,-5.275455018113191],[104.91959660599859,-5.292413827097754]]]}},{"type":"Feature","properties":{"code":"1810062002","desa":"Banyuwangi","kecamatan":"Banyumas","kecCode":"181006"},"geometry":{"type":"Polygon","coordinates":[[[104.91188839623254,-5.269081829447896],[104.90184747188339,-5.287530614512576],[104.88810266720441,-5.27486772664341],[104.88803697172892,-5.262615289355721],[104.90266226305305,-5.257129920406709],[104.90312877197532,-5.264549771544352],[104.91188839623254,-5.269081829447896]]]}},{"type":"Feature","properties":{"code":"1810062003","desa":"Sukamulya","kecamatan":"Banyumas","kecCode":"181006"},"geometry":{"type":"Polygon","coordinates":[[[104.93236671285358,-5.279098720304566],[104.93638196005946,-5.293392569172073],[104.92209641191992,-5.293273567281786],[104.92240502237394,-5.279115779544408],[104.93236671285358,-5.279098720304566]]]}},{"type":"Feature","properties":{"code":"1810062004","desa":"Sriwungu","kecamatan":"Banyumas","kecCode":"181006"},"geometry":{"type":"Polygon","coordinates":[[[104.91145334469616,-5.294383227263437],[104.91959660599859,-5.292413827097754],[104.92930607171792,-5.292938675040645],[104.92549248039369,-5.304427692233295],[104.91191930323333,-5.31161802559319],[104.90508478123775,-5.308833654394229],[104.91145334469616,-5.294383227263437]]]}},{"type":"Feature","properties":{"code":"1810062005","desa":"Banjarejo","kecamatan":"Banyumas","kecCode":"181006"},"geometry":{"type":"Polygon","coordinates":[[[104.94417250006092,-5.329290621988479],[104.9410218295938,-5.336843410910908],[104.92085115575627,-5.330071720056898],[104.91220181536151,-5.341052933258208],[104.89186674995061,-5.312679917185179],[104.92774379733845,-5.304375257261488],[104.94417250006092,-5.329290621988479]]]}},{"type":"Feature","properties":{"code":"1810062006","desa":"Waya Krui","kecamatan":"Banyumas","kecCode":"181006"},"geometry":{"type":"Polygon","coordinates":[[[104.9279530668806,-5.265769475269481],[104.93886669963852,-5.259049994556815],[104.9430946571927,-5.277022046307358],[104.93236671285358,-5.279098720304566],[104.9279530668806,-5.265769475269481]]]}},{"type":"Feature","properties":{"code":"1810062007","desa":"Sri Rahayu","kecamatan":"Banyumas","kecCode":"181006"},"geometry":{"type":"Polygon","coordinates":[[[104.91353143422837,-5.268502693030527],[104.93012276585301,-5.26753734635806],[104.93236671285358,-5.279098720304566],[104.91725922033679,-5.279177057549947],[104.91353143422837,-5.268502693030527]]]}},{"type":"Feature","properties":{"code":"1810062008","desa":"Nusa Wungu","kecamatan":"Banyumas","kecCode":"181006"},"geometry":{"type":"Polygon","coordinates":[[[104.91219088769935,-5.250359440040159],[104.92275479569729,-5.265821482164061],[104.91141944295299,-5.269236694502706],[104.90312877197532,-5.264549771544352],[104.90269141997311,-5.256349007598633],[104.91219088769935,-5.250359440040159]]]}},{"type":"Feature","properties":{"code":"1810062009","desa":"Sinar Mulya","kecamatan":"Banyumas","kecCode":"181006"},"geometry":{"type":"Polygon","coordinates":[[[104.8980626669586,-5.290654960021471],[104.91145334469616,-5.294383227263437],[104.90508478123775,-5.308833654394229],[104.89376647874006,-5.312340424911723],[104.88648838143371,-5.30701688806539],[104.8980626669586,-5.290654960021471]]]}},{"type":"Feature","properties":{"code":"1810062010","desa":"Banyu Urip","kecamatan":"Banyumas","kecCode":"181006"},"geometry":{"type":"Polygon","coordinates":[[[104.91959660599859,-5.292413827097754],[104.9123314049704,-5.275455018113191],[104.91353143422837,-5.268502693030527],[104.92240502237394,-5.279115779544408],[104.91959660599859,-5.292413827097754]]]}},{"type":"Feature","properties":{"code":"1810062011","desa":"Mulyo Rejo","kecamatan":"Banyumas","kecCode":"181006"},"geometry":{"type":"Polygon","coordinates":[[[104.91036546359531,-5.247160872583526],[104.90875291981145,-5.254386625742189],[104.89211099862376,-5.258214112487387],[104.88695503694544,-5.244589600239831],[104.91036546359531,-5.247160872583526]]]}},{"type":"Feature","properties":{"code":"1810072001","desa":"Adiluwih","kecamatan":"Adiluwih","kecCode":"181007"},"geometry":{"type":"Polygon","coordinates":[[[105.0147866007211,-5.22480131276046],[105.03144444440561,-5.215972216783477],[105.03953257097146,-5.216043985380617],[105.02892327329049,-5.23113165052893],[105.03149760423112,-5.23760701656758],[105.02235286599205,-5.2371623242993035],[105.0147866007211,-5.22480131276046]]]}},{"type":"Feature","properties":{"code":"1810072002","desa":"Bandung Baru","kecamatan":"Adiluwih","kecCode":"181007"},"geometry":{"type":"Polygon","coordinates":[[[104.96647333687507,-5.245586767624172],[104.99301653298664,-5.2350328052394834],[104.99500443130948,-5.238019929492828],[104.98446884476141,-5.2598015301109955],[104.988581002911,-5.2638823792587015],[104.97647328271584,-5.27079349111004],[104.96710559984359,-5.2620489233113705],[104.97673036291599,-5.248927717545649],[104.96647333687507,-5.245586767624172]]]}},{"type":"Feature","properties":{"code":"1810072003","desa":"Sinarwayah","kecamatan":"Adiluwih","kecCode":"181007"},"geometry":{"type":"Polygon","coordinates":[[[104.94178829209608,-5.261549483914251],[104.96647333687507,-5.245586767624172],[104.97673036291599,-5.248927717545649],[104.96809816000216,-5.264771985028502],[104.94138043515903,-5.274441410222482],[104.94178829209608,-5.261549483914251]]]}},{"type":"Feature","properties":{"code":"1810072004","desa":"Enggal Rejo","kecamatan":"Adiluwih","kecCode":"181007"},"geometry":{"type":"Polygon","coordinates":[[[105.03261641031912,-5.235793274658834],[105.03984693079126,-5.2334570239437985],[105.04936246490587,-5.240544187078606],[105.04860825656583,-5.251671349455948],[105.03321957932019,-5.248906158997588],[105.03261641031912,-5.235793274658834]]]}},{"type":"Feature","properties":{"code":"1810072005","desa":"Sukoharum","kecamatan":"Adiluwih","kecCode":"181007"},"geometry":{"type":"Polygon","coordinates":[[[105.06944067494724,-5.233855145719299],[105.06561548686528,-5.24454982862167],[105.04957626972913,-5.2483747855740335],[105.0516106369214,-5.238223406501416],[105.06944067494724,-5.233855145719299]]]}},{"type":"Feature","properties":{"code":"1810072005","desa":"Sukoharum","kecamatan":"Adiluwih","kecCode":"181007"},"geometry":{"type":"Polygon","coordinates":[[[105.09708348831242,-5.230002302589008],[105.08824044833807,-5.233234059525708],[105.0738373498139,-5.221550114279732],[105.07940127724719,-5.218404189538336],[105.09708348831242,-5.230002302589008]]]}},{"type":"Feature","properties":{"code":"1810072006","desa":"Waringin Sari Timur","kecamatan":"Adiluwih","kecCode":"181007"},"geometry":{"type":"Polygon","coordinates":[[[105.02235286599205,-5.2371623242993035],[105.034840601013,-5.237340663458197],[105.0319385085554,-5.262816380462984],[105.01830196156634,-5.269770468216875],[105.00122976514159,-5.267781708345513],[105.02235286599205,-5.2371623242993035]]]}},{"type":"Feature","properties":{"code":"1810072007","desa":"Tri Tunggal Mulya","kecamatan":"Adiluwih","kecCode":"181007"},"geometry":{"type":"Polygon","coordinates":[[[105.04475638469944,-5.2668697903958],[105.0364108487817,-5.286040163590446],[105.02961894565787,-5.285959579838624],[105.03408989283433,-5.248753490087215],[105.05464840470016,-5.249744858643005],[105.05481778031633,-5.259061572428849],[105.03759002456002,-5.258804457155442],[105.04475638469944,-5.2668697903958]]]}},{"type":"Feature","properties":{"code":"1810072008","desa":"Purwodadi","kecamatan":"Adiluwih","kecCode":"181007"},"geometry":{"type":"Polygon","coordinates":[[[105.00612610783367,-5.269973822917705],[105.0319385085554,-5.262816380462984],[105.02961894565787,-5.285959579838624],[105.01115474169801,-5.286041131260988],[105.00612610783367,-5.269973822917705]]]}},{"type":"Feature","properties":{"code":"1810072009","desa":"Srikaton","kecamatan":"Adiluwih","kecCode":"181007"},"geometry":{"type":"Polygon","coordinates":[[[105.02892934461363,-5.231157634640761],[105.0489886922744,-5.206504040078135],[105.05283417355832,-5.209351378209419],[105.04492044442303,-5.223987285116064],[105.05937231677905,-5.23096424802548],[105.05663598556235,-5.24060689860345],[105.02892934461363,-5.231157634640761]]]}},{"type":"Feature","properties":{"code":"1810072010","desa":"Tunggul Pawenang","kecamatan":"Adiluwih","kecCode":"181007"},"geometry":{"type":"Polygon","coordinates":[[[105.08421450189782,-5.231601065160195],[105.0790465540553,-5.2334371696109905],[105.07510167969882,-5.227013640494974],[105.07978506832632,-5.2300465959983535],[105.08421450189782,-5.231601065160195]]]}},{"type":"Feature","properties":{"code":"1810072010","desa":"Tunggul Pawenang","kecamatan":"Adiluwih","kecCode":"181007"},"geometry":{"type":"Polygon","coordinates":[[[105.07401217532168,-5.226859409462181],[105.05710161584693,-5.233591293624401],[105.04492044442303,-5.223987285116064],[105.05444861311302,-5.210991229006159],[105.07401217532168,-5.226859409462181]]]}},{"type":"Feature","properties":{"code":"1810072011","desa":"Bandung Baru Barat","kecamatan":"Adiluwih","kecCode":"181007"},"geometry":{"type":"Polygon","coordinates":[[[104.9687931183078,-5.263469317945422],[104.97110698759747,-5.271861307435572],[104.94747587271343,-5.278566566269388],[104.94768386341963,-5.27019907071443],[104.9687931183078,-5.263469317945422]]]}},{"type":"Feature","properties":{"code":"1810072012","desa":"Totokarto","kecamatan":"Adiluwih","kecCode":"181007"},"geometry":{"type":"Polygon","coordinates":[[[104.98751401665862,-5.26275290541371],[104.99219557606506,-5.243522916160732],[104.99701185031671,-5.250193969280499],[105.01200234822981,-5.247837543174728],[105.00050053007543,-5.262151305730283],[104.98751401665862,-5.26275290541371]]]}},{"type":"Feature","properties":{"code":"1810072013","desa":"Kuta Waringin","kecamatan":"Adiluwih","kecCode":"181007"},"geometry":{"type":"Polygon","coordinates":[[[104.99301653298664,-5.2350328052394834],[105.0147866007211,-5.22480131276046],[105.023168087937,-5.239734335885812],[105.01300935599704,-5.248129163636315],[104.99701185031671,-5.250193969280499],[104.99301653298664,-5.2350328052394834]]]}},{"type":"Feature","properties":{"code":"1810082001","desa":"Sinar Baru","kecamatan":"Sukoharjo","kecCode":"181008"},"geometry":{"type":"Polygon","coordinates":[[[104.92930607171792,-5.292938675040645],[104.9512239754062,-5.292038172185601],[104.96071751480149,-5.298522338989866],[104.9461778443321,-5.3170192144015544],[104.92549248039369,-5.304427692233295],[104.92930607171792,-5.292938675040645]]]}},{"type":"Feature","properties":{"code":"1810082002","desa":"Sukoharjo I","kecamatan":"Sukoharjo","kecCode":"181008"},"geometry":{"type":"Polygon","coordinates":[[[104.95659745880572,-5.330818659176086],[104.95723713578525,-5.316565787917538],[104.96650773504398,-5.303907241075981],[104.9835922638719,-5.305608679245044],[104.98183629800678,-5.326705213201524],[104.96709348957295,-5.333208627296209],[104.95659745880572,-5.330818659176086]]]}},{"type":"Feature","properties":{"code":"1810082003","desa":"Sukoharjo II","kecamatan":"Sukoharjo","kecCode":"181008"},"geometry":{"type":"Polygon","coordinates":[[[104.9916749279556,-5.33057073947064],[104.98062878998672,-5.3238630209910065],[104.9835922638719,-5.305608679245044],[105.00010036324123,-5.305246846912706],[105.00160651183113,-5.318798743401818],[104.9916749279556,-5.33057073947064]]]}},{"type":"Feature","properties":{"code":"1810082004","desa":"Sukoharjo III","kecamatan":"Sukoharjo","kecCode":"181008"},"geometry":{"type":"Polygon","coordinates":[[[104.9835922638719,-5.305608679245044],[104.98307355919746,-5.293403439277598],[104.99497310072807,-5.291487229514259],[104.99341716297174,-5.304433851690053],[104.9835922638719,-5.305608679245044]]]}},{"type":"Feature","properties":{"code":"1810082005","desa":"Sukoharjo IV","kecamatan":"Sukoharjo","kecCode":"181008"},"geometry":{"type":"Polygon","coordinates":[[[105.00709286644269,-5.339990947237419],[104.99919776496493,-5.332158162490199],[104.99307060832201,-5.335880071525248],[104.99161536405785,-5.325203633169149],[105.00152528416459,-5.318780649941604],[105.02499029426673,-5.320529936540084],[105.02648795955173,-5.3275589683973195],[105.0078444577556,-5.333656129945907],[105.00709286644269,-5.339990947237419]]]}},{"type":"Feature","properties":{"code":"1810082006","desa":"Panggungrejo","kecamatan":"Sukoharjo","kecCode":"181008"},"geometry":{"type":"Polygon","coordinates":[[[105.04272936856557,-5.301475555204838],[105.04762507723558,-5.327836662857043],[105.03817737898294,-5.3247675734931414],[105.03045913997737,-5.33299216047991],[105.0237091155833,-5.306368350965755],[105.04272936856557,-5.301475555204838]]]}},{"type":"Feature","properties":{"code":"1810082007","desa":"Pandan Sari","kecamatan":"Sukoharjo","kecCode":"181008"},"geometry":{"type":"Polygon","coordinates":[[[105.01762301658901,-5.286004016240156],[105.02673129631233,-5.285969090169255],[105.02485613160523,-5.30634237224985],[104.99975631769996,-5.307436298592384],[105.01041087286355,-5.301478138057731],[105.01762301658901,-5.286004016240156]]]}},{"type":"Feature","properties":{"code":"1810082008","desa":"Pandan Surat","kecamatan":"Sukoharjo","kecCode":"181008"},"geometry":{"type":"Polygon","coordinates":[[[105.00752673806858,-5.275058522311856],[105.01715748163252,-5.292517847182136],[105.00741091977818,-5.304829169379351],[104.9934567583228,-5.305825978833577],[104.99762646229146,-5.284874223135867],[105.00752673806858,-5.275058522311856]]]}},{"type":"Feature","properties":{"code":"1810082009","desa":"Keputran","kecamatan":"Sukoharjo","kecCode":"181008"},"geometry":{"type":"Polygon","coordinates":[[[104.99497310072807,-5.291487229514259],[104.96838567595823,-5.292772268985992],[104.96663525891012,-5.282032716208766],[104.99844772678124,-5.284060037210754],[104.99497310072807,-5.291487229514259]]]}},{"type":"Feature","properties":{"code":"1810082010","desa":"Sukoyoso","kecamatan":"Sukoharjo","kecCode":"181008"},"geometry":{"type":"Polygon","coordinates":[[[104.96011156689536,-5.298905845882827],[104.94723167530161,-5.2926920404662825],[104.94771999997808,-5.286408995346294],[104.96666861476484,-5.282727310288313],[104.96838567595823,-5.292772268985992],[104.96011156689536,-5.298905845882827]]]}},{"type":"Feature","properties":{"code":"1810082011","desa":"Siliwangi","kecamatan":"Sukoharjo","kecCode":"181008"},"geometry":{"type":"Polygon","coordinates":[[[104.93638196005946,-5.293392569172073],[104.93236671285358,-5.279098720304566],[104.94768402080098,-5.271664072621251],[104.94723167530161,-5.2926920404662825],[104.93638196005946,-5.293392569172073]]]}},{"type":"Feature","properties":{"code":"1810082012","desa":"Waringinsari Barat","kecamatan":"Sukoharjo","kecCode":"181008"},"geometry":{"type":"Polygon","coordinates":[[[104.94747587271343,-5.278566566269388],[104.99306017528693,-5.258711576073958],[105.00192670735173,-5.260185782541918],[105.00750856906528,-5.275574332967531],[105.00120030425069,-5.284087176951443],[104.94771999997808,-5.286408995346294],[104.94747587271343,-5.278566566269388]]]}},{"type":"Feature","properties":{"code":"1810082013","desa":"Pandan Sari Selatan","kecamatan":"Sukoharjo","kecCode":"181008"},"geometry":{"type":"Polygon","coordinates":[[[105.00160651183113,-5.318798743401818],[105.00076714129061,-5.307345831291234],[105.0237091155833,-5.306368350965755],[105.02439567242243,-5.320422793110289],[105.00160651183113,-5.318798743401818]]]}},{"type":"Feature","properties":{"code":"1810082014","desa":"Sinar Baru Timur","kecamatan":"Sukoharjo","kecCode":"181008"},"geometry":{"type":"Polygon","coordinates":[[[104.95591588870735,-5.330368268803358],[104.94417250006092,-5.329290621988479],[104.93722023972235,-5.315220523546495],[104.94277985490646,-5.312148718230034],[104.94677423424355,-5.3169619653587725],[104.96205919267766,-5.296074722527991],[104.97187772637602,-5.30304808724995],[104.95723713578525,-5.316565787917538],[104.95591588870735,-5.330368268803358]]]}},{"type":"Feature","properties":{"code":"1810082015","desa":"Panggung Rejo Utara","kecamatan":"Sukoharjo","kecCode":"181008"},"geometry":{"type":"Polygon","coordinates":[[[105.02427707882418,-5.29042832906743],[105.04242875668182,-5.285597921075447],[105.03838573661248,-5.288998571591621],[105.04266010278155,-5.301922842916492],[105.02485613160523,-5.30634237224985],[105.02427707882418,-5.29042832906743]]]}},{"type":"Feature","properties":{"code":"1810082016","desa":"Sukoharjo III Barat","kecamatan":"Sukoharjo","kecCode":"181008"},"geometry":{"type":"Polygon","coordinates":[[[104.98096343491466,-5.304075300084531],[104.97388117127912,-5.306178277452902],[104.96237278267783,-5.296435053891848],[104.98307355919746,-5.293403439277598],[104.98096343491466,-5.304075300084531]]]}},{"type":"Feature","properties":{"code":"1810092001","desa":"Fajar Baru","kecamatan":"Pagelaran Utara","kecCode":"181009"},"geometry":{"type":"Polygon","coordinates":[[[104.8906642016916,-5.342957992327528],[104.8659346260822,-5.3375463381085275],[104.86224334975083,-5.331719859905002],[104.86989095330489,-5.317482321188088],[104.86437837176453,-5.3038962153876685],[104.87970568466967,-5.295691254305902],[104.8931185360916,-5.302378908011369],[104.88659136999581,-5.307716667635855],[104.89886754580067,-5.315688990292313],[104.90926216271866,-5.33990057346582],[104.8906642016916,-5.342957992327528]]]}},{"type":"Feature","properties":{"code":"1810092002","desa":"Kemilin","kecamatan":"Pagelaran Utara","kecCode":"181009"},"geometry":{"type":"Polygon","coordinates":[[[104.86565550080076,-5.338680971364064],[104.84126559463151,-5.3221618930880235],[104.84803802293645,-5.308637506860277],[104.85998431572364,-5.3101520389287495],[104.86226171930298,-5.3023397632206875],[104.86989095330489,-5.317482321188088],[104.86175753598155,-5.32472680452691],[104.86565550080076,-5.338680971364064]]]}},{"type":"Feature","properties":{"code":"1810092003","desa":"Neglasari","kecamatan":"Pagelaran Utara","kecCode":"181009"},"geometry":{"type":"Polygon","coordinates":[[[104.84482890642896,-5.280199691036635],[104.84136322143557,-5.29493582648596],[104.82873758257341,-5.2922539717049295],[104.82537378537194,-5.299073587430646],[104.81600206184571,-5.2874961893639805],[104.81784680788392,-5.270445466069016],[104.84482890642896,-5.280199691036635]]]}},{"type":"Feature","properties":{"code":"1810092004","desa":"Fajar Mulia","kecamatan":"Pagelaran Utara","kecCode":"181009"},"geometry":{"type":"Polygon","coordinates":[[[104.89541973573226,-5.29317090247573],[104.8931185360916,-5.302378908011369],[104.87970568466967,-5.295691254305902],[104.86504227378197,-5.30445652539744],[104.85620497867689,-5.297950120157613],[104.8670982094149,-5.293644165306028],[104.87370120634561,-5.280924683999963],[104.89541973573226,-5.29317090247573]]]}},{"type":"Feature","properties":{"code":"1810092005","desa":"Margosari","kecamatan":"Pagelaran Utara","kecCode":"181009"},"geometry":{"type":"Polygon","coordinates":[[[104.79270178775737,-5.156930067967597],[104.79739983623351,-5.168398439424022],[104.81179519789015,-5.173127033368627],[104.82887732013228,-5.20264775704104],[104.86138956127928,-5.20181720435402],[104.8718356445994,-5.232743092641602],[104.8900138974235,-5.249129639626492],[104.88810266720441,-5.27486772664341],[104.87359849657344,-5.280632066190165],[104.86032364522009,-5.279691366337716],[104.86037305667128,-5.27515700796839],[104.84991086289607,-5.28262027747506],[104.83894892755102,-5.275738836956016],[104.84496758908301,-5.262353895108068],[104.84228680988844,-5.250192386473705],[104.81045740688387,-5.252815663013963],[104.78020165917927,-5.236218719636652],[104.78642746785339,-5.2077617743338775],[104.77191121483075,-5.180550532156528],[104.79270178775737,-5.156930067967597]]]}},{"type":"Feature","properties":{"code":"1810092006","desa":"Giri Tunggal","kecamatan":"Pagelaran Utara","kecCode":"181009"},"geometry":{"type":"Polygon","coordinates":[[[104.90184747188339,-5.287530614512576],[104.89541973573226,-5.29317090247573],[104.8863209510511,-5.28430319410666],[104.8606576687165,-5.27971829923431],[104.88810266720441,-5.27486772664341],[104.90184747188339,-5.287530614512576]]]}},{"type":"Feature","properties":{"code":"1810092007","desa":"Sumber Bandung","kecamatan":"Pagelaran Utara","kecCode":"181009"},"geometry":{"type":"Polygon","coordinates":[[[104.84523737220701,-5.285117278408429],[104.85736754577566,-5.294116182575369],[104.85815381404733,-5.296507252364968],[104.84436475642845,-5.297942975043975],[104.84523737220701,-5.285117278408429]]]}},{"type":"Feature","properties":{"code":"1810092007","desa":"Sumber Bandung","kecamatan":"Pagelaran Utara","kecCode":"181009"},"geometry":{"type":"Polygon","coordinates":[[[104.86018150287413,-5.279599014956922],[104.85908949478443,-5.275725190643295],[104.86120782628024,-5.275882045897797],[104.86018150287413,-5.279599014956922]]]}},{"type":"Feature","properties":{"code":"1810092007","desa":"Sumber Bandung","kecamatan":"Pagelaran Utara","kecCode":"181009"},"geometry":{"type":"Polygon","coordinates":[[[104.84482890642896,-5.280199691036635],[104.81784680788392,-5.270445466069016],[104.82700463665468,-5.261509005428995],[104.84482890642896,-5.280199691036635]]]}},{"type":"Feature","properties":{"code":"1810092008","desa":"Madaraya","kecamatan":"Pagelaran Utara","kecCode":"181009"},"geometry":{"type":"Polygon","coordinates":[[[104.84523737220701,-5.285117278408429],[104.85886004895218,-5.278948068573494],[104.86883686692795,-5.283673546367242],[104.86410895916116,-5.294667542532111],[104.85522674921515,-5.294782675538954],[104.84523737220701,-5.285117278408429]]]}},{"type":"Feature","properties":{"code":"1810092009","desa":"Way Kunir","kecamatan":"Pagelaran Utara","kecCode":"181009"},"geometry":{"type":"Polygon","coordinates":[[[104.8218670463272,-5.311554802354144],[104.80988499559611,-5.299823023067846],[104.80407270958794,-5.272220037106863],[104.78744563171055,-5.259534949473075],[104.79007127616853,-5.241824192145484],[104.81045740688387,-5.252815663013963],[104.84555983222054,-5.252579541514444],[104.84062227180043,-5.273245355069849],[104.83485396443898,-5.2739216659322175],[104.8270949798495,-5.261519861145403],[104.81784680788392,-5.270445466069016],[104.81600206184571,-5.2874961893639805],[104.82714960197262,-5.303683655226381],[104.8218670463272,-5.311554802354144]]]}},{"type":"Feature","properties":{"code":"1810092010","desa":"Gunung Raya","kecamatan":"Pagelaran Utara","kecCode":"181009"},"geometry":{"type":"Polygon","coordinates":[[[104.8458131136843,-5.328940147194269],[104.8218670463272,-5.311554802354144],[104.82873758257341,-5.2922539717049295],[104.86234032364708,-5.301019460432346],[104.85998431572364,-5.3101520389287495],[104.84803802293645,-5.308637506860277],[104.84378323141105,-5.314184526134189],[104.8458131136843,-5.328940147194269]]]}}]}