{"type":"FeatureCollection","features":[{"type":"Feature","properties":{"code":"1871011003","desa":"Kedaton","kecamatan":"Kedaton","kecCode":"187101"},"geometry":{"type":"Polygon","coordinates":[[[105.25468621359795,-5.386908233893346],[105.27196454632679,-5.380680728204816],[105.27037990580804,-5.38694554586569],[105.25468621359795,-5.386908233893346]]]}},{"type":"Feature","properties":{"code":"1871011004","desa":"Surabaya","kecamatan":"Kedaton","kecCode":"187101"},"geometry":{"type":"Polygon","coordinates":[[[105.26128166072009,-5.38641409150312],[105.26635321742708,-5.38877548636323],[105.26288689931101,-5.398985554293125],[105.26123949870394,-5.398679613926587],[105.26128166072009,-5.38641409150312]]]}},{"type":"Feature","properties":{"code":"1871011005","desa":"Sukamenanti","kecamatan":"Kedaton","kecCode":"187101"},"geometry":{"type":"Polygon","coordinates":[[[105.25468621359795,-5.386908233893346],[105.25709396041798,-5.391338245724467],[105.25294895632929,-5.39908412448595],[105.24886144589907,-5.393627154328379],[105.25468621359795,-5.386908233893346]]]}},{"type":"Feature","properties":{"code":"1871011006","desa":"Sidodadi","kecamatan":"Kedaton","kecCode":"187101"},"geometry":{"type":"Polygon","coordinates":[[[105.25597380444758,-5.387595775489406],[105.26128166072009,-5.38641409150312],[105.26113629430459,-5.399511447248243],[105.25678120408935,-5.398604864076819],[105.25597380444758,-5.387595775489406]]]}},{"type":"Feature","properties":{"code":"1871011009","desa":"Sukamenanti Baru","kecamatan":"Kedaton","kecCode":"187101"},"geometry":{"type":"Polygon","coordinates":[[[105.25678120408935,-5.398604864076819],[105.25404446368111,-5.3916482078591725],[105.25709396041798,-5.391338245724467],[105.25678120408935,-5.398604864076819]]]}},{"type":"Feature","properties":{"code":"1871011010","desa":"Penengahan","kecamatan":"Kedaton","kecCode":"187101"},"geometry":{"type":"Polygon","coordinates":[[[105.25619848027571,-5.39969583794509],[105.26288689931101,-5.398985554293125],[105.26031444975212,-5.402815256967899],[105.25619848027571,-5.39969583794509]]]}},{"type":"Feature","properties":{"code":"1871011012","desa":"Penengahan Raya","kecamatan":"Kedaton","kecCode":"187101"},"geometry":{"type":"Polygon","coordinates":[[[105.25123553109493,-5.401468166073779],[105.25656882559086,-5.398621890941154],[105.2595272650713,-5.404194214439405],[105.25123553109493,-5.401468166073779]]]}},{"type":"Feature","properties":{"code":"1871021003","desa":"Sukarame","kecamatan":"Sukarame","kecCode":"187102"},"geometry":{"type":"Polygon","coordinates":[[[105.30868684582133,-5.39432197143981],[105.28904405873641,-5.393622409505266],[105.28763636972273,-5.388029403398628],[105.30653765858614,-5.376157864070484],[105.30868684582133,-5.39432197143981]]]}},{"type":"Feature","properties":{"code":"1871021004","desa":"Way Dadi","kecamatan":"Sukarame","kecCode":"187102"},"geometry":{"type":"Polygon","coordinates":[[[105.3011908751588,-5.380037791183578],[105.28763636972273,-5.388029403398628],[105.28525464658475,-5.381347794036562],[105.29568044569606,-5.37485938423086],[105.3011908751588,-5.380037791183578]]]}},{"type":"Feature","properties":{"code":"1871021006","desa":"Sukarame Baru","kecamatan":"Sukarame","kecCode":"187102"},"geometry":{"type":"Polygon","coordinates":[[[105.3102905546654,-5.373677520380134],[105.31568546621133,-5.387921706885695],[105.3238466006402,-5.3887960124895695],[105.32353473104307,-5.39644036049005],[105.30868684582133,-5.39432197143981],[105.3102905546654,-5.373677520380134]]]}},{"type":"Feature","properties":{"code":"1871021007","desa":"Way Dadi Baru","kecamatan":"Sukarame","kecCode":"187102"},"geometry":{"type":"Polygon","coordinates":[[[105.29568044569606,-5.37485938423086],[105.28525464658475,-5.381347794036562],[105.2766110627504,-5.372919363117794],[105.28640330207075,-5.367093143019727],[105.29568044569606,-5.37485938423086]]]}},{"type":"Feature","properties":{"code":"1871021008","desa":"Korpri Jaya","kecamatan":"Sukarame","kecCode":"187102"},"geometry":{"type":"Polygon","coordinates":[[[105.30827262977812,-5.3612043022283045],[105.3102905546654,-5.373677520380134],[105.3011908751588,-5.380037791183578],[105.29568044569606,-5.37485938423086],[105.30827262977812,-5.3612043022283045]]]}},{"type":"Feature","properties":{"code":"1871021009","desa":"Korpri Raya","kecamatan":"Sukarame","kecCode":"187102"},"geometry":{"type":"Polygon","coordinates":[[[105.29081419611833,-5.368922315496195],[105.30064625022432,-5.3644731166292345],[105.30604066534447,-5.3583098468163834],[105.3023327974207,-5.373313015262695],[105.29081419611833,-5.368922315496195]]]}},{"type":"Feature","properties":{"code":"1871031001","desa":"Gedong Air","kecamatan":"Tanjungkarang Barat","kecCode":"187103"},"geometry":{"type":"Polygon","coordinates":[[[105.24886144589907,-5.393627154328379],[105.25117662370228,-5.400898263895051],[105.24315641393741,-5.408060110329902],[105.2358506516863,-5.405627429808562],[105.24886144589907,-5.393627154328379]]]}},{"type":"Feature","properties":{"code":"1871031002","desa":"Sukajawa","kecamatan":"Tanjungkarang Barat","kecCode":"187103"},"geometry":{"type":"Polygon","coordinates":[[[105.25117662370228,-5.400898263895051],[105.25445948281897,-5.40670527537358],[105.24445708542623,-5.409573208878981],[105.24394371283215,-5.4057221248226055],[105.25117662370228,-5.400898263895051]]]}},{"type":"Feature","properties":{"code":"1871031004","desa":"Susunan Baru","kecamatan":"Tanjungkarang Barat","kecCode":"187103"},"geometry":{"type":"Polygon","coordinates":[[[105.23532852868868,-5.402998519015621],[105.22971771959713,-5.409479137095118],[105.22218518609752,-5.408547817171617],[105.23052290600737,-5.40005099191189],[105.23532852868868,-5.402998519015621]]]}},{"type":"Feature","properties":{"code":"1871031006","desa":"Sukadana Ham","kecamatan":"Tanjungkarang Barat","kecCode":"187103"},"geometry":{"type":"Polygon","coordinates":[[[105.2358506516863,-5.405627429808562],[105.24009809125396,-5.427485669752274],[105.23064067492726,-5.4331424108123],[105.21553377956037,-5.426720442919332],[105.21492308233444,-5.414062263900359],[105.2358506516863,-5.405627429808562]]]}},{"type":"Feature","properties":{"code":"1871031008","desa":"Kelapa Tiga Permai","kecamatan":"Tanjungkarang Barat","kecCode":"187103"},"geometry":{"type":"Polygon","coordinates":[[[105.23773589959215,-5.411687021279377],[105.24361908365387,-5.408357264320088],[105.24477293002678,-5.411970003752745],[105.23773589959215,-5.411687021279377]]]}},{"type":"Feature","properties":{"code":"1871031010","desa":"Sukajawa Baru","kecamatan":"Tanjungkarang Barat","kecCode":"187103"},"geometry":{"type":"Polygon","coordinates":[[[105.24820843287296,-5.410277241343432],[105.25188519774373,-5.405127272752453],[105.25589915801982,-5.409526811056076],[105.25408379822875,-5.41052810902657],[105.24820843287296,-5.410277241343432]]]}},{"type":"Feature","properties":{"code":"1871031011","desa":"Segalamider","kecamatan":"Tanjungkarang Barat","kecCode":"187103"},"geometry":{"type":"Polygon","coordinates":[[[105.25417557134563,-5.384479273867337],[105.25197472075682,-5.393832135003466],[105.2390102829982,-5.397014537146399],[105.23979386499491,-5.386758679335215],[105.25417557134563,-5.384479273867337]]]}},{"type":"Feature","properties":{"code":"1871041001","desa":"Panjang Selatan","kecamatan":"Panjang","kecCode":"187104"},"geometry":{"type":"Polygon","coordinates":[[[105.327898024874,-5.473279293083099],[105.32798797956167,-5.477730706080897],[105.32129754874295,-5.484271501395725],[105.3184292752909,-5.478762947924333],[105.327898024874,-5.473279293083099]]]}},{"type":"Feature","properties":{"code":"1871041002","desa":"Srengsem","kecamatan":"Panjang","kecCode":"187104"},"geometry":{"type":"Polygon","coordinates":[[[105.35028415878696,-5.513956736251511],[105.34487326359033,-5.518187191218819],[105.33494012298837,-5.505268319423305],[105.3263436420455,-5.50363549233161],[105.32406238037463,-5.489994957762429],[105.33947238774056,-5.487935393367109],[105.35028415878696,-5.513956736251511]]]}},{"type":"Feature","properties":{"code":"1871041003","desa":"Panjang Utara","kecamatan":"Panjang","kecCode":"187104"},"geometry":{"type":"Polygon","coordinates":[[[105.3284750595764,-5.468670093133089],[105.327898024874,-5.473279293083099],[105.31532788677258,-5.478829987886224],[105.32033956481911,-5.4695775027814255],[105.31456812961555,-5.463996655508797],[105.3284750595764,-5.468670093133089]]]}},{"type":"Feature","properties":{"code":"1871041004","desa":"Pidada","kecamatan":"Panjang","kecCode":"187104"},"geometry":{"type":"Polygon","coordinates":[[[105.32721063256469,-5.45098062635548],[105.3284750595764,-5.468670093133089],[105.32400640027521,-5.470300503746404],[105.31283381313004,-5.461276338522498],[105.32721063256469,-5.45098062635548]]]}},{"type":"Feature","properties":{"code":"1871041007","desa":"Karang Maritim","kecamatan":"Panjang","kecCode":"187104"},"geometry":{"type":"Polygon","coordinates":[[[105.32798797956167,-5.477730706080897],[105.33305676590709,-5.482234654422997],[105.3381255522525,-5.486738635843992],[105.322834784198,-5.489364502431815],[105.32798797956167,-5.477730706080897]]]}},{"type":"Feature","properties":{"code":"1871041008","desa":"Way Lunik","kecamatan":"Panjang","kecCode":"187104"},"geometry":{"type":"Polygon","coordinates":[[[105.31671922431279,-5.458470467231393],[105.31283381313004,-5.461276338522498],[105.30116891821109,-5.451648839722165],[105.30819175104853,-5.441528417112983],[105.31671922431279,-5.458470467231393]]]}},{"type":"Feature","properties":{"code":"1871041009","desa":"Ketapang","kecamatan":"Panjang","kecCode":"187104"},"geometry":{"type":"Polygon","coordinates":[[[105.29617972681301,-5.426552640217549],[105.30421483025025,-5.439894081858235],[105.30076967498057,-5.44274397946009],[105.28979809530591,-5.4340254821081055],[105.29617972681301,-5.426552640217549]]]}},{"type":"Feature","properties":{"code":"1871041010","desa":"Ketapang Kuala","kecamatan":"Panjang","kecCode":"187104"},"geometry":{"type":"Polygon","coordinates":[[[105.30819175104853,-5.441528417112983],[105.30379839557956,-5.449203682906128],[105.29726312029679,-5.441995432353084],[105.30295132684233,-5.4379280388618065],[105.30819175104853,-5.441528417112983]]]}},{"type":"Feature","properties":{"code":"1871051002","desa":"Kota Baru","kecamatan":"Tanjungkarang Timur","kecCode":"187105"},"geometry":{"type":"Polygon","coordinates":[[[105.26134792726508,-5.414341247088632],[105.27898537277679,-5.420282940137284],[105.27323370017518,-5.421813989154433],[105.26203188776144,-5.416166678385333],[105.26134792726508,-5.414341247088632]]]}},{"type":"Feature","properties":{"code":"1871051003","desa":"Tanjung Agung","kecamatan":"Tanjungkarang Timur","kecCode":"187105"},"geometry":{"type":"Polygon","coordinates":[[[105.26780520164878,-5.410173701497051],[105.26571212941133,-5.409491642168202],[105.26867449623107,-5.408414185110261],[105.26780520164878,-5.410173701497051]]]}},{"type":"Feature","properties":{"code":"1871051004","desa":"Kebon Jeruk","kecamatan":"Tanjungkarang Timur","kecCode":"187105"},"geometry":{"type":"Polygon","coordinates":[[[105.26571212941133,-5.409491642168202],[105.26177726720714,-5.415087006297271],[105.26165735340419,-5.408674167422343],[105.26571212941133,-5.409491642168202]]]}},{"type":"Feature","properties":{"code":"1871051005","desa":"Sawah Lama","kecamatan":"Tanjungkarang Timur","kecCode":"187105"},"geometry":{"type":"Polygon","coordinates":[[[105.26613193024446,-5.408430020372794],[105.26165735340419,-5.408674167422343],[105.25964840195225,-5.411625139828815],[105.261370057782,-5.406532011988382],[105.26613193024446,-5.408430020372794]]]}},{"type":"Feature","properties":{"code":"1871051006","desa":"Sawah Brebes","kecamatan":"Tanjungkarang Timur","kecCode":"187105"},"geometry":{"type":"Polygon","coordinates":[[[105.2586996288848,-5.405872492367879],[105.26778083182,-5.404966292307734],[105.26926240733427,-5.4082402481328495],[105.2586996288848,-5.405872492367879]]]}},{"type":"Feature","properties":{"code":"1871061001","desa":"Durian Payung","kecamatan":"Tanjungkarang Pusat","kecCode":"187106"},"geometry":{"type":"Polygon","coordinates":[[[105.25147001492927,-5.4249224373475915],[105.23624367340688,-5.421104839547592],[105.24058646269516,-5.416281010096319],[105.25309198900415,-5.41877897600216],[105.25147001492927,-5.4249224373475915]]]}},{"type":"Feature","properties":{"code":"1871061002","desa":"Gotong Royong","kecamatan":"Tanjungkarang Pusat","kecCode":"187106"},"geometry":{"type":"Polygon","coordinates":[[[105.25159240456587,-5.427976066466185],[105.25823010543508,-5.422271675726972],[105.25932999878046,-5.427501341338272],[105.25159240456587,-5.427976066466185]]]}},{"type":"Feature","properties":{"code":"1871061005","desa":"Palapa","kecamatan":"Tanjungkarang Pusat","kecCode":"187106"},"geometry":{"type":"Polygon","coordinates":[[[105.25214918923375,-5.421205496167494],[105.24693589487572,-5.41879824127902],[105.24688252730685,-5.41521018643785],[105.25576816277054,-5.4152560077953344],[105.25214918923375,-5.421205496167494]]]}},{"type":"Feature","properties":{"code":"1871061006","desa":"Kaliawi","kecamatan":"Tanjungkarang Pusat","kecCode":"187106"},"geometry":{"type":"Polygon","coordinates":[[[105.25445855381928,-5.411650548374544],[105.24975045901651,-5.416544667038216],[105.2466493214091,-5.414103094919869],[105.25445855381928,-5.411650548374544]]]}},{"type":"Feature","properties":{"code":"1871061007","desa":"Kelapa Tiga","kecamatan":"Tanjungkarang Pusat","kecCode":"187106"},"geometry":{"type":"Polygon","coordinates":[[[105.24477293002678,-5.411970003752745],[105.25589915801982,-5.409526811056076],[105.25673791971928,-5.410366706799824],[105.24477293002678,-5.411970003752745]]]}},{"type":"Feature","properties":{"code":"1871061010","desa":"Pasir Gintung","kecamatan":"Tanjungkarang Pusat","kecCode":"187106"},"geometry":{"type":"Polygon","coordinates":[[[105.25390436189683,-5.402873004235095],[105.26000156212244,-5.403863289107785],[105.25673791971928,-5.410366706799824],[105.25390436189683,-5.402873004235095]]]}},{"type":"Feature","properties":{"code":"1871061012","desa":"Kaliawi Persada","kecamatan":"Tanjungkarang Pusat","kecCode":"187106"},"geometry":{"type":"Polygon","coordinates":[[[105.24695963787707,-5.415631825484733],[105.23853406859246,-5.411967046781848],[105.24727531700233,-5.412024278737517],[105.24695963787707,-5.415631825484733]]]}},{"type":"Feature","properties":{"code":"1871071001","desa":"Pesawahan","kecamatan":"Telukbetung Selatan","kecCode":"187107"},"geometry":{"type":"Polygon","coordinates":[[[105.26015395943772,-5.446138198924321],[105.26943855664415,-5.45405843554596],[105.26686672671813,-5.461054741073958],[105.25664406287324,-5.451233747739673],[105.26015395943772,-5.446138198924321]]]}},{"type":"Feature","properties":{"code":"1871071002","desa":"Telukbetung","kecamatan":"Telukbetung Selatan","kecCode":"187107"},"geometry":{"type":"Polygon","coordinates":[[[105.27015970770441,-5.447066265100721],[105.26527129073753,-5.445629747420968],[105.26916934458961,-5.444024678803578],[105.27015970770441,-5.447066265100721]]]}},{"type":"Feature","properties":{"code":"1871071008","desa":"Talang","kecamatan":"Telukbetung Selatan","kecCode":"187107"},"geometry":{"type":"Polygon","coordinates":[[[105.262798353861,-5.445647829190005],[105.25686306397925,-5.44978347402997],[105.2546035263317,-5.4408993359465],[105.25899076820946,-5.439326829981676],[105.262798353861,-5.445647829190005]]]}},{"type":"Feature","properties":{"code":"1871071009","desa":"Gedong Pakuon","kecamatan":"Telukbetung Selatan","kecCode":"187107"},"geometry":{"type":"Polygon","coordinates":[[[105.25693231267616,-5.445959857067454],[105.24968520600747,-5.439516279365072],[105.25259336529166,-5.437683664283822],[105.25693231267616,-5.445959857067454]]]}},{"type":"Feature","properties":{"code":"1871071012","desa":"Sumur Putri","kecamatan":"Telukbetung Selatan","kecCode":"187107"},"geometry":{"type":"Polygon","coordinates":[[[105.23455123025512,-5.430496027091375],[105.2468554559146,-5.42560068894699],[105.25840876565206,-5.439598284045768],[105.24589880478605,-5.440011437089918],[105.23455123025512,-5.430496027091375]]]}},{"type":"Feature","properties":{"code":"1871071013","desa":"Gunungmas","kecamatan":"Telukbetung Selatan","kecCode":"187107"},"geometry":{"type":"Polygon","coordinates":[[[105.27162414843576,-5.441894654324743],[105.26632303797788,-5.444870896781269],[105.26562191841684,-5.439537807336161],[105.27162414843576,-5.441894654324743]]]}},{"type":"Feature","properties":{"code":"1871081005","desa":"Bakung","kecamatan":"Telukbetung Barat","kecCode":"187108"},"geometry":{"type":"Polygon","coordinates":[[[105.22318983943963,-5.463629783375692],[105.22732277282778,-5.451063114871466],[105.24781767744389,-5.44900993026675],[105.2533410994123,-5.454130643012282],[105.22831901571003,-5.4567600313452385],[105.22318983943963,-5.463629783375692]]]}},{"type":"Feature","properties":{"code":"1871081006","desa":"Kuripan","kecamatan":"Telukbetung Barat","kecCode":"187108"},"geometry":{"type":"Polygon","coordinates":[[[105.25099881334461,-5.450609297182359],[105.25667396533129,-5.44860090421148],[105.25380553899447,-5.452706095308967],[105.25099881334461,-5.450609297182359]]]}},{"type":"Feature","properties":{"code":"1871081007","desa":"Negeri Olok Gading","kecamatan":"Telukbetung Barat","kecCode":"187108"},"geometry":{"type":"Polygon","coordinates":[[[105.24968520600747,-5.439516279365072],[105.25236793942888,-5.449941688160142],[105.24196948330506,-5.4493965128411],[105.24451856128262,-5.440741949192611],[105.24968520600747,-5.439516279365072]]]}},{"type":"Feature","properties":{"code":"1871081008","desa":"Sukarame II","kecamatan":"Telukbetung Barat","kecCode":"187108"},"geometry":{"type":"Polygon","coordinates":[[[105.21562775511688,-5.445137810168388],[105.19759254935671,-5.452844967719892],[105.18350196434427,-5.451490005059821],[105.18853370806426,-5.445752002159123],[105.20905288987903,-5.444504581328585],[105.21565340468095,-5.437144670005165],[105.24665567422004,-5.436939229776527],[105.24203615724292,-5.449088654220646],[105.23344287428927,-5.4515823042799925],[105.22469269830941,-5.453254711434176],[105.21562775511688,-5.445137810168388]]]}},{"type":"Feature","properties":{"code":"1871081009","desa":"Batu Putuk","kecamatan":"Telukbetung Barat","kecCode":"187108"},"geometry":{"type":"Polygon","coordinates":[[[105.18350196434427,-5.451490005059821],[105.18083520108371,-5.4393930641509805],[105.18793258322222,-5.43597212672811],[105.17939324610148,-5.433010438000119],[105.19123993897205,-5.429246321083489],[105.18243217040839,-5.421635408077913],[105.1979763836033,-5.4255070434417725],[105.21099718367316,-5.421250929017861],[105.23959847109262,-5.434408108564774],[105.21565340468095,-5.437144670005165],[105.20905288987903,-5.444504581328585],[105.18853370806426,-5.445752002159123],[105.18350196434427,-5.451490005059821]]]}},{"type":"Feature","properties":{"code":"1871091001","desa":"Kupang Kota","kecamatan":"Telukbetung Utara","kecCode":"187109"},"geometry":{"type":"Polygon","coordinates":[[[105.26494451038091,-5.438658621111596],[105.26158989885481,-5.445306934873537],[105.25585614614431,-5.436875810485214],[105.26494451038091,-5.438658621111596]]]}},{"type":"Feature","properties":{"code":"1871091003","desa":"Kupang Raya","kecamatan":"Telukbetung Utara","kecCode":"187109"},"geometry":{"type":"Polygon","coordinates":[[[105.27611891415658,-5.434184806001622],[105.27743249990998,-5.437341266300877],[105.27505421667883,-5.440232035391628],[105.27324117534005,-5.446156582865594],[105.27248534102573,-5.446522336242004],[105.27611891415658,-5.434184806001622]]]}},{"type":"Feature","properties":{"code":"1871091004","desa":"Kupang Teba","kecamatan":"Telukbetung Utara","kecCode":"187109"},"geometry":{"type":"Polygon","coordinates":[[[105.2720968339018,-5.444573125856209],[105.2646672242131,-5.436682416675292],[105.27189644066827,-5.433113840250284],[105.27448908720169,-5.438514752067462],[105.2720968339018,-5.444573125856209]]]}},{"type":"Feature","properties":{"code":"1871091006","desa":"Pengajaran","kecamatan":"Telukbetung Utara","kecCode":"187109"},"geometry":{"type":"Polygon","coordinates":[[[105.2468554559146,-5.42560068894699],[105.25599123330879,-5.427851333196539],[105.25647170510518,-5.433489527538022],[105.25107409289512,-5.435217935475951],[105.2468554559146,-5.42560068894699]]]}},{"type":"Feature","properties":{"code":"1871091007","desa":"Gulak Galik","kecamatan":"Telukbetung Utara","kecCode":"187109"},"geometry":{"type":"Polygon","coordinates":[[[105.25599123330879,-5.427851333196539],[105.26141682792434,-5.428987214711127],[105.26562191841684,-5.439537807336161],[105.25585614614431,-5.436875810485214],[105.25599123330879,-5.427851333196539]]]}},{"type":"Feature","properties":{"code":"1871091008","desa":"Sumur Batu","kecamatan":"Telukbetung Utara","kecCode":"187109"},"geometry":{"type":"Polygon","coordinates":[[[105.25932999878046,-5.427501341338272],[105.26825109541174,-5.427042527015901],[105.27063991330141,-5.4347077392878695],[105.2646672242131,-5.436682416675292],[105.25932999878046,-5.427501341338272]]]}},{"type":"Feature","properties":{"code":"1871101001","desa":"Rajabasa","kecamatan":"Rajabasa","kecCode":"187110"},"geometry":{"type":"Polygon","coordinates":[[[105.2258205120071,-5.362110174035917],[105.23933963901317,-5.360750577169373],[105.23687096042651,-5.36598358735935],[105.2427681199528,-5.367296317856154],[105.2394625070891,-5.372044870454934],[105.2258205120071,-5.362110174035917]]]}},{"type":"Feature","properties":{"code":"1871101002","desa":"Gedong Meneng","kecamatan":"Rajabasa","kecCode":"187110"},"geometry":{"type":"Polygon","coordinates":[[[105.2365612932691,-5.379270191039659],[105.24236850530235,-5.359730209074873],[105.2499064752037,-5.375861152546791],[105.2365612932691,-5.379270191039659]]]}},{"type":"Feature","properties":{"code":"1871101005","desa":"Rajabasa Nunyai","kecamatan":"Rajabasa","kecCode":"187110"},"geometry":{"type":"Polygon","coordinates":[[[105.23008044585593,-5.366007535406101],[105.23853359105242,-5.370946610279504],[105.2365612932691,-5.379270191039659],[105.22688038282348,-5.3811645355861355],[105.22102870920763,-5.376968924851546],[105.23008044585593,-5.366007535406101]]]}},{"type":"Feature","properties":{"code":"1871101006","desa":"Rajabasa Pemuka","kecamatan":"Rajabasa","kecCode":"187110"},"geometry":{"type":"Polygon","coordinates":[[[105.21656473627358,-5.369364755862056],[105.2258205120071,-5.362110174035917],[105.23008044585593,-5.366007535406101],[105.22090495709813,-5.377676293800753],[105.21656473627358,-5.369364755862056]]]}},{"type":"Feature","properties":{"code":"1871101007","desa":"Gedong Meneng Baru","kecamatan":"Rajabasa","kecCode":"187110"},"geometry":{"type":"Polygon","coordinates":[[[105.24533940129237,-5.382615819234473],[105.24442563703359,-5.375385359024228],[105.25152784763212,-5.378137641513285],[105.24533940129237,-5.382615819234473]]]}},{"type":"Feature","properties":{"code":"1871101008","desa":"Rajabasa Raya","kecamatan":"Rajabasa","kecCode":"187110"},"geometry":{"type":"Polygon","coordinates":[[[105.23192992772402,-5.359201824098441],[105.23899465188173,-5.347180986519005],[105.24294717227421,-5.345406741035796],[105.24568064094886,-5.358373942397959],[105.23192992772402,-5.359201824098441]]]}},{"type":"Feature","properties":{"code":"1871101009","desa":"Rajabasa Jaya","kecamatan":"Rajabasa","kecCode":"187110"},"geometry":{"type":"Polygon","coordinates":[[[105.24282976578115,-5.345339475344106],[105.25395367981855,-5.326557583192586],[105.26175061489901,-5.32821424501632],[105.26119785110001,-5.350774366246107],[105.25431664979362,-5.347662108524734],[105.24568064094886,-5.358373942397959],[105.24282976578115,-5.345339475344106]]]}},{"type":"Feature","properties":{"code":"1871111001","desa":"Tanjung Senang","kecamatan":"Tanjung Senang","kecCode":"187111"},"geometry":{"type":"Polygon","coordinates":[[[105.26952017011979,-5.353280489902187],[105.27627195358785,-5.36401251985056],[105.28298482968621,-5.359972722955551],[105.28419428923513,-5.3713575195151115],[105.26666548632316,-5.366330998163362],[105.26952017011979,-5.353280489902187]]]}},{"type":"Feature","properties":{"code":"1871111002","desa":"Way Kandis","kecamatan":"Tanjung Senang","kecCode":"187111"},"geometry":{"type":"Polygon","coordinates":[[[105.29478568411207,-5.347423364602062],[105.29547146933287,-5.356317834996562],[105.28419565980192,-5.360979361999671],[105.27461431599795,-5.354921928901789],[105.27628152687099,-5.341721693412687],[105.29478568411207,-5.347423364602062]]]}},{"type":"Feature","properties":{"code":"1871111003","desa":"Labuhan Dalam","kecamatan":"Tanjung Senang","kecCode":"187111"},"geometry":{"type":"Polygon","coordinates":[[[105.25431664979362,-5.347662108524734],[105.26952017011979,-5.353280489902187],[105.26666548632316,-5.366330998163362],[105.25073480476748,-5.358069179243938],[105.25431664979362,-5.347662108524734]]]}},{"type":"Feature","properties":{"code":"1871111004","desa":"Perumnas Way Kandis","kecamatan":"Tanjung Senang","kecCode":"187111"},"geometry":{"type":"Polygon","coordinates":[[[105.28861164131428,-5.35790217693879],[105.29243842389423,-5.363850049229258],[105.28951820739938,-5.37058492813393],[105.28280601568514,-5.361227314980064],[105.28861164131428,-5.35790217693879]]]}},{"type":"Feature","properties":{"code":"1871111005","desa":"Pematang Wangi","kecamatan":"Tanjung Senang","kecCode":"187111"},"geometry":{"type":"Polygon","coordinates":[[[105.27118069903008,-5.353151729468428],[105.27500540957203,-5.346654893015179],[105.27464692901265,-5.354988950877182],[105.28298482968621,-5.359972722955551],[105.27627195358785,-5.36401251985056],[105.27118069903008,-5.353151729468428]]]}},{"type":"Feature","properties":{"code":"1871121002","desa":"Sukabumi","kecamatan":"Sukabumi","kecCode":"187112"},"geometry":{"type":"Polygon","coordinates":[[[105.32353473104307,-5.39644036049005],[105.32546065258707,-5.405310752436151],[105.31171299435924,-5.407086923367853],[105.30774582131265,-5.399604900298515],[105.29593022340117,-5.406163441935256],[105.2961157157677,-5.393056428370733],[105.32353473104307,-5.39644036049005]]]}},{"type":"Feature","properties":{"code":"1871121004","desa":"Sukabumi Indah","kecamatan":"Sukabumi","kecCode":"187112"},"geometry":{"type":"Polygon","coordinates":[[[105.28904405873641,-5.393622409505266],[105.29666808926095,-5.39479509037859],[105.29364975223433,-5.407711622138097],[105.29058693204132,-5.40355962492536],[105.28904405873641,-5.393622409505266]]]}},{"type":"Feature","properties":{"code":"1871121007","desa":"Campang Raya","kecamatan":"Sukabumi","kecCode":"187112"},"geometry":{"type":"Polygon","coordinates":[[[105.34087350810596,-5.418497507987162],[105.32665666457348,-5.429880208226993],[105.3133312200598,-5.419106027953717],[105.32422957963142,-5.404595286890554],[105.34087350810596,-5.418497507987162]]]}},{"type":"Feature","properties":{"code":"1871121008","desa":"Nusantara Permai","kecamatan":"Sukabumi","kecCode":"187112"},"geometry":{"type":"Polygon","coordinates":[[[105.30522713682296,-5.405426389962647],[105.3101234534347,-5.4015550432812445],[105.31227909690283,-5.405966200825682],[105.30522713682296,-5.405426389962647]]]}},{"type":"Feature","properties":{"code":"1871121009","desa":"Campang Jaya","kecamatan":"Sukabumi","kecCode":"187112"},"geometry":{"type":"Polygon","coordinates":[[[105.29617972681301,-5.426552640217549],[105.29540385740215,-5.4056079801706725],[105.30707151773639,-5.40051295026416],[105.30522713682296,-5.405426389962647],[105.32028105402748,-5.405151574232745],[105.3133312200598,-5.419106027953717],[105.29617972681301,-5.426552640217549]]]}},{"type":"Feature","properties":{"code":"1871121010","desa":"Way Gubak","kecamatan":"Sukabumi","kecCode":"187112"},"geometry":{"type":"Polygon","coordinates":[[[105.31017329296314,-5.442408374955885],[105.29617972681301,-5.426552640217549],[105.31403614195443,-5.418772228388833],[105.32665666457348,-5.429880208226993],[105.31017329296314,-5.442408374955885]]]}},{"type":"Feature","properties":{"code":"1871121011","desa":"Way Laga","kecamatan":"Sukabumi","kecCode":"187112"},"geometry":{"type":"Polygon","coordinates":[[[105.33746824406425,-5.425502321101685],[105.34297941906497,-5.4319456487925954],[105.31671922431279,-5.458470467231393],[105.31048556995313,-5.441757290976243],[105.33746824406425,-5.425502321101685]]]}},{"type":"Feature","properties":{"code":"1871131001","desa":"Sumber Rejo","kecamatan":"Kemiling","kecCode":"187113"},"geometry":{"type":"Polygon","coordinates":[[[105.20431397710843,-5.387830512932379],[105.21466509022177,-5.392252590045064],[105.22137104423835,-5.385847323461775],[105.22177920874356,-5.393837580398496],[105.20183488077521,-5.393709714790089],[105.20431397710843,-5.387830512932379]]]}},{"type":"Feature","properties":{"code":"1871131003","desa":"Beringin Jaya","kecamatan":"Kemiling","kecCode":"187113"},"geometry":{"type":"Polygon","coordinates":[[[105.22218518609752,-5.408547817171617],[105.19871767138346,-5.410454241411754],[105.19825393507108,-5.40892084156683],[105.20418167424492,-5.397587899916301],[105.22218518609752,-5.408547817171617]]]}},{"type":"Feature","properties":{"code":"1871131004","desa":"Kemiling Permai","kecamatan":"Kemiling","kecCode":"187113"},"geometry":{"type":"Polygon","coordinates":[[[105.21135471185049,-5.369802494572261],[105.2180356647142,-5.3704885612801885],[105.21474894930462,-5.384350892947446],[105.20707858570825,-5.377467710441526],[105.21135471185049,-5.369802494572261]]]}},{"type":"Feature","properties":{"code":"1871131005","desa":"Sumber Agung","kecamatan":"Kemiling","kecCode":"187113"},"geometry":{"type":"Polygon","coordinates":[[[105.18520640984798,-5.42001374696888],[105.17843605088306,-5.406707214311946],[105.18544945432893,-5.3987403739226165],[105.19992195533403,-5.405533705162984],[105.2012425890743,-5.4164478712078745],[105.18520640984798,-5.42001374696888]]]}},{"type":"Feature","properties":{"code":"1871131006","desa":"Kedaung","kecamatan":"Kemiling","kecCode":"187113"},"geometry":{"type":"Polygon","coordinates":[[[105.18593787703144,-5.421061465245355],[105.2012425890743,-5.4164478712078745],[105.19909639298419,-5.4102949822694235],[105.22195009432146,-5.409177898384248],[105.21371025032784,-5.423093742411148],[105.18593787703144,-5.421061465245355]]]}},{"type":"Feature","properties":{"code":"1871131007","desa":"Pinang Jaya","kecamatan":"Kemiling","kecCode":"187113"},"geometry":{"type":"Polygon","coordinates":[[[105.18544945432893,-5.3987403739226165],[105.19557653283077,-5.384540028467461],[105.20431397710843,-5.387830512932379],[105.19704880935512,-5.392815453230069],[105.19757365100325,-5.404426575873554],[105.18544945432893,-5.3987403739226165]]]}},{"type":"Feature","properties":{"code":"1871131008","desa":"Sumberrejo Sejahtera","kecamatan":"Kemiling","kecCode":"187113"},"geometry":{"type":"Polygon","coordinates":[[[105.22177920874356,-5.393837580398496],[105.22218518609752,-5.408547817171617],[105.21227203742467,-5.403712504277125],[105.21566139335867,-5.392605814966096],[105.22177920874356,-5.393837580398496]]]}},{"type":"Feature","properties":{"code":"1871131009","desa":"Kemiling Raya","kecamatan":"Kemiling","kecCode":"187113"},"geometry":{"type":"Polygon","coordinates":[[[105.20686426197618,-5.389065684097354],[105.2074901892209,-5.376729885051932],[105.21474894930462,-5.384350892947446],[105.22025499277373,-5.376365130822282],[105.21910368878427,-5.390547047370129],[105.20686426197618,-5.389065684097354]]]}},{"type":"Feature","properties":{"code":"1871131010","desa":"Beringin Raya","kecamatan":"Kemiling","kecCode":"187113"},"geometry":{"type":"Polygon","coordinates":[[[105.19704880935512,-5.392815453230069],[105.20655169630378,-5.3947600375032785],[105.21366835720897,-5.396196143293488],[105.19752580167449,-5.404979585186932],[105.19704880935512,-5.392815453230069]]]}},{"type":"Feature","properties":{"code":"1871141001","desa":"Labuhan Ratu","kecamatan":"Labuhan Ratu","kecCode":"187114"},"geometry":{"type":"Polygon","coordinates":[[[105.26666548632316,-5.366330998163362],[105.2573504578574,-5.37724887301231],[105.25066803640084,-5.370754019564212],[105.25442519256863,-5.359376329447388],[105.26666548632316,-5.366330998163362]]]}},{"type":"Feature","properties":{"code":"1871141002","desa":"Labuhan Ratu Raya","kecamatan":"Labuhan Ratu","kecCode":"187114"},"geometry":{"type":"Polygon","coordinates":[[[105.25960851432154,-5.379471977322893],[105.25096601956618,-5.385401371243256],[105.24626004266689,-5.381965796454831],[105.25225489824503,-5.372260803073944],[105.25960851432154,-5.379471977322893]]]}},{"type":"Feature","properties":{"code":"1871141003","desa":"Sepang Jaya","kecamatan":"Labuhan Ratu","kecCode":"187114"},"geometry":{"type":"Polygon","coordinates":[[[105.27196454632679,-5.380680728204816],[105.2650410544012,-5.380056701228208],[105.26682987340001,-5.366421192070614],[105.2740662952234,-5.371254968023701],[105.27196454632679,-5.380680728204816]]]}},{"type":"Feature","properties":{"code":"1871141004","desa":"Kota Sepang","kecamatan":"Labuhan Ratu","kecCode":"187114"},"geometry":{"type":"Polygon","coordinates":[[[105.2650410544012,-5.380056701228208],[105.2573504578574,-5.37724887301231],[105.26375638814686,-5.370661873228773],[105.26634647071312,-5.371846818156825],[105.2650410544012,-5.380056701228208]]]}},{"type":"Feature","properties":{"code":"1871141006","desa":"Kampung Baru Raya","kecamatan":"Labuhan Ratu","kecCode":"187114"},"geometry":{"type":"Polygon","coordinates":[[[105.24731803030289,-5.359671812497198],[105.25442519256863,-5.359376329447388],[105.25161896604247,-5.365517822176892],[105.24731803030289,-5.359671812497198]]]}},{"type":"Feature","properties":{"code":"1871141007","desa":"Kampung Baru","kecamatan":"Labuhan Ratu","kecCode":"187114"},"geometry":{"type":"Polygon","coordinates":[[[105.2499064752037,-5.375861152546791],[105.24217232898984,-5.360443934432337],[105.24750734388886,-5.357784194879688],[105.25232725140158,-5.367198924875963],[105.2499064752037,-5.375861152546791]]]}},{"type":"Feature","properties":{"code":"1871151001","desa":"Perumnas Way Halim","kecamatan":"Way Halim","kecCode":"187115"},"geometry":{"type":"Polygon","coordinates":[[[105.2766110627504,-5.372919363117794],[105.28147750478308,-5.377818701446557],[105.28525464658475,-5.381347794036562],[105.27196454632679,-5.380680728204816],[105.2766110627504,-5.372919363117794]]]}},{"type":"Feature","properties":{"code":"1871151002","desa":"Way Halim Permai","kecamatan":"Way Halim","kecCode":"187115"},"geometry":{"type":"Polygon","coordinates":[[[105.27037990580804,-5.38694554586569],[105.27196454632679,-5.380680728204816],[105.28525464658475,-5.381347794036562],[105.28805192935312,-5.389594362252777],[105.27037990580804,-5.38694554586569]]]}},{"type":"Feature","properties":{"code":"1871151003","desa":"Gunungsulah","kecamatan":"Way Halim","kecCode":"187115"},"geometry":{"type":"Polygon","coordinates":[[[105.26515640414482,-5.3853408990303295],[105.27140068939035,-5.386939032076122],[105.28013964992498,-5.391886923003507],[105.27195433002838,-5.39832994582428],[105.26515640414482,-5.3853408990303295]]]}},{"type":"Feature","properties":{"code":"1871151004","desa":"Jagabaya I","kecamatan":"Way Halim","kecCode":"187115"},"geometry":{"type":"Polygon","coordinates":[[[105.26093512585543,-5.403703806034301],[105.26223563276828,-5.3998842234305275],[105.26643841829842,-5.40459927988044],[105.26093512585543,-5.403703806034301]]]}},{"type":"Feature","properties":{"code":"1871151005","desa":"Jagabaya II","kecamatan":"Way Halim","kecCode":"187115"},"geometry":{"type":"Polygon","coordinates":[[[105.26288689931101,-5.398985554293125],[105.26616863067784,-5.392749643540769],[105.27180293455784,-5.405413014345852],[105.26798877126485,-5.407009966581836],[105.26288689931101,-5.398985554293125]]]}},{"type":"Feature","properties":{"code":"1871151006","desa":"Jagabaya III","kecamatan":"Way Halim","kecCode":"187115"},"geometry":{"type":"Polygon","coordinates":[[[105.28021346807712,-5.391596193770031],[105.28376078543197,-5.3994771794809795],[105.2760572476439,-5.406340834108043],[105.26891699932014,-5.403746052586696],[105.28021346807712,-5.391596193770031]]]}},{"type":"Feature","properties":{"code":"1871161001","desa":"Langkapura","kecamatan":"Langkapura","kecCode":"187116"},"geometry":{"type":"Polygon","coordinates":[[[105.22102870920763,-5.376968924851546],[105.22929004340084,-5.379619208032862],[105.2267979626559,-5.389511153379881],[105.235989204838,-5.395019403779707],[105.22177920874356,-5.393837580398496],[105.22102870920763,-5.376968924851546]]]}},{"type":"Feature","properties":{"code":"1871161002","desa":"Langkapura Baru","kecamatan":"Langkapura","kecCode":"187116"},"geometry":{"type":"Polygon","coordinates":[[[105.23140316512405,-5.400592258777353],[105.22069332593628,-5.396020723333949],[105.22071463537219,-5.393812544172019],[105.23624726709778,-5.395173638409784],[105.23140316512405,-5.400592258777353]]]}},{"type":"Feature","properties":{"code":"1871161003","desa":"Gunungterang","kecamatan":"Langkapura","kecCode":"187116"},"geometry":{"type":"Polygon","coordinates":[[[105.24709929179892,-5.384066387921842],[105.23213281837491,-5.391542264124986],[105.2267979626559,-5.389511153379881],[105.2293534896719,-5.379867033309553],[105.24709929179892,-5.384066387921842]]]}},{"type":"Feature","properties":{"code":"1871161005","desa":"Bilabong Jaya","kecamatan":"Langkapura","kecCode":"187116"},"geometry":{"type":"Polygon","coordinates":[[[105.22839313243719,-5.398783253597729],[105.22404864792678,-5.403898725094383],[105.22301856355591,-5.396696721232252],[105.22839313243719,-5.398783253597729]]]}},{"type":"Feature","properties":{"code":"1871161006","desa":"Gunungagung","kecamatan":"Langkapura","kecCode":"187116"},"geometry":{"type":"Polygon","coordinates":[[[105.24246537667585,-5.398259160186066],[105.23928966998231,-5.403218950942777],[105.23140316512405,-5.400592258777353],[105.23558713683695,-5.386952094728869],[105.24246537667585,-5.398259160186066]]]}},{"type":"Feature","properties":{"code":"1871171001","desa":"Enggal","kecamatan":"Enggal","kecCode":"187117"},"geometry":{"type":"Polygon","coordinates":[[[105.25837546285737,-5.414461042180966],[105.26260665887024,-5.425629170476134],[105.25877655599332,-5.426031614393372],[105.25837546285737,-5.414461042180966]]]}},{"type":"Feature","properties":{"code":"1871171002","desa":"Pelita","kecamatan":"Enggal","kecCode":"187117"},"geometry":{"type":"Polygon","coordinates":[[[105.25837546285737,-5.414461042180966],[105.25487996533819,-5.421714668927108],[105.25794936856856,-5.414402266988673],[105.25837546285737,-5.414461042180966]]]}},{"type":"Feature","properties":{"code":"1871171003","desa":"Tanjungkarang","kecamatan":"Enggal","kecCode":"187117"},"geometry":{"type":"Polygon","coordinates":[[[105.26220948497979,-5.413935121346877],[105.25708561381008,-5.415793861733543],[105.25495054323306,-5.414910560211299],[105.25664392257902,-5.410591845778577],[105.26220948497979,-5.413935121346877]]]}},{"type":"Feature","properties":{"code":"1871171004","desa":"Gunungsari","kecamatan":"Enggal","kecCode":"187117"},"geometry":{"type":"Polygon","coordinates":[[[105.2586996288848,-5.405872492367879],[105.25964840195225,-5.411625139828815],[105.25664392257902,-5.410591845778577],[105.2586996288848,-5.405872492367879]]]}},{"type":"Feature","properties":{"code":"1871171005","desa":"Rawalaut","kecamatan":"Enggal","kecCode":"187117"},"geometry":{"type":"Polygon","coordinates":[[[105.26203188776144,-5.416166678385333],[105.26979762356154,-5.420119061177556],[105.26904832102326,-5.427023695212263],[105.26298019587936,-5.426549998908712],[105.26203188776144,-5.416166678385333]]]}},{"type":"Feature","properties":{"code":"1871171006","desa":"Pahoman","kecamatan":"Enggal","kecCode":"187117"},"geometry":{"type":"Polygon","coordinates":[[[105.27611891415658,-5.434184806001622],[105.26830492703084,-5.4317052303322235],[105.26949072092009,-5.422809159144529],[105.27554950300718,-5.426692630485761],[105.27611891415658,-5.434184806001622]]]}},{"type":"Feature","properties":{"code":"1871181001","desa":"Kedamaian","kecamatan":"Kedamaian","kecCode":"187118"},"geometry":{"type":"Polygon","coordinates":[[[105.27919904899699,-5.416202455214964],[105.27133009260973,-5.414009093283085],[105.26915455703721,-5.4069428079094575],[105.27578855989418,-5.405811392428154],[105.27919904899699,-5.416202455214964]]]}},{"type":"Feature","properties":{"code":"1871181002","desa":"Bumi Kedamaian","kecamatan":"Kedamaian","kecCode":"187118"},"geometry":{"type":"Polygon","coordinates":[[[105.29616121336939,-5.4257323847679215],[105.2900308830189,-5.429062338678816],[105.28983488027558,-5.421919731440513],[105.27749198826471,-5.412236536726627],[105.29364975223433,-5.407711622138097],[105.29616121336939,-5.4257323847679215]]]}},{"type":"Feature","properties":{"code":"1871181003","desa":"Tanjungagung Raya","kecamatan":"Kedamaian","kecCode":"187118"},"geometry":{"type":"Polygon","coordinates":[[[105.27055608299689,-5.40981880923295],[105.26730190326026,-5.413836605113456],[105.2688899540082,-5.408734061371175],[105.27055608299689,-5.40981880923295]]]}},{"type":"Feature","properties":{"code":"1871181004","desa":"Tanjungbaru","kecamatan":"Kedamaian","kecCode":"187118"},"geometry":{"type":"Polygon","coordinates":[[[105.27749198826471,-5.412236536726627],[105.2821629599527,-5.399905828743315],[105.28544451864968,-5.411612596084893],[105.27749198826471,-5.412236536726627]]]}},{"type":"Feature","properties":{"code":"1871181005","desa":"Kalibalau Kencana","kecamatan":"Kedamaian","kecCode":"187118"},"geometry":{"type":"Polygon","coordinates":[[[105.28805192935312,-5.389594362252777],[105.29050388504629,-5.403304664427618],[105.29364975223433,-5.407711622138097],[105.28573780375672,-5.408329763951271],[105.28170662775875,-5.399285695831159],[105.28805192935312,-5.389594362252777]]]}},{"type":"Feature","properties":{"code":"1871181006","desa":"Tanjungraya","kecamatan":"Kedamaian","kecCode":"187118"},"geometry":{"type":"Polygon","coordinates":[[[105.26978046000028,-5.420160928216069],[105.28103873095272,-5.418391138873548],[105.28602006227612,-5.421135606254052],[105.27547486827063,-5.425133693491977],[105.26978046000028,-5.420160928216069]]]}},{"type":"Feature","properties":{"code":"1871181007","desa":"Tanjunggading","kecamatan":"Kedamaian","kecCode":"187118"},"geometry":{"type":"Polygon","coordinates":[[[105.27621701400405,-5.43335095190339],[105.2746210654099,-5.424328811952751],[105.28983488027558,-5.421919731440513],[105.28770335842329,-5.432026143511534],[105.27621701400405,-5.43335095190339]]]}},{"type":"Feature","properties":{"code":"1871191001","desa":"Kota Karang","kecamatan":"Telukbetung Timur","kecCode":"187119"},"geometry":{"type":"Polygon","coordinates":[[[105.26320893574386,-5.46274907999481],[105.2664079007041,-5.464507217720951],[105.26463669043096,-5.466307601999462],[105.26320893574386,-5.46274907999481]]]}},{"type":"Feature","properties":{"code":"1871191001","desa":"Kota Karang","kecamatan":"Telukbetung Timur","kecCode":"187119"},"geometry":{"type":"Polygon","coordinates":[[[105.26595580431699,-5.459940820104423],[105.26542600110912,-5.460272847105545],[105.26566768761374,-5.459632324763906],[105.26595580431699,-5.459940820104423]]]}},{"type":"Feature","properties":{"code":"1871191001","desa":"Kota Karang","kecamatan":"Telukbetung Timur","kecCode":"187119"},"geometry":{"type":"Polygon","coordinates":[[[105.25714667507906,-5.452602472724972],[105.26244805173629,-5.4530082837039915],[105.2653555356295,-5.460175666365314],[105.26057159200542,-5.459095818010095],[105.25714667507906,-5.452602472724972]]]}},{"type":"Feature","properties":{"code":"1871191002","desa":"Kota Karang Raya","kecamatan":"Telukbetung Timur","kecCode":"187119"},"geometry":{"type":"Polygon","coordinates":[[[105.25420752965385,-5.45728281084737],[105.2605896980562,-5.459172732528047],[105.25649793023535,-5.4610490159898255],[105.25420752965385,-5.45728281084737]]]}},{"type":"Feature","properties":{"code":"1871191003","desa":"Parwata","kecamatan":"Telukbetung Timur","kecCode":"187119"},"geometry":{"type":"Polygon","coordinates":[[[105.25716703483084,-5.454203425145414],[105.25258241424706,-5.4524166422135245],[105.25604807855602,-5.4515998239727494],[105.25716703483084,-5.454203425145414]]]}},{"type":"Feature","properties":{"code":"1871191004","desa":"Keteguhan","kecamatan":"Telukbetung Timur","kecCode":"187119"},"geometry":{"type":"Polygon","coordinates":[[[105.2260915406921,-5.473956076988857],[105.22318983943963,-5.463629783375692],[105.22831901571003,-5.4567600313452385],[105.25380001895574,-5.456592133315302],[105.25632102909229,-5.461349954327144],[105.25312372158253,-5.46787603493466],[105.23914621192819,-5.462783783933256],[105.2260915406921,-5.473956076988857]]]}},{"type":"Feature","properties":{"code":"1871191005","desa":"Sukamaju","kecamatan":"Telukbetung Timur","kecCode":"187119"},"geometry":{"type":"Polygon","coordinates":[[[105.26002508478989,-5.489083489473666],[105.26071704835317,-5.488436590039472],[105.26094725501184,-5.48886192889732],[105.26002508478989,-5.489083489473666]]]}},{"type":"Feature","properties":{"code":"1871191005","desa":"Sukamaju","kecamatan":"Telukbetung Timur","kecCode":"187119"},"geometry":{"type":"Polygon","coordinates":[[[105.22663429323808,-5.473144687955315],[105.23914621192819,-5.462783783933256],[105.25288810370307,-5.468132085410767],[105.24166394313654,-5.475530441852313],[105.22663429323808,-5.473144687955315]]]}},{"type":"Feature","properties":{"code":"1871191006","desa":"Way Tataan","kecamatan":"Telukbetung Timur","kecCode":"187119"},"geometry":{"type":"Polygon","coordinates":[[[105.2248953893108,-5.48971657172397],[105.2260915406921,-5.473956076988857],[105.25193760663528,-5.4717009739006],[105.25255374206158,-5.48984267466115],[105.24531322292692,-5.481434660151441],[105.2248953893108,-5.48971657172397]]]}},{"type":"Feature","properties":{"code":"1871201001","desa":"Sukaraja","kecamatan":"Bumi Waras","kecCode":"187120"},"geometry":{"type":"Polygon","coordinates":[[[105.28683794261701,-5.436182300988028],[105.3003611201696,-5.451760048087653],[105.28187505459015,-5.443043985200465],[105.28683794261701,-5.436182300988028]]]}},{"type":"Feature","properties":{"code":"1871201002","desa":"Bumi Waras","kecamatan":"Bumi Waras","kecCode":"187120"},"geometry":{"type":"Polygon","coordinates":[[[105.27248534102573,-5.446522336242004],[105.27579923934348,-5.439090289398017],[105.28449789586125,-5.439912803944652],[105.28296260294182,-5.449070353916282],[105.27248534102573,-5.446522336242004]]]}},{"type":"Feature","properties":{"code":"1871201003","desa":"Garuntang","kecamatan":"Bumi Waras","kecCode":"187120"},"geometry":{"type":"Polygon","coordinates":[[[105.29203937671593,-5.429080598513634],[105.28982215486862,-5.43408701282314],[105.30171623661509,-5.4476339540478085],[105.28568366007289,-5.435984246891292],[105.29203937671593,-5.429080598513634]]]}},{"type":"Feature","properties":{"code":"1871201004","desa":"Bumi Raya","kecamatan":"Bumi Waras","kecCode":"187120"},"geometry":{"type":"Polygon","coordinates":[[[105.27579923934348,-5.439090289398017],[105.27660759586394,-5.433033640508925],[105.28652503340362,-5.432676832688897],[105.28581285757735,-5.439909524117098],[105.27579923934348,-5.439090289398017]]]}},{"type":"Feature","properties":{"code":"1871201005","desa":"Kangkung","kecamatan":"Bumi Waras","kecCode":"187120"},"geometry":{"type":"Polygon","coordinates":[[[105.27297888896459,-5.448585222732969],[105.26453657520284,-5.449926689267018],[105.27089739909576,-5.443409843797584],[105.27297888896459,-5.448585222732969]]]}}]}