{"type":"FeatureCollection","features":[{"type":"Feature","properties":{"code":"1872011001","desa":"Metro","kecamatan":"Metro Pusat","kecCode":"187201"},"geometry":{"type":"Polygon","coordinates":[[[105.31168265842801,-5.114101311569377],[105.30877475994726,-5.130920784992158],[105.30014302827816,-5.129966308425238],[105.29761463830499,-5.114956621692943],[105.31168265842801,-5.114101311569377]]]}},{"type":"Feature","properties":{"code":"1872011002","desa":"Hadimulyo Timur","kecamatan":"Metro Pusat","kecCode":"187201"},"geometry":{"type":"Polygon","coordinates":[[[105.32266433658991,-5.090142868666018],[105.31448956394229,-5.106489406611667],[105.29831970588975,-5.100234364581545],[105.30390253077722,-5.09028455775357],[105.32266433658991,-5.090142868666018]]]}},{"type":"Feature","properties":{"code":"1872011003","desa":"Imopuro","kecamatan":"Metro Pusat","kecCode":"187201"},"geometry":{"type":"Polygon","coordinates":[[[105.31168265842801,-5.114101311569377],[105.29909894506034,-5.114149963093373],[105.2956795328842,-5.1162514349966],[105.29819852134477,-5.1110912555032355],[105.31425384623803,-5.106325904467954],[105.31168265842801,-5.114101311569377]]]}},{"type":"Feature","properties":{"code":"1872011004","desa":"Hadimulyo Barat","kecamatan":"Metro Pusat","kecCode":"187201"},"geometry":{"type":"Polygon","coordinates":[[[105.29708184934793,-5.114313846549658],[105.28793938729297,-5.105423447386183],[105.30069404739241,-5.099842524570517],[105.30758251971758,-5.108033841138141],[105.29708184934793,-5.114313846549658]]]}},{"type":"Feature","properties":{"code":"1872011005","desa":"Yosomulyo","kecamatan":"Metro Pusat","kecCode":"187201"},"geometry":{"type":"Polygon","coordinates":[[[105.33494331198432,-5.090860880192355],[105.33640848386449,-5.0989418904145],[105.32959845940142,-5.105609303078648],[105.31448956394229,-5.106489406611667],[105.32385776482401,-5.089046241659446],[105.33494331198432,-5.090860880192355]]]}},{"type":"Feature","properties":{"code":"1872021001","desa":"Banjarsari","kecamatan":"Metro Utara","kecCode":"187202"},"geometry":{"type":"Polygon","coordinates":[[[105.28779910204696,-5.105605444087755],[105.2716539411765,-5.105313056504418],[105.26878352374068,-5.095674290098336],[105.27904573617184,-5.09174127420637],[105.27938113563094,-5.083179328138162],[105.3070634247373,-5.060774003615054],[105.28466990469241,-5.0889806568006835],[105.28378573082688,-5.094200182555802],[105.29291963403391,-5.089412919538935],[105.2993010802807,-5.093771134893848],[105.28779910204696,-5.105605444087755]]]}},{"type":"Feature","properties":{"code":"1872021002","desa":"Purwosari","kecamatan":"Metro Utara","kecCode":"187202"},"geometry":{"type":"Polygon","coordinates":[[[105.31179529131968,-5.087516473276887],[105.2993010802807,-5.093771134893848],[105.29291963403391,-5.089412919538935],[105.28376446455842,-5.094157111325088],[105.29888571130658,-5.073937810265922],[105.31179529131968,-5.087516473276887]]]}},{"type":"Feature","properties":{"code":"1872021003","desa":"Karangrejo","kecamatan":"Metro Utara","kecCode":"187202"},"geometry":{"type":"Polygon","coordinates":[[[105.35750455469149,-5.071712265195333],[105.33968712336211,-5.090103506239461],[105.31179529131968,-5.087516473276887],[105.32248324730409,-5.072482303401269],[105.342400947246,-5.0710091932068835],[105.34894732735732,-5.062448747207875],[105.35750455469149,-5.071712265195333]]]}},{"type":"Feature","properties":{"code":"1872021004","desa":"Purwoasri","kecamatan":"Metro Utara","kecCode":"187202"},"geometry":{"type":"Polygon","coordinates":[[[105.29888571130658,-5.073937810265922],[105.31661378779614,-5.054534021631854],[105.3088247289781,-5.072080527680275],[105.31824602673282,-5.076303107284306],[105.30984353585058,-5.084372102563957],[105.29888571130658,-5.073937810265922]]]}},{"type":"Feature","properties":{"code":"1872031001","desa":"Mulyojati","kecamatan":"Metro Barat","kecCode":"187203"},"geometry":{"type":"Polygon","coordinates":[[[105.2852213752663,-5.13678618855165],[105.31315486840253,-5.130787672738925],[105.31247088722169,-5.137218069977369],[105.29681353481685,-5.138060551272004],[105.29051059398874,-5.148804732859792],[105.2852213752663,-5.13678618855165]]]}},{"type":"Feature","properties":{"code":"1872031002","desa":"Ganjar Agung","kecamatan":"Metro Barat","kecCode":"187203"},"geometry":{"type":"Polygon","coordinates":[[[105.27645919963244,-5.143770693175727],[105.27445221499778,-5.131883716984821],[105.28387960386065,-5.120368415306758],[105.29115179262116,-5.131917163671073],[105.28345605825052,-5.143903627363158],[105.27645919963244,-5.143770693175727]]]}},{"type":"Feature","properties":{"code":"1872031003","desa":"Mulyosari","kecamatan":"Metro Barat","kecCode":"187203"},"geometry":{"type":"Polygon","coordinates":[[[105.27475556891443,-5.158760796271138],[105.26220232277905,-5.158565045338203],[105.27680275504315,-5.143190586389813],[105.28935245874902,-5.1443470938554405],[105.27475556891443,-5.158760796271138]]]}},{"type":"Feature","properties":{"code":"1872031004","desa":"Ganjar Asri","kecamatan":"Metro Barat","kecCode":"187203"},"geometry":{"type":"Polygon","coordinates":[[[105.28422378160228,-5.120594109167235],[105.29550882627137,-5.110003514697723],[105.30012159023924,-5.132494343163681],[105.29116192887999,-5.1320916906037075],[105.28422378160228,-5.120594109167235]]]}},{"type":"Feature","properties":{"code":"1872041001","desa":"Yosodadi","kecamatan":"Metro Timur","kecCode":"187204"},"geometry":{"type":"Polygon","coordinates":[[[105.33652904068276,-5.098006573903804],[105.34905020440345,-5.108491140102846],[105.32389697796322,-5.117707765640304],[105.31946577272731,-5.10875557945498],[105.33652904068276,-5.098006573903804]]]}},{"type":"Feature","properties":{"code":"1872041002","desa":"Tejosari","kecamatan":"Metro Timur","kecCode":"187204"},"geometry":{"type":"Polygon","coordinates":[[[105.33366165935813,-5.152641540178628],[105.31629898191255,-5.151419288674226],[105.31252937912762,-5.138101836449158],[105.32218838928281,-5.140884325367058],[105.3301714318661,-5.134706526107311],[105.33366165935813,-5.152641540178628]]]}},{"type":"Feature","properties":{"code":"1872041003","desa":"Iring Mulyo","kecamatan":"Metro Timur","kecCode":"187204"},"geometry":{"type":"Polygon","coordinates":[[[105.33136290857142,-5.1189405545011555],[105.3229956216507,-5.128126618377452],[105.30877475994726,-5.130920784992158],[105.3115968792926,-5.117166698424324],[105.33136290857142,-5.1189405545011555]]]}},{"type":"Feature","properties":{"code":"1872041004","desa":"Yosorejo","kecamatan":"Metro Timur","kecCode":"187204"},"geometry":{"type":"Polygon","coordinates":[[[105.3115968792926,-5.117166698424324],[105.3101737848923,-5.111738893280781],[105.31802562987899,-5.1061373094405225],[105.32389697796322,-5.117707765640304],[105.3115968792926,-5.117166698424324]]]}},{"type":"Feature","properties":{"code":"1872041005","desa":"Tejo Agung","kecamatan":"Metro Timur","kecCode":"187204"},"geometry":{"type":"Polygon","coordinates":[[[105.32483335657423,-5.1265024031937445],[105.32291542370791,-5.140485872641035],[105.31498134741132,-5.140284334570676],[105.31315486840253,-5.130787672738925],[105.32483335657423,-5.1265024031937445]]]}},{"type":"Feature","properties":{"code":"1872051001","desa":"Rejomulyo","kecamatan":"Metro Selatan","kecCode":"187205"},"geometry":{"type":"Polygon","coordinates":[[[105.32747499727338,-5.156213223761288],[105.32992893597167,-5.167608862547358],[105.32240445680031,-5.164628510189024],[105.31663406391094,-5.172393575086928],[105.29729069441008,-5.166488704779459],[105.30165740386614,-5.154520672692678],[105.3184445376853,-5.150529820500683],[105.32747499727338,-5.156213223761288]]]}},{"type":"Feature","properties":{"code":"1872051002","desa":"Margorejo","kecamatan":"Metro Selatan","kecCode":"187205"},"geometry":{"type":"Polygon","coordinates":[[[105.28137167975927,-5.156172418822197],[105.29681353481685,-5.138060551272004],[105.31232033261733,-5.13732116555871],[105.28865557499483,-5.156554562342909],[105.28137167975927,-5.156172418822197]]]}},{"type":"Feature","properties":{"code":"1872051003","desa":"Sumbersari Bantul","kecamatan":"Metro Selatan","kecCode":"187205"},"geometry":{"type":"Polygon","coordinates":[[[105.29940175488713,-5.172268152037221],[105.27911602988091,-5.169620063201713],[105.27475556891443,-5.158760796271138],[105.2922741483333,-5.156690377958149],[105.29729069441008,-5.166488704779459],[105.30804351489637,-5.169155779202649],[105.30026637389408,-5.178746821285838],[105.29940175488713,-5.172268152037221]]]}},{"type":"Feature","properties":{"code":"1872051004","desa":"Margodadi","kecamatan":"Metro Selatan","kecCode":"187205"},"geometry":{"type":"Polygon","coordinates":[[[105.31137196334551,-5.1415708929973105],[105.31552867121125,-5.1547287884044],[105.30165740386614,-5.154520672692678],[105.29530693566657,-5.161631168737948],[105.28865557499483,-5.156554562342909],[105.31137196334551,-5.1415708929973105]]]}}]}