{"type":"FeatureCollection","features":[{"type":"Feature","properties":{"code":"1902011001","desa":"Kota","kecamatan":"Tanjung Pandan","kecCode":"190201"},"geometry":{"type":"Polygon","coordinates":[[[107.63978478064318,-2.7376388898851496],[107.63934086808665,-2.748428133801855],[107.62813814555902,-2.745913424318336],[107.63978478064318,-2.7376388898851496]]]}},{"type":"Feature","properties":{"code":"1902011002","desa":"Parit","kecamatan":"Tanjung Pandan","kecCode":"190201"},"geometry":{"type":"Polygon","coordinates":[[[107.6111469996344,-2.7460929973470347],[107.60955930591727,-2.746179322370807],[107.60989600040016,-2.745429997350293],[107.6111469996344,-2.7460929973470347]]]}},{"type":"Feature","properties":{"code":"1902011002","desa":"Parit","kecamatan":"Tanjung Pandan","kecCode":"190201"},"geometry":{"type":"Polygon","coordinates":[[[107.63356897872546,-2.7399991605925234],[107.6274010306331,-2.7463910056930776],[107.62280926223768,-2.74679612509344],[107.63094851436249,-2.7298536217180533],[107.63356897872546,-2.7399991605925234]]]}},{"type":"Feature","properties":{"code":"1902011005","desa":"Lesung Batang","kecamatan":"Tanjung Pandan","kecCode":"190201"},"geometry":{"type":"Polygon","coordinates":[[[107.66171138077566,-2.7377619162416105],[107.66220312287588,-2.7497639121238904],[107.67351940099962,-2.762096360294384],[107.65013930668373,-2.7474489735428875],[107.65202960788015,-2.739246149250919],[107.66171138077566,-2.7377619162416105]]]}},{"type":"Feature","properties":{"code":"1902011006","desa":"Pangkallalang","kecamatan":"Tanjung Pandan","kecCode":"190201"},"geometry":{"type":"Polygon","coordinates":[[[107.64080410282713,-2.7689858785235555],[107.63855895972824,-2.742740386816109],[107.65149984244384,-2.73857926867963],[107.65013930668373,-2.7474489735428875],[107.67351940099962,-2.762096360294384],[107.66717331969299,-2.7754328205892485],[107.65134094033219,-2.761405942666478],[107.64080410282713,-2.7689858785235555]]]}},{"type":"Feature","properties":{"code":"1902011009","desa":"Tanjungpendam","kecamatan":"Tanjung Pandan","kecCode":"190201"},"geometry":{"type":"Polygon","coordinates":[[[107.6399721975589,-2.724668193758592],[107.63083049363246,-2.7299611743394263],[107.62582253877916,-2.737904655737296],[107.6290325312264,-2.723559038296617],[107.6399721975589,-2.724668193758592]]]}},{"type":"Feature","properties":{"code":"1902011011","desa":"Paal Satu","kecamatan":"Tanjung Pandan","kecCode":"190201"},"geometry":{"type":"Polygon","coordinates":[[[107.64196843529508,-2.74120131404782],[107.63889484122397,-2.72743172496757],[107.6462760413063,-2.720195261783255],[107.65190786575545,-2.728082886288894],[107.64196843529508,-2.74120131404782]]]}},{"type":"Feature","properties":{"code":"1902011016","desa":"Kampong Damai","kecamatan":"Tanjung Pandan","kecCode":"190201"},"geometry":{"type":"Polygon","coordinates":[[[107.63828734108796,-2.7382055041423743],[107.63148753022539,-2.733285231395358],[107.63889484122397,-2.72743172496757],[107.64028665630423,-2.7283437814128124],[107.63828734108796,-2.7382055041423743]]]}},{"type":"Feature","properties":{"code":"1902012003","desa":"Buluh Tumbang","kecamatan":"Tanjung Pandan","kecCode":"190201"},"geometry":{"type":"Polygon","coordinates":[[[107.78344869769931,-2.7075001637967118],[107.78720873799288,-2.7186404436845373],[107.77191705262992,-2.7374181980538954],[107.7773422227654,-2.754407549812551],[107.76821255266725,-2.7876528831818],[107.753054209784,-2.7966047635969917],[107.76214570366135,-2.8200831870618104],[107.73858005042904,-2.8388031536946374],[107.73297869231287,-2.8238175049422383],[107.69969246763331,-2.803453087480533],[107.7095819767269,-2.7903623111764917],[107.69457356521792,-2.764824210901302],[107.72887063776977,-2.7320067380889075],[107.72796988130504,-2.7176621881435765],[107.74241879669017,-2.7258636670497363],[107.76309328602639,-2.711546637258239],[107.77339972801506,-2.716481963757012],[107.78344869769931,-2.7075001637967118]]]}},{"type":"Feature","properties":{"code":"1902012004","desa":"Perawas","kecamatan":"Tanjung Pandan","kecCode":"190201"},"geometry":{"type":"Polygon","coordinates":[[[107.66574408831906,-2.789103103831356],[107.6681858106267,-2.764163222687939],[107.67929890941718,-2.7603345362474117],[107.68619669332281,-2.732830438841202],[107.70460970157653,-2.7230987059187033],[107.68590359527472,-2.7171477066860117],[107.68684968476519,-2.711555444319049],[107.69782536804638,-2.7086205409991813],[107.70921169616292,-2.7163910629826153],[107.71972931065919,-2.7120045999226465],[107.72796988130504,-2.7176621881435765],[107.72887063776977,-2.7320067380889075],[107.69457356521792,-2.764824210901302],[107.70151183300476,-2.776573724817365],[107.69200087643934,-2.7777172136969983],[107.67456187263234,-2.7949481359475277],[107.66574408831906,-2.789103103831356]]]}},{"type":"Feature","properties":{"code":"1902012007","desa":"Dukong","kecamatan":"Tanjung Pandan","kecCode":"190201"},"geometry":{"type":"Polygon","coordinates":[[[107.64080410282713,-2.7689858785235555],[107.65134094033219,-2.761405942666478],[107.66717331969299,-2.7754328205892485],[107.65769761565251,-2.8011361335187988],[107.63805380423975,-2.798593884096291],[107.64080410282713,-2.7689858785235555]]]}},{"type":"Feature","properties":{"code":"1902012008","desa":"Juru Seberang","kecamatan":"Tanjung Pandan","kecCode":"190201"},"geometry":{"type":"Polygon","coordinates":[[[107.58443343055842,-2.785300526508378],[107.58473843113376,-2.7844445266048923],[107.58497743136341,-2.7849085273174476],[107.58443343055842,-2.785300526508378]]]}},{"type":"Feature","properties":{"code":"1902012008","desa":"Juru Seberang","kecamatan":"Tanjung Pandan","kecCode":"190201"},"geometry":{"type":"Polygon","coordinates":[[[107.53934982463477,-2.7834717047676776],[107.53858244932063,-2.783138580593666],[107.53904049472311,-2.7826983795398026],[107.53934982463477,-2.7834717047676776]]]}},{"type":"Feature","properties":{"code":"1902012008","desa":"Juru Seberang","kecamatan":"Tanjung Pandan","kecCode":"190201"},"geometry":{"type":"Polygon","coordinates":[[[107.59404612113165,-2.7828308766566425],[107.59764060882708,-2.783370457293211],[107.593560256101,-2.784987936554725],[107.59404612113165,-2.7828308766566425]]]}},{"type":"Feature","properties":{"code":"1902012008","desa":"Juru Seberang","kecamatan":"Tanjung Pandan","kecCode":"190201"},"geometry":{"type":"Polygon","coordinates":[[[107.53688589356919,-2.782548474245967],[107.5364718672829,-2.782320045547185],[107.5369810724186,-2.7821677606473734],[107.53688589356919,-2.782548474245967]]]}},{"type":"Feature","properties":{"code":"1902012008","desa":"Juru Seberang","kecamatan":"Tanjung Pandan","kecCode":"190201"},"geometry":{"type":"Polygon","coordinates":[[[107.56657865757904,-2.7812078620679404],[107.56550650292284,-2.7802838095659763],[107.56636839968195,-2.7800955176100746],[107.56657865757904,-2.7812078620679404]]]}},{"type":"Feature","properties":{"code":"1902012008","desa":"Juru Seberang","kecamatan":"Tanjung Pandan","kecCode":"190201"},"geometry":{"type":"Polygon","coordinates":[[[107.53497580908639,-2.778264086936019],[107.53935163766799,-2.7821830590146415],[107.53307699940403,-2.781176546775023],[107.52950066902069,-2.782382934238536],[107.53497580908639,-2.778264086936019]]]}},{"type":"Feature","properties":{"code":"1902012008","desa":"Juru Seberang","kecamatan":"Tanjung Pandan","kecCode":"190201"},"geometry":{"type":"Polygon","coordinates":[[[107.53760544293691,-2.778252357078667],[107.5379147719492,-2.7778597463486094],[107.53765065185614,-2.77832968978132],[107.53760544293691,-2.778252357078667]]]}},{"type":"Feature","properties":{"code":"1902012008","desa":"Juru Seberang","kecamatan":"Tanjung Pandan","kecCode":"190201"},"geometry":{"type":"Polygon","coordinates":[[[107.60074950128852,-2.76952081685971],[107.60151211918901,-2.770578788306792],[107.60039020324535,-2.769915807195862],[107.60074950128852,-2.76952081685971]]]}},{"type":"Feature","properties":{"code":"1902012008","desa":"Juru Seberang","kecamatan":"Tanjung Pandan","kecCode":"190201"},"geometry":{"type":"Polygon","coordinates":[[[107.5979197269139,-2.767157717784577],[107.60178120623772,-2.7668756571163144],[107.60255757926893,-2.767526618788132],[107.5979197269139,-2.767157717784577]]]}},{"type":"Feature","properties":{"code":"1902012008","desa":"Juru Seberang","kecamatan":"Tanjung Pandan","kecCode":"190201"},"geometry":{"type":"Polygon","coordinates":[[[107.64058589042655,-2.749412695389053],[107.63832333555352,-2.790977798190935],[107.60634084275574,-2.803110720074625],[107.60137124758506,-2.788464210162018],[107.59435621996363,-2.7881535141805665],[107.59026221912615,-2.78533705696987],[107.59732636771776,-2.7861755596637],[107.61189712864962,-2.781881334669898],[107.61276649158037,-2.777445290186875],[107.59983841700937,-2.782794950539571],[107.61187609530559,-2.767422747091945],[107.61152703244663,-2.764662271779264],[107.60529113517781,-2.763743207816595],[107.62559025198863,-2.7500770335769587],[107.64058589042655,-2.749412695389053]]]}},{"type":"Feature","properties":{"code":"1902012008","desa":"Juru Seberang","kecamatan":"Tanjung Pandan","kecCode":"190201"},"geometry":{"type":"Polygon","coordinates":[[[107.60363878470224,-2.7706342827722517],[107.60404015303071,-2.7733301552858176],[107.60271165022253,-2.7727938643692887],[107.60363878470224,-2.7706342827722517]]]}},{"type":"Feature","properties":{"code":"1902012008","desa":"Juru Seberang","kecamatan":"Tanjung Pandan","kecCode":"190201"},"geometry":{"type":"Polygon","coordinates":[[[107.60283920556493,-2.77042384411168],[107.60247357899254,-2.7713499479672783],[107.60222670969493,-2.770683698719986],[107.60283920556493,-2.77042384411168]]]}},{"type":"Feature","properties":{"code":"1902012008","desa":"Juru Seberang","kecamatan":"Tanjung Pandan","kecCode":"190201"},"geometry":{"type":"Polygon","coordinates":[[[107.60329454310875,-2.7700522370480076],[107.60369429175825,-2.7697809790361885],[107.60356580112091,-2.7701093439979254],[107.60329454310875,-2.7700522370480076]]]}},{"type":"Feature","properties":{"code":"1902012008","desa":"Juru Seberang","kecamatan":"Tanjung Pandan","kecCode":"190201"},"geometry":{"type":"Polygon","coordinates":[[[107.60353532759336,-2.768775279783675],[107.6028714579515,-2.768768141864641],[107.60273582939504,-2.7677687675440263],[107.60353532759336,-2.768775279783675]]]}},{"type":"Feature","properties":{"code":"1902012008","desa":"Juru Seberang","kecamatan":"Tanjung Pandan","kecCode":"190201"},"geometry":{"type":"Polygon","coordinates":[[[107.6072359083106,-2.7646328729415726],[107.60887702175724,-2.765016177487076],[107.60698344163255,-2.7647774731345867],[107.6072359083106,-2.7646328729415726]]]}},{"type":"Feature","properties":{"code":"1902012008","desa":"Juru Seberang","kecamatan":"Tanjung Pandan","kecCode":"190201"},"geometry":{"type":"Polygon","coordinates":[[[107.62889756906766,-2.7484750990970235],[107.62912361816052,-2.749391190800272],[107.62530458324,-2.7488915040896513],[107.62889756906766,-2.7484750990970235]]]}},{"type":"Feature","properties":{"code":"1902012008","desa":"Juru Seberang","kecamatan":"Tanjung Pandan","kecCode":"190201"},"geometry":{"type":"Polygon","coordinates":[[[107.63206811365255,-2.748123233051633],[107.63266773932475,-2.74773776024069],[107.63282478343704,-2.747873389696342],[107.63206811365255,-2.748123233051633]]]}},{"type":"Feature","properties":{"code":"1902012010","desa":"Air Saga","kecamatan":"Tanjung Pandan","kecCode":"190201"},"geometry":{"type":"Polygon","coordinates":[[[107.6399721975589,-2.724668193758592],[107.62847013838626,-2.723007788057255],[107.62190679436314,-2.706776032383992],[107.64422506723315,-2.6888622656964936],[107.65607333391726,-2.697799970997638],[107.6399721975589,-2.724668193758592]]]}},{"type":"Feature","properties":{"code":"1902012012","desa":"Air Merbau","kecamatan":"Tanjung Pandan","kecCode":"190201"},"geometry":{"type":"Polygon","coordinates":[[[107.68839343131184,-2.7109475601731945],[107.67855742468544,-2.735440764244599],[107.6706791243422,-2.741184932896791],[107.65780799933975,-2.723884493052218],[107.66606482163427,-2.7126096179291377],[107.66715376933104,-2.6973155961441333],[107.68839343131184,-2.7109475601731945]]]}},{"type":"Feature","properties":{"code":"1902012013","desa":"Aik Pelempang Jaya","kecamatan":"Tanjung Pandan","kecCode":"190201"},"geometry":{"type":"Polygon","coordinates":[[[107.65190786575545,-2.728082886288894],[107.64610143883039,-2.7207779891935493],[107.64766056378403,-2.7083283188911094],[107.66614608707232,-2.6941950286873455],[107.66426074383831,-2.716965406912863],[107.66036003788548,-2.7149988009408847],[107.65190786575545,-2.728082886288894]]]}},{"type":"Feature","properties":{"code":"1902012014","desa":"Aik Ketekok","kecamatan":"Tanjung Pandan","kecCode":"190201"},"geometry":{"type":"Polygon","coordinates":[[[107.66171138077566,-2.7377619162416105],[107.6484036672955,-2.7373416558553494],[107.65827867572038,-2.7192008975857735],[107.66428559660307,-2.732879191988558],[107.66171138077566,-2.7377619162416105]]]}},{"type":"Feature","properties":{"code":"1902012015","desa":"Aik Rayak","kecamatan":"Tanjung Pandan","kecCode":"190201"},"geometry":{"type":"Polygon","coordinates":[[[107.67351940099962,-2.762096360294384],[107.66134031600285,-2.747048656522328],[107.66428559660307,-2.732879191988558],[107.67089580699592,-2.7411276946458445],[107.68559704786553,-2.7171671095591012],[107.70450976441418,-2.7229131110296305],[107.68619669332281,-2.732830438841202],[107.67929890941718,-2.7603345362474117],[107.67351940099962,-2.762096360294384]]]}},{"type":"Feature","properties":{"code":"1902022001","desa":"Membalong","kecamatan":"Membalong","kecCode":"190202"},"geometry":{"type":"Polygon","coordinates":[[[107.78876818130658,-3.0947447371539667],[107.7895583202603,-3.126707282954229],[107.77873449739916,-3.155205424399433],[107.75143984487299,-3.1448424852123815],[107.73025004130642,-3.1444631682608395],[107.71127003208636,-3.1559440681720186],[107.68163619795223,-3.1577011473959757],[107.64387408971753,-3.1880945767763214],[107.63811958874805,-3.1860380808679842],[107.63582293068377,-3.1712359297856207],[107.63230133034216,-3.180587211711627],[107.60985265757415,-3.173932992102265],[107.62829884001951,-3.1473587271406465],[107.62563441679498,-3.1286643767969164],[107.63523338731102,-3.132475869099316],[107.63430155027639,-3.1223807372253787],[107.64496382162315,-3.1234390935822414],[107.65257898033575,-3.1128836095453813],[107.65006587973663,-3.104262354987481],[107.65875477231496,-3.108516874913009],[107.66349806658258,-3.1009811713113113],[107.68263181040976,-3.1003668687040435],[107.70343767271048,-3.0867654501481487],[107.7143661820537,-3.091121916321412],[107.72375857559784,-3.082850732762065],[107.74659820704169,-3.096870856776385],[107.74972516688301,-3.1085086524115515],[107.78247895244176,-3.1018918841693846],[107.78876818130658,-3.0947447371539667]]]}},{"type":"Feature","properties":{"code":"1902022001","desa":"Membalong","kecamatan":"Membalong","kecCode":"190202"},"geometry":{"type":"Polygon","coordinates":[[[107.62534137000829,-3.1301623424538594],[107.62479409387235,-3.1299600885232377],[107.62528188435151,-3.1292759931292236],[107.62534137000829,-3.1301623424538594]]]}},{"type":"Feature","properties":{"code":"1902022002","desa":"Perpat","kecamatan":"Membalong","kecCode":"190202"},"geometry":{"type":"Polygon","coordinates":[[[107.60941678765471,-3.111957958948085],[107.60767502298398,-3.111139424800933],[107.6080462181585,-3.1099972840049976],[107.60941678765471,-3.111957958948085]]]}},{"type":"Feature","properties":{"code":"1902022002","desa":"Perpat","kecamatan":"Membalong","kecCode":"190202"},"geometry":{"type":"Polygon","coordinates":[[[107.70901825558808,-3.08925530326966],[107.69685206057419,-3.0880564889971027],[107.68263181040976,-3.1003668687040435],[107.66349806658258,-3.1009811713113113],[107.65875477231496,-3.108516874913009],[107.6499684543807,-3.104310045136214],[107.65257898033575,-3.1128836095453813],[107.64496382162315,-3.1234390935822414],[107.63430155027639,-3.1223807372253787],[107.6378915206772,-3.129183128235557],[107.63523338731102,-3.132475869099316],[107.62360777028242,-3.131098490837432],[107.6080367006333,-3.1080694433098133],[107.59291760506346,-3.1041671275747427],[107.58240792258759,-3.086174139608217],[107.58167740598753,-3.060002565877437],[107.59164877676972,-3.0567524384894784],[107.6024439508277,-3.0657940181848287],[107.61000155023139,-3.0560349575632593],[107.63347285468852,-3.0580737745988418],[107.64529501944962,-3.045159236637232],[107.68982153943254,-3.038849076957961],[107.69449698974431,-3.0636263229043146],[107.70901825558808,-3.08925530326966]]]}},{"type":"Feature","properties":{"code":"1902022003","desa":"Lassar","kecamatan":"Membalong","kecCode":"190202"},"geometry":{"type":"Polygon","coordinates":[[[107.4991414291337,-3.025536995485056],[107.50195883513219,-3.044334306511763],[107.49196200004633,-3.0519489966693123],[107.48813474262431,-3.030130951926018],[107.49527691369865,-3.0330449334178837],[107.4991414291337,-3.025536995485056]]]}},{"type":"Feature","properties":{"code":"1902022003","desa":"Lassar","kecamatan":"Membalong","kecCode":"190202"},"geometry":{"type":"Polygon","coordinates":[[[107.550796517945,-3.035014277825478],[107.54077394606082,-3.0322854262731944],[107.54382458223876,-3.0242821858246254],[107.550796517945,-3.035014277825478]]]}},{"type":"Feature","properties":{"code":"1902022003","desa":"Lassar","kecamatan":"Membalong","kecCode":"190202"},"geometry":{"type":"Polygon","coordinates":[[[107.50028675173229,-2.9997748165316245],[107.5065851608765,-3.0031611066730948],[107.50767174065834,-3.022147126041747],[107.4988374726713,-3.0080326730375173],[107.50028675173229,-2.9997748165316245]]]}},{"type":"Feature","properties":{"code":"1902022003","desa":"Lassar","kecamatan":"Membalong","kecCode":"190202"},"geometry":{"type":"Polygon","coordinates":[[[107.53326681121443,-2.9702142034318912],[107.5333645306486,-2.9871493323665694],[107.52522428297435,-3.0053863037058743],[107.51606910630426,-2.9720331299321514],[107.53326681121443,-2.9702142034318912]]]}},{"type":"Feature","properties":{"code":"1902022003","desa":"Lassar","kecamatan":"Membalong","kecCode":"190202"},"geometry":{"type":"Polygon","coordinates":[[[107.51307021891552,-2.9634223731605474],[107.51523251376953,-2.963010712990942],[107.52961617704499,-2.966595908887155],[107.51588370926584,-2.970206002514158],[107.51307021891552,-2.9634223731605474]]]}},{"type":"Feature","properties":{"code":"1902022003","desa":"Lassar","kecamatan":"Membalong","kecCode":"190202"},"geometry":{"type":"Polygon","coordinates":[[[107.52810749686351,-2.96038557665286],[107.53694074771738,-2.961924378725206],[107.53752489156057,-2.964304027124726],[107.52810749686351,-2.96038557665286]]]}},{"type":"Feature","properties":{"code":"1902022003","desa":"Lassar","kecamatan":"Membalong","kecCode":"190202"},"geometry":{"type":"Polygon","coordinates":[[[107.5669870900822,-3.0524743572256505],[107.56399497998437,-3.0512930383642343],[107.56636619004769,-3.050342885737737],[107.5669870900822,-3.0524743572256505]]]}},{"type":"Feature","properties":{"code":"1902022003","desa":"Lassar","kecamatan":"Membalong","kecCode":"190202"},"geometry":{"type":"Polygon","coordinates":[[[107.5575932333411,-3.054663504934307],[107.55419155039976,-3.041080205919002],[107.55529599431473,-3.0385875936774256],[107.56124822022923,-3.0480798263475912],[107.5575932333411,-3.054663504934307]]]}},{"type":"Feature","properties":{"code":"1902022003","desa":"Lassar","kecamatan":"Membalong","kecCode":"190202"},"geometry":{"type":"Polygon","coordinates":[[[107.68721816668511,-3.039648824267637],[107.64529501944962,-3.045159236637232],[107.63347285468852,-3.0580737745988418],[107.61000155023139,-3.0560349575632593],[107.6024439508277,-3.0657940181848287],[107.59164877676972,-3.0567524384894784],[107.58167740598753,-3.060002565877437],[107.56085136110147,-2.999064111996999],[107.56854175709644,-2.9840315986735217],[107.58000253289065,-2.9847248329780327],[107.5838869233429,-2.983088410396989],[107.60493815037539,-2.928405981505365],[107.61632836086523,-2.932779320758868],[107.60737770801491,-2.9493667385159386],[107.61400772777449,-2.9511943839434602],[107.62425336030441,-2.980364880133223],[107.66730433922395,-2.980716997089501],[107.71706082879427,-2.9983250869118634],[107.71256277065537,-3.0154849303452287],[107.68721816668511,-3.039648824267637]]]}},{"type":"Feature","properties":{"code":"1902022003","desa":"Lassar","kecamatan":"Membalong","kecCode":"190202"},"geometry":{"type":"Polygon","coordinates":[[[107.58229975482988,-2.982994501390439],[107.58190476539266,-2.982747037641209],[107.58201422008023,-2.982675653953901],[107.58229975482988,-2.982994501390439]]]}},{"type":"Feature","properties":{"code":"1902022003","desa":"Lassar","kecamatan":"Membalong","kecCode":"190202"},"geometry":{"type":"Polygon","coordinates":[[[107.58395467107128,-2.9826439276707335],[107.58218741331852,-2.9825484889173906],[107.58347282960743,-2.981023514820756],[107.58395467107128,-2.9826439276707335]]]}},{"type":"Feature","properties":{"code":"1902022003","desa":"Lassar","kecamatan":"Membalong","kecCode":"190202"},"geometry":{"type":"Polygon","coordinates":[[[107.55816734704545,-2.979358945258315],[107.55936335273664,-2.981457494364834],[107.5567705641103,-2.9803394446078526],[107.55816734704545,-2.979358945258315]]]}},{"type":"Feature","properties":{"code":"1902022004","desa":"Simpang Rusa","kecamatan":"Membalong","kecCode":"190202"},"geometry":{"type":"Polygon","coordinates":[[[107.73957769985104,-3.012816937714347],[107.70735204566046,-2.9915753718918174],[107.68983261728151,-2.991991331720067],[107.67140254079469,-2.981618006262719],[107.62223431666047,-2.979019375643271],[107.61847679087127,-2.959712934125182],[107.60737770801491,-2.9493667385159386],[107.6162490019899,-2.9340046677297096],[107.60797198182155,-2.9284087756989945],[107.61493655208028,-2.9081939478689054],[107.63030000334254,-2.895310280935212],[107.6407354926489,-2.910194693904339],[107.64661277535934,-2.905833574638812],[107.66767437876962,-2.914406817990021],[107.66830697898394,-2.9227984333616384],[107.68410108769513,-2.9224324407655757],[107.69224041176561,-2.9324319827999608],[107.73769740181369,-2.9414364420785377],[107.76274803809156,-2.9376228093896963],[107.79023087015861,-2.9625042435934676],[107.79130804213247,-2.973984136263919],[107.77811034181887,-2.9717366774132072],[107.76860191144912,-2.9801031135662237],[107.76873176905592,-2.9908167074119034],[107.76002696387337,-2.9921040329601545],[107.73957769985104,-3.012816937714347]]]}},{"type":"Feature","properties":{"code":"1902022005","desa":"Kembiri","kecamatan":"Membalong","kecCode":"190202"},"geometry":{"type":"Polygon","coordinates":[[[107.82193884939846,-3.0815734778221167],[107.75511851270926,-3.1092462169976542],[107.7270880285897,-3.0835440983676756],[107.71255753570176,-3.091061948628092],[107.69449698974431,-3.0636263229043146],[107.68982153943254,-3.038849076957961],[107.71799154617298,-3.0024761110578013],[107.73957769985104,-3.012816937714347],[107.76002696387337,-2.9921040329601545],[107.76873176905592,-2.9908167074119034],[107.76860191144912,-2.9801031135662237],[107.77811034181887,-2.9717366774132072],[107.82308071230511,-2.9921526062431174],[107.8337340776656,-3.0088822095135064],[107.84371406575163,-3.0035141535283207],[107.84652791493141,-3.011396514302141],[107.86416515899496,-3.0176160007355826],[107.86400272884293,-3.0354599305696373],[107.85079728626577,-3.047028444233073],[107.84821995158954,-3.0594100970107596],[107.82193884939846,-3.0815734778221167]]]}},{"type":"Feature","properties":{"code":"1902022006","desa":"Bantan","kecamatan":"Membalong","kecCode":"190202"},"geometry":{"type":"Polygon","coordinates":[[[107.76274803809156,-2.9376228093896963],[107.73769740181369,-2.9414364420785377],[107.69224041176561,-2.9324319827999608],[107.68410108769513,-2.9224324407655757],[107.66830697898394,-2.9227984333616384],[107.66767437876962,-2.914406817990021],[107.64661277535934,-2.905833574638812],[107.6407354926489,-2.910194693904339],[107.63030000334254,-2.895310280935212],[107.61440492504732,-2.9126766923471363],[107.59208417544441,-2.9114844098505563],[107.59247716478937,-2.9014639289010664],[107.61615003159874,-2.8707444656018812],[107.62479548782157,-2.8736273926042246],[107.63044672233843,-2.855918800845387],[107.64838218878701,-2.8444681118597805],[107.66052889369352,-2.8507063185808463],[107.67244824009423,-2.8482644334985676],[107.68337050724318,-2.862868197734952],[107.70401858079293,-2.851189259914955],[107.72905238176207,-2.869392859211809],[107.73461407258145,-2.891011210394262],[107.74722222232775,-2.8877777744234883],[107.75913026425036,-2.8985502783596697],[107.75144981115993,-2.9056093385794264],[107.76327928021463,-2.9245463790708848],[107.76274803809156,-2.9376228093896963]]]}},{"type":"Feature","properties":{"code":"1902022007","desa":"Tanjungrusa","kecamatan":"Membalong","kecCode":"190202"},"geometry":{"type":"Polygon","coordinates":[[[107.82129498877275,-3.2470783973594575],[107.82056627891069,-3.247462085016088],[107.8205454578067,-3.24723008870681],[107.82129498877275,-3.2470783973594575]]]}},{"type":"Feature","properties":{"code":"1902022007","desa":"Tanjungrusa","kecamatan":"Membalong","kecCode":"190202"},"geometry":{"type":"Polygon","coordinates":[[[107.83243861055348,-3.229656225282666],[107.83214593788477,-3.2297918547383406],[107.83174001359083,-3.2298593488578167],[107.83243861055348,-3.229656225282666]]]}},{"type":"Feature","properties":{"code":"1902022007","desa":"Tanjungrusa","kecamatan":"Membalong","kecCode":"190202"},"geometry":{"type":"Polygon","coordinates":[[[107.8370483896715,-3.1568063534373887],[107.83716260357136,-3.156706416275068],[107.83718164042045,-3.1568491836497428],[107.8370483896715,-3.1568063534373887]]]}},{"type":"Feature","properties":{"code":"1902022007","desa":"Tanjungrusa","kecamatan":"Membalong","kecCode":"190202"},"geometry":{"type":"Polygon","coordinates":[[[107.77782522075739,-3.152688653669786],[107.7859366199791,-3.14381283251712],[107.79341770056645,-3.0916557592832583],[107.81336487398981,-3.0858166465047607],[107.83413138735368,-3.1037297926601046],[107.8345237201936,-3.1136998729043572],[107.84588499139932,-3.1136225437989604],[107.84944825463332,-3.1216623084137143],[107.84130611298679,-3.123417892964396],[107.83655038199457,-3.1297746977802405],[107.8404195433273,-3.136356866405308],[107.83176380515555,-3.139740137522681],[107.83685275565021,-3.157274541393319],[107.82833023675107,-3.16760455909838],[107.81350717101918,-3.1653738447247814],[107.80270664959225,-3.1768260643566317],[107.78671202444042,-3.1750503646697132],[107.77782522075739,-3.152688653669786]]]}},{"type":"Feature","properties":{"code":"1902022007","desa":"Tanjungrusa","kecamatan":"Membalong","kecCode":"190202"},"geometry":{"type":"Polygon","coordinates":[[[107.84791195717116,-3.0981461125234735],[107.86273467036881,-3.106670534378826],[107.85530528191326,-3.1125758408571658],[107.85553342642658,-3.1267516105377915],[107.84648392639211,-3.1132276487910304],[107.83960238963864,-3.1086655067667155],[107.84791195717116,-3.0981461125234735]]]}},{"type":"Feature","properties":{"code":"1902022008","desa":"Mentigi","kecamatan":"Membalong","kecCode":"190202"},"geometry":{"type":"Polygon","coordinates":[[[107.67285841278556,-3.237985442093612],[107.67604171964967,-3.242761947419972],[107.67355852510593,-3.241893293155921],[107.67285841278556,-3.237985442093612]]]}},{"type":"Feature","properties":{"code":"1902022008","desa":"Mentigi","kecamatan":"Membalong","kecCode":"190202"},"geometry":{"type":"Polygon","coordinates":[[[107.72103620365793,-3.225411215687757],[107.72127145011738,-3.2262840077325867],[107.72309956409366,-3.2294050185551733],[107.72146137883963,-3.227888337107084],[107.72103620365793,-3.225411215687757]]]}},{"type":"Feature","properties":{"code":"1902022008","desa":"Mentigi","kecamatan":"Membalong","kecCode":"190202"},"geometry":{"type":"Polygon","coordinates":[[[107.64387408971753,-3.1880945767763214],[107.68163619795223,-3.1577011473959757],[107.70523886368267,-3.1575512412029183],[107.73025004130642,-3.1444631682608395],[107.7419443476536,-3.146199128705204],[107.7286276733285,-3.190677058269884],[107.70835577899607,-3.193074987188536],[107.6542367069585,-3.2186312393802585],[107.6545191021749,-3.1935423855398115],[107.64387408971753,-3.1880945767763214]]]}},{"type":"Feature","properties":{"code":"1902022009","desa":"Pulau Seliu","kecamatan":"Membalong","kecCode":"190202"},"geometry":{"type":"Polygon","coordinates":[[[107.57374775435544,-3.255143934745409],[107.57328836716447,-3.2553131125106045],[107.57362640163717,-3.254869106425043],[107.57374775435544,-3.255143934745409]]]}},{"type":"Feature","properties":{"code":"1902022009","desa":"Pulau Seliu","kecamatan":"Membalong","kecCode":"190202"},"geometry":{"type":"Polygon","coordinates":[[[107.56318768916059,-3.2397446715965397],[107.56855594929765,-3.244565621418297],[107.56360229820757,-3.2462868788465693],[107.56318768916059,-3.2397446715965397]]]}},{"type":"Feature","properties":{"code":"1902022009","desa":"Pulau Seliu","kecamatan":"Membalong","kecCode":"190202"},"geometry":{"type":"Polygon","coordinates":[[[107.52454039892035,-3.191092295043144],[107.55188754397504,-3.202507362782055],[107.54203062721172,-3.234279115611872],[107.5301261825773,-3.240010047142941],[107.52244793012797,-3.254864393977557],[107.51556613436969,-3.2494402715580493],[107.51616707485067,-3.1972408222692845],[107.52454039892035,-3.191092295043144]]]}},{"type":"Feature","properties":{"code":"1902022010","desa":"Pulau Sumedang","kecamatan":"Membalong","kecCode":"190202"},"geometry":{"type":"Polygon","coordinates":[[[107.20989125457776,-3.3162905349149225],[107.21371400729565,-3.3192158181869704],[107.2105205299985,-3.3207917136964187],[107.20989125457776,-3.3162905349149225]]]}},{"type":"Feature","properties":{"code":"1902022010","desa":"Pulau Sumedang","kecamatan":"Membalong","kecCode":"190202"},"geometry":{"type":"Polygon","coordinates":[[[107.21870124986287,-3.3062194005503875],[107.22067070758713,-3.3062149749866223],[107.22062101105087,-3.3068699665205847],[107.21870124986287,-3.3062194005503875]]]}},{"type":"Feature","properties":{"code":"1902022011","desa":"Gunung Riting","kecamatan":"Membalong","kecCode":"190202"},"geometry":{"type":"Polygon","coordinates":[[[107.72890409344922,-3.350221810885966],[107.72644255727822,-3.353459568099195],[107.72412123980342,-3.3516505755101913],[107.72890409344922,-3.350221810885966]]]}},{"type":"Feature","properties":{"code":"1902022011","desa":"Gunung Riting","kecamatan":"Membalong","kecCode":"190202"},"geometry":{"type":"Polygon","coordinates":[[[107.72254031528337,-3.3512877422324716],[107.72371100955553,-3.351682733467906],[107.72315421589438,-3.352453678190393],[107.72254031528337,-3.3512877422324716]]]}},{"type":"Feature","properties":{"code":"1902022011","desa":"Gunung Riting","kecamatan":"Membalong","kecCode":"190202"},"geometry":{"type":"Polygon","coordinates":[[[107.7026575387145,-3.3380415217100685],[107.7012227243493,-3.3402901119079256],[107.70043036317075,-3.338198564922916],[107.7026575387145,-3.3380415217100685]]]}},{"type":"Feature","properties":{"code":"1902022011","desa":"Gunung Riting","kecamatan":"Membalong","kecCode":"190202"},"geometry":{"type":"Polygon","coordinates":[[[107.68991076566938,-3.3301145842404547],[107.68961095418223,-3.3312210345416857],[107.68931114179581,-3.3300146470781753],[107.68991076566938,-3.3301145842404547]]]}},{"type":"Feature","properties":{"code":"1902022011","desa":"Gunung Riting","kecamatan":"Membalong","kecCode":"190202"},"geometry":{"type":"Polygon","coordinates":[[[107.73212182096535,-3.272923148465983],[107.73088813098252,-3.2715547481360088],[107.73251000703124,-3.2708481562011484],[107.73212182096535,-3.272923148465983]]]}},{"type":"Feature","properties":{"code":"1902022011","desa":"Gunung Riting","kecamatan":"Membalong","kecCode":"190202"},"geometry":{"type":"Polygon","coordinates":[[[107.74134743433665,-3.1936340741203297],[107.74114649701329,-3.1932092119031057],[107.74154622677702,-3.193250838822597],[107.74134743433665,-3.1936340741203297]]]}},{"type":"Feature","properties":{"code":"1902022011","desa":"Gunung Riting","kecamatan":"Membalong","kecCode":"190202"},"geometry":{"type":"Polygon","coordinates":[[[107.76272748768349,-3.2486673294413038],[107.7624777153743,-3.252335463514506],[107.75907806040424,-3.250417320208934],[107.76272748768349,-3.2486673294413038]]]}},{"type":"Feature","properties":{"code":"1902022011","desa":"Gunung Riting","kecamatan":"Membalong","kecCode":"190202"},"geometry":{"type":"Polygon","coordinates":[[[107.75603600825525,-3.248449520836561],[107.75370327388703,-3.248129512375332],[107.75408876198685,-3.246857011251597],[107.75603600825525,-3.248449520836561]]]}},{"type":"Feature","properties":{"code":"1902022011","desa":"Gunung Riting","kecamatan":"Membalong","kecCode":"190202"},"geometry":{"type":"Polygon","coordinates":[[[107.74305472979198,-3.1955082162961763],[107.74326646887248,-3.19517622886528],[107.74341633999217,-3.1954139421648744],[107.74305472979198,-3.1955082162961763]]]}},{"type":"Feature","properties":{"code":"1902022011","desa":"Gunung Riting","kecamatan":"Membalong","kecCode":"190202"},"geometry":{"type":"Polygon","coordinates":[[[107.74249953692411,-3.1955777078099286],[107.74247760875473,-3.1950226894111458],[107.74267876011675,-3.194935171886374],[107.74249953692411,-3.1955777078099286]]]}},{"type":"Feature","properties":{"code":"1902022011","desa":"Gunung Riting","kecamatan":"Membalong","kecCode":"190202"},"geometry":{"type":"Polygon","coordinates":[[[107.74422447258138,-3.1459027364408123],[107.78099472302813,-3.1554107594074297],[107.78538863337876,-3.177960362165005],[107.7567705915896,-3.194055320163475],[107.7286276733285,-3.190677058269884],[107.74422447258138,-3.1459027364408123]]]}},{"type":"Feature","properties":{"code":"1902022012","desa":"Padang Kandis","kecamatan":"Membalong","kecCode":"190202"},"geometry":{"type":"Polygon","coordinates":[[[107.60864876572798,-3.24616217435519],[107.60780576642304,-3.2467991740522835],[107.60676276598893,-3.244301173972316],[107.60864876572798,-3.24616217435519]]]}},{"type":"Feature","properties":{"code":"1902022012","desa":"Padang Kandis","kecamatan":"Membalong","kecCode":"190202"},"geometry":{"type":"Polygon","coordinates":[[[107.63964994978541,-3.241093929856766],[107.63989622373178,-3.2408476550113656],[107.63969635030638,-3.2413473426212827],[107.63964994978541,-3.241093929856766]]]}},{"type":"Feature","properties":{"code":"1902022012","desa":"Padang Kandis","kecamatan":"Membalong","kecCode":"190202"},"geometry":{"type":"Polygon","coordinates":[[[107.63960721490109,-3.2405524597446114],[107.6395215535769,-3.24093317334322],[107.63939782215179,-3.240704744644469],[107.63960721490109,-3.2405524597446114]]]}},{"type":"Feature","properties":{"code":"1902022012","desa":"Padang Kandis","kecamatan":"Membalong","kecCode":"190202"},"geometry":{"type":"Polygon","coordinates":[[[107.64794864271573,-3.234496210154898],[107.6477601672979,-3.234022243155392],[107.64786393467291,-3.233990340605183],[107.64794864271573,-3.234496210154898]]]}},{"type":"Feature","properties":{"code":"1902022012","desa":"Padang Kandis","kecamatan":"Membalong","kecCode":"190202"},"geometry":{"type":"Polygon","coordinates":[[[107.6579711066813,-3.232727934371499],[107.65806390592456,-3.2328992561204464],[107.65782833930649,-3.2328564250087033],[107.6579711066813,-3.232727934371499]]]}},{"type":"Feature","properties":{"code":"1902022012","desa":"Padang Kandis","kecamatan":"Membalong","kecCode":"190202"},"geometry":{"type":"Polygon","coordinates":[[[107.65803108786446,-3.230175879640723],[107.65810723076412,-3.230037870578993],[107.65819289118905,-3.2301425678528513],[107.65803108786446,-3.230175879640723]]]}},{"type":"Feature","properties":{"code":"1902022012","desa":"Padang Kandis","kecamatan":"Membalong","kecCode":"190202"},"geometry":{"type":"Polygon","coordinates":[[[107.65745372670817,-3.2299632987950124],[107.65641719419823,-3.2296793144769063],[107.65654985139457,-3.229347522198859],[107.65745372670817,-3.2299632987950124]]]}},{"type":"Feature","properties":{"code":"1902022012","desa":"Padang Kandis","kecamatan":"Membalong","kecCode":"190202"},"geometry":{"type":"Polygon","coordinates":[[[107.59480710856127,-3.2288011022181915],[107.59420253481919,-3.227597586289929],[107.59512167072857,-3.2277443061849644],[107.59480710856127,-3.2288011022181915]]]}},{"type":"Feature","properties":{"code":"1902022012","desa":"Padang Kandis","kecamatan":"Membalong","kecCode":"190202"},"geometry":{"type":"Polygon","coordinates":[[[107.6096526402572,-3.1710474201937635],[107.6273750087497,-3.180461440624287],[107.63748855605205,-3.172354275419523],[107.6382718727488,-3.1862855446171996],[107.6545191021749,-3.1935423855398115],[107.65203094697067,-3.2166396304567924],[107.66759700379872,-3.2123375822604423],[107.63934150300804,-3.2399647096206694],[107.6219499429356,-3.234640532457366],[107.60803230294846,-3.2441299601420335],[107.6070724313477,-3.232273464673949],[107.59490139258526,-3.2243536165600073],[107.58478779132354,-3.203659825097099],[107.58464917971592,-3.196161269791102],[107.59242274591304,-3.196964236673661],[107.6096526402572,-3.1710474201937635]]]}},{"type":"Feature","properties":{"code":"1902032001","desa":"Selat Nasik","kecamatan":"Selat Nasik","kecCode":"190203"},"geometry":{"type":"Polygon","coordinates":[[[107.42030720031708,-2.8249475525546273],[107.42006186706156,-2.824327465507888],[107.42052240988137,-2.8244615715119923],[107.42030720031708,-2.8249475525546273]]]}},{"type":"Feature","properties":{"code":"1902032001","desa":"Selat Nasik","kecamatan":"Selat Nasik","kecCode":"190203"},"geometry":{"type":"Polygon","coordinates":[[[107.39614299969975,-2.8140239966891607],[107.39608579562304,-2.8132547480880485],[107.39640107365068,-2.8135938212773053],[107.39614299969975,-2.8140239966891607]]]}},{"type":"Feature","properties":{"code":"1902032001","desa":"Selat Nasik","kecamatan":"Selat Nasik","kecCode":"190203"},"geometry":{"type":"Polygon","coordinates":[[[107.39595731218024,-2.812844398230691],[107.39616670403022,-2.8122638103075204],[107.39638561520405,-2.8128158447557636],[107.39595731218024,-2.812844398230691]]]}},{"type":"Feature","properties":{"code":"1902032001","desa":"Selat Nasik","kecamatan":"Selat Nasik","kecCode":"190203"},"geometry":{"type":"Polygon","coordinates":[[[107.41810336128115,-2.792150072570636],[107.42483310956044,-2.806907931142906],[107.43009146624824,-2.806352823711237],[107.43272749158052,-2.820408362128278],[107.41949732484176,-2.8242680688841397],[107.4001557198107,-2.834126584631302],[107.37148797429062,-2.8234475634230836],[107.38748508966522,-2.8137250872223265],[107.3974502731117,-2.818586325772343],[107.40176185592497,-2.814003484052566],[107.39801499969252,-2.8047959965271185],[107.38200281168047,-2.8011044261214657],[107.41810336128115,-2.792150072570636]]]}},{"type":"Feature","properties":{"code":"1902032001","desa":"Selat Nasik","kecamatan":"Selat Nasik","kecCode":"190203"},"geometry":{"type":"Polygon","coordinates":[[[107.3602753799049,-2.8066740192776156],[107.35980380330295,-2.805859567153217],[107.36066186085621,-2.8064945874425056],[107.3602753799049,-2.8066740192776156]]]}},{"type":"Feature","properties":{"code":"1902032001","desa":"Selat Nasik","kecamatan":"Selat Nasik","kecCode":"190203"},"geometry":{"type":"Polygon","coordinates":[[[107.39658833768168,-2.806307197506566],[107.39718082363616,-2.8059288626147825],[107.39674538179399,-2.806499933912016],[107.39658833768168,-2.806307197506566]]]}},{"type":"Feature","properties":{"code":"1902032001","desa":"Selat Nasik","kecamatan":"Selat Nasik","kecCode":"190203"},"geometry":{"type":"Polygon","coordinates":[[[107.37172599965521,-2.8026339966530536],[107.37051584582967,-2.806408400914314],[107.36557608476858,-2.80513776858184],[107.37172599965521,-2.8026339966530536]]]}},{"type":"Feature","properties":{"code":"1902032001","desa":"Selat Nasik","kecamatan":"Selat Nasik","kecCode":"190203"},"geometry":{"type":"Polygon","coordinates":[[[107.47464023905587,-2.842599739734127],[107.40318294034044,-2.8808367718058485],[107.37864656518688,-2.8771442804944463],[107.3669955216261,-2.867039259675432],[107.380644109638,-2.8488649369083747],[107.38757547962473,-2.8508993760442287],[107.42077732361463,-2.827955001485946],[107.44668129060913,-2.829320043747398],[107.45838548500217,-2.8208848553233303],[107.47116872016038,-2.825146584214411],[107.47268954298805,-2.832105321462743],[107.47945537926238,-2.844577276965523],[107.47464023905587,-2.842599739734127]]]}},{"type":"Feature","properties":{"code":"1902032001","desa":"Selat Nasik","kecamatan":"Selat Nasik","kecCode":"190203"},"geometry":{"type":"Polygon","coordinates":[[[107.47306077863209,-2.8467593757879213],[107.4722784673774,-2.845383905887373],[107.47353429327308,-2.845755743177432],[107.47306077863209,-2.8467593757879213]]]}},{"type":"Feature","properties":{"code":"1902032001","desa":"Selat Nasik","kecamatan":"Selat Nasik","kecCode":"190203"},"geometry":{"type":"Polygon","coordinates":[[[107.47632611355935,-2.8340007955575213],[107.47384280839896,-2.833089957693676],[107.47514417416436,-2.831980833707942],[107.47632611355935,-2.8340007955575213]]]}},{"type":"Feature","properties":{"code":"1902032001","desa":"Selat Nasik","kecamatan":"Selat Nasik","kecCode":"190203"},"geometry":{"type":"Polygon","coordinates":[[[107.47823607573434,-2.8251740665968095],[107.50583140669414,-2.8263392282384396],[107.4935098268171,-2.827625413446281],[107.48598545826235,-2.8436544745211227],[107.47823607573434,-2.8251740665968095]]]}},{"type":"Feature","properties":{"code":"1902032001","desa":"Selat Nasik","kecamatan":"Selat Nasik","kecCode":"190203"},"geometry":{"type":"Polygon","coordinates":[[[107.4203339848256,-2.7919762462098623],[107.42064283719725,-2.791355981996722],[107.42078623769476,-2.792051345895862],[107.4203339848256,-2.7919762462098623]]]}},{"type":"Feature","properties":{"code":"1902032001","desa":"Selat Nasik","kecamatan":"Selat Nasik","kecCode":"190203"},"geometry":{"type":"Polygon","coordinates":[[[107.42778300008547,-2.789647996763238],[107.42816499971502,-2.788799997228628],[107.42821100003765,-2.789622996509714],[107.42778300008547,-2.789647996763238]]]}},{"type":"Feature","properties":{"code":"1902032002","desa":"Petaling","kecamatan":"Selat Nasik","kecCode":"190203"},"geometry":{"type":"Polygon","coordinates":[[[107.42784924414734,-2.973514542667537],[107.42662525335282,-2.9720680245268216],[107.42865640277084,-2.9717523705829154],[107.42784924414734,-2.973514542667537]]]}},{"type":"Feature","properties":{"code":"1902032002","desa":"Petaling","kecamatan":"Selat Nasik","kecCode":"190203"},"geometry":{"type":"Polygon","coordinates":[[[107.42621676778963,-2.954260442591793],[107.42528618980589,-2.9533030549195405],[107.4261544052017,-2.953252175774896],[107.42621676778963,-2.954260442591793]]]}},{"type":"Feature","properties":{"code":"1902032002","desa":"Petaling","kecamatan":"Selat Nasik","kecCode":"190203"},"geometry":{"type":"Polygon","coordinates":[[[107.43091256436342,-2.9458227396633623],[107.42815220236228,-2.94550610186105],[107.43031873572112,-2.9442105951801736],[107.43091256436342,-2.9458227396633623]]]}},{"type":"Feature","properties":{"code":"1902032002","desa":"Petaling","kecamatan":"Selat Nasik","kecCode":"190203"},"geometry":{"type":"Polygon","coordinates":[[[107.43111152587629,-2.9384580700275635],[107.43023520219289,-2.9373968466319837],[107.4327565261928,-2.9358556739466755],[107.43111152587629,-2.9384580700275635]]]}},{"type":"Feature","properties":{"code":"1902032002","desa":"Petaling","kecamatan":"Selat Nasik","kecCode":"190203"},"geometry":{"type":"Polygon","coordinates":[[[107.43346651396848,-2.9264607641096636],[107.43176495798649,-2.9254301329520502],[107.43366891718681,-2.924642308854138],[107.43346651396848,-2.9264607641096636]]]}},{"type":"Feature","properties":{"code":"1902032002","desa":"Petaling","kecamatan":"Selat Nasik","kecCode":"190203"},"geometry":{"type":"Polygon","coordinates":[[[107.41572053557432,-2.9253199678002244],[107.41617127758245,-2.9243710787212347],[107.41669997372486,-2.9250297277979507],[107.41572053557432,-2.9253199678002244]]]}},{"type":"Feature","properties":{"code":"1902032002","desa":"Petaling","kecamatan":"Selat Nasik","kecCode":"190203"},"geometry":{"type":"Polygon","coordinates":[[[107.41488776515831,-2.921060435952933],[107.41420961877895,-2.92111397349356],[107.41467956221207,-2.9208165416129663],[107.41488776515831,-2.921060435952933]]]}},{"type":"Feature","properties":{"code":"1902032002","desa":"Petaling","kecamatan":"Selat Nasik","kecCode":"190203"},"geometry":{"type":"Polygon","coordinates":[[[107.44380469213291,-2.9859861186564687],[107.44292591869623,-2.9851496763094416],[107.44365098900198,-2.9851653389021955],[107.44380469213291,-2.9859861186564687]]]}},{"type":"Feature","properties":{"code":"1902032002","desa":"Petaling","kecamatan":"Selat Nasik","kecCode":"190203"},"geometry":{"type":"Polygon","coordinates":[[[107.4688703623774,-2.9264492330024074],[107.47150050704285,-2.9460653263890886],[107.46097824305156,-2.954029032640475],[107.4625126069713,-2.961705558383191],[107.45605559069304,-2.962719704967682],[107.46545297817248,-2.9617882978100103],[107.46548998707327,-2.966856042285319],[107.4543047167893,-2.9731388068164786],[107.45291429296032,-2.9819552187547624],[107.43683700032737,-2.985018996722382],[107.43909119420327,-2.9786670320578024],[107.43246838610717,-2.979715423027189],[107.43465693756768,-2.974343645647369],[107.43073256865317,-2.9764174894779414],[107.42860400017452,-2.973841996616037],[107.43424227366204,-2.971652618680986],[107.42740799987932,-2.9687829971482493],[107.43726343186192,-2.952778280721114],[107.42678276511259,-2.9616695549244],[107.42507173837008,-2.957636801519976],[107.432073849029,-2.9477678518384076],[107.43241593224951,-2.9390141631161555],[107.46332081780156,-2.924073882462971],[107.4688703623774,-2.9264492330024074]]]}},{"type":"Feature","properties":{"code":"1902032002","desa":"Petaling","kecamatan":"Selat Nasik","kecCode":"190203"},"geometry":{"type":"Polygon","coordinates":[[[107.48626178935017,-2.920112654838683],[107.48270352904466,-2.9438229235268913],[107.47937565796029,-2.9330206637222034],[107.48626178935017,-2.920112654838683]]]}},{"type":"Feature","properties":{"code":"1902032002","desa":"Petaling","kecamatan":"Selat Nasik","kecCode":"190203"},"geometry":{"type":"Polygon","coordinates":[[[107.43388056003988,-2.9244516957479934],[107.43321911497026,-2.9233611841314064],[107.43410481138801,-2.9234629747963807],[107.43388056003988,-2.9244516957479934]]]}},{"type":"Feature","properties":{"code":"1902032002","desa":"Petaling","kecamatan":"Selat Nasik","kecCode":"190203"},"geometry":{"type":"Polygon","coordinates":[[[107.40318294034044,-2.8808367718058485],[107.47004161782644,-2.848112492139703],[107.48579341703265,-2.8485422844403328],[107.47724402818942,-2.859624068825057],[107.47624601364264,-2.8909632396570437],[107.46283036442985,-2.897846690160441],[107.4714284947293,-2.9051832334991876],[107.45819849886169,-2.915829097603012],[107.43318399734368,-2.922158895777775],[107.43013472183998,-2.9260435677136223],[107.43063944385528,-2.9302028584277857],[107.40318294034044,-2.8808367718058485]]]}},{"type":"Feature","properties":{"code":"1902032002","desa":"Petaling","kecamatan":"Selat Nasik","kecCode":"190203"},"geometry":{"type":"Polygon","coordinates":[[[107.50415728003452,-2.8433520657923403],[107.50654992364014,-2.846919840021774],[107.49144757884271,-2.876534224485853],[107.48382442965378,-2.8634029508108236],[107.50415728003452,-2.8433520657923403]]]}},{"type":"Feature","properties":{"code":"1902032003","desa":"Suak Gual","kecamatan":"Selat Nasik","kecCode":"190203"},"geometry":{"type":"Polygon","coordinates":[[[107.41390788274265,-2.956311342019073],[107.413714696676,-2.95504738085756],[107.41435915894805,-2.9547806590261088],[107.41390788274265,-2.956311342019073]]]}},{"type":"Feature","properties":{"code":"1902032003","desa":"Suak Gual","kecamatan":"Selat Nasik","kecCode":"190203"},"geometry":{"type":"Polygon","coordinates":[[[107.35465800036648,-2.922392996500697],[107.35339399963345,-2.9226949969373734],[107.35457199999786,-2.921914996941197],[107.35465800036648,-2.922392996500697]]]}},{"type":"Feature","properties":{"code":"1902032003","desa":"Suak Gual","kecamatan":"Selat Nasik","kecCode":"190203"},"geometry":{"type":"Polygon","coordinates":[[[107.40318294034044,-2.8808367718058485],[107.43063944385528,-2.9302028584277857],[107.4185531032432,-2.9280423469317194],[107.41699858731498,-2.919946667868235],[107.4109794563369,-2.9188302710651044],[107.41247924132396,-2.9292454060043625],[107.41435111810966,-2.925327405193524],[107.41875225990896,-2.9290778209384998],[107.42411853883955,-2.931209752879265],[107.41214918473713,-2.9459768079188247],[107.38464856408,-2.9179110659089327],[107.36552501496756,-2.9087773857436643],[107.3582081721695,-2.890902873564065],[107.33877035496793,-2.8826937342327277],[107.3513553237892,-2.878060922582869],[107.37116433706454,-2.8865199070681573],[107.37864656518688,-2.8771442804944463],[107.40318294034044,-2.8808367718058485]]]}},{"type":"Feature","properties":{"code":"1902032003","desa":"Suak Gual","kecamatan":"Selat Nasik","kecCode":"190203"},"geometry":{"type":"Polygon","coordinates":[[[107.34052499972904,-2.8601679967844125],[107.33915600044911,-2.8603069968990575],[107.33932700024093,-2.8595139972027215],[107.34052499972904,-2.8601679967844125]]]}},{"type":"Feature","properties":{"code":"1902032004","desa":"Pulau Gersik","kecamatan":"Selat Nasik","kecCode":"190203"},"geometry":{"type":"Polygon","coordinates":[[[107.34988301129198,-3.0471914463537693],[107.34857335737462,-3.046571273871479],[107.34861974440577,-3.046192871530457],[107.34988301129198,-3.0471914463537693]]]}},{"type":"Feature","properties":{"code":"1902032004","desa":"Pulau Gersik","kecamatan":"Selat Nasik","kecCode":"190203"},"geometry":{"type":"Polygon","coordinates":[[[107.14635577529883,-3.0402100282034215],[107.14617699996865,-3.0344289963405955],[107.15126883728708,-3.0328544767938257],[107.15263940678322,-3.037151783764308],[107.14635577529883,-3.0402100282034215]]]}},{"type":"Feature","properties":{"code":"1902032004","desa":"Pulau Gersik","kecamatan":"Selat Nasik","kecCode":"190203"},"geometry":{"type":"Polygon","coordinates":[[[107.16527929630251,-3.027159707901507],[107.17379757399891,-3.0279166196028027],[107.16571339815486,-3.0330034692756778],[107.16527929630251,-3.027159707901507]]]}},{"type":"Feature","properties":{"code":"1902032004","desa":"Pulau Gersik","kecamatan":"Selat Nasik","kecCode":"190203"},"geometry":{"type":"Polygon","coordinates":[[[107.1868536769557,-3.016997768990184],[107.18380201824861,-3.017717555778167],[107.18361166144905,-3.014725383630351],[107.1868536769557,-3.016997768990184]]]}},{"type":"Feature","properties":{"code":"1902032004","desa":"Pulau Gersik","kecamatan":"Selat Nasik","kecCode":"190203"},"geometry":{"type":"Polygon","coordinates":[[[107.27221347287355,-2.9997665229836854],[107.27037425316934,-3.0020194254307735],[107.26892545434629,-2.9975791640266296],[107.27221347287355,-2.9997665229836854]]]}},{"type":"Feature","properties":{"code":"1902032004","desa":"Pulau Gersik","kecamatan":"Selat Nasik","kecCode":"190203"},"geometry":{"type":"Polygon","coordinates":[[[107.2396101726714,-2.9895935053240894],[107.23203225398537,-3.0010227149020396],[107.22382647271358,-2.9960617784094357],[107.22799365498327,-2.9910497775117055],[107.2396101726714,-2.9895935053240894]]]}},{"type":"Feature","properties":{"code":"1902032004","desa":"Pulau Gersik","kecamatan":"Selat Nasik","kecCode":"190203"},"geometry":{"type":"Polygon","coordinates":[[[107.10830017601238,-2.9893689967700996],[107.10661417560378,-2.989353996977719],[107.10740317601578,-2.9884329967747654],[107.10830017601238,-2.9893689967700996]]]}},{"type":"Feature","properties":{"code":"1902032004","desa":"Pulau Gersik","kecamatan":"Selat Nasik","kecCode":"190203"},"geometry":{"type":"Polygon","coordinates":[[[107.13031987486237,-2.988049819033714],[107.13093087515982,-2.982772818506263],[107.13410987517067,-2.9815568190887287],[107.13031987486237,-2.988049819033714]]]}},{"type":"Feature","properties":{"code":"1902032004","desa":"Pulau Gersik","kecamatan":"Selat Nasik","kecCode":"190203"},"geometry":{"type":"Polygon","coordinates":[[[107.2327716567866,-2.961584387328123],[107.22764345268327,-2.9673574619895047],[107.22068786215516,-2.9660208068284235],[107.2327716567866,-2.961584387328123]]]}},{"type":"Feature","properties":{"code":"1902032004","desa":"Pulau Gersik","kecamatan":"Selat Nasik","kecCode":"190203"},"geometry":{"type":"Polygon","coordinates":[[[107.36168958900339,-3.080340876020258],[107.36100523820123,-3.07852704148141],[107.36120749213211,-3.0781403788674244],[107.36168958900339,-3.080340876020258]]]}},{"type":"Feature","properties":{"code":"1902032004","desa":"Pulau Gersik","kecamatan":"Selat Nasik","kecCode":"190203"},"geometry":{"type":"Polygon","coordinates":[[[107.43109299984211,-3.068044996982005],[107.43048799982142,-3.066415996505806],[107.43061500028209,-3.066268996921625],[107.43109299984211,-3.068044996982005]]]}},{"type":"Feature","properties":{"code":"1902032004","desa":"Pulau Gersik","kecamatan":"Selat Nasik","kecCode":"190203"},"geometry":{"type":"Polygon","coordinates":[[[107.41865900021274,-3.0653199963267297],[107.4186909998898,-3.06474399674468],[107.41897200025767,-3.064856996559632],[107.41865900021274,-3.0653199963267297]]]}},{"type":"Feature","properties":{"code":"1902032004","desa":"Pulau Gersik","kecamatan":"Selat Nasik","kecCode":"190203"},"geometry":{"type":"Polygon","coordinates":[[[107.41864300037423,-3.0632079969597608],[107.4185800001669,-3.0625639969398235],[107.4186069996134,-3.062496996548177],[107.41864300037423,-3.0632079969597608]]]}},{"type":"Feature","properties":{"code":"1902032004","desa":"Pulau Gersik","kecamatan":"Selat Nasik","kecCode":"190203"},"geometry":{"type":"Polygon","coordinates":[[[107.36809678463895,-3.0611230483005474],[107.36645775312286,-3.0599741715824975],[107.36745264162619,-3.0585155036009515],[107.36809678463895,-3.0611230483005474]]]}},{"type":"Feature","properties":{"code":"1902032004","desa":"Pulau Gersik","kecamatan":"Selat Nasik","kecCode":"190203"},"geometry":{"type":"Polygon","coordinates":[[[107.41876499970503,-3.060627996695705],[107.41838300007544,-3.058454996314406],[107.41871400005114,-3.0581329967541127],[107.41876499970503,-3.060627996695705]]]}},{"type":"Feature","properties":{"code":"1902032004","desa":"Pulau Gersik","kecamatan":"Selat Nasik","kecCode":"190203"},"geometry":{"type":"Polygon","coordinates":[[[107.35898063764635,-3.059431976616739],[107.35817772022568,-3.055856187629209],[107.359178607207,-3.053738763551635],[107.35898063764635,-3.059431976616739]]]}},{"type":"Feature","properties":{"code":"1902032004","desa":"Pulau Gersik","kecamatan":"Selat Nasik","kecCode":"190203"},"geometry":{"type":"Polygon","coordinates":[[[107.39516001012642,-3.0514711877660727],[107.39073721535027,-3.0535745518427504],[107.39145397681965,-3.049161834874282],[107.39516001012642,-3.0514711877660727]]]}},{"type":"Feature","properties":{"code":"1902032004","desa":"Pulau Gersik","kecamatan":"Selat Nasik","kecCode":"190203"},"geometry":{"type":"Polygon","coordinates":[[[107.38407320121733,-3.0573785797721644],[107.38278275861744,-3.047240668947244],[107.38386082991344,-3.043757041583546],[107.3868387397161,-3.0520557713770575],[107.38407320121733,-3.0573785797721644]]]}},{"type":"Feature","properties":{"code":"1902042001","desa":"Sijuk","kecamatan":"Sijuk","kecCode":"190204"},"geometry":{"type":"Polygon","coordinates":[[[107.83377252278376,-2.5530058077358646],[107.82040139990477,-2.58443519585725],[107.8275912997987,-2.6055725968044188],[107.8039332996821,-2.5973033971496484],[107.79614363831833,-2.6153359579839264],[107.78318563790691,-2.6100204592784237],[107.78281343729037,-2.6001444589121148],[107.75814363781869,-2.5812943603795158],[107.74196813741968,-2.572121058782949],[107.73249530131714,-2.5744801972438864],[107.72604115207757,-2.5562178982978994],[107.77166737564892,-2.5552016688835466],[107.79733190444392,-2.545562680345585],[107.81645554798519,-2.526489952842106],[107.83364684792377,-2.531861749107639],[107.82657077612048,-2.542035445755255],[107.83377252278376,-2.5530058077358646]]]}},{"type":"Feature","properties":{"code":"1902042001","desa":"Sijuk","kecamatan":"Sijuk","kecCode":"190204"},"geometry":{"type":"Polygon","coordinates":[[[107.81132766044323,-2.5251142374267],[107.80964233182821,-2.5251974220179108],[107.81107815883001,-2.524404532938219],[107.81132766044323,-2.5251142374267]]]}},{"type":"Feature","properties":{"code":"1902042002","desa":"Batu Itam","kecamatan":"Sijuk","kecCode":"190204"},"geometry":{"type":"Polygon","coordinates":[[[107.60459272527413,-2.7115409814219453],[107.6063153092042,-2.711876329619315],[107.60533118378714,-2.712580693034224],[107.60459272527413,-2.7115409814219453]]]}},{"type":"Feature","properties":{"code":"1902042002","desa":"Batu Itam","kecamatan":"Sijuk","kecCode":"190204"},"geometry":{"type":"Polygon","coordinates":[[[107.60847940629964,-2.7105251189309825],[107.60877322200666,-2.710250958806882],[107.60884260020589,-2.7103938799656233],[107.60847940629964,-2.7105251189309825]]]}},{"type":"Feature","properties":{"code":"1902042002","desa":"Batu Itam","kecamatan":"Sijuk","kecCode":"190204"},"geometry":{"type":"Polygon","coordinates":[[[107.61859554275013,-2.706903224400155],[107.61874118076094,-2.707629795673597],[107.61822277466139,-2.7074423697647743],[107.61859554275013,-2.706903224400155]]]}},{"type":"Feature","properties":{"code":"1902042002","desa":"Batu Itam","kecamatan":"Sijuk","kecCode":"190204"},"geometry":{"type":"Polygon","coordinates":[[[107.6197963022576,-2.706845437562765],[107.61998583977476,-2.70719129703622],[107.61965962868896,-2.7069394176158164],[107.6197963022576,-2.706845437562765]]]}},{"type":"Feature","properties":{"code":"1902042002","desa":"Batu Itam","kecamatan":"Sijuk","kecCode":"190204"},"geometry":{"type":"Polygon","coordinates":[[[107.61558598220739,-2.700559335647585],[107.61510923720157,-2.7005717768687334],[107.61560419257948,-2.700228449886201],[107.61558598220739,-2.700559335647585]]]}},{"type":"Feature","properties":{"code":"1902042002","desa":"Batu Itam","kecamatan":"Sijuk","kecCode":"190204"},"geometry":{"type":"Polygon","coordinates":[[[107.64667591226362,-2.689790257229091],[107.62280356233457,-2.706466834672998],[107.61981098998523,-2.7061217108449482],[107.61416913809528,-2.7080242473157554],[107.60982536494866,-2.7054404222351245],[107.61564000807998,-2.70237933144175],[107.62137794533594,-2.6899177199411857],[107.62545615407832,-2.6901217608247427],[107.62650944725324,-2.6890798818463826],[107.63205814466771,-2.673993847170053],[107.62881878306045,-2.664379167307001],[107.66395562185454,-2.6659908837128254],[107.67851920979375,-2.6747673288800264],[107.6641033040243,-2.6849433475772675],[107.66023265791091,-2.695949642869507],[107.64667591226362,-2.689790257229091]]]}},{"type":"Feature","properties":{"code":"1902042002","desa":"Batu Itam","kecamatan":"Sijuk","kecCode":"190204"},"geometry":{"type":"Polygon","coordinates":[[[107.62828304702502,-2.680864626225762],[107.62774766891981,-2.6799580511483887],[107.62881842602962,-2.679708207793122],[107.62828304702502,-2.680864626225762]]]}},{"type":"Feature","properties":{"code":"1902042002","desa":"Batu Itam","kecamatan":"Sijuk","kecCode":"190204"},"geometry":{"type":"Polygon","coordinates":[[[107.62822594007513,-2.6794797790943408],[107.62789043629463,-2.6786945567350315],[107.62851861364317,-2.6792156590014984],[107.62822594007513,-2.6794797790943408]]]}},{"type":"Feature","properties":{"code":"1902042002","desa":"Batu Itam","kecamatan":"Sijuk","kecCode":"190204"},"geometry":{"type":"Polygon","coordinates":[[[107.62867565775548,-2.679201382264049],[107.62854716801745,-2.678144901892923],[107.62893263992946,-2.679187106425945],[107.62867565775548,-2.679201382264049]]]}},{"type":"Feature","properties":{"code":"1902042002","desa":"Batu Itam","kecamatan":"Sijuk","kecCode":"190204"},"geometry":{"type":"Polygon","coordinates":[[[107.62901830125367,-2.6770396422941305],[107.62882556484801,-2.6778569866382114],[107.62862568962396,-2.677276397815664],[107.62901830125367,-2.6770396422941305]]]}},{"type":"Feature","properties":{"code":"1902042003","desa":"Terong","kecamatan":"Sijuk","kecCode":"190204"},"geometry":{"type":"Polygon","coordinates":[[[107.6314251262686,-2.64670270382832],[107.63286469984608,-2.6464647585036083],[107.63261485559114,-2.647142903982912],[107.6314251262686,-2.64670270382832]]]}},{"type":"Feature","properties":{"code":"1902042003","desa":"Terong","kecamatan":"Sijuk","kecCode":"190204"},"geometry":{"type":"Polygon","coordinates":[[[107.67187750784075,-2.671674870633075],[107.66395562185454,-2.6659908837128254],[107.62875068369713,-2.66415265146619],[107.63154079167423,-2.6478823778297857],[107.64304284365237,-2.6407929214242167],[107.63737473065936,-2.632865277087594],[107.64600986266508,-2.6287889020673547],[107.64764005384546,-2.605992923740528],[107.66693915421864,-2.6009757643316633],[107.66736887277534,-2.6141827375404687],[107.69554144078494,-2.6170928249678425],[107.68619555118379,-2.6270634708855054],[107.67970876374851,-2.6522856609099694],[107.66739476065975,-2.6621507974660368],[107.67187750784075,-2.671674870633075]]]}},{"type":"Feature","properties":{"code":"1902042004","desa":"Air Seruk","kecamatan":"Sijuk","kecCode":"190204"},"geometry":{"type":"Polygon","coordinates":[[[107.78431577275478,-2.6990768716047437],[107.77339972801506,-2.716481963757012],[107.76309328602639,-2.711546637258239],[107.74162336072958,-2.725898590422699],[107.71972931065919,-2.7120045999226465],[107.70979321488498,-2.716441627364633],[107.69801138831495,-2.7086631086094726],[107.68877661175127,-2.7113977652855827],[107.66133208001156,-2.6935879233543742],[107.67851920979375,-2.6747673288800264],[107.66739476065975,-2.6621507974660368],[107.68166576496314,-2.6489496212871244],[107.68767137733226,-2.624628175135903],[107.69383169197909,-2.619919475094537],[107.71457789775182,-2.6383146398794404],[107.72238832176367,-2.66320413110933],[107.73565221128057,-2.6602770518911862],[107.75259600430222,-2.6781431500136237],[107.77543872671593,-2.6883017056753267],[107.78431577275478,-2.6990768716047437]]]}},{"type":"Feature","properties":{"code":"1902042005","desa":"Tanjung Binga","kecamatan":"Sijuk","kecCode":"190204"},"geometry":{"type":"Polygon","coordinates":[[[107.62353733807777,-2.589610705193854],[107.62455479506781,-2.5893184417170434],[107.62439494597004,-2.5899927192122263],[107.62353733807777,-2.589610705193854]]]}},{"type":"Feature","properties":{"code":"1902042005","desa":"Tanjung Binga","kecamatan":"Sijuk","kecCode":"190204"},"geometry":{"type":"Polygon","coordinates":[[[107.61753551095511,-2.5873463453839807],[107.61721293762702,-2.5885215767345846],[107.61689949871294,-2.587623131528481],[107.61753551095511,-2.5873463453839807]]]}},{"type":"Feature","properties":{"code":"1902042005","desa":"Tanjung Binga","kecamatan":"Sijuk","kecCode":"190204"},"geometry":{"type":"Polygon","coordinates":[[[107.62430497959122,-2.5874501064635806],[107.62512812995931,-2.5877407322750425],[107.6239690891022,-2.5875715428187127],[107.62430497959122,-2.5874501064635806]]]}},{"type":"Feature","properties":{"code":"1902042005","desa":"Tanjung Binga","kecamatan":"Sijuk","kecCode":"190204"},"geometry":{"type":"Polygon","coordinates":[[[107.62303127067666,-2.5788876252993886],[107.62351054277741,-2.57936725982634],[107.62254603697009,-2.5795428245766843],[107.62303127067666,-2.5788876252993886]]]}},{"type":"Feature","properties":{"code":"1902042005","desa":"Tanjung Binga","kecamatan":"Sijuk","kecCode":"190204"},"geometry":{"type":"Polygon","coordinates":[[[107.62636007795527,-2.5742143315669974],[107.6260151339913,-2.574450784017048],[107.62632422917987,-2.574169701811168],[107.62636007795527,-2.5742143315669974]]]}},{"type":"Feature","properties":{"code":"1902042005","desa":"Tanjung Binga","kecamatan":"Sijuk","kecCode":"190204"},"geometry":{"type":"Polygon","coordinates":[[[107.62339227023715,-2.5670982174573713],[107.62735777594064,-2.5664903468013662],[107.62826121957964,-2.570300616925064],[107.62339227023715,-2.5670982174573713]]]}},{"type":"Feature","properties":{"code":"1902042005","desa":"Tanjung Binga","kecamatan":"Sijuk","kecCode":"190204"},"geometry":{"type":"Polygon","coordinates":[[[107.6197622323412,-2.5559891161656014],[107.61963499176153,-2.5554020207480823],[107.61996648096839,-2.555399604269772],[107.6197622323412,-2.5559891161656014]]]}},{"type":"Feature","properties":{"code":"1902042005","desa":"Tanjung Binga","kecamatan":"Sijuk","kecCode":"190204"},"geometry":{"type":"Polygon","coordinates":[[[107.63587040859254,-2.611536569656947],[107.63567586814683,-2.6112230192272907],[107.63598334005916,-2.6112252171703805],[107.63587040859254,-2.611536569656947]]]}},{"type":"Feature","properties":{"code":"1902042005","desa":"Tanjung Binga","kecamatan":"Sijuk","kecCode":"190204"},"geometry":{"type":"Polygon","coordinates":[[[107.63333544637379,-2.6075755686619235],[107.63310886128498,-2.6071359548652313],[107.63330843793413,-2.607113700241976],[107.63333544637379,-2.6075755686619235]]]}},{"type":"Feature","properties":{"code":"1902042005","desa":"Tanjung Binga","kecamatan":"Sijuk","kecCode":"190204"},"geometry":{"type":"Polygon","coordinates":[[[107.6296901451841,-2.6066639573811132],[107.629199380647,-2.6072657998814566],[107.62914759498555,-2.606685894543765],[107.6296901451841,-2.6066639573811132]]]}},{"type":"Feature","properties":{"code":"1902042005","desa":"Tanjung Binga","kecamatan":"Sijuk","kecCode":"190204"},"geometry":{"type":"Polygon","coordinates":[[[107.69534734460433,-2.6154274927803867],[107.66736887277534,-2.6141827375404687],[107.66693915421864,-2.6009757643316633],[107.64875041440017,-2.604955986536753],[107.64072581864166,-2.6156043084875766],[107.63333431232871,-2.6064805262608197],[107.62791987290387,-2.6059544462468316],[107.62860554121282,-2.59548061525577],[107.64127466229586,-2.591091005467931],[107.6526059689903,-2.5730637497343958],[107.66318216532471,-2.577634356177709],[107.69534734460433,-2.6154274927803867]]]}},{"type":"Feature","properties":{"code":"1902042005","desa":"Tanjung Binga","kecamatan":"Sijuk","kecCode":"190204"},"geometry":{"type":"Polygon","coordinates":[[[107.62913202412369,-2.5937279696895206],[107.62949724959844,-2.5942365992585934],[107.62899920594866,-2.5942517645261955],[107.62913202412369,-2.5937279696895206]]]}},{"type":"Feature","properties":{"code":"1902042005","desa":"Tanjung Binga","kecamatan":"Sijuk","kecCode":"190204"},"geometry":{"type":"Polygon","coordinates":[[[107.64079144486936,-2.5817274738764335],[107.64123167380279,-2.5826652914017094],[107.6404635898229,-2.5819510462361577],[107.64079144486936,-2.5817274738764335]]]}},{"type":"Feature","properties":{"code":"1902042005","desa":"Tanjung Binga","kecamatan":"Sijuk","kecCode":"190204"},"geometry":{"type":"Polygon","coordinates":[[[107.62960650733453,-2.581690491955281],[107.62943593921727,-2.5822055058115536],[107.62919447214722,-2.5818543052644984],[107.62960650733453,-2.581690491955281]]]}},{"type":"Feature","properties":{"code":"1902042006","desa":"Air Selumar","kecamatan":"Sijuk","kecCode":"190204"},"geometry":{"type":"Polygon","coordinates":[[[107.78344869769931,-2.7075001637967118],[107.78431577275478,-2.6990768716047437],[107.77031817944048,-2.6841386503991287],[107.75425260497383,-2.6792923217092786],[107.73565221128057,-2.6602770518911862],[107.72238832176367,-2.66320413110933],[107.71647711932366,-2.640639918865348],[107.69383169197909,-2.619919475094537],[107.73659060976888,-2.5738599627083203],[107.75814363781869,-2.5812943603795158],[107.78281343729037,-2.6001444589121148],[107.78318563790691,-2.6100204592784237],[107.7957050731307,-2.6151560549040624],[107.795261757724,-2.6361913306384626],[107.8025613632164,-2.6499261870019706],[107.79943367132692,-2.6687246401675484],[107.80781973878997,-2.682636280762054],[107.79657881755843,-2.6977641761815927],[107.79711389079345,-2.7063858534208314],[107.78344869769931,-2.7075001637967118]]]}},{"type":"Feature","properties":{"code":"1902042007","desa":"Sungai Padang","kecamatan":"Sijuk","kecCode":"190204"},"geometry":{"type":"Polygon","coordinates":[[[107.85616089061267,-2.5420546471802723],[107.87086993130237,-2.544279861300173],[107.85745999278453,-2.5481550229053593],[107.85616089061267,-2.5420546471802723]]]}},{"type":"Feature","properties":{"code":"1902042007","desa":"Sungai Padang","kecamatan":"Sijuk","kecCode":"190204"},"geometry":{"type":"Polygon","coordinates":[[[107.85381443528803,-2.536602608005933],[107.85325307756756,-2.535857489114687],[107.8539880655968,-2.5361974148612756],[107.85381443528803,-2.536602608005933]]]}},{"type":"Feature","properties":{"code":"1902042007","desa":"Sungai Padang","kecamatan":"Sijuk","kecCode":"190204"},"geometry":{"type":"Polygon","coordinates":[[[107.84511078483489,-2.536163769424895],[107.84438452382675,-2.5347828730151996],[107.84606898999196,-2.535557144329918],[107.84511078483489,-2.536163769424895]]]}},{"type":"Feature","properties":{"code":"1902042007","desa":"Sungai Padang","kecamatan":"Sijuk","kecCode":"190204"},"geometry":{"type":"Polygon","coordinates":[[[107.846466436377,-2.535300774594527],[107.84615460904803,-2.5348577991320913],[107.84633677482236,-2.5347589042840633],[107.846466436377,-2.535300774594527]]]}},{"type":"Feature","properties":{"code":"1902042007","desa":"Sungai Padang","kecamatan":"Sijuk","kecCode":"190204"},"geometry":{"type":"Polygon","coordinates":[[[107.84557768676092,-2.5348003414465707],[107.8455581094193,-2.5340639540729697],[107.84592708956357,-2.5343486749358917],[107.84557768676092,-2.5348003414465707]]]}},{"type":"Feature","properties":{"code":"1902042007","desa":"Sungai Padang","kecamatan":"Sijuk","kecCode":"190204"},"geometry":{"type":"Polygon","coordinates":[[[107.83722673332716,-2.531934255148853],[107.8399620186323,-2.5353264412456937],[107.83672598002003,-2.53446860582584],[107.83722673332716,-2.531934255148853]]]}},{"type":"Feature","properties":{"code":"1902042007","desa":"Sungai Padang","kecamatan":"Sijuk","kecCode":"190204"},"geometry":{"type":"Polygon","coordinates":[[[107.83742567505493,-2.6248298759834863],[107.82125429894683,-2.580050696916562],[107.83505501807467,-2.553493168338559],[107.89643748799972,-2.5666557555078007],[107.9034957793068,-2.577134007566073],[107.9196524101307,-2.5722946908902102],[107.92743870533207,-2.5602893935967366],[107.93808527361654,-2.566010151097416],[107.93779419184851,-2.5781027788567674],[107.94007979904353,-2.5854902606954675],[107.94712741000204,-2.5895801525260405],[107.92736167929814,-2.621410488092765],[107.8951392869486,-2.6332376341857913],[107.89025374421499,-2.626026890712625],[107.83742567505493,-2.6248298759834863]]]}},{"type":"Feature","properties":{"code":"1902042007","desa":"Sungai Padang","kecamatan":"Sijuk","kecCode":"190204"},"geometry":{"type":"Polygon","coordinates":[[[107.93907276699468,-2.5720669447768754],[107.93845072212319,-2.5707141791607095],[107.93888241019516,-2.570663063494309],[107.93907276699468,-2.5720669447768754]]]}},{"type":"Feature","properties":{"code":"1902042007","desa":"Sungai Padang","kecamatan":"Sijuk","kecCode":"190204"},"geometry":{"type":"Polygon","coordinates":[[[107.90739547801893,-2.5688127938221323],[107.9079344426205,-2.5715358798207792],[107.90604632407864,-2.569291065876214],[107.90739547801893,-2.5688127938221323]]]}},{"type":"Feature","properties":{"code":"1902042007","desa":"Sungai Padang","kecamatan":"Sijuk","kecCode":"190204"},"geometry":{"type":"Polygon","coordinates":[[[107.93074922939347,-2.558925516856674],[107.93000874830517,-2.5584375069434593],[107.93045031812773,-2.5578501039578643],[107.93074922939347,-2.558925516856674]]]}},{"type":"Feature","properties":{"code":"1902042007","desa":"Sungai Padang","kecamatan":"Sijuk","kecCode":"190204"},"geometry":{"type":"Polygon","coordinates":[[[107.92262100025901,-2.5443019972129863],[107.92180200026216,-2.5416939974564694],[107.92337700004855,-2.5420909968780254],[107.92262100025901,-2.5443019972129863]]]}},{"type":"Feature","properties":{"code":"1902042007","desa":"Sungai Padang","kecamatan":"Sijuk","kecCode":"190204"},"geometry":{"type":"Polygon","coordinates":[[[107.91932999957987,-2.542865997542871],[107.9170559999345,-2.539999997580108],[107.9198789997161,-2.5408629969071463],[107.91932999957987,-2.542865997542871]]]}},{"type":"Feature","properties":{"code":"1902042008","desa":"Keciput","kecamatan":"Sijuk","kecCode":"190204"},"geometry":{"type":"Polygon","coordinates":[[[107.64424812135375,-2.5630044810251165],[107.64688023013855,-2.56282535046284],[107.64485296759045,-2.564118888527801],[107.64424812135375,-2.5630044810251165]]]}},{"type":"Feature","properties":{"code":"1902042008","desa":"Keciput","kecamatan":"Sijuk","kecCode":"190204"},"geometry":{"type":"Polygon","coordinates":[[[107.64855603403379,-2.5526813098589494],[107.64892260129704,-2.553299703482277],[107.64832143418693,-2.553168844030821],[107.64855603403379,-2.5526813098589494]]]}},{"type":"Feature","properties":{"code":"1902042008","desa":"Keciput","kecamatan":"Sijuk","kecCode":"190204"},"geometry":{"type":"Polygon","coordinates":[[[107.64514583721069,-2.550773332489808],[107.64426688031232,-2.5506351840331636],[107.64471474988585,-2.5502789445846896],[107.64514583721069,-2.550773332489808]]]}},{"type":"Feature","properties":{"code":"1902042008","desa":"Keciput","kecamatan":"Sijuk","kecCode":"190204"},"geometry":{"type":"Polygon","coordinates":[[[107.64803514940267,-2.541938606757446],[107.64951793360581,-2.5407311446041327],[107.64958082589447,-2.5416984985633118],[107.64803514940267,-2.541938606757446]]]}},{"type":"Feature","properties":{"code":"1902042008","desa":"Keciput","kecamatan":"Sijuk","kecCode":"190204"},"geometry":{"type":"Polygon","coordinates":[[[107.64710060271068,-2.539482337019115],[107.64847499882222,-2.5406148964379898],[107.64679507962927,-2.5403139589999477],[107.64710060271068,-2.539482337019115]]]}},{"type":"Feature","properties":{"code":"1902042008","desa":"Keciput","kecamatan":"Sijuk","kecCode":"190204"},"geometry":{"type":"Polygon","coordinates":[[[107.6230905773683,-2.538316876802545],[107.62392834981357,-2.538725248151385],[107.62249965083828,-2.5388900669025736],[107.6230905773683,-2.538316876802545]]]}},{"type":"Feature","properties":{"code":"1902042008","desa":"Keciput","kecamatan":"Sijuk","kecCode":"190204"},"geometry":{"type":"Polygon","coordinates":[[[107.64591652113063,-2.536857847293525],[107.64708340857248,-2.537428918590811],[107.64700726567281,-2.537933363614431],[107.64591652113063,-2.536857847293525]]]}},{"type":"Feature","properties":{"code":"1902042008","desa":"Keciput","kecamatan":"Sijuk","kecCode":"190204"},"geometry":{"type":"Polygon","coordinates":[[[107.6191588169259,-2.5363347143578983],[107.62106668098261,-2.537667345052798],[107.61838239892865,-2.5378692248654797],[107.6191588169259,-2.5363347143578983]]]}},{"type":"Feature","properties":{"code":"1902042008","desa":"Keciput","kecamatan":"Sijuk","kecCode":"190204"},"geometry":{"type":"Polygon","coordinates":[[[107.62256597134255,-2.535590206106227],[107.62355154826541,-2.535774826130247],[107.6224316656889,-2.5361072155580895],[107.62256597134255,-2.535590206106227]]]}},{"type":"Feature","properties":{"code":"1902042008","desa":"Keciput","kecamatan":"Sijuk","kecCode":"190204"},"geometry":{"type":"Polygon","coordinates":[[[107.62244895065862,-2.53451626539764],[107.62385548224478,-2.534586702998155],[107.62325006583791,-2.535135857817222],[107.62244895065862,-2.53451626539764]]]}},{"type":"Feature","properties":{"code":"1902042008","desa":"Keciput","kecamatan":"Sijuk","kecCode":"190204"},"geometry":{"type":"Polygon","coordinates":[[[107.69534734460433,-2.6154274927803867],[107.65081770037665,-2.5726242231719607],[107.66858704675485,-2.554343083429168],[107.67657646013559,-2.5637637183731923],[107.6996968158554,-2.562172689971687],[107.69253850644695,-2.573338030367598],[107.70797347089905,-2.5864639971432126],[107.71024426625996,-2.5989009483339403],[107.69534734460433,-2.6154274927803867]]]}},{"type":"Feature","properties":{"code":"1902042008","desa":"Keciput","kecamatan":"Sijuk","kecCode":"190204"},"geometry":{"type":"Polygon","coordinates":[[[107.6566986442271,-2.558102827841732],[107.6569938287023,-2.558616130288102],[107.65644553183591,-2.558376639928204],[107.6566986442271,-2.558102827841732]]]}},{"type":"Feature","properties":{"code":"1902042008","desa":"Keciput","kecamatan":"Sijuk","kecCode":"190204"},"geometry":{"type":"Polygon","coordinates":[[[107.65877807105117,-2.5518583348595536],[107.65870750214957,-2.551625317819681],[107.6587898170964,-2.5516712372033443],[107.65877807105117,-2.5518583348595536]]]}},{"type":"Feature","properties":{"code":"1902042008","desa":"Keciput","kecamatan":"Sijuk","kecCode":"190204"},"geometry":{"type":"Polygon","coordinates":[[[107.66963268939713,-2.549775744222817],[107.67018866287657,-2.5513608793669835],[107.66910472080626,-2.5508619121139295],[107.66963268939713,-2.549775744222817]]]}},{"type":"Feature","properties":{"code":"1902042008","desa":"Keciput","kecamatan":"Sijuk","kecCode":"190204"},"geometry":{"type":"Polygon","coordinates":[[[107.6724473281817,-2.5497781993720126],[107.67274502895998,-2.5505768054419393],[107.67163448494357,-2.5511354283234198],[107.6724473281817,-2.5497781993720126]]]}},{"type":"Feature","properties":{"code":"1902042008","desa":"Keciput","kecamatan":"Sijuk","kecCode":"190204"},"geometry":{"type":"Polygon","coordinates":[[[107.66571267769795,-2.549861970321176],[107.66603826375494,-2.5510311087648914],[107.66538869243423,-2.550642513507801],[107.66571267769795,-2.549861970321176]]]}},{"type":"Feature","properties":{"code":"1902042008","desa":"Keciput","kecamatan":"Sijuk","kecCode":"190204"},"geometry":{"type":"Polygon","coordinates":[[[107.6483513924029,-2.5476040820327066],[107.65302722132924,-2.550900457056836],[107.65291367382706,-2.551179210917916],[107.6483513924029,-2.5476040820327066]]]}},{"type":"Feature","properties":{"code":"1902042008","desa":"Keciput","kecamatan":"Sijuk","kecCode":"190204"},"geometry":{"type":"Polygon","coordinates":[[[107.67206578540771,-2.546991172475219],[107.67154050129318,-2.547696812028094],[107.67140262892825,-2.5472938393095172],[107.67206578540771,-2.546991172475219]]]}},{"type":"Feature","properties":{"code":"1902042008","desa":"Keciput","kecamatan":"Sijuk","kecCode":"190204"},"geometry":{"type":"Polygon","coordinates":[[[107.65129496698921,-2.5321207259775855],[107.65170804089341,-2.5327717470047126],[107.65107891206219,-2.532475742348167],[107.65129496698921,-2.5321207259775855]]]}},{"type":"Feature","properties":{"code":"1902042009","desa":"Pelepak Pute","kecamatan":"Sijuk","kecCode":"190204"},"geometry":{"type":"Polygon","coordinates":[[[107.7957050731307,-2.6151560549040624],[107.8039332996821,-2.5973033971496484],[107.82973268631444,-2.608133112356995],[107.83742567505493,-2.6248298759834863],[107.89025374421499,-2.626026890712625],[107.89565758692817,-2.6513899028781296],[107.88364000038577,-2.6686761082533916],[107.88012086688455,-2.694169548195822],[107.86997937674693,-2.6866468254085825],[107.8292239686113,-2.680250834433405],[107.8132823737826,-2.7004746662757],[107.79892709041297,-2.7079522619820193],[107.79657881755843,-2.6977641761815927],[107.80811810056997,-2.6770024661194123],[107.79943367132692,-2.6687246401675484],[107.8025613632164,-2.6499261870019706],[107.795261757724,-2.6361913306384626],[107.7957050731307,-2.6151560549040624]]]}},{"type":"Feature","properties":{"code":"1902042010","desa":"Tanjong Tinggi","kecamatan":"Sijuk","kecCode":"190204"},"geometry":{"type":"Polygon","coordinates":[[[107.71901445575259,-2.547064268471751],[107.73659060976888,-2.5738599627083203],[107.71024426625996,-2.5989009483339403],[107.70797347089905,-2.5864639971432126],[107.69253850644695,-2.573338030367598],[107.71901445575259,-2.547064268471751]]]}},{"type":"Feature","properties":{"code":"1902042010","desa":"Tanjong Tinggi","kecamatan":"Sijuk","kecCode":"190204"},"geometry":{"type":"Polygon","coordinates":[[[107.70541533674844,-2.5547319098119203],[107.70572228795328,-2.5549389229548547],[107.7054724436984,-2.5552601499975034],[107.70541533674844,-2.5547319098119203]]]}},{"type":"Feature","properties":{"code":"1902042010","desa":"Tanjong Tinggi","kecamatan":"Sijuk","kecCode":"190204"},"geometry":{"type":"Polygon","coordinates":[[[107.70704288931796,-2.5530329753555265],[107.70750688373572,-2.5531543271743513],[107.707307009411,-2.553282817811554],[107.70704288931796,-2.5530329753555265]]]}},{"type":"Feature","properties":{"code":"1902042010","desa":"Tanjong Tinggi","kecamatan":"Sijuk","kecCode":"190204"},"geometry":{"type":"Polygon","coordinates":[[[107.70804226184093,-2.5522120616023227],[107.70808509295273,-2.552411935926803],[107.7079494625977,-2.5523191375829217],[107.70804226184093,-2.5522120616023227]]]}},{"type":"Feature","properties":{"code":"1902042010","desa":"Tanjong Tinggi","kecamatan":"Sijuk","kecCode":"190204"},"geometry":{"type":"Polygon","coordinates":[[[107.71471947532358,-2.547682694470637],[107.71466712668659,-2.5479991632003958],[107.71455529329222,-2.5478778104822415],[107.71471947532358,-2.547682694470637]]]}},{"type":"Feature","properties":{"code":"1902042010","desa":"Tanjong Tinggi","kecamatan":"Sijuk","kecCode":"190204"},"geometry":{"type":"Polygon","coordinates":[[[107.68891625757931,-2.5395798639982696],[107.68876004713854,-2.5387249639655893],[107.68890281361398,-2.538688081869182],[107.68891625757931,-2.5395798639982696]]]}},{"type":"Feature","properties":{"code":"1902042010","desa":"Tanjong Tinggi","kecamatan":"Sijuk","kecCode":"190204"},"geometry":{"type":"Polygon","coordinates":[[[107.72445598635477,-2.546555358314269],[107.72414760792583,-2.5462641119706335],[107.72422184696073,-2.5462155710632346],[107.72445598635477,-2.546555358314269]]]}},{"type":"Feature","properties":{"code":"1902042010","desa":"Tanjong Tinggi","kecamatan":"Sijuk","kecCode":"190204"},"geometry":{"type":"Polygon","coordinates":[[[107.72308916883014,-2.5459773190697867],[107.7229749549303,-2.5466949645719166],[107.72279411565596,-2.5460230055290043],[107.72308916883014,-2.5459773190697867]]]}},{"type":"Feature","properties":{"code":"1902042010","desa":"Tanjong Tinggi","kecamatan":"Sijuk","kecCode":"190204"},"geometry":{"type":"Polygon","coordinates":[[[107.71910742226974,-2.545623809063671],[107.71940009583783,-2.545202644858779],[107.7192216361696,-2.5456666401753814],[107.71910742226974,-2.545623809063671]]]}},{"type":"Feature","properties":{"code":"1902042010","desa":"Tanjong Tinggi","kecamatan":"Sijuk","kecCode":"190204"},"geometry":{"type":"Polygon","coordinates":[[[107.72370216202523,-2.544564552485404],[107.72399483469393,-2.544521722272972],[107.72403052698729,-2.5445931059603373],[107.72370216202523,-2.544564552485404]]]}},{"type":"Feature","properties":{"code":"1902042010","desa":"Tanjong Tinggi","kecamatan":"Sijuk","kecCode":"190204"},"geometry":{"type":"Polygon","coordinates":[[[107.72390937301917,-2.5430869519761985],[107.72341254165553,-2.544227189806619],[107.72312319917636,-2.543654215543905],[107.72390937301917,-2.5430869519761985]]]}},{"type":"Feature","properties":{"code":"1902042010","desa":"Tanjong Tinggi","kecamatan":"Sijuk","kecCode":"190204"},"geometry":{"type":"Polygon","coordinates":[[[107.73864708409569,-2.535485532214771],[107.73875872863248,-2.5355009924600287],[107.73871983475266,-2.5355513895681336],[107.73864708409569,-2.535485532214771]]]}},{"type":"Feature","properties":{"code":"1902052001","desa":"Badau","kecamatan":"Badau","kecCode":"190205"},"geometry":{"type":"Polygon","coordinates":[[[107.73885913883824,-2.8388083319909243],[107.76208751033037,-2.8202186942096534],[107.753054209784,-2.7966047635969917],[107.76189611301527,-2.789573960975151],[107.78513759482422,-2.790599538842184],[107.7990637657802,-2.7844793051870402],[107.8158939852193,-2.7954630679654566],[107.84315026277447,-2.7897807330997746],[107.8703198978451,-2.800939470673333],[107.84892590770453,-2.823286309584419],[107.86424926898864,-2.8518239096835636],[107.85300705722993,-2.857878262603034],[107.8392936730646,-2.846534347425817],[107.81728875007582,-2.8451105875287643],[107.79748262722153,-2.835253214819889],[107.77512786885613,-2.847697724812516],[107.7852247013589,-2.8624413426201687],[107.74345494698825,-2.8925056677959065],[107.73461407258145,-2.891011210394262],[107.73383701156888,-2.880929258984287],[107.74779394473482,-2.8591174015767415],[107.73885913883824,-2.8388083319909243]]]}},{"type":"Feature","properties":{"code":"1902052002","desa":"Air Batu Buding","kecamatan":"Badau","kecCode":"190205"},"geometry":{"type":"Polygon","coordinates":[[[107.94478185040212,-2.7096256386052437],[107.95127777764735,-2.7201111077228695],[107.94505426224445,-2.7326452792240175],[107.95564287911564,-2.740023084357518],[107.9653611114262,-2.7359999968664264],[107.96936111062682,-2.7616388859619407],[107.98422222217789,-2.7770277745315],[107.9336061605959,-2.7999857099668524],[107.921410194425,-2.8007213140309544],[107.91654496198049,-2.7951225918337643],[107.90997304112301,-2.800075610695094],[107.8830353088325,-2.7989520957580836],[107.86812670228556,-2.7561238663654923],[107.87368660075606,-2.7418048940383866],[107.86908350989614,-2.7107257810616074],[107.89227917484408,-2.700128267208957],[107.90456513257487,-2.7053999662329606],[107.90592533198856,-2.7120778757835313],[107.94478185040212,-2.7096256386052437]]]}},{"type":"Feature","properties":{"code":"1902052003","desa":"Sungai Samak","kecamatan":"Badau","kecCode":"190205"},"geometry":{"type":"Polygon","coordinates":[[[107.63842492926715,-2.79291223361471],[107.64091750373983,-2.8001153220586614],[107.66019728127957,-2.8013160905580197],[107.66199704143035,-2.8331228180218573],[107.62971228739222,-2.8566705351496515],[107.62421967259984,-2.8740168853846813],[107.61615003159874,-2.8707444656018812],[107.60329021557105,-2.8846428079214217],[107.58124697966444,-2.8807355854852563],[107.59868953129687,-2.857612520133278],[107.59422885797545,-2.83624543143635],[107.59978394057644,-2.8270285028279853],[107.59255874499013,-2.8012615475752645],[107.58104272474203,-2.795952720940067],[107.60100579368246,-2.7882620290764426],[107.60621139074316,-2.8030262305670544],[107.61235663904773,-2.802988558865923],[107.62864039623736,-2.7920885400570015],[107.63842492926715,-2.79291223361471]]]}},{"type":"Feature","properties":{"code":"1902052003","desa":"Sungai Samak","kecamatan":"Badau","kecCode":"190205"},"geometry":{"type":"Polygon","coordinates":[[[107.58904696434598,-2.831295941514693],[107.58848410295904,-2.83080859260319],[107.58920578821657,-2.8307165946559865],[107.58904696434598,-2.831295941514693]]]}},{"type":"Feature","properties":{"code":"1902052003","desa":"Sungai Samak","kecamatan":"Badau","kecCode":"190205"},"geometry":{"type":"Polygon","coordinates":[[[107.58790996767094,-2.826502787039405],[107.58738791841779,-2.8292181316738767],[107.58589414899586,-2.8269366011082417],[107.58790996767094,-2.826502787039405]]]}},{"type":"Feature","properties":{"code":"1902052004","desa":"Kacang Butor","kecamatan":"Badau","kecCode":"190205"},"geometry":{"type":"Polygon","coordinates":[[[107.767026301023,-2.7886781597758885],[107.7773422227654,-2.754407549812551],[107.77191705262992,-2.7374181980538954],[107.78720873799288,-2.7186404436845373],[107.78344869769931,-2.7075001637967118],[107.80470617165258,-2.7068723992376844],[107.8292239686113,-2.680250834433405],[107.86997937674693,-2.6866468254085825],[107.88209217001769,-2.6982715709814578],[107.8901025519912,-2.6963178513951047],[107.8911600270137,-2.7019926553379703],[107.86836977464543,-2.7130861452984787],[107.87374204126222,-2.7388983265574454],[107.86812670228556,-2.7561238663654923],[107.8830353088325,-2.7989520957580836],[107.86281164244342,-2.8001921250606143],[107.84315026277447,-2.7897807330997746],[107.8158939852193,-2.7954630679654566],[107.7990637657802,-2.7844793051870402],[107.78513759482422,-2.790599538842184],[107.767026301023,-2.7886781597758885]]]}},{"type":"Feature","properties":{"code":"1902052005","desa":"Cerucuk","kecamatan":"Badau","kecCode":"190205"},"geometry":{"type":"Polygon","coordinates":[[[107.70151183300476,-2.776573724817365],[107.70967366620681,-2.7921348803233466],[107.69969246763331,-2.803453087480533],[107.73307501240197,-2.823917087771628],[107.74749794277591,-2.8569126047652036],[107.73383701156888,-2.880929258984287],[107.72880572200653,-2.8691428692670113],[107.70423556561893,-2.8512400230471093],[107.68337050724318,-2.862868197734952],[107.67244824009423,-2.8482644334985676],[107.66052889369352,-2.8507063185808463],[107.64934064125765,-2.844198031060458],[107.66235217831041,-2.8321180405744095],[107.6583039763475,-2.805363970559285],[107.6628888973048,-2.7893658641491843],[107.67514311076597,-2.794770438005292],[107.69200087643934,-2.7777172136969983],[107.70151183300476,-2.776573724817365]]]}},{"type":"Feature","properties":{"code":"1902052006","desa":"Pegantungan","kecamatan":"Badau","kecCode":"190205"},"geometry":{"type":"Polygon","coordinates":[[[107.50824634898987,-3.001895019514298],[107.50765192859369,-3.0014327203190563],[107.50822696230455,-3.0012786457683136],[107.50824634898987,-3.001895019514298]]]}},{"type":"Feature","properties":{"code":"1902052006","desa":"Pegantungan","kecamatan":"Badau","kecCode":"190205"},"geometry":{"type":"Polygon","coordinates":[[[107.50662770960115,-3.0003630972555224],[107.50703259697683,-3.000596384091973],[107.50660429395305,-3.0004060263933505],[107.50662770960115,-3.0003630972555224]]]}},{"type":"Feature","properties":{"code":"1902052006","desa":"Pegantungan","kecamatan":"Badau","kecCode":"190205"},"geometry":{"type":"Polygon","coordinates":[[[107.50433166667312,-2.999437873836232],[107.50366560178617,-2.998109067958015],[107.50499391303872,-2.9990889404800267],[107.50433166667312,-2.999437873836232]]]}},{"type":"Feature","properties":{"code":"1902052006","desa":"Pegantungan","kecamatan":"Badau","kecCode":"190205"},"geometry":{"type":"Polygon","coordinates":[[[107.50168418577664,-2.970470131600161],[107.50903050565336,-2.9975741835811496],[107.50730596929507,-2.9990186494689888],[107.5023998518717,-2.997459511926469],[107.49816595789268,-2.9749356225849466],[107.50168418577664,-2.970470131600161]]]}},{"type":"Feature","properties":{"code":"1902052006","desa":"Pegantungan","kecamatan":"Badau","kecCode":"190205"},"geometry":{"type":"Polygon","coordinates":[[[107.52019895681643,-2.950805147469843],[107.51868821718756,-2.949859564298698],[107.51968183315012,-2.9494646971697227],[107.52019895681643,-2.950805147469843]]]}},{"type":"Feature","properties":{"code":"1902052006","desa":"Pegantungan","kecamatan":"Badau","kecCode":"190205"},"geometry":{"type":"Polygon","coordinates":[[[107.51767641243656,-2.933051261356095],[107.52678791712873,-2.9384874670665737],[107.52875454828381,-2.9509925014328604],[107.51413448561804,-2.9433629913472417],[107.51767641243656,-2.933051261356095]]]}},{"type":"Feature","properties":{"code":"1902052006","desa":"Pegantungan","kecamatan":"Badau","kecCode":"190205"},"geometry":{"type":"Polygon","coordinates":[[[107.6020082535781,-2.8831621820927573],[107.59166509766618,-2.9112537850073608],[107.57848199065143,-2.914950178477172],[107.56539177281212,-2.931178032891434],[107.5563692758215,-2.9252732021545356],[107.54697116258916,-2.9346293763923774],[107.53047465727967,-2.9366500397131667],[107.52901156463207,-2.920855954401522],[107.55110397007223,-2.89617974279049],[107.58001092806194,-2.8793316979074866],[107.6020082535781,-2.8831621820927573]]]}},{"type":"Feature","properties":{"code":"1902052006","desa":"Pegantungan","kecamatan":"Badau","kecCode":"190205"},"geometry":{"type":"Polygon","coordinates":[[[107.54591398883956,-2.8541799490806596],[107.54609096912299,-2.853191836970093],[107.54665647091944,-2.8527497572323393],[107.54591398883956,-2.8541799490806596]]]}},{"type":"Feature","properties":{"code":"1902052006","desa":"Pegantungan","kecamatan":"Badau","kecCode":"190205"},"geometry":{"type":"Polygon","coordinates":[[[107.52718074009913,-2.8486087704198133],[107.52716297938802,-2.8494787439892293],[107.52645107515707,-2.848926719433585],[107.52718074009913,-2.8486087704198133]]]}},{"type":"Feature","properties":{"code":"1902052007","desa":"Ibul","kecamatan":"Badau","kecCode":"190205"},"geometry":{"type":"Polygon","coordinates":[[[107.7852247013589,-2.8624413426201687],[107.77512786885613,-2.847697724812516],[107.79950156474546,-2.835570297786585],[107.81728875007582,-2.8451105875287643],[107.8392936730646,-2.846534347425817],[107.85300705722993,-2.857878262603034],[107.86424926898864,-2.8518239096835636],[107.87155664642216,-2.877773066683315],[107.82385872300169,-2.8797196969139764],[107.7852247013589,-2.8624413426201687]]]}}]}