{"type":"FeatureCollection","features":[{"type":"Feature","properties":{"code":"1905011001","desa":"Tanjung","kecamatan":"Muntok","kecCode":"190501"},"geometry":{"type":"Polygon","coordinates":[[[105.16532084178344,-2.019547752077546],[105.15813263980954,-2.0420323176629687],[105.16339836014629,-2.0506810474085353],[105.15784529292597,-2.057821901867517],[105.17349749131625,-2.0712339933475756],[105.14959117489286,-2.072288907998977],[105.13105248908117,-2.0853839335995525],[105.12104772377347,-2.03702662550952],[105.10876092697526,-2.022710890741991],[105.12592706568158,-1.9982344815101227],[105.16532084178344,-2.019547752077546]]]}},{"type":"Feature","properties":{"code":"1905011002","desa":"Sungai Daeng","kecamatan":"Muntok","kecCode":"190501"},"geometry":{"type":"Polygon","coordinates":[[[105.16912276440411,-2.066460774144159],[105.15784529292597,-2.057821901867517],[105.16339836014629,-2.0506810474085353],[105.15813263980954,-2.0420323176629687],[105.16532084178344,-2.019547752077546],[105.18598873998842,-2.031971143290421],[105.18718597325413,-2.042845679809018],[105.17635457270539,-2.045900552689756],[105.16912276440411,-2.066460774144159]]]}},{"type":"Feature","properties":{"code":"1905011003","desa":"Sungai Baru","kecamatan":"Muntok","kecCode":"190501"},"geometry":{"type":"Polygon","coordinates":[[[105.1798533455555,-2.077250985731259],[105.16841181165584,-2.061303970706068],[105.17658799983637,-2.045638996564135],[105.18590033932922,-2.045225229283023],[105.17868063680203,-2.0523987696017465],[105.17903856427834,-2.0682722767408954],[105.18770131266551,-2.066612475383966],[105.18701542222402,-2.0735568819354326],[105.1798533455555,-2.077250985731259]]]}},{"type":"Feature","properties":{"code":"1905012004","desa":"Air Putih","kecamatan":"Muntok","kecCode":"190501"},"geometry":{"type":"Polygon","coordinates":[[[105.12681573885533,-1.9879442552085818],[105.12650032862734,-1.989333084538026],[105.12567251977106,-1.988909975998892],[105.12681573885533,-1.9879442552085818]]]}},{"type":"Feature","properties":{"code":"1905012004","desa":"Air Putih","kecamatan":"Muntok","kecCode":"190501"},"geometry":{"type":"Polygon","coordinates":[[[105.18598873998842,-2.031971143290421],[105.12592706568158,-1.9982344815101227],[105.13323598005648,-1.9734006016578198],[105.12426143221937,-1.962543825850262],[105.15225684277914,-1.9482848967597204],[105.16357754376867,-1.9293616959355422],[105.18861669030808,-1.9208858518599885],[105.20898083979397,-1.9602238474685572],[105.19680203898298,-1.9870631066633753],[105.18941663996598,-1.9860971376602],[105.18133005663685,-1.9996398340835526],[105.18598873998842,-2.031971143290421]]]}},{"type":"Feature","properties":{"code":"1905012005","desa":"Air Belo","kecamatan":"Muntok","kecCode":"190501"},"geometry":{"type":"Polygon","coordinates":[[[105.18633133222528,-2.045169996520348],[105.18133005663685,-1.9996398340835526],[105.18941663996598,-1.9860971376602],[105.19680203898298,-1.9870631066633753],[105.20900784103907,-1.9598166875065408],[105.18929619736167,-1.9216950924131684],[105.22031282727522,-1.913682744530437],[105.21580605830302,-1.921021886010529],[105.23472945879757,-1.9468319925332034],[105.23040605889258,-1.9987895664587285],[105.24494642363862,-2.0001140430006332],[105.25622600042965,-2.010590996437677],[105.26249590106504,-2.0081442981838715],[105.26253729865748,-2.0142681974756256],[105.26959409978791,-2.0110310976668755],[105.27310309972829,-2.0185661978233633],[105.29262862690966,-2.019412129816545],[105.30168522439362,-2.04164299395512],[105.25937631386584,-2.041053309389469],[105.25641400010606,-2.0521039979157036],[105.23449682307,-2.0567810499148895],[105.18633133222528,-2.045169996520348]]]}},{"type":"Feature","properties":{"code":"1905012006","desa":"Belo Laut","kecamatan":"Muntok","kecCode":"190501"},"geometry":{"type":"Polygon","coordinates":[[[105.18590033932922,-2.045225229283023],[105.23449682307,-2.0567810499148895],[105.25641400010606,-2.0521039979157036],[105.25937631386584,-2.041053309389469],[105.30168522439362,-2.04164299395512],[105.30245130288539,-2.050898002556621],[105.3643604400823,-2.0506090476856187],[105.36279659998314,-2.079725307561018],[105.34950899984051,-2.0884329878665966],[105.35143320008217,-2.0981408374934407],[105.34284143968073,-2.113095688962167],[105.34549197917158,-2.127211589874715],[105.3239364366173,-2.1301561878862794],[105.29785034791529,-2.1543104689548884],[105.25089580859473,-2.0775710994131456],[105.22587300003897,-2.0653529973428975],[105.18838618237645,-2.0744911102663517],[105.18770131266551,-2.066612475383966],[105.17903856427834,-2.0682722767408954],[105.17868063680203,-2.0523987696017465],[105.18590033932922,-2.045225229283023]]]}},{"type":"Feature","properties":{"code":"1905012007","desa":"Air Limau","kecamatan":"Muntok","kecCode":"190501"},"geometry":{"type":"Polygon","coordinates":[[[105.28260841934316,-2.017825494603218],[105.27310309972829,-2.0185661978233633],[105.26959409978791,-2.0110310976668755],[105.26253729865748,-2.0142681974756256],[105.26249590106504,-2.0081442981838715],[105.25622600042965,-2.010590996437677],[105.22918942275372,-1.9956318839811513],[105.23412393986797,-1.9431815939901549],[105.21580605830302,-1.921021886010529],[105.24352628441055,-1.9003514256598595],[105.24936673178928,-1.899648674729447],[105.2592389999799,-1.9326559980223486],[105.27437584187169,-1.950273765448871],[105.28260841934316,-2.017825494603218]]]}},{"type":"Feature","properties":{"code":"1905022001","desa":"Pelangas","kecamatan":"Simpang Teritip","kecCode":"190502"},"geometry":{"type":"Polygon","coordinates":[[[105.34448252794635,-1.8757505061902526],[105.35921589529738,-1.9073641698949433],[105.37631936294832,-1.9147880940614936],[105.38539998582074,-1.91107679163091],[105.39601666603635,-1.9668464684984068],[105.39008601036113,-1.976391077684191],[105.36671047021207,-1.9807007179571272],[105.35753446974007,-1.9977746473565927],[105.34262985078703,-1.9895705280410105],[105.3526726502227,-1.9633847899885812],[105.35015783101915,-1.9338467399801513],[105.34267691410838,-1.9275729030191215],[105.34217834615379,-1.9144062680015004],[105.31835027974165,-1.8946515576117007],[105.31707647999558,-1.8654912678284516],[105.32987382731534,-1.857723854801334],[105.33374385019857,-1.8756629410013228],[105.34448252794635,-1.8757505061902526]]]}},{"type":"Feature","properties":{"code":"1905022002","desa":"Kundi","kecamatan":"Simpang Teritip","kecCode":"190502"},"geometry":{"type":"Polygon","coordinates":[[[105.35143320008217,-2.0980379793331627],[105.34950899984051,-2.0884329878665966],[105.36266268013863,-2.0803545874775997],[105.36503220127513,-2.0551034680618954],[105.3494026801896,-2.0278645078820565],[105.38140633493447,-2.023595293034339],[105.3979000001849,-2.0783899977856692],[105.39847032594486,-2.1194257767185323],[105.37984680708456,-2.1049750645038947],[105.38046275095523,-2.09500163878184],[105.35143320008217,-2.0980379793331627]]]}},{"type":"Feature","properties":{"code":"1905022003","desa":"Mayang","kecamatan":"Simpang Teritip","kecCode":"190502"},"geometry":{"type":"Polygon","coordinates":[[[105.30245130288539,-2.050898002556621],[105.29262862690966,-2.019412129816545],[105.27896663989854,-2.0136496473702863],[105.27437584187169,-1.950273765448871],[105.25834700021396,-1.9300579978276426],[105.27740529092146,-1.9294814694441922],[105.28679421308254,-1.9223985349222343],[105.27063888987296,-1.9113865037540736],[105.2680034913681,-1.8997031709474437],[105.29273166763244,-1.8763796970740036],[105.3063551717538,-1.8957095902126522],[105.30383277576203,-1.907456653476069],[105.33675220115322,-1.935672497730692],[105.34668176874867,-2.0199821354171927],[105.3643604400823,-2.0506090476856187],[105.30245130288539,-2.050898002556621]]]}},{"type":"Feature","properties":{"code":"1905022004","desa":"Peradong","kecamatan":"Simpang Teritip","kecCode":"190502"},"geometry":{"type":"Polygon","coordinates":[[[105.3493369910094,-1.8861669901122762],[105.34448252794635,-1.8757505061902526],[105.33374385019857,-1.8756629410013228],[105.32913605768299,-1.8573184368260773],[105.34381770142585,-1.845737996353983],[105.35075891988828,-1.8449736283735938],[105.35170103887191,-1.8525410978284245],[105.35756616005027,-1.8472536867490787],[105.35518800002625,-1.8550443580429323],[105.35823287964375,-1.859272739173116],[105.36260363964628,-1.8553767276856687],[105.36144299889536,-1.8617204680500223],[105.37364232043677,-1.8577242891738983],[105.36935219994415,-1.8444260680525633],[105.39885324558087,-1.840371427847545],[105.41829981408523,-1.8465355367273115],[105.43450715677994,-1.83215905815159],[105.4282440721063,-1.8729788792842483],[105.39857448002827,-1.8663564579038978],[105.39241813768695,-1.8924202784640238],[105.37277972400511,-1.8843648269749798],[105.3493369910094,-1.8861669901122762]]]}},{"type":"Feature","properties":{"code":"1905022005","desa":"Air Nyatoh","kecamatan":"Simpang Teritip","kecCode":"190502"},"geometry":{"type":"Polygon","coordinates":[[[105.42770856000209,-1.833761607767749],[105.41829981408523,-1.8465355367273115],[105.39885324558087,-1.840371427847545],[105.36935219994415,-1.8444260680525633],[105.37364232043677,-1.8577242891738983],[105.36144299889536,-1.8617204680500223],[105.36260363964628,-1.8553767276856687],[105.35823287964375,-1.859272739173116],[105.35518800002625,-1.8550443580429323],[105.35756616005027,-1.8472536867490787],[105.35170103887191,-1.8525410978284245],[105.34820391088186,-1.8440881675791945],[105.38717663879089,-1.8010538090779966],[105.39968511937279,-1.749905038635248],[105.41051134881974,-1.7561453443738408],[105.421537138728,-1.7781571192729333],[105.42229566561252,-1.764555678234302],[105.43091403155738,-1.7621283279949818],[105.43709956769095,-1.7700551089823655],[105.45031303761665,-1.77260436592222],[105.45151903027909,-1.766850932454395],[105.45508228631854,-1.7710449028252249],[105.46562909370776,-1.7655551847552593],[105.47012595035238,-1.7723036173418507],[105.46436569372183,-1.7764339121145432],[105.46989877081171,-1.7796343708452098],[105.46668298942848,-1.7988222547376764],[105.45819540919086,-1.808367138216698],[105.45797611940247,-1.8327877049455032],[105.42770856000209,-1.833761607767749]]]}},{"type":"Feature","properties":{"code":"1905022005","desa":"Air Nyatoh","kecamatan":"Simpang Teritip","kecCode":"190502"},"geometry":{"type":"Polygon","coordinates":[[[105.39802465881104,-1.7524204666769925],[105.39748806302373,-1.7577257841575946],[105.39478710034444,-1.7578846287123915],[105.39289872099924,-1.75297365945198],[105.39802465881104,-1.7524204666769925]]]}},{"type":"Feature","properties":{"code":"1905022006","desa":"Berang","kecamatan":"Simpang Teritip","kecCode":"190502"},"geometry":{"type":"Polygon","coordinates":[[[105.39601666603635,-1.9668464684984068],[105.38539998582074,-1.91107679163091],[105.38035440063516,-1.9128099965524568],[105.39508881299838,-1.8934238858933978],[105.39389662313073,-1.8696938752881165],[105.41358071967453,-1.8659521766717686],[105.4282440721063,-1.8729788792842483],[105.4433383203073,-1.8969691491927752],[105.48246679100964,-1.9255181005342572],[105.49171296108439,-1.9671052475175361],[105.5098850400626,-1.9930413580519728],[105.5152965602881,-1.9911951874897018],[105.5153559596099,-1.9977424165538133],[105.5231560800891,-2.000323347616085],[105.53017173903459,-1.9965616525740664],[105.53722143731954,-2.0008830838582647],[105.53819459190696,-1.9956539614379867],[105.54663062120625,-2.0046110893972022],[105.55020620065568,-2.010633059528383],[105.53960977766916,-2.024069496555503],[105.5414207361781,-2.0456849699070574],[105.56604185804537,-2.0613223114798656],[105.56840260359735,-2.069130390950521],[105.52638580186334,-2.088907284917204],[105.51584421144128,-2.0859344526900703],[105.52356396130784,-2.0745029678276024],[105.48387374078055,-2.0286867688197074],[105.45740627208187,-2.0123714166659297],[105.43415209544291,-1.985615065071081],[105.40737075795418,-1.9764496550255932],[105.40057186619875,-1.9630482447935467],[105.39601666603635,-1.9668464684984068]]]}},{"type":"Feature","properties":{"code":"1905022007","desa":"Rambat","kecamatan":"Simpang Teritip","kecCode":"190502"},"geometry":{"type":"Polygon","coordinates":[[[105.25979142923113,-1.928382497005799],[105.24923700098685,-1.8998489978156634],[105.2729933824387,-1.8916834099531188],[105.26916116075903,-1.9091605791697974],[105.28679421308254,-1.9223985349222343],[105.27740529092146,-1.9294814694441922],[105.25979142923113,-1.928382497005799]]]}},{"type":"Feature","properties":{"code":"1905022008","desa":"Simpang Gong","kecamatan":"Simpang Teritip","kecCode":"190502"},"geometry":{"type":"Polygon","coordinates":[[[105.31707647999558,-1.8654912678284516],[105.31835027974165,-1.8946515576117007],[105.34217834615379,-1.9144062680015004],[105.34267691410838,-1.9275729030191215],[105.35015783101915,-1.9338467399801513],[105.3526726502227,-1.9633847899885812],[105.34262985078703,-1.9895705280410105],[105.33675220115322,-1.935672497730692],[105.30383277576203,-1.907456653476069],[105.3063551717538,-1.8957095902126522],[105.29273166763244,-1.8763796970740036],[105.31707647999558,-1.8654912678284516]]]}},{"type":"Feature","properties":{"code":"1905022009","desa":"Simpang Tiga","kecamatan":"Simpang Teritip","kecCode":"190502"},"geometry":{"type":"Polygon","coordinates":[[[105.34262985078703,-1.9895705280410105],[105.35890942882712,-1.9975069380695476],[105.36671047021207,-1.9807007179571272],[105.39008601036113,-1.976391077684191],[105.40057186619875,-1.9630482447935467],[105.40633863392088,-1.9756928368538413],[105.43415209544291,-1.985615065071081],[105.45740627208187,-2.0123714166659297],[105.48387374078055,-2.0286867688197074],[105.5219795995789,-2.072086647773086],[105.52151772036653,-2.0796267589519353],[105.51210808232219,-2.084976433693781],[105.3973393583248,-2.019502210409235],[105.3494026801896,-2.0278645078820565],[105.34262985078703,-1.9895705280410105]]]}},{"type":"Feature","properties":{"code":"1905022010","desa":"Ibul","kecamatan":"Simpang Teritip","kecCode":"190502"},"geometry":{"type":"Polygon","coordinates":[[[105.4282440721063,-1.8729788792842483],[105.43451122801082,-1.8321492483466861],[105.4615312797448,-1.832598807745893],[105.4804933061212,-1.844042319242079],[105.47189352016989,-1.8579961767111495],[105.47523511311005,-1.9163556357684095],[105.48622264405981,-1.9163887209271238],[105.51043091685341,-1.959511393752569],[105.50993566919583,-1.9681161034826637],[105.53212368875727,-1.9898252978825222],[105.52704885671942,-1.9917066939899284],[105.52899492037932,-2.000554017425374],[105.5153559596099,-1.9977424165538133],[105.5152965602881,-1.9911951874897018],[105.5098850400626,-1.9930413580519728],[105.49528164003574,-1.9751524180491198],[105.48246679100964,-1.9255181005342572],[105.4433383203073,-1.8969691491927752],[105.4282440721063,-1.8729788792842483]]]}},{"type":"Feature","properties":{"code":"1905022011","desa":"Pangek","kecamatan":"Simpang Teritip","kecCode":"190502"},"geometry":{"type":"Polygon","coordinates":[[[105.38035440063516,-1.9128099965524568],[105.35921589529738,-1.9073641698949433],[105.3493369910094,-1.8861669901122762],[105.37277972400511,-1.8843648269749798],[105.39442302869985,-1.8915603557177159],[105.38035440063516,-1.9128099965524568]]]}},{"type":"Feature","properties":{"code":"1905022012","desa":"Bukit Terak","kecamatan":"Simpang Teritip","kecCode":"190502"},"geometry":{"type":"Polygon","coordinates":[[[105.34670813687109,-2.1254681560642066],[105.34454711995369,-2.106124017664284],[105.35143320008217,-2.0980379793331627],[105.37353628497164,-2.0936417478371463],[105.3805870336647,-2.095102943812911],[105.37902930355956,-2.103796506561063],[105.39961583380375,-2.125712831015756],[105.38445457531844,-2.1306070962684514],[105.35779899992394,-2.1199469976955467],[105.34670813687109,-2.1254681560642066]]]}},{"type":"Feature","properties":{"code":"1905022013","desa":"Air Menduyung","kecamatan":"Simpang Teritip","kecCode":"190502"},"geometry":{"type":"Polygon","coordinates":[[[105.39929643058588,-2.124494982592125],[105.39932000001805,-2.0868899976514674],[105.3821622717715,-2.026146366604699],[105.3973393583248,-2.019502210409235],[105.512082812272,-2.084090296609175],[105.46951300032475,-2.1048139977242535],[105.44593100011565,-2.1268089975693596],[105.44634600036767,-2.1339059974881422],[105.4192724578577,-2.1191570988616233],[105.39929643058588,-2.124494982592125]]]}},{"type":"Feature","properties":{"code":"1905032001","desa":"Jebus","kecamatan":"Jebus","kecCode":"190503"},"geometry":{"type":"Polygon","coordinates":[[[105.47365699897136,-1.762495288261534],[105.45508228631854,-1.7710449028252249],[105.45151903027909,-1.766850932454395],[105.44937210034219,-1.77259600402582],[105.43709956769095,-1.7700551089823655],[105.43242507515714,-1.7621381971551409],[105.42418026780518,-1.7635056478009434],[105.421537138728,-1.7781571192729333],[105.40762900277633,-1.7528081068540202],[105.38957653812679,-1.7482063326066517],[105.38807312167728,-1.7341483669196722],[105.41094395420019,-1.7350779160779872],[105.41943865167252,-1.7254630995180764],[105.4215737456319,-1.739518386124727],[105.44413355122246,-1.7325390858779568],[105.46438428001055,-1.74200723830075],[105.49383318475374,-1.7325357583863714],[105.49365588790897,-1.742215978141991],[105.48368031099761,-1.7404270422333068],[105.47265680177003,-1.753611467639611],[105.47365699897136,-1.762495288261534]]]}},{"type":"Feature","properties":{"code":"1905032002","desa":"Sungai Buluh","kecamatan":"Jebus","kecCode":"190503"},"geometry":{"type":"Polygon","coordinates":[[[105.44413355122246,-1.7325390858779568],[105.4215737456319,-1.739518386124727],[105.41784737055973,-1.7254905720079285],[105.41094395420019,-1.7350779160779872],[105.38807312167728,-1.7341483669196722],[105.34339289766416,-1.701476338764263],[105.33655625416786,-1.7052253075000336],[105.3201882314018,-1.6982181840278443],[105.34480927502807,-1.6935887133594134],[105.36646293002023,-1.680702439291389],[105.36739426703183,-1.709087586316872],[105.39281294815909,-1.7212326724302383],[105.41573577408678,-1.7069425809315795],[105.40519330862435,-1.6798581062927354],[105.42090682728832,-1.6723005284811316],[105.45164035961493,-1.6928392831182217],[105.45415122809675,-1.703794548179564],[105.44413355122246,-1.7325390858779568]]]}},{"type":"Feature","properties":{"code":"1905032003","desa":"Tumbak Petar","kecamatan":"Jebus","kecCode":"190503"},"geometry":{"type":"Polygon","coordinates":[[[105.48521122421869,-1.7738775442353552],[105.46449984019551,-1.7665045189985435],[105.47365699897136,-1.762495288261534],[105.47265680177003,-1.753611467639611],[105.4841826453129,-1.740126074218342],[105.49365588790897,-1.742215978141991],[105.50018184711462,-1.7303363862854548],[105.52446755783158,-1.723580972261766],[105.55058107855399,-1.7330356879139217],[105.54333767979017,-1.7618102081100158],[105.52545601708158,-1.7767210422611495],[105.51622614811828,-1.776832429591718],[105.51248236756724,-1.770363303049904],[105.50694116870007,-1.7735895687260244],[105.5093537700605,-1.7792867262174916],[105.49716747160157,-1.7829621771747117],[105.48796316856544,-1.7762152338653996],[105.49638319173094,-1.7735585304242776],[105.49301350756735,-1.768271067184279],[105.48521122421869,-1.7738775442353552]]]}},{"type":"Feature","properties":{"code":"1905032004","desa":"Limbung","kecamatan":"Jebus","kecCode":"190503"},"geometry":{"type":"Polygon","coordinates":[[[105.52545601708158,-1.7767210422611495],[105.54333767979017,-1.7618102081100158],[105.55556364014996,-1.7178947091575412],[105.57952344015467,-1.7046331192218498],[105.58824796297317,-1.8095688294204628],[105.57933019293408,-1.8091163697077204],[105.54694798206377,-1.7798513403825151],[105.52545601708158,-1.7767210422611495]]]}},{"type":"Feature","properties":{"code":"1905032005","desa":"Rukam","kecamatan":"Jebus","kecCode":"190503"},"geometry":{"type":"Polygon","coordinates":[[[105.59066181708926,-1.7951384877495173],[105.58148424280364,-1.7725155057095932],[105.5821978800282,-1.7048769281261964],[105.59678038160939,-1.7026066786562828],[105.59929740325258,-1.7113058154023868],[105.60492371126031,-1.7112521213797607],[105.61394720380048,-1.700506553038297],[105.62987157661199,-1.7121047488255607],[105.63845369358313,-1.7070830982024188],[105.65301653598442,-1.7144578042720708],[105.65533804681347,-1.746229341263748],[105.66118216702345,-1.7442302400884302],[105.66985732515548,-1.7616216454582092],[105.6625698470209,-1.7736279814684708],[105.64753179655519,-1.7713030568155586],[105.6442816799556,-1.7634148180730835],[105.6295852009963,-1.763575229246888],[105.61377528130423,-1.7932286676694744],[105.59066181708926,-1.7951384877495173]]]}},{"type":"Feature","properties":{"code":"1905032008","desa":"Ranggi Asam","kecamatan":"Jebus","kecCode":"190503"},"geometry":{"type":"Polygon","coordinates":[[[105.49370866282459,-1.7377196601962333],[105.49383318475374,-1.7325357583863714],[105.47732796231566,-1.7379048342026135],[105.4811228522379,-1.7241236933309123],[105.46708533172273,-1.7044860539871003],[105.47621932216407,-1.690164525787029],[105.50036567933266,-1.6838979724351884],[105.51049979502959,-1.6919560931120228],[105.51647481156334,-1.6786013280164978],[105.52615692440257,-1.6773321723708623],[105.57186123071129,-1.6940697930969317],[105.57657938083382,-1.6894124173648162],[105.57756061493052,-1.6972721682828518],[105.58160938076838,-1.6939838412917656],[105.58378573022729,-1.700878939814093],[105.59031877788937,-1.7007316803258374],[105.55592831973621,-1.7174870078036608],[105.55058107855399,-1.7330356879139217],[105.52410288004393,-1.7235651567843175],[105.49370866282459,-1.7377196601962333]]]}},{"type":"Feature","properties":{"code":"1905032009","desa":"Ketap","kecamatan":"Jebus","kecCode":"190503"},"geometry":{"type":"Polygon","coordinates":[[[105.34445412555748,-1.6592748819792547],[105.34426667087024,-1.6589256068806577],[105.34447688110322,-1.658913357215054],[105.34445412555748,-1.6592748819792547]]]}},{"type":"Feature","properties":{"code":"1905032009","desa":"Ketap","kecamatan":"Jebus","kecCode":"190503"},"geometry":{"type":"Polygon","coordinates":[[[105.34348886431967,-1.6584472305052662],[105.34385541539518,-1.6592895724048167],[105.34276550722245,-1.6585979928528813],[105.34348886431967,-1.6584472305052662]]]}},{"type":"Feature","properties":{"code":"1905032009","desa":"Ketap","kecamatan":"Jebus","kecCode":"190503"},"geometry":{"type":"Polygon","coordinates":[[[105.36991378339445,-1.6411614037448783],[105.36819538131185,-1.6412010503572665],[105.36835331665229,-1.6407359299887436],[105.36991378339445,-1.6411614037448783]]]}},{"type":"Feature","properties":{"code":"1905032009","desa":"Ketap","kecamatan":"Jebus","kecCode":"190503"},"geometry":{"type":"Polygon","coordinates":[[[105.36788492814696,-1.6391009319338368],[105.3676832812585,-1.6391832190017048],[105.36774647931662,-1.6391124063838263],[105.36788492814696,-1.6391009319338368]]]}},{"type":"Feature","properties":{"code":"1905032009","desa":"Ketap","kecamatan":"Jebus","kecCode":"190503"},"geometry":{"type":"Polygon","coordinates":[[[105.38276693184848,-1.6233629202514166],[105.38261802929867,-1.6232783794825245],[105.38275551135779,-1.623271549131643],[105.38276693184848,-1.6233629202514166]]]}},{"type":"Feature","properties":{"code":"1905032009","desa":"Ketap","kecamatan":"Jebus","kecCode":"190503"},"geometry":{"type":"Polygon","coordinates":[[[105.38367646479708,-1.6226230111327158],[105.38420063734958,-1.6227313965262504],[105.38373727605449,-1.6231693285906705],[105.38367646479708,-1.6226230111327158]]]}},{"type":"Feature","properties":{"code":"1905032009","desa":"Ketap","kecamatan":"Jebus","kecCode":"190503"},"geometry":{"type":"Polygon","coordinates":[[[105.42090682728832,-1.6723005284811316],[105.39993060011714,-1.685574717918772],[105.37484868002262,-1.6855118085430216],[105.35876765610247,-1.6726690742525194],[105.34377405283033,-1.6708562208740925],[105.34109916419516,-1.6628645888747426],[105.3449022757195,-1.6615479139515743],[105.34724999459165,-1.6558018648170778],[105.34499759756112,-1.6478278154630044],[105.360591981235,-1.652793873594612],[105.38826210791001,-1.6383682173915308],[105.39331064287192,-1.6267103794655235],[105.39086881534358,-1.6070647694304863],[105.40708115107434,-1.6096200050632592],[105.41817308701843,-1.6079214276376892],[105.42468700520116,-1.604808459452197],[105.4239349651266,-1.6240619623777057],[105.448919822292,-1.6300115703591849],[105.46738996627397,-1.6508825174725112],[105.48229552411918,-1.6523101381590841],[105.48102777231388,-1.6845904351214438],[105.4870068978501,-1.686950183322609],[105.46220234935902,-1.6857258858606248],[105.45164035961493,-1.6928392831182217],[105.42090682728832,-1.6723005284811316]]]}},{"type":"Feature","properties":{"code":"1905032009","desa":"Ketap","kecamatan":"Jebus","kecCode":"190503"},"geometry":{"type":"Polygon","coordinates":[[[105.38682048657624,-1.6231877062367124],[105.38755569314075,-1.6233477360980237],[105.3869074132466,-1.6237576893543053],[105.38682048657624,-1.6231877062367124]]]}},{"type":"Feature","properties":{"code":"1905032009","desa":"Ketap","kecamatan":"Jebus","kecCode":"190503"},"geometry":{"type":"Polygon","coordinates":[[[105.41802900033814,-1.6071859980421304],[105.41790600006192,-1.6069399983892745],[105.41808800036097,-1.6069779983429824],[105.41802900033814,-1.6071859980421304]]]}},{"type":"Feature","properties":{"code":"1905032009","desa":"Ketap","kecamatan":"Jebus","kecCode":"190503"},"geometry":{"type":"Polygon","coordinates":[[[105.39407987258811,-1.6028981483424372],[105.39446808203644,-1.6033746820069532],[105.39396222058008,-1.6031149515050869],[105.39407987258811,-1.6028981483424372]]]}},{"type":"Feature","properties":{"code":"1905032009","desa":"Ketap","kecamatan":"Jebus","kecCode":"190503"},"geometry":{"type":"Polygon","coordinates":[[[105.39129653111007,-1.6014414399835808],[105.39258958174382,-1.6045478691984947],[105.3894985066508,-1.6021971762709915],[105.39129653111007,-1.6014414399835808]]]}},{"type":"Feature","properties":{"code":"1905032018","desa":"Mislak","kecamatan":"Jebus","kecCode":"190503"},"geometry":{"type":"Polygon","coordinates":[[[105.47732796231566,-1.7379048342026135],[105.46076830031689,-1.7417629653461801],[105.44413355122246,-1.7325390858779568],[105.45415122809675,-1.703794548179564],[105.45164035961493,-1.6928392831182217],[105.46220234935902,-1.6857258858606248],[105.47621932216407,-1.690164525787029],[105.46708533172273,-1.7044860539871003],[105.4811228522379,-1.7241236933309123],[105.47732796231566,-1.7379048342026135]]]}},{"type":"Feature","properties":{"code":"1905032019","desa":"Pebuar","kecamatan":"Jebus","kecCode":"190503"},"geometry":{"type":"Polygon","coordinates":[[[105.40519330862435,-1.6798581062927354],[105.41573577408678,-1.7069425809315795],[105.39281294815909,-1.7212326724302383],[105.36739426703183,-1.709087586316872],[105.3670892367789,-1.6801304326991604],[105.39848340028874,-1.6859213984732566],[105.40519330862435,-1.6798581062927354]]]}},{"type":"Feature","properties":{"code":"1905032020","desa":"Sinar Manik","kecamatan":"Jebus","kecCode":"190503"},"geometry":{"type":"Polygon","coordinates":[[[105.49939386113782,-1.6804784982096215],[105.48102777231388,-1.6845904351214438],[105.48025893829941,-1.6654563972370848],[105.48807104404352,-1.6639165249715362],[105.4955171329094,-1.67285298021482],[105.49939386113782,-1.6804784982096215]]]}},{"type":"Feature","properties":{"code":"1905032021","desa":"Air Kuang","kecamatan":"Jebus","kecCode":"190503"},"geometry":{"type":"Polygon","coordinates":[[[105.51647481156334,-1.6786013280164978],[105.51049979502959,-1.6919560931120228],[105.49452195842173,-1.6837004399452928],[105.50653987861256,-1.6757270354051403],[105.51647481156334,-1.6786013280164978]]]}},{"type":"Feature","properties":{"code":"1905041001","desa":"Kelapa","kecamatan":"Kelapa","kecCode":"190504"},"geometry":{"type":"Polygon","coordinates":[[[105.75334368216527,-1.8402942579222257],[105.75575017443106,-1.8401749367725841],[105.75524089734961,-1.840541154199162],[105.7533487579389,-1.840615160309624],[105.74792122798237,-1.8532468327093938],[105.74648167239131,-1.879032358062551],[105.73562573204195,-1.883099420602936],[105.72614617710444,-1.878776748254353],[105.72149999522867,-1.888751240572242],[105.7035431509957,-1.8941552802309838],[105.70585801403614,-1.9047387547670291],[105.6975213751114,-1.9045872909481463],[105.69719939893315,-1.8892276968950943],[105.67460762963843,-1.891279332867073],[105.64695684018608,-1.8720782981883293],[105.66475411680908,-1.8465790657128691],[105.6618019168251,-1.8378411457035992],[105.68594448065333,-1.86008093921062],[105.69616488000524,-1.8608968779143378],[105.73153164127228,-1.8474837279322753],[105.7462675204298,-1.8486904481449116],[105.74581392127548,-1.8455445890542905],[105.75059796112707,-1.8464777076218366],[105.75334368216527,-1.8402942579222257]]]}},{"type":"Feature","properties":{"code":"1905042002","desa":"Mancung","kecamatan":"Kelapa","kecCode":"190504"},"geometry":{"type":"Polygon","coordinates":[[[105.65913013624686,-1.9294572021381393],[105.61799185613933,-1.9178488017436361],[105.61586005909452,-1.9037887847029782],[105.64055403144344,-1.8801691676773664],[105.6516169507617,-1.8909576768478031],[105.65913013624686,-1.9294572021381393]]]}},{"type":"Feature","properties":{"code":"1905042003","desa":"Kayu Arang","kecamatan":"Kelapa","kecCode":"190504"},"geometry":{"type":"Polygon","coordinates":[[[105.60984384641641,-1.9214220285626027],[105.64484724020802,-1.922119827825809],[105.65913013624686,-1.9294572021381393],[105.64065444614585,-1.9567399251272644],[105.63960594905534,-1.9725331129152177],[105.63467958159748,-1.9672650660381394],[105.63428457777108,-1.9816135388261447],[105.62212672127121,-1.9824610635186695],[105.62393163183941,-1.9914769864552366],[105.62965010506836,-1.9889846718893334],[105.62579887441859,-1.9966196120812105],[105.6006524873225,-1.9843291739416036],[105.59397139866114,-1.957962674856043],[105.60610700773229,-1.9609362427286356],[105.60984384641641,-1.9214220285626027]]]}},{"type":"Feature","properties":{"code":"1905042004","desa":"Pusuk","kecamatan":"Kelapa","kecCode":"190504"},"geometry":{"type":"Polygon","coordinates":[[[105.64754602023271,-1.7712992967500314],[105.6625698470209,-1.7736279814684708],[105.66985732515548,-1.7616216454582092],[105.69592032736132,-1.78146035072824],[105.7355551946166,-1.7805733520931477],[105.72182835479481,-1.798608700825539],[105.72545758779751,-1.8186831139070663],[105.71328772444899,-1.828032876877886],[105.68421918256927,-1.823104826793848],[105.6616093755723,-1.8029303272627228],[105.66403139823052,-1.7878849203593312],[105.65540905098699,-1.786585322662487],[105.64754602023271,-1.7712992967500314]]]}},{"type":"Feature","properties":{"code":"1905042005","desa":"Dendang","kecamatan":"Kelapa","kecCode":"190504"},"geometry":{"type":"Polygon","coordinates":[[[105.55730521416437,-1.7857021839175915],[105.57933019293408,-1.8091163697077204],[105.5966811486162,-1.8092403763252154],[105.60310551320889,-1.8243191192981376],[105.60198196679436,-1.864613309178498],[105.6286166410452,-1.8875918013168345],[105.62812325588362,-1.8962319047652505],[105.61514942200829,-1.9061723280661989],[105.62351301811132,-1.9217719889446045],[105.61065409870776,-1.9207821789139523],[105.61100068033721,-1.9375175495363341],[105.60498789677409,-1.9360465266685432],[105.60610700773229,-1.9609362427286356],[105.59413732178001,-1.9568582111571842],[105.60073315740937,-1.9843535077974808],[105.59016056825567,-1.9958253902062695],[105.58528780488835,-1.9889102934595733],[105.58969762604464,-1.9823712572192371],[105.58382906226149,-1.9848829036118567],[105.57271495982758,-1.9721957610283],[105.58041024813451,-1.9655876487610158],[105.55804849664086,-1.9463512896116217],[105.560921886336,-1.92985552266377],[105.58080038393062,-1.927511019769855],[105.56198856591963,-1.9102460896565154],[105.5644337757982,-1.9018807111063516],[105.55502062500193,-1.878867686800218],[105.56123844230034,-1.8629896515746158],[105.55730521416437,-1.7857021839175915]]]}},{"type":"Feature","properties":{"code":"1905042006","desa":"Kacung","kecamatan":"Kelapa","kecCode":"190504"},"geometry":{"type":"Polygon","coordinates":[[[105.53005203477363,-1.7773047966972546],[105.55730521416437,-1.7857021839175915],[105.56123844230034,-1.8629896515746158],[105.55502062500193,-1.878867686800218],[105.56632377122514,-1.9173797099689274],[105.54149654542931,-1.9002175031175323],[105.510895033579,-1.9163362625729234],[105.51153030208182,-1.8438526810010092],[105.53083400968187,-1.8439736497086439],[105.53099215186637,-1.8314618380516794],[105.52587626397843,-1.8312824179078162],[105.53005203477363,-1.7773047966972546]]]}},{"type":"Feature","properties":{"code":"1905042007","desa":"Sinar Sari","kecamatan":"Kelapa","kecCode":"190504"},"geometry":{"type":"Polygon","coordinates":[[[105.64736630780891,-1.8723051126040262],[105.67460762963843,-1.891279332867073],[105.69750631776242,-1.8894018263274206],[105.6975213751114,-1.9045872909481463],[105.67223187530085,-1.9127083021149167],[105.67206300600299,-1.9196077911275458],[105.65913013624686,-1.9294572021381393],[105.6516169507617,-1.8909576768478031],[105.64055403144344,-1.8801691676773664],[105.64736630780891,-1.8723051126040262]]]}},{"type":"Feature","properties":{"code":"1905042008","desa":"Beruas","kecamatan":"Kelapa","kecCode":"190504"},"geometry":{"type":"Polygon","coordinates":[[[105.75572067217131,-1.8399236275223543],[105.7462675204298,-1.8486904481449116],[105.68594448065333,-1.86008093921062],[105.67146904336168,-1.8434283116123662],[105.65520192003264,-1.838403717508201],[105.65340083967709,-1.8255803366280643],[105.6616093755723,-1.8029303272627228],[105.68421918256927,-1.823104826793848],[105.7287637627375,-1.8360870450343065],[105.7446611370019,-1.8290711279911271],[105.75572067217131,-1.8399236275223543]]]}},{"type":"Feature","properties":{"code":"1905042009","desa":"Tebing","kecamatan":"Kelapa","kecCode":"190504"},"geometry":{"type":"Polygon","coordinates":[[[105.6618019168251,-1.8378411457035992],[105.66475411680908,-1.8465790657128691],[105.65712396010274,-1.862295387546329],[105.63141192372137,-1.885003435559233],[105.62539306523784,-1.8702389282993561],[105.62690561610133,-1.8501004331262227],[105.63415559880188,-1.8329138969155032],[105.64248719432861,-1.8306109211163688],[105.64028855966932,-1.8067587277187718],[105.65355528025201,-1.8013030193105959],[105.65540905098699,-1.786585322662487],[105.66403139823052,-1.7878849203593312],[105.65340083967709,-1.8255803366280643],[105.6537568803758,-1.83664088801918],[105.6618019168251,-1.8378411457035992]]]}},{"type":"Feature","properties":{"code":"1905042010","desa":"Terentang","kecamatan":"Kelapa","kecCode":"190504"},"geometry":{"type":"Polygon","coordinates":[[[105.5054109011922,-1.9488251626797162],[105.48622264405981,-1.9163887209271238],[105.47523511311005,-1.9163556357684095],[105.47189352016989,-1.8579961767111495],[105.4804933061212,-1.844042319242079],[105.51153030208182,-1.8438526810010092],[105.51341323873002,-1.9483432456733423],[105.5054109011922,-1.9488251626797162]]]}},{"type":"Feature","properties":{"code":"1905042011","desa":"Tuik","kecamatan":"Kelapa","kecCode":"190504"},"geometry":{"type":"Polygon","coordinates":[[[105.71328772444899,-1.828032876877886],[105.72545758779751,-1.8186831139070663],[105.72182835479481,-1.798608700825539],[105.73617538868331,-1.7826967098975692],[105.75554782337343,-1.7910210937515423],[105.75104003187204,-1.8012709980498027],[105.76072260156688,-1.8099411721294987],[105.75697948291685,-1.8213985727553657],[105.74636412110736,-1.8204243093049255],[105.74128559195655,-1.8315520661331761],[105.7287637627375,-1.8360870450343065],[105.71328772444899,-1.828032876877886]]]}},{"type":"Feature","properties":{"code":"1905042012","desa":"Tugang","kecamatan":"Kelapa","kecCode":"190504"},"geometry":{"type":"Polygon","coordinates":[[[105.45855958965342,-1.8319158796719144],[105.45819540919086,-1.808367138216698],[105.46668298942848,-1.7988222547376764],[105.46989877081171,-1.7796343708452098],[105.46604447707101,-1.7742365257167885],[105.47732186221424,-1.7694083579363793],[105.48521122421869,-1.7738775442353552],[105.4906484623567,-1.76781817669623],[105.4965397627999,-1.773263166085011],[105.48796316856544,-1.7762152338653996],[105.49716747160157,-1.7829621771747117],[105.5093537700605,-1.7792867262174916],[105.50694116870007,-1.7735895687260244],[105.51248236756724,-1.770363303049904],[105.51708303025771,-1.777174089231264],[105.53005203477363,-1.7773047966972546],[105.52587626397843,-1.8312824179078162],[105.53099215186637,-1.8314618380516794],[105.53083400968187,-1.8439736497086439],[105.4804933061212,-1.844042319242079],[105.45855958965342,-1.8319158796719144]]]}},{"type":"Feature","properties":{"code":"1905042013","desa":"Air Bulin","kecamatan":"Kelapa","kecCode":"190504"},"geometry":{"type":"Polygon","coordinates":[[[105.60310551320889,-1.8243191192981376],[105.58973591288213,-1.795218682094901],[105.61377528130423,-1.7932286676694744],[105.62766351435975,-1.7642617528103102],[105.6472459200632,-1.7654529579190341],[105.65640648007508,-1.790130237924209],[105.65355528025201,-1.8013030193105959],[105.64028855966932,-1.8067587277187718],[105.64248719432861,-1.8306109211163688],[105.63415559880188,-1.8329138969155032],[105.62690561610133,-1.8501004331262227],[105.6286166410452,-1.8875918013168345],[105.60198196679436,-1.864613309178498],[105.60310551320889,-1.8243191192981376]]]}},{"type":"Feature","properties":{"code":"1905042014","desa":"Pangkal Beras","kecamatan":"Kelapa","kecCode":"190504"},"geometry":{"type":"Polygon","coordinates":[[[105.55020620065568,-2.010633059528383],[105.53819459190696,-1.9956539614379867],[105.53722143731954,-2.0008830838582647],[105.53077577588141,-1.9978411090543642],[105.52704885671942,-1.9917066939899284],[105.53212368875727,-1.9898252978825222],[105.50993566919583,-1.9681161034826637],[105.50533118168875,-1.9528691306299928],[105.50529385083063,-1.9482914339317292],[105.51341323873002,-1.9483432456733423],[105.510895033579,-1.9163362625729234],[105.54149654542931,-1.9002175031175323],[105.58080038393062,-1.927511019769855],[105.560921886336,-1.92985552266377],[105.55804849664086,-1.9463512896116217],[105.58041024813451,-1.9655876487610158],[105.57271495982758,-1.9721957610283],[105.58382906226149,-1.9848829036118567],[105.58969762604464,-1.9823712572192371],[105.58554339940842,-1.994429017363494],[105.59121288386757,-1.996399620821855],[105.56386946200615,-2.0011519487742064],[105.55020620065568,-2.010633059528383]]]}},{"type":"Feature","properties":{"code":"1905052001","desa":"Tempilang","kecamatan":"Tempilang","kecCode":"190505"},"geometry":{"type":"Polygon","coordinates":[[[105.70422462576589,-2.065001082734128],[105.68800938702365,-2.0791751068304065],[105.68524200041803,-2.103244997316914],[105.67434299962979,-2.095508997608872],[105.66347900225423,-2.1001013685449905],[105.62723093236173,-2.0758714014324195],[105.64006705575007,-2.041968509864584],[105.66750868088097,-2.0601770968012],[105.70422462576589,-2.065001082734128]]]}},{"type":"Feature","properties":{"code":"1905052002","desa":"Tanjung Niur","kecamatan":"Tempilang","kecCode":"190505"},"geometry":{"type":"Polygon","coordinates":[[[105.55969799986286,-2.085712997334473],[105.56604185804537,-2.0613223114798656],[105.54598010829538,-2.05182701302108],[105.53997538805378,-2.0387943787867586],[105.54047430944189,-2.0202247401294184],[105.55614326669847,-2.0054872161281168],[105.58669683389184,-2.000710595688726],[105.59421635510073,-1.9935760166989456],[105.5954617056932,-1.999259260779122],[105.60184172831315,-1.9966926064542945],[105.60450900058997,-2.0055378128857204],[105.59818333659177,-2.0078184396326786],[105.60697526269827,-2.0210684058310413],[105.64701992582899,-2.0248404565664173],[105.62723093236173,-2.0758714014324195],[105.62485659715428,-2.0975662228673047],[105.61252867705684,-2.1196647184920483],[105.59111840828797,-2.1230000305633308],[105.57966660502984,-2.1002463608423385],[105.55969799986286,-2.085712997334473]]]}},{"type":"Feature","properties":{"code":"1905052003","desa":"Sangku","kecamatan":"Tempilang","kecCode":"190505"},"geometry":{"type":"Polygon","coordinates":[[[105.70422462576589,-2.065001082734128],[105.66750868088097,-2.0601770968012],[105.64006705575007,-2.041968509864584],[105.64701992582899,-2.0248404565664173],[105.66318142018643,-2.0330572401351255],[105.7186825136871,-2.0017415541995134],[105.72552983663269,-2.032885525382488],[105.72250109894662,-2.053566894509507],[105.73054465511181,-2.078388081330482],[105.70291789914175,-2.07880664109871],[105.70422462576589,-2.065001082734128]]]}},{"type":"Feature","properties":{"code":"1905052004","desa":"Buyan Kelumbi","kecamatan":"Tempilang","kecCode":"190505"},"geometry":{"type":"Polygon","coordinates":[[[105.7222038370375,-2.0469991923789976],[105.72552983663269,-2.032885525382488],[105.7186825136871,-2.0017415541995134],[105.72306983380584,-1.9800505665744503],[105.74242918156152,-1.9802027975150227],[105.74828852999171,-1.9735453709233937],[105.76700248197903,-1.9758348640864498],[105.7769585328101,-1.9827508574571986],[105.79434067608138,-1.9821532696494502],[105.81151094357523,-1.9938501138705242],[105.78074986411501,-1.9981197828757955],[105.78212869658216,-2.026668469816638],[105.77244841296395,-2.0488979427039387],[105.73744026985264,-2.054741359637646],[105.7222038370375,-2.0469991923789976]]]}},{"type":"Feature","properties":{"code":"1905052005","desa":"Penyampak","kecamatan":"Tempilang","kecCode":"190505"},"geometry":{"type":"Polygon","coordinates":[[[105.60073315740937,-1.9843535077974808],[105.62669480242323,-1.9965608386876137],[105.62965010506836,-1.9889846718893334],[105.62393163183941,-1.9914769864552366],[105.62251111219813,-1.9819535059415516],[105.63393622357789,-1.9819194800919133],[105.63483965822371,-1.9670770546707557],[105.63895083970952,-1.9729560307981067],[105.64544843969378,-1.9576911578394351],[105.65775864134827,-1.955810248265183],[105.67555092043868,-1.9720503874183575],[105.67179225430912,-1.9840419808424448],[105.68691863978347,-1.990631517612871],[105.72222794066698,-1.99187600035811],[105.7186825136871,-2.0017415541995134],[105.66318142018643,-2.0330572401351255],[105.64701992582899,-2.0248404565664173],[105.6065329176601,-2.0207342519333507],[105.59818333659177,-2.0078184396326786],[105.60450900058997,-2.0055378128857204],[105.60184172831315,-1.9966926064542945],[105.59240613133795,-1.994442312940562],[105.60073315740937,-1.9843535077974808]]]}},{"type":"Feature","properties":{"code":"1905052006","desa":"Benteng Kota","kecamatan":"Tempilang","kecCode":"190505"},"geometry":{"type":"Polygon","coordinates":[[[105.63420051993813,-2.12764730421099],[105.63727668786889,-2.1287818313464117],[105.63650003155128,-2.1292386878447083],[105.63420051993813,-2.12764730421099]]]}},{"type":"Feature","properties":{"code":"1905052006","desa":"Benteng Kota","kecamatan":"Tempilang","kecCode":"190505"},"geometry":{"type":"Polygon","coordinates":[[[105.62723093236173,-2.0758714014324195],[105.66747217470117,-2.1016647167132008],[105.6660689939889,-2.121830137588438],[105.64714887332188,-2.1170303578077347],[105.61252867705684,-2.1196647184920483],[105.62485659715428,-2.0975662228673047],[105.62723093236173,-2.0758714014324195]]]}},{"type":"Feature","properties":{"code":"1905052007","desa":"Air Lintang","kecamatan":"Tempilang","kecCode":"190505"},"geometry":{"type":"Polygon","coordinates":[[[105.66747217470117,-2.1016647167132008],[105.67434299962979,-2.095508997608872],[105.68550227501004,-2.10320734270293],[105.68376249334442,-2.130688898601703],[105.67502349323966,-2.1231662198813255],[105.65988492464959,-2.1265431435836697],[105.6660689939889,-2.121830137588438],[105.66747217470117,-2.1016647167132008]]]}},{"type":"Feature","properties":{"code":"1905052008","desa":"Sinar Surya","kecamatan":"Tempilang","kecCode":"190505"},"geometry":{"type":"Polygon","coordinates":[[[105.68445955066777,-2.128671965668821],[105.68800938702365,-2.0791751068304065],[105.70422462576589,-2.065001082734128],[105.70291789914175,-2.07880664109871],[105.73054465511181,-2.078388081330482],[105.73995525183346,-2.1321504075415834],[105.717470361568,-2.1243113734060657],[105.68445955066777,-2.128671965668821]]]}},{"type":"Feature","properties":{"code":"1905052009","desa":"Simpang Yul","kecamatan":"Tempilang","kecCode":"190505"},"geometry":{"type":"Polygon","coordinates":[[[105.67223187530085,-1.9127083021149167],[105.70585801403614,-1.9047387547670291],[105.70678247213344,-1.9459983138028523],[105.71449089863614,-1.9635955110362266],[105.70915480904726,-1.9769150649757832],[105.72306983380584,-1.9800505665744503],[105.72222794066698,-1.99187600035811],[105.68691863978347,-1.990631517612871],[105.67179225430912,-1.9840419808424448],[105.67555092043868,-1.9720503874183575],[105.65775864134827,-1.955810248265183],[105.64544843969378,-1.9576911578394351],[105.64046199572458,-1.970816568833864],[105.64065444614585,-1.9567399251272644],[105.67223187530085,-1.9127083021149167]]]}},{"type":"Feature","properties":{"code":"1905062001","desa":"Sekar Biru","kecamatan":"Parittiga","kecCode":"190506"},"geometry":{"type":"Polygon","coordinates":[[[105.5457024138354,-1.6803665191251895],[105.51307618991429,-1.6773718540567575],[105.50767763071815,-1.6600937290904396],[105.521770258091,-1.6451627168505507],[105.5324917920626,-1.6520499741839827],[105.5457024138354,-1.6803665191251895]]]}},{"type":"Feature","properties":{"code":"1905062002","desa":"Telak","kecamatan":"Parittiga","kecCode":"190506"},"geometry":{"type":"Polygon","coordinates":[[[105.61116750277809,-1.7085230081247529],[105.59953446004738,-1.7114923383918759],[105.59742973169682,-1.702948644065291],[105.58378573022729,-1.700878939814093],[105.58160938076838,-1.6939838412917656],[105.57756061493052,-1.6972721682828518],[105.57657938083382,-1.6894124173648162],[105.57186123071129,-1.6940697930969317],[105.55385856781872,-1.68769212580849],[105.5324917920626,-1.6520499741839827],[105.521770258091,-1.6451627168505507],[105.5500453712969,-1.6510535703241538],[105.56314680008484,-1.6289033474941716],[105.58958939983097,-1.6363237481169606],[105.59727107959668,-1.648350987968803],[105.59634120038612,-1.6579151079463854],[105.5845706396234,-1.6678966482511839],[105.59435580037994,-1.6852167868454975],[105.5876763601759,-1.6891065885141894],[105.60561947985518,-1.6963676985183638],[105.61116750277809,-1.7085230081247529]]]}},{"type":"Feature","properties":{"code":"1905062003","desa":"Cupat","kecamatan":"Parittiga","kecCode":"190506"},"geometry":{"type":"Polygon","coordinates":[[[105.62727676541044,-1.6141825194067478],[105.6264929765697,-1.6157550703375343],[105.62628954902351,-1.615147705100456],[105.62727676541044,-1.6141825194067478]]]}},{"type":"Feature","properties":{"code":"1905062003","desa":"Cupat","kecamatan":"Parittiga","kecCode":"190506"},"geometry":{"type":"Polygon","coordinates":[[[105.62688969540316,-1.6121825674727321],[105.62848264206035,-1.6119529831451531],[105.62754967817516,-1.6126619169146716],[105.6272194093483,-1.6126685790923965],[105.62688969540316,-1.6121825674727321]]]}},{"type":"Feature","properties":{"code":"1905062003","desa":"Cupat","kecamatan":"Parittiga","kecCode":"190506"},"geometry":{"type":"Polygon","coordinates":[[[105.6237935796101,-1.6045684438882544],[105.62730813196474,-1.6046116608091432],[105.62754512580699,-1.6049400275694947],[105.6237935796101,-1.6045684438882544]]]}},{"type":"Feature","properties":{"code":"1905062003","desa":"Cupat","kecamatan":"Parittiga","kecCode":"190506"},"geometry":{"type":"Polygon","coordinates":[[[105.54690163370348,-1.6107915726147743],[105.55132376477997,-1.5906747699497705],[105.55847204674761,-1.585346463099811],[105.58191461876469,-1.5843736385646745],[105.58988150772547,-1.5933056970225141],[105.6027575358317,-1.5717345161811118],[105.61244470286077,-1.5720243973538497],[105.62588749001571,-1.618008558243155],[105.56920629623363,-1.6299510621733069],[105.54690163370348,-1.6107915726147743]]]}},{"type":"Feature","properties":{"code":"1905062003","desa":"Cupat","kecamatan":"Parittiga","kecCode":"190506"},"geometry":{"type":"Polygon","coordinates":[[[105.6205262913553,-1.589110021537067],[105.62205527193332,-1.5943405909665123],[105.6210246371773,-1.5954039304668566],[105.6205262913553,-1.589110021537067]]]}},{"type":"Feature","properties":{"code":"1905062003","desa":"Cupat","kecamatan":"Parittiga","kecCode":"190506"},"geometry":{"type":"Polygon","coordinates":[[[105.62968661034887,-1.58073768133507],[105.62946103699731,-1.5808785448449612],[105.62943438738711,-1.5808109679878375],[105.62968661034887,-1.58073768133507]]]}},{"type":"Feature","properties":{"code":"1905062003","desa":"Cupat","kecamatan":"Parittiga","kecCode":"190506"},"geometry":{"type":"Polygon","coordinates":[[[105.61751212898163,-1.573559488823423],[105.61691599357829,-1.5729171336635772],[105.61717424919232,-1.572863228300213],[105.61751212898163,-1.573559488823423]]]}},{"type":"Feature","properties":{"code":"1905062003","desa":"Cupat","kecamatan":"Parittiga","kecCode":"190506"},"geometry":{"type":"Polygon","coordinates":[[[105.61558984429593,-1.5734816902719542],[105.61533486311349,-1.5732363093526311],[105.61578563389992,-1.5730399342902093],[105.61558984429593,-1.5734816902719542]]]}},{"type":"Feature","properties":{"code":"1905062003","desa":"Cupat","kecamatan":"Parittiga","kecCode":"190506"},"geometry":{"type":"Polygon","coordinates":[[[105.63091768690178,-1.610710871912122],[105.63342775138966,-1.6112854181897291],[105.63187558089338,-1.6121105524613124],[105.63091768690178,-1.610710871912122]]]}},{"type":"Feature","properties":{"code":"1905062003","desa":"Cupat","kecamatan":"Parittiga","kecCode":"190506"},"geometry":{"type":"Polygon","coordinates":[[[105.63553764005012,-1.6019659866535696],[105.6360601704406,-1.6024150001642232],[105.63507773844692,-1.6023375622408558],[105.63553764005012,-1.6019659866535696]]]}},{"type":"Feature","properties":{"code":"1905062003","desa":"Cupat","kecamatan":"Parittiga","kecCode":"190506"},"geometry":{"type":"Polygon","coordinates":[[[105.63141048210815,-1.5811810605931058],[105.63133852735119,-1.581078267183987],[105.63137850221614,-1.5810708432805578],[105.63141048210815,-1.5811810605931058]]]}},{"type":"Feature","properties":{"code":"1905062003","desa":"Cupat","kecamatan":"Parittiga","kecCode":"190506"},"geometry":{"type":"Polygon","coordinates":[[[105.6297311537698,-1.5804460545782317],[105.62989562178558,-1.5804224500725115],[105.62980653494367,-1.5805625518566204],[105.6297311537698,-1.5804460545782317]]]}},{"type":"Feature","properties":{"code":"1905062003","desa":"Cupat","kecamatan":"Parittiga","kecCode":"190506"},"geometry":{"type":"Polygon","coordinates":[[[105.63000869444572,-1.5801266351728895],[105.62988229743013,-1.5801449093968547],[105.62974371729875,-1.5801144520571562],[105.63000869444572,-1.5801266351728895]]]}},{"type":"Feature","properties":{"code":"1905062003","desa":"Cupat","kecamatan":"Parittiga","kecCode":"190506"},"geometry":{"type":"Polygon","coordinates":[[[105.63185858190808,-1.57808677132649],[105.63202076564589,-1.5784408353149684],[105.63148167603856,-1.5782044116431724],[105.63185858190808,-1.57808677132649]]]}},{"type":"Feature","properties":{"code":"1905062003","desa":"Cupat","kecamatan":"Parittiga","kecCode":"190506"},"geometry":{"type":"Polygon","coordinates":[[[105.64045340540042,-1.5720503616806203],[105.64031177926528,-1.572273791947427],[105.6402692341379,-1.572169810533968],[105.64045340540042,-1.5720503616806203]]]}},{"type":"Feature","properties":{"code":"1905062004","desa":"Bakit","kecamatan":"Parittiga","kecCode":"190506"},"geometry":{"type":"Polygon","coordinates":[[[105.71035362601907,-1.7072481004153526],[105.71090684577439,-1.7074717896869271],[105.71066761082164,-1.7077886190447735],[105.71035362601907,-1.7072481004153526]]]}},{"type":"Feature","properties":{"code":"1905062004","desa":"Bakit","kecamatan":"Parittiga","kecCode":"190506"},"geometry":{"type":"Polygon","coordinates":[[[105.71102896021841,-1.7066242569004584],[105.71196258420592,-1.7067179221907924],[105.71119980532681,-1.7072640471938152],[105.71102896021841,-1.7066242569004584]]]}},{"type":"Feature","properties":{"code":"1905062004","desa":"Bakit","kecamatan":"Parittiga","kecCode":"190506"},"geometry":{"type":"Polygon","coordinates":[[[105.70594491102888,-1.7058850888231638],[105.70720123424962,-1.7044473363744455],[105.70729454071056,-1.7056666354044783],[105.70594491102888,-1.7058850888231638]]]}},{"type":"Feature","properties":{"code":"1905062004","desa":"Bakit","kecamatan":"Parittiga","kecCode":"190506"},"geometry":{"type":"Polygon","coordinates":[[[105.71145222973665,-1.702265921936131],[105.71275989165571,-1.705221029425046],[105.70793288309612,-1.7037779898620702],[105.71145222973665,-1.702265921936131]]]}},{"type":"Feature","properties":{"code":"1905062004","desa":"Bakit","kecamatan":"Parittiga","kecCode":"190506"},"geometry":{"type":"Polygon","coordinates":[[[105.67868116460413,-1.7017644464739463],[105.67688467079097,-1.7015753199471721],[105.67690167966884,-1.700544110525564],[105.67868116460413,-1.7017644464739463]]]}},{"type":"Feature","properties":{"code":"1905062004","desa":"Bakit","kecamatan":"Parittiga","kecCode":"190506"},"geometry":{"type":"Polygon","coordinates":[[[105.68459187781298,-1.6932262218240914],[105.68408305488911,-1.693848301768409],[105.68398681304102,-1.6933476428906733],[105.68459187781298,-1.6932262218240914]]]}},{"type":"Feature","properties":{"code":"1905062004","desa":"Bakit","kecamatan":"Parittiga","kecCode":"190506"},"geometry":{"type":"Polygon","coordinates":[[[105.70015686085048,-1.6774895645205756],[105.69902761633148,-1.6768405903504984],[105.69945604885766,-1.6761345335122393],[105.70015686085048,-1.6774895645205756]]]}},{"type":"Feature","properties":{"code":"1905062004","desa":"Bakit","kecamatan":"Parittiga","kecCode":"190506"},"geometry":{"type":"Polygon","coordinates":[[[105.66671255963699,-1.6964547277113136],[105.67815325896576,-1.654509213483714],[105.72384947677199,-1.6439048351061165],[105.68151087962342,-1.691556263523952],[105.67090345882764,-1.699337715867487],[105.66671255963699,-1.6964547277113136]]]}},{"type":"Feature","properties":{"code":"1905062005","desa":"Puput","kecamatan":"Parittiga","kecCode":"190506"},"geometry":{"type":"Polygon","coordinates":[[[105.48807104404352,-1.6639165249715362],[105.4812526675766,-1.6591672250365446],[105.50405805013895,-1.6554744315530312],[105.51132209194105,-1.673636000134387],[105.49939376401106,-1.680089481170537],[105.48807104404352,-1.6639165249715362]]]}},{"type":"Feature","properties":{"code":"1905062006","desa":"Air Gantang","kecamatan":"Parittiga","kecCode":"190506"},"geometry":{"type":"Polygon","coordinates":[[[105.47203171269341,-1.6525079008754635],[105.448919822292,-1.6300115703591849],[105.43738942278367,-1.6313553355602457],[105.42077503434042,-1.6160099948624032],[105.45787523255598,-1.5668197221040876],[105.46949720013572,-1.5620904581649424],[105.4958215246437,-1.5942534187813562],[105.50612649983816,-1.641014253074589],[105.50405805013895,-1.6554744315530312],[105.4812526675766,-1.6591672250365446],[105.48229552411918,-1.6523101381590841],[105.47203171269341,-1.6525079008754635]]]}},{"type":"Feature","properties":{"code":"1905062006","desa":"Air Gantang","kecamatan":"Parittiga","kecCode":"190506"},"geometry":{"type":"Polygon","coordinates":[[[105.4460828461465,-1.5685293854724578],[105.44606976730596,-1.5703356890884386],[105.44525180422744,-1.570043712495333],[105.4460828461465,-1.5685293854724578]]]}},{"type":"Feature","properties":{"code":"1905062006","desa":"Air Gantang","kecamatan":"Parittiga","kecCode":"190506"},"geometry":{"type":"Polygon","coordinates":[[[105.45330378164424,-1.566469197847161],[105.45302643791983,-1.5662934352459796],[105.45331158056506,-1.5661709152078445],[105.45330378164424,-1.566469197847161]]]}},{"type":"Feature","properties":{"code":"1905062006","desa":"Air Gantang","kecamatan":"Parittiga","kecCode":"190506"},"geometry":{"type":"Polygon","coordinates":[[[105.45453260539546,-1.5645531454654173],[105.45528811505454,-1.564859445560704],[105.45442804301985,-1.5653046873147223],[105.45453260539546,-1.5645531454654173]]]}},{"type":"Feature","properties":{"code":"1905062006","desa":"Air Gantang","kecamatan":"Parittiga","kecCode":"190506"},"geometry":{"type":"Polygon","coordinates":[[[105.45244703889976,-1.5641098030795288],[105.45256315666438,-1.5644533980600908],[105.45230617538975,-1.56442579606784],[105.45244703889976,-1.5641098030795288]]]}},{"type":"Feature","properties":{"code":"1905062007","desa":"Kelabat","kecamatan":"Parittiga","kecCode":"190506"},"geometry":{"type":"Polygon","coordinates":[[[105.521770258091,-1.6451627168505507],[105.50767763071815,-1.6600937290904396],[105.50408024091045,-1.655535025174403],[105.4958215246437,-1.5942534187813562],[105.47276579960202,-1.5721636483793364],[105.46955188341273,-1.5609531296412567],[105.51490921868553,-1.564920147100808],[105.55132376477997,-1.5906747699497705],[105.54710516826896,-1.6155275373634734],[105.56314680008484,-1.6289033474941716],[105.5500453712969,-1.6510535703241538],[105.521770258091,-1.6451627168505507]]]}},{"type":"Feature","properties":{"code":"1905062007","desa":"Kelabat","kecamatan":"Parittiga","kecCode":"190506"},"geometry":{"type":"Polygon","coordinates":[[[105.47164933175134,-1.5588952155021456],[105.47281239437653,-1.5588604243295667],[105.472176811111,-1.5598579775229033],[105.47164933175134,-1.5588952155021456]]]}},{"type":"Feature","properties":{"code":"1905062007","desa":"Kelabat","kecamatan":"Parittiga","kecCode":"190506"},"geometry":{"type":"Polygon","coordinates":[[[105.50087598343991,-1.5571711171156262],[105.49929347071712,-1.5579280791789432],[105.50043609534958,-1.5560832971699188],[105.50087598343991,-1.5571711171156262]]]}},{"type":"Feature","properties":{"code":"1905062007","desa":"Kelabat","kecamatan":"Parittiga","kecCode":"190506"},"geometry":{"type":"Polygon","coordinates":[[[105.47863560085239,-1.5527894294557436],[105.47942539176846,-1.5526624928470658],[105.47948189887056,-1.5535420280084498],[105.47863560085239,-1.5527894294557436]]]}},{"type":"Feature","properties":{"code":"1905062008","desa":"Kapit","kecamatan":"Parittiga","kecCode":"190506"},"geometry":{"type":"Polygon","coordinates":[[[105.63960792756389,-1.7075597379870164],[105.62987157661199,-1.7121047488255607],[105.61394720380048,-1.700506553038297],[105.61116750277809,-1.7085230081247529],[105.60561947985518,-1.6963676985183638],[105.5876763601759,-1.6891065885141894],[105.59435580037994,-1.6852167868454975],[105.5845706396234,-1.6678966482511839],[105.59634120038612,-1.6579151079463854],[105.59669868000013,-1.646050948456192],[105.58958939983097,-1.6363237481169606],[105.56920629623363,-1.6299510621733069],[105.6282599995994,-1.6182269981719313],[105.63833461255238,-1.636640241128333],[105.63285894008804,-1.643473127249538],[105.62887928714946,-1.6874896524432672],[105.65009228692958,-1.7004049224526225],[105.64706259955938,-1.7119916051190807],[105.63960792756389,-1.7075597379870164]]]}},{"type":"Feature","properties":{"code":"1905062008","desa":"Kapit","kecamatan":"Parittiga","kecCode":"190506"},"geometry":{"type":"Polygon","coordinates":[[[105.63242823137783,-1.6216942668676142],[105.63373474576196,-1.6227206712115736],[105.63239967790285,-1.6224595008951215],[105.63242823137783,-1.6216942668676142]]]}},{"type":"Feature","properties":{"code":"1905062008","desa":"Kapit","kecamatan":"Parittiga","kecCode":"190506"},"geometry":{"type":"Polygon","coordinates":[[[105.6314472796683,-1.6215311928011695],[105.63375621707581,-1.620557373615855],[105.63411012458268,-1.6225072261173556],[105.63355057719745,-1.6213189159263726],[105.6314472796683,-1.6215311928011695]]]}},{"type":"Feature","properties":{"code":"1905062008","desa":"Kapit","kecamatan":"Parittiga","kecCode":"190506"},"geometry":{"type":"Polygon","coordinates":[[[105.63111136669629,-1.6213559509074975],[105.63117103311674,-1.6211328947585952],[105.63130498803484,-1.6214059882867196],[105.63111136669629,-1.6213559509074975]]]}},{"type":"Feature","properties":{"code":"1905062008","desa":"Kapit","kecamatan":"Parittiga","kecCode":"190506"},"geometry":{"type":"Polygon","coordinates":[[[105.63320092168527,-1.619348455460183],[105.63393830101182,-1.6192313979041386],[105.63481013527955,-1.6191199629094948],[105.63320092168527,-1.619348455460183]]]}},{"type":"Feature","properties":{"code":"1905062008","desa":"Kapit","kecamatan":"Parittiga","kecCode":"190506"},"geometry":{"type":"Polygon","coordinates":[[[105.63138425967587,-1.6171775504992583],[105.63108616139726,-1.6173614348778254],[105.63120973094436,-1.616998425332977],[105.63138425967587,-1.6171775504992583]]]}},{"type":"Feature","properties":{"code":"1905062008","desa":"Kapit","kecamatan":"Parittiga","kecCode":"190506"},"geometry":{"type":"Polygon","coordinates":[[[105.63027657370498,-1.6166128823749655],[105.63029734624558,-1.6175119831867828],[105.63001181059666,-1.6175062733911159],[105.63027657370498,-1.6166128823749655]]]}},{"type":"Feature","properties":{"code":"1905062008","desa":"Kapit","kecamatan":"Parittiga","kecCode":"190506"},"geometry":{"type":"Polygon","coordinates":[[[105.63073222511217,-1.6164045364367747],[105.63105354658397,-1.6160832140659664],[105.63073222511217,-1.6166969240200324],[105.63073222511217,-1.6164045364367747]]]}},{"type":"Feature","properties":{"code":"1905062008","desa":"Kapit","kecamatan":"Parittiga","kecCode":"190506"},"geometry":{"type":"Polygon","coordinates":[[[105.63008478878203,-1.6082206689543446],[105.63685875492762,-1.6136844811534667],[105.63729935797903,-1.6188681338510766],[105.63008478878203,-1.6082206689543446]]]}},{"type":"Feature","properties":{"code":"1905062008","desa":"Kapit","kecamatan":"Parittiga","kecCode":"190506"},"geometry":{"type":"Polygon","coordinates":[[[105.63869098869822,-1.6324056555753255],[105.63860763773236,-1.6318155132548031],[105.63899055467044,-1.632030394566281],[105.63869098869822,-1.6324056555753255]]]}},{"type":"Feature","properties":{"code":"1905062008","desa":"Kapit","kecamatan":"Parittiga","kecCode":"190506"},"geometry":{"type":"Polygon","coordinates":[[[105.63887360593223,-1.6296928344386077],[105.63876774943213,-1.6293701450983074],[105.63894516498743,-1.6294078500743192],[105.63887360593223,-1.6296928344386077]]]}},{"type":"Feature","properties":{"code":"1905062008","desa":"Kapit","kecamatan":"Parittiga","kecCode":"190506"},"geometry":{"type":"Polygon","coordinates":[[[105.638065018286,-1.6295763623412363],[105.63815011393666,-1.628972089872637],[105.63839929988785,-1.6293942909958772],[105.638065018286,-1.6295763623412363]]]}},{"type":"Feature","properties":{"code":"1905062008","desa":"Kapit","kecamatan":"Parittiga","kecCode":"190506"},"geometry":{"type":"Polygon","coordinates":[[[105.63702117968376,-1.6198776003636621],[105.6398465707627,-1.621797774338426],[105.63954993118442,-1.6233080975795688],[105.63702117968376,-1.6198776003636621]]]}},{"type":"Feature","properties":{"code":"1905062008","desa":"Kapit","kecamatan":"Parittiga","kecCode":"190506"},"geometry":{"type":"Polygon","coordinates":[[[105.64590122226365,-1.6206837481482694],[105.64598212437562,-1.62047245243379],[105.646059218758,-1.6205352691792556],[105.64590122226365,-1.6206837481482694]]]}},{"type":"Feature","properties":{"code":"1905062008","desa":"Kapit","kecamatan":"Parittiga","kecCode":"190506"},"geometry":{"type":"Polygon","coordinates":[[[105.6344030571554,-1.617503896482934],[105.63499125963897,-1.6186374721356875],[105.63483992622167,-1.6188830320200984],[105.6344030571554,-1.617503896482934]]]}},{"type":"Feature","properties":{"code":"1905062008","desa":"Kapit","kecamatan":"Parittiga","kecCode":"190506"},"geometry":{"type":"Polygon","coordinates":[[[105.63969823478578,-1.6129804774674217],[105.63963203479061,-1.6126070420820608],[105.63985910011746,-1.6125882084798095],[105.63969823478578,-1.6129804774674217]]]}},{"type":"Feature","properties":{"code":"1905062008","desa":"Kapit","kecamatan":"Parittiga","kecCode":"190506"},"geometry":{"type":"Polygon","coordinates":[[[105.63938455305474,-1.6123632583586949],[105.6388288601638,-1.612759063480568],[105.63869656989084,-1.6123958812659611],[105.63938455305474,-1.6123632583586949]]]}},{"type":"Feature","properties":{"code":"1905062009","desa":"Semulut","kecamatan":"Parittiga","kecCode":"190506"},"geometry":{"type":"Polygon","coordinates":[[[105.7000146573506,-1.7342663804550447],[105.69788856830284,-1.7344263437664933],[105.69926036897088,-1.7326374663137487],[105.7000146573506,-1.7342663804550447]]]}},{"type":"Feature","properties":{"code":"1905062009","desa":"Semulut","kecamatan":"Parittiga","kecCode":"190506"},"geometry":{"type":"Polygon","coordinates":[[[105.64715356688366,-1.710153559931498],[105.64992236722355,-1.6998473724622998],[105.62887928714946,-1.6874896524432672],[105.63786157275342,-1.6375838493882064],[105.65216234911314,-1.6509298631809646],[105.67815325896576,-1.654509213483714],[105.6660631196173,-1.6836813869084515],[105.66612118794251,-1.7064598212605036],[105.65989093122158,-1.7143321150230606],[105.64715356688366,-1.710153559931498]]]}},{"type":"Feature","properties":{"code":"1905062009","desa":"Semulut","kecamatan":"Parittiga","kecCode":"190506"},"geometry":{"type":"Polygon","coordinates":[[[105.66239270036287,-1.6451482629466723],[105.66151159138691,-1.6485321150260086],[105.65950118573117,-1.6497960132349685],[105.65923336222993,-1.6487642705153194],[105.66125253627558,-1.6456303220458766],[105.66239270036287,-1.6451482629466723]]]}},{"type":"Feature","properties":{"code":"1905062009","desa":"Semulut","kecamatan":"Parittiga","kecCode":"190506"},"geometry":{"type":"Polygon","coordinates":[[[105.66335133989247,-1.6460482001280285],[105.66295818777017,-1.6456134867371723],[105.6637441340846,-1.6453731707996042],[105.66335133989247,-1.6460482001280285]]]}},{"type":"Feature","properties":{"code":"1905062009","desa":"Semulut","kecamatan":"Parittiga","kecCode":"190506"},"geometry":{"type":"Polygon","coordinates":[[[105.64230548001392,-1.6386679389460983],[105.6428419777751,-1.640424321195395],[105.64147229590981,-1.640230007379069],[105.64230548001392,-1.6386679389460983]]]}},{"type":"Feature","properties":{"code":"1905062009","desa":"Semulut","kecamatan":"Parittiga","kecCode":"190506"},"geometry":{"type":"Polygon","coordinates":[[[105.63984245456567,-1.637705787564947],[105.64093462273472,-1.6381380197262727],[105.63996447368156,-1.6390952626076734],[105.63984245456567,-1.637705787564947]]]}},{"type":"Feature","properties":{"code":"1905062010","desa":"Teluk Limau","kecamatan":"Parittiga","kecCode":"190506"},"geometry":{"type":"Polygon","coordinates":[[[105.61335081928497,-1.5693670625886158],[105.61411603262887,-1.5700237988073242],[105.61265381412225,-1.5701175036677142],[105.61335081928497,-1.5693670625886158]]]}},{"type":"Feature","properties":{"code":"1905062010","desa":"Teluk Limau","kecamatan":"Parittiga","kecCode":"190506"},"geometry":{"type":"Polygon","coordinates":[[[105.61676657122035,-1.5653445668514936],[105.6174569555741,-1.5644078923645963],[105.61761296366738,-1.5648501573626221],[105.61676657122035,-1.5653445668514936]]]}},{"type":"Feature","properties":{"code":"1905062010","desa":"Teluk Limau","kecamatan":"Parittiga","kecCode":"190506"},"geometry":{"type":"Polygon","coordinates":[[[105.61738423459478,-1.5633793476341922],[105.61778828560095,-1.5641102113717005],[105.61735393283776,-1.5640016074428968],[105.61738423459478,-1.5633793476341922]]]}},{"type":"Feature","properties":{"code":"1905062010","desa":"Teluk Limau","kecamatan":"Parittiga","kecCode":"190506"},"geometry":{"type":"Polygon","coordinates":[[[105.60874247998152,-1.572017218065955],[105.6027575358317,-1.5717345161811118],[105.58685209015192,-1.5937227180506994],[105.58191461876469,-1.5843736385646745],[105.54934391988603,-1.5900917385686364],[105.51533472032116,-1.5669281695508104],[105.53621741080491,-1.5656958834110686],[105.55484268963846,-1.556716059261479],[105.56611585516264,-1.5408854992467294],[105.56363812130229,-1.5282977695207731],[105.57907995027955,-1.5348374325885419],[105.59990624697575,-1.5274632822999163],[105.60550654569062,-1.530329699548064],[105.59865819212193,-1.545841152222275],[105.61128270233489,-1.5620303573720167],[105.60874247998152,-1.572017218065955]]]}},{"type":"Feature","properties":{"code":"1905062010","desa":"Teluk Limau","kecamatan":"Parittiga","kecCode":"190506"},"geometry":{"type":"Polygon","coordinates":[[[105.53611796377305,-1.5356503019060517],[105.53628396423362,-1.5353873023685463],[105.53636396432556,-1.5356143020446027],[105.53611796377305,-1.5356503019060517]]]}},{"type":"Feature","properties":{"code":"1905062010","desa":"Teluk Limau","kecamatan":"Parittiga","kecCode":"190506"},"geometry":{"type":"Polygon","coordinates":[[[105.59357476256531,-1.5275332819305427],[105.59412199283577,-1.5279979058733162],[105.59292455362532,-1.5283670074256799],[105.59357476256531,-1.5275332819305427]]]}},{"type":"Feature","properties":{"code":"1905062010","desa":"Teluk Limau","kecamatan":"Parittiga","kecCode":"190506"},"geometry":{"type":"Polygon","coordinates":[[[105.51409362891792,-1.502060681079005],[105.51359176674667,-1.5026227159883483],[105.5133341694364,-1.5022541459353096],[105.51409362891792,-1.502060681079005]]]}}]}