{"type":"FeatureCollection","features":[{"type":"Feature","properties":{"code":"1113012001","desa":"Kota Blangkejeren","kecamatan":"Blangkejeren","kecCode":"111301"},"geometry":{"type":"Polygon","coordinates":[[[97.33711612600847,3.9973363621900524],[97.3429659524168,3.9942720931924978],[97.34082520711767,3.991681718349302],[97.33711612600847,3.9973363621900524]]]}},{"type":"Feature","properties":{"code":"1113012002","desa":"Penampaan","kecamatan":"Blangkejeren","kecCode":"111301"},"geometry":{"type":"Polygon","coordinates":[[[97.34262897464754,3.9941641223863633],[97.35416541400268,3.9971714274263355],[97.35984611480642,3.9924373584092034],[97.34641603687066,3.9831046160070014],[97.34262897464754,3.9941641223863633]]]}},{"type":"Feature","properties":{"code":"1113012003","desa":"Bukit","kecamatan":"Blangkejeren","kecCode":"111301"},"geometry":{"type":"Polygon","coordinates":[[[97.35216416164677,3.998932635437752],[97.34997765164735,3.9935169504576233],[97.34444879327724,3.9950113646918535],[97.35216416164677,3.998932635437752]]]}},{"type":"Feature","properties":{"code":"1113012004","desa":"Bacang","kecamatan":"Blangkejeren","kecCode":"111301"},"geometry":{"type":"Polygon","coordinates":[[[97.35359400635836,3.998765540502444],[97.34451861034562,3.9968220102348484],[97.34858214844748,4.017955395709759],[97.35306874292819,4.009242913024075],[97.35359400635836,3.998765540502444]]]}},{"type":"Feature","properties":{"code":"1113012005","desa":"Durin","kecamatan":"Blangkejeren","kecCode":"111301"},"geometry":{"type":"Polygon","coordinates":[[[97.34467643776748,3.995366551034287],[97.34250268015461,3.99692072341978],[97.34448748660826,3.9973583937814934],[97.34467643776748,3.995366551034287]]]}},{"type":"Feature","properties":{"code":"1113012007","desa":"Kampung Jawa","kecamatan":"Blangkejeren","kecCode":"111301"},"geometry":{"type":"Polygon","coordinates":[[[97.33711612600847,3.9973363621900524],[97.33984528693047,3.9888470102969387],[97.3288834307258,3.9867301995569835],[97.32319099197076,3.9921927032427704],[97.33711612600847,3.9973363621900524]]]}},{"type":"Feature","properties":{"code":"1113012008","desa":"Porang","kecamatan":"Blangkejeren","kecCode":"111301"},"geometry":{"type":"Polygon","coordinates":[[[97.32911591896452,3.9867255500620304],[97.33530413597714,3.990063409912862],[97.33984528693047,3.9888470102969387],[97.32889599335546,3.9757230651969397],[97.32911591896452,3.9867255500620304]]]}},{"type":"Feature","properties":{"code":"1113012011","desa":"Kute Lintang","kecamatan":"Blangkejeren","kecCode":"111301"},"geometry":{"type":"Polygon","coordinates":[[[97.34250268015461,3.99692072341978],[97.33333317188844,3.997143759783571],[97.33246851960654,4.000590114745248],[97.34448132895021,4.005790162983357],[97.34250268015461,3.99692072341978]]]}},{"type":"Feature","properties":{"code":"1113012014","desa":"Leme","kecamatan":"Blangkejeren","kecCode":"111301"},"geometry":{"type":"Polygon","coordinates":[[[97.34858214844748,4.017955395709759],[97.34458108624817,4.011501942552259],[97.33591966256245,4.011875341964713],[97.33432616911745,4.024776925192599],[97.32224589443256,4.03592145797471],[97.33031825228556,4.04584875477152],[97.3234923538891,4.051201467423422],[97.31105438824947,4.0486958303006615],[97.29689002105766,4.061573877371227],[97.3131878427448,4.053537001378701],[97.33158430527153,4.054067065389399],[97.33914024632536,4.042940188996927],[97.33460859491076,4.035551593797225],[97.34858214844748,4.017955395709759]]]}},{"type":"Feature","properties":{"code":"1113012016","desa":"Gele","kecamatan":"Blangkejeren","kecCode":"111301"},"geometry":{"type":"Polygon","coordinates":[[[97.34337481569526,3.984849751334896],[97.34778221497731,3.978638800366874],[97.33221364094679,3.974741194381261],[97.34337481569526,3.984849751334896]]]}},{"type":"Feature","properties":{"code":"1113012017","desa":"Sere","kecamatan":"Blangkejeren","kecCode":"111301"},"geometry":{"type":"Polygon","coordinates":[[[97.33716026023784,3.9644302324108773],[97.3441903928724,3.9797293263726776],[97.34778221497731,3.978638800366874],[97.34762439025349,3.968321326405544],[97.33716026023784,3.9644302324108773]]]}},{"type":"Feature","properties":{"code":"1113012018","desa":"Cempa","kecamatan":"Blangkejeren","kecCode":"111301"},"geometry":{"type":"Polygon","coordinates":[[[97.34762439025349,3.968321326405544],[97.34666870139948,3.9756021702336946],[97.36378461207026,3.9839947173031787],[97.36657462112191,3.9737464084017122],[97.34762439025349,3.968321326405544]]]}},{"type":"Feature","properties":{"code":"1113012019","desa":"Lempuh","kecamatan":"Blangkejeren","kecCode":"111301"},"geometry":{"type":"Polygon","coordinates":[[[97.33716026023784,3.9644302324108773],[97.3526903846536,3.9730579674836446],[97.36657462112191,3.9737464084017122],[97.34475914571806,3.965057559899375],[97.3373481322106,3.9550319258342546],[97.33716026023784,3.9644302324108773]]]}},{"type":"Feature","properties":{"code":"1113012021","desa":"Palok","kecamatan":"Blangkejeren","kecCode":"111301"},"geometry":{"type":"Polygon","coordinates":[[[97.41708059399429,3.950299307423691],[97.3839555152349,3.9409378487692353],[97.36943913720648,3.9206920743677536],[97.34436539734524,3.912416065945482],[97.34020928842796,3.9032061376596885],[97.32243657588731,3.8967596443555337],[97.31778978966713,3.902451436491987],[97.32294195710567,3.909937355424034],[97.31878561976059,3.9214705491137485],[97.33096421642553,3.9371932120676023],[97.34362539379697,3.9347440946373515],[97.35425244499442,3.9441369989864596],[97.35849378985658,3.933669545087655],[97.37633623672798,3.962520433914518],[97.38205881176481,3.9592580766459813],[97.39606666634364,3.966009135253284],[97.41708059399429,3.950299307423691]]]}},{"type":"Feature","properties":{"code":"1113012022","desa":"Penggalangan","kecamatan":"Blangkejeren","kecCode":"111301"},"geometry":{"type":"Polygon","coordinates":[[[97.33169962533746,3.947639903318291],[97.34475914571806,3.965057559899375],[97.36251302555574,3.971481022465304],[97.39112919225845,3.9643584548204687],[97.37633623672798,3.962520433914518],[97.35824626765115,3.933610560353349],[97.35462218326722,3.9440690120384247],[97.34362539379697,3.9347440946373515],[97.33813625038772,3.937542341475987],[97.33169962533746,3.947639903318291]]]}},{"type":"Feature","properties":{"code":"1113012027","desa":"Agusan","kecamatan":"Blangkejeren","kecCode":"111301"},"geometry":{"type":"Polygon","coordinates":[[[97.32243657588731,3.8967596443555337],[97.34020928842796,3.9032061376596885],[97.34436539734524,3.912416065945482],[97.36943913720648,3.9206920743677536],[97.3839555152349,3.9409378487692353],[97.41083517380427,3.9513970954549476],[97.45692213804631,3.939041085945871],[97.46900367717801,3.914491649064969],[97.44939231870063,3.873495097658759],[97.42241096479425,3.8577556569528935],[97.40655326771918,3.838171001166518],[97.37214088409455,3.8420543627901984],[97.34345054580609,3.830904002401255],[97.32650947593163,3.8415737111299766],[97.32317016277283,3.8791912865806517],[97.3154362431881,3.881314114684453],[97.32243657588731,3.8967596443555337]]]}},{"type":"Feature","properties":{"code":"1113012031","desa":"Bustanussalam","kecamatan":"Blangkejeren","kecCode":"111301"},"geometry":{"type":"Polygon","coordinates":[[[97.34458108624817,4.011501942552259],[97.3405499192434,4.001242085456429],[97.33481969457328,4.005049541601554],[97.33570415442323,4.011850581830175],[97.34458108624817,4.011501942552259]]]}},{"type":"Feature","properties":{"code":"1113012032","desa":"Penampaan Uken","kecamatan":"Blangkejeren","kecCode":"111301"},"geometry":{"type":"Polygon","coordinates":[[[97.3411675421484,3.991743807543337],[97.3391171787149,3.982352439236233],[97.32931714137305,3.9744346766499485],[97.3373907196061,3.9831870352751286],[97.3411675421484,3.991743807543337]]]}},{"type":"Feature","properties":{"code":"1113012033","desa":"Raklunung","kecamatan":"Blangkejeren","kecCode":"111301"},"geometry":{"type":"Polygon","coordinates":[[[97.34361528991377,3.990142911780296],[97.34729631307442,3.985822632527332],[97.32978826741464,3.9742551818623326],[97.33881297673751,3.981994976709785],[97.34361528991377,3.990142911780296]]]}},{"type":"Feature","properties":{"code":"1113012034","desa":"Sepang","kecamatan":"Blangkejeren","kecCode":"111301"},"geometry":{"type":"Polygon","coordinates":[[[97.34658789461571,3.9832679077093314],[97.35970115668312,3.9921627000607294],[97.36353492699533,3.985017771672571],[97.34852240378598,3.9761602067572555],[97.34658789461571,3.9832679077093314]]]}},{"type":"Feature","properties":{"code":"1113012034","desa":"Sepang","kecamatan":"Blangkejeren","kecCode":"111301"},"geometry":{"type":"Polygon","coordinates":[[[97.33761825977496,4.002524525887329],[97.31527971168941,3.99337796383282],[97.33086073863221,4.008731932627204],[97.29524373021405,4.058232176515955],[97.33031825228556,4.04584875477152],[97.32224589443256,4.03592145797471],[97.33432616911745,4.024776925192599],[97.33761825977496,4.002524525887329]]]}},{"type":"Feature","properties":{"code":"1113022002","desa":"Tampeng","kecamatan":"Kutapanjang","kecCode":"111302"},"geometry":{"type":"Polygon","coordinates":[[[97.30551411298597,4.041198455804357],[97.3098878614357,4.0366352876534695],[97.30039867385979,4.01752607555328],[97.28932281059927,4.018164849612755],[97.30551411298597,4.041198455804357]]]}},{"type":"Feature","properties":{"code":"1113022004","desa":"Bener","kecamatan":"Kutapanjang","kecCode":"111302"},"geometry":{"type":"Polygon","coordinates":[[[97.16482866601017,3.733619315865858],[97.14894038029439,3.7493997872406917],[97.13732315573911,3.7807863208688577],[97.14756156671297,3.7945570475918013],[97.17462483356928,3.802891716992382],[97.18885441779719,3.835189471595729],[97.2068000807592,3.839710424670441],[97.2041896249513,3.8575279638995217],[97.21700861265742,3.8709712528618394],[97.2161062491042,3.885935736969592],[97.22263667164513,3.8862690221222014],[97.22468451877556,3.8998503138510485],[97.23646226422217,3.9099181000396865],[97.23945082829317,3.9260626088845534],[97.26540224082082,3.9637199343697946],[97.2818505298781,3.9780610525026856],[97.2829722920377,3.9894616573446284],[97.30372865925028,4.001917946657738],[97.28796332794529,3.975308065844591],[97.26383426923621,3.9550419244967525],[97.2705794462845,3.9547908499695663],[97.25823899233568,3.950717029923135],[97.26348023492494,3.947673855423442],[97.24248039155691,3.9108053729680874],[97.24960882458764,3.9007141090780766],[97.23914050103336,3.9023529481374806],[97.22650293716087,3.8612615101617362],[97.22155559391558,3.853276787653275],[97.21289340940335,3.8536930334659103],[97.21570053884885,3.836577964578831],[97.20681713010651,3.828232671486866],[97.21080235074794,3.8166344819944142],[97.20458357207424,3.8045741650771436],[97.21106918499491,3.7917862048945343],[97.20200876809025,3.768966055488506],[97.18428739784518,3.766284631482854],[97.17562976570116,3.756218560301308],[97.1784684298742,3.731103345532781],[97.16482866601017,3.733619315865858]]]}},{"type":"Feature","properties":{"code":"1113022005","desa":"Ulun Tanoh","kecamatan":"Kutapanjang","kecCode":"111302"},"geometry":{"type":"Polygon","coordinates":[[[97.31635118915612,4.029455851379156],[97.3147405042709,4.012022843370678],[97.29667962916159,4.007691889165066],[97.29547639292127,4.008700663199702],[97.31018021304645,4.015161638286789],[97.30909162687713,4.0255408318207015],[97.31635118915612,4.029455851379156]]]}},{"type":"Feature","properties":{"code":"1113022006","desa":"Kuta Ujung","kecamatan":"Kutapanjang","kecCode":"111302"},"geometry":{"type":"Polygon","coordinates":[[[97.28104018225865,4.021167056395976],[97.27460116501179,4.021523325522139],[97.2553330867526,4.049216990123736],[97.28349276028273,4.061456580595524],[97.28780685310386,4.032187627526773],[97.28104018225865,4.021167056395976]]]}},{"type":"Feature","properties":{"code":"1113022008","desa":"Beranang","kecamatan":"Kutapanjang","kecCode":"111302"},"geometry":{"type":"Polygon","coordinates":[[[97.27349492155342,4.017314443492324],[97.29150561988848,4.004895444567773],[97.28212308021601,3.989573338753464],[97.265476960993,3.9771790972656316],[97.24445835506907,3.94804560098268],[97.24604708480518,3.9419581413205456],[97.23432008810164,3.9336223045999086],[97.21138352862698,3.8774037167420863],[97.19597082059693,3.8714351375618525],[97.19408391524058,3.8425139325430266],[97.17981475364803,3.8370370558923392],[97.19267020616513,3.897425345016368],[97.20006650496526,3.896193397920966],[97.19742924216585,3.909641154715264],[97.220944394868,3.9281713464105836],[97.22663806389558,3.9525710947343953],[97.23648498559368,3.9569558796596227],[97.23881319367399,3.970022321208807],[97.2590191632039,3.9836818827338787],[97.27349492155342,4.017314443492324]]]}},{"type":"Feature","properties":{"code":"1113022010","desa":"Rikit Dekat","kecamatan":"Kutapanjang","kecCode":"111302"},"geometry":{"type":"Polygon","coordinates":[[[97.32611465556698,4.017990759750585],[97.33033564067732,4.007911723942406],[97.30636400829239,3.987503098506295],[97.30159807269297,3.9916697186952703],[97.30399572911966,4.005100993614466],[97.32611465556698,4.017990759750585]]]}},{"type":"Feature","properties":{"code":"1113022011","desa":"Rema","kecamatan":"Kutapanjang","kecCode":"111302"},"geometry":{"type":"Polygon","coordinates":[[[97.3098878614357,4.0366352876534695],[97.31635118915612,4.029455851379156],[97.30909162687713,4.0255408318207015],[97.31018021304645,4.015161638286789],[97.28974263841205,4.007851587176519],[97.28981897466598,4.01814157695686],[97.29965264035712,4.016719691246899],[97.3098878614357,4.0366352876534695]]]}},{"type":"Feature","properties":{"code":"1113022014","desa":"Rema Baru","kecamatan":"Kutapanjang","kecCode":"111302"},"geometry":{"type":"Polygon","coordinates":[[[97.31815670137074,4.028098532495348],[97.32556790913173,4.015052599985421],[97.29435888635355,3.997106661849879],[97.29830940485522,4.009811101994215],[97.3147405042709,4.012022843370678],[97.31815670137074,4.028098532495348]]]}},{"type":"Feature","properties":{"code":"1113022015","desa":"Cike","kecamatan":"Kutapanjang","kecCode":"111302"},"geometry":{"type":"Polygon","coordinates":[[[97.29435888635355,3.997106661849879],[97.2829722920377,3.9894616573446284],[97.27732275094428,3.9715751545037468],[97.24811800494206,3.94010794269475],[97.22263667164513,3.8862690221222014],[97.2161062491042,3.885935736969592],[97.21700861265742,3.8709712528618394],[97.2041896249513,3.8575279638995217],[97.2068000807592,3.839710424670441],[97.18885441779719,3.835189471595729],[97.17593062399912,3.807162485868742],[97.17899265368806,3.836386533988956],[97.19408391524058,3.8425139325430266],[97.19573495090731,3.8709270583779114],[97.21138352862698,3.8774037167420863],[97.23432008810164,3.9336223045999086],[97.24604708480518,3.9419581413205456],[97.24445835506907,3.94804560098268],[97.29333830421945,4.010341848590323],[97.29435888635355,3.997106661849879]]]}},{"type":"Feature","properties":{"code":"1113022016","desa":"Kerukunan Kuta Panjang","kecamatan":"Kutapanjang","kecCode":"111302"},"geometry":{"type":"Polygon","coordinates":[[[97.28932281059927,4.018164849612755],[97.28862438540709,4.009737154339766],[97.27349492155342,4.017314443492324],[97.27663209229729,4.021435758534578],[97.28932281059927,4.018164849612755]]]}},{"type":"Feature","properties":{"code":"1113022020","desa":"Tampeng Musara","kecamatan":"Kutapanjang","kecCode":"111302"},"geometry":{"type":"Polygon","coordinates":[[[97.29689002105766,4.061573877371227],[97.30590466606753,4.039622171787733],[97.28516614680028,4.017776178812634],[97.28064932520624,4.019855195543645],[97.28780685310386,4.032187627526773],[97.28349276028273,4.061456580595524],[97.29689002105766,4.061573877371227]]]}},{"type":"Feature","properties":{"code":"1113022021","desa":"Kong Paluh","kecamatan":"Kutapanjang","kecCode":"111302"},"geometry":{"type":"Polygon","coordinates":[[[97.20648681271632,3.691288286557507],[97.16482866601017,3.733619315865858],[97.1784684298742,3.731103345532781],[97.17562976570116,3.756218560301308],[97.18428739784518,3.766284631482854],[97.20200876809025,3.768966055488506],[97.21106918499491,3.7917862048945343],[97.20458357207424,3.8045741650771436],[97.21080235074794,3.8166344819944142],[97.20681713010651,3.828232671486866],[97.21570053884885,3.836577964578831],[97.21289340940335,3.8536930334659103],[97.22155559391558,3.853276787653275],[97.22650293716087,3.8612615101617362],[97.23914050103336,3.9023529481374806],[97.24960882458764,3.9007141090780766],[97.24248039155691,3.9108053729680874],[97.26348023492494,3.947673855423442],[97.25823899233568,3.950717029923135],[97.26817855409706,3.952412894993468],[97.26383426923621,3.9550419244967525],[97.27329428190565,3.9591731527659637],[97.27008036481703,3.964546561516049],[97.28501563626264,3.9720847922128315],[97.28128233641075,3.9747671335269996],[97.28796332794529,3.975308065844591],[97.2949230319724,3.991272012406525],[97.29601658959399,3.9866900268412473],[97.30067799339473,3.990576918304004],[97.29819864075473,3.975178960970446],[97.28586903982436,3.9729385447106504],[97.26461053794606,3.948089037338106],[97.2623313177362,3.9264849233224255],[97.25198812765001,3.916127393557173],[97.25241185402388,3.9069968870992144],[97.24631764134614,3.884641688989062],[97.25606762961745,3.866242051875046],[97.24200058615816,3.846288425837235],[97.23763298007805,3.792239745592421],[97.24804107513557,3.772614730031303],[97.2342296450821,3.7257407160567397],[97.2414197131493,3.716926604584083],[97.23760862194041,3.7069420227717007],[97.24258503577084,3.701069544245967],[97.23712662669253,3.697693313021478],[97.24431111086915,3.693898493250392],[97.20648681271632,3.691288286557507]]]}},{"type":"Feature","properties":{"code":"1113032001","desa":"Ampa Kolak","kecamatan":"Rikit Gaib","kecCode":"111303"},"geometry":{"type":"Polygon","coordinates":[[[97.25589832594703,4.10350285576655],[97.25547876073625,4.1055197895988425],[97.25705700887391,4.105072981225799],[97.25589832594703,4.10350285576655]]]}},{"type":"Feature","properties":{"code":"1113032002","desa":"Cane Toa","kecamatan":"Rikit Gaib","kecCode":"111303"},"geometry":{"type":"Polygon","coordinates":[[[97.26219957694899,4.177092970381002],[97.27574288582558,4.173321832457257],[97.28285995772092,4.150732915835896],[97.27189440800059,4.143847794391932],[97.25929211104216,4.104801016346789],[97.23625362870204,4.127899940298593],[97.2434267814209,4.126071097873415],[97.2519501609712,4.14144116003578],[97.25987998437381,4.142887216824369],[97.2539736166891,4.165497742355827],[97.26219957694899,4.177092970381002]]]}},{"type":"Feature","properties":{"code":"1113032003","desa":"Padang Pasir","kecamatan":"Rikit Gaib","kecCode":"111303"},"geometry":{"type":"Polygon","coordinates":[[[97.25492020080668,4.104508056794637],[97.24823359660326,4.099837262278074],[97.24622502376586,4.103059952249839],[97.24738844072402,4.10708558032584],[97.25492020080668,4.104508056794637]]]}},{"type":"Feature","properties":{"code":"1113032005","desa":"Pinang Rugub","kecamatan":"Rikit Gaib","kecCode":"111303"},"geometry":{"type":"Polygon","coordinates":[[[97.35888457136592,4.214264941651282],[97.44085904121187,4.168199403805496],[97.42066001894477,4.162240977071788],[97.39234374107089,4.1118539305999775],[97.36428320700446,4.0864573035740825],[97.36386355455943,4.074927440973197],[97.34188141409606,4.071730649677644],[97.32688245895838,4.056103484832384],[97.31253896839871,4.053679800229633],[97.29756166443933,4.061516270398347],[97.31057850569357,4.074487939591777],[97.29718772543322,4.0709245081882806],[97.30683759667778,4.087314544542077],[97.33525695844195,4.096743660093319],[97.3386206980868,4.1085512351403946],[97.32976331302655,4.11126775878618],[97.31931150372297,4.133014124865157],[97.33781418067996,4.146340301412903],[97.34188706183852,4.177759033468606],[97.32174215717485,4.188662755686101],[97.2896227893603,4.182654097319555],[97.27574288582558,4.173321832457257],[97.26673812976092,4.178978237170569],[97.35888457136592,4.214264941651282]],[[97.37536119985953,4.171498799652455],[97.37522501282416,4.171614931806125],[97.37552189072271,4.171340950647092],[97.37536119985953,4.171498799652455]]]}},{"type":"Feature","properties":{"code":"1113032006","desa":"Kuning","kecamatan":"Rikit Gaib","kecCode":"111303"},"geometry":{"type":"Polygon","coordinates":[[[97.23625362870204,4.127899940298593],[97.24602419166318,4.117518089267986],[97.24744007260131,4.080665686690557],[97.23382680276478,4.061663548772345],[97.21696547937341,4.057873675272486],[97.21217321971834,4.062768238201033],[97.22247167482799,4.066658844763158],[97.22423143763079,4.083375822451883],[97.23579887032167,4.09541843441609],[97.22516375400409,4.102645704730755],[97.23625362870204,4.127899940298593]]]}},{"type":"Feature","properties":{"code":"1113032008","desa":"Mangang","kecamatan":"Rikit Gaib","kecCode":"111303"},"geometry":{"type":"Polygon","coordinates":[[[97.25336635037684,4.104912129384125],[97.24795425188726,4.106653788832356],[97.24546689887836,4.109687496168805],[97.25068673220697,4.1113719281580074],[97.25336635037684,4.104912129384125]]]}},{"type":"Feature","properties":{"code":"1113032011","desa":"Rempelam","kecamatan":"Rikit Gaib","kecCode":"111303"},"geometry":{"type":"Polygon","coordinates":[[[97.27422073559852,4.056989132685852],[97.25427830699834,4.048380055847543],[97.23382084655486,4.06192617688985],[97.23795414236986,4.072570759460034],[97.26718363771475,4.089907243233406],[97.27829919794969,4.138558756438796],[97.2871843199005,4.122754176038454],[97.26782879156552,4.080337433244779],[97.27422073559852,4.056989132685852]]]}},{"type":"Feature","properties":{"code":"1113032012","desa":"Cane Uken","kecamatan":"Rikit Gaib","kecCode":"111303"},"geometry":{"type":"Polygon","coordinates":[[[97.25823122219322,4.104997679192294],[97.26833669088563,4.121004034184678],[97.27177320636844,4.143154586167694],[97.2750298718312,4.141839586681443],[97.27168101956345,4.098487806166986],[97.26530237470489,4.087934188223003],[97.2471386890993,4.074641565380762],[97.24111336808754,4.073632306611625],[97.24910862975952,4.091775102745512],[97.26391445189051,4.100835915342406],[97.25823122219322,4.104997679192294]]]}},{"type":"Feature","properties":{"code":"1113032013","desa":"Tungel","kecamatan":"Rikit Gaib","kecCode":"111303"},"geometry":{"type":"Polygon","coordinates":[[[97.29118193319971,4.063342118980426],[97.27376957990225,4.05701083782344],[97.26781339697078,4.080113155816566],[97.28088896575319,4.110737804492814],[97.29488544300885,4.089311019697143],[97.28757312110268,4.088598444572704],[97.28131051576776,4.078455910332813],[97.29118193319971,4.063342118980426]]]}},{"type":"Feature","properties":{"code":"1113032014","desa":"Kota Rikit Gaib","kecamatan":"Rikit Gaib","kecCode":"111303"},"geometry":{"type":"Polygon","coordinates":[[[97.25468308016008,4.104030883712128],[97.24686840595224,4.111268034878079],[97.2439279430202,4.1212968696304095],[97.26410603896262,4.101677409181354],[97.25013315002491,4.0926506287293725],[97.24733133917005,4.097662101725137],[97.25468308016008,4.104030883712128]]]}},{"type":"Feature","properties":{"code":"1113032016","desa":"Lukup Baru","kecamatan":"Rikit Gaib","kecCode":"111303"},"geometry":{"type":"Polygon","coordinates":[[[97.29743791862512,4.068820089206795],[97.3050962070244,4.076378604112346],[97.31135279769352,4.072511559787778],[97.30292389372278,4.065020054267107],[97.29743791862512,4.068820089206795]]]}},{"type":"Feature","properties":{"code":"1113032017","desa":"Penomon Jaya","kecamatan":"Rikit Gaib","kecCode":"111303"},"geometry":{"type":"Polygon","coordinates":[[[97.29756166443933,4.061516270398347],[97.29094795118702,4.0620281815935035],[97.28131051576776,4.078455910332813],[97.29474326828728,4.082654173167957],[97.31441090813696,4.103567267909368],[97.3386206980868,4.1085512351403946],[97.33433541774535,4.095523821469966],[97.30683759667778,4.087314544542077],[97.29756166443933,4.061516270398347]]]}},{"type":"Feature","properties":{"code":"1113032018","desa":"Tungel Baru","kecamatan":"Rikit Gaib","kecCode":"111303"},"geometry":{"type":"Polygon","coordinates":[[[97.27177320636844,4.143154586167694],[97.28278448301751,4.150291927875132],[97.27533574384955,4.171887904825138],[97.2852072224354,4.180646591979577],[97.32174215717485,4.188662755686101],[97.34188706183852,4.177759033468606],[97.33781418067996,4.146340301412903],[97.31931150372297,4.133014124865157],[97.33059334320829,4.11043302605038],[97.31404461156961,4.103328025762311],[97.29474326828728,4.082654173167957],[97.28702308494746,4.081837731743198],[97.28757312110268,4.088598444572704],[97.29488544300885,4.089311019697143],[97.280821525593,4.110949316044628],[97.28717484194543,4.123186131208524],[97.27177320636844,4.143154586167694]]]}},{"type":"Feature","properties":{"code":"1113042001","desa":"Jabo","kecamatan":"Terangun","kecCode":"111304"},"geometry":{"type":"Polygon","coordinates":[[[97.06279391230925,4.061237397826711],[97.05344890674172,4.066745200363936],[97.05661338989609,4.074287422251956],[97.06763601329148,4.0762010572561875],[97.06279391230925,4.061237397826711]]]}},{"type":"Feature","properties":{"code":"1113042002","desa":"Kutesange","kecamatan":"Terangun","kecCode":"111304"},"geometry":{"type":"Polygon","coordinates":[[[97.04704650898924,4.094644713486451],[97.03549202203925,4.079865863837875],[97.03361941680271,4.061820222363797],[97.02777710423003,4.07026316834006],[97.03067347070419,4.092252878373837],[97.04001734942119,4.098340006186155],[97.04704650898924,4.094644713486451]]]}},{"type":"Feature","properties":{"code":"1113042003","desa":"Padang","kecamatan":"Terangun","kecCode":"111304"},"geometry":{"type":"Polygon","coordinates":[[[97.08183540098304,3.9476419987386495],[97.06574073344812,3.9556994728032504],[97.01583280883709,3.9572528654765584],[97.03180272241775,3.978678155598867],[97.03463258132865,4.02362708799854],[97.05906712804557,4.035988453869806],[97.0639334288847,4.058524348261973],[97.07086651028128,4.0567343205762585],[97.06812066963322,4.048369428558926],[97.07934122841505,4.046370160109551],[97.08135281308193,4.032531261178183],[97.09511155365531,4.017157619714057],[97.07995472612974,3.988784203444035],[97.08183540098304,3.9476419987386495]]]}},{"type":"Feature","properties":{"code":"1113042006","desa":"Rumpi","kecamatan":"Terangun","kecCode":"111304"},"geometry":{"type":"Polygon","coordinates":[[[97.06114559439374,4.089106427529178],[97.05344890674172,4.066745200363936],[97.04730315121951,4.0756320301179425],[97.05718523011433,4.090482243668739],[97.06114559439374,4.089106427529178]]]}},{"type":"Feature","properties":{"code":"1113042007","desa":"Bukut","kecamatan":"Terangun","kecCode":"111304"},"geometry":{"type":"Polygon","coordinates":[[[97.01777998585771,3.953957805261215],[96.98570332324982,3.9374286554783127],[96.98486137435297,3.946954722442603],[96.99696578504302,3.9522873595284547],[97.00121062556997,3.9619864173834363],[96.99487479473606,3.970140962470977],[97.00171564795886,3.987490079021057],[96.99548193874057,4.025780358153527],[96.98809827901242,4.032548754790588],[96.99380842361988,4.043412177487925],[96.98895601820573,4.0700884336639485],[97.02892739558291,4.06999909411266],[97.04281333087054,4.041331472729398],[97.0296287921351,3.997879062574809],[97.03180272241775,3.978678155598867],[97.01771013011846,3.96329110434379],[97.01777998585771,3.953957805261215]]]}},{"type":"Feature","properties":{"code":"1113042008","desa":"Terangun","kecamatan":"Terangun","kecCode":"111304"},"geometry":{"type":"Polygon","coordinates":[[[97.06703240272326,4.076061527440881],[97.06207092033674,4.081733404090705],[97.06728274790055,4.088151377194911],[97.06869814860072,4.084744714711014],[97.06703240272326,4.076061527440881]]]}},{"type":"Feature","properties":{"code":"1113042010","desa":"Rempelam Pinang","kecamatan":"Terangun","kecCode":"111304"},"geometry":{"type":"Polygon","coordinates":[[[97.06302042725099,4.074985158562727],[97.05591410225406,4.075826202740712],[97.06131741436724,4.0894829628775975],[97.06283994860478,4.086895581877534],[97.06302042725099,4.074985158562727]]]}},{"type":"Feature","properties":{"code":"1113042011","desa":"Soyo","kecamatan":"Terangun","kecCode":"111304"},"geometry":{"type":"Polygon","coordinates":[[[97.02796862205435,4.083702584821741],[97.02883020584937,4.076205624912833],[97.01603508704964,4.075185659714671],[97.0112609990959,4.068196297852564],[96.99119663141947,4.069096817794628],[96.98740086375892,4.075334755618611],[96.99506385471318,4.087108810235069],[97.02796862205435,4.083702584821741]]]}},{"type":"Feature","properties":{"code":"1113042012","desa":"Terlis","kecamatan":"Terangun","kecCode":"111304"},"geometry":{"type":"Polygon","coordinates":[[[96.91091361726966,3.9437844989189843],[96.92531395037855,3.961408611063338],[96.92654609712473,4.01370429590585],[96.91947746271478,4.033102031202547],[96.91951179523322,4.053487773389229],[96.92654991114954,4.064180369864083],[96.92268992020371,4.06901245059495],[96.93325126513382,4.081154216411955],[96.93775268134122,4.073129387737475],[96.9573490112479,4.080084692273821],[96.9580638157925,4.060733096694646],[96.94941748003275,4.057706801570399],[96.94736944314536,4.04933224993501],[96.97002056229915,4.023645538489603],[96.96201080085784,4.001269135264935],[96.97218020864977,3.9974168946805597],[96.96881433401438,3.970502133801546],[96.97559665666046,3.969533260887456],[96.9670695287358,3.938366955939483],[96.91091361726966,3.9437844989189843]]]}},{"type":"Feature","properties":{"code":"1113042013","desa":"Kutereje","kecamatan":"Terangun","kecCode":"111304"},"geometry":{"type":"Polygon","coordinates":[[[97.01094610867601,4.085853880964835],[96.9949083250592,4.087074090108905],[96.98266790809753,4.074834752346619],[96.95886761724681,4.080315963729607],[96.93671607778481,4.073224638532592],[96.92953788076862,4.105943530361419],[96.94051198933693,4.114376022618213],[96.96264844267152,4.112035450660882],[96.96901085386787,4.117601950149345],[97.01034141172681,4.112794364253053],[97.01487439683598,4.102810523481986],[97.01094610867601,4.085853880964835]]]}},{"type":"Feature","properties":{"code":"1113042014","desa":"Persada Tongra","kecamatan":"Terangun","kecCode":"111304"},"geometry":{"type":"Polygon","coordinates":[[[96.91079709391077,3.943805491793483],[96.83826541561649,3.9544306544033074],[96.80992823300157,3.980179364211163],[96.7982593549853,4.000071656485565],[96.80378922239474,4.006848361958948],[96.7997877069372,4.034369463747242],[96.79068646980483,4.0515770081216536],[96.75175464036441,4.086149380202404],[96.74644948655462,4.083591768560656],[96.7445302919395,4.0926536747331514],[96.73671221739498,4.089425248885328],[96.71648901505608,4.096463342311182],[96.73211098903096,4.135559536304073],[96.75000000099931,4.161287150714794],[96.76432132596847,4.161165486831237],[96.76709447812772,4.155587548865657],[96.77619886918251,4.160288521032845],[96.78524888992438,4.1502459662233715],[96.8186719707349,4.152097655025853],[96.83245795626969,4.147946348492601],[96.83579131771518,4.1376475822284435],[96.86979143592606,4.141051225688199],[96.87998660569734,4.127685561708117],[96.9298613471235,4.109592212098828],[96.93363777486348,4.078928935742127],[96.92268992020371,4.06901245059495],[96.92654991114954,4.064180369864083],[96.91951179523322,4.053487773389229],[96.92654609712473,4.01370429590585],[96.92531395037855,3.961408611063338],[96.91079709391077,3.943805491793483]]]}},{"type":"Feature","properties":{"code":"1113042015","desa":"Berhut","kecamatan":"Terangun","kecCode":"111304"},"geometry":{"type":"Polygon","coordinates":[[[96.98570332324982,3.9374286554783127],[96.9670695287358,3.938366955939483],[96.98170060539866,4.000926736382649],[96.97513531614197,4.020072244221284],[96.97767836596385,4.042250676986302],[96.96457972327568,4.059774345650122],[96.96699757937483,4.079341724560827],[96.97837656992282,4.074645508907952],[96.98778240383494,4.078743222142507],[96.99380842361988,4.043412177487925],[96.98809827901242,4.032548754790588],[96.99548193874057,4.025780358153527],[97.00171564795886,3.987490079021057],[96.99475936405351,3.9729479048544842],[97.00121062556997,3.9619864173834363],[96.99696578504302,3.9522873595284547],[96.98486137435297,3.946954722442603],[96.98570332324982,3.9374286554783127]]]}},{"type":"Feature","properties":{"code":"1113042016","desa":"Gewat","kecamatan":"Terangun","kecCode":"111304"},"geometry":{"type":"Polygon","coordinates":[[[97.05344890674172,4.066745200363936],[97.06621329031117,4.055191370830506],[97.05739127918423,4.043594820802033],[97.05865151265725,4.035507353447854],[97.0430849090414,4.029114923787727],[97.03753204416857,4.051345894946579],[97.04830638363275,4.054163301841459],[97.05344890674172,4.066745200363936]]]}},{"type":"Feature","properties":{"code":"1113042017","desa":"Pantan Lues","kecamatan":"Terangun","kecCode":"111304"},"geometry":{"type":"Polygon","coordinates":[[[97.10959315939685,4.010125435733434],[97.08135281308193,4.032531261178183],[97.07706844465304,4.048465226141839],[97.08375070333231,4.0576149583066],[97.1072145236314,4.047542702487227],[97.11785211128597,4.035251400997901],[97.10959315939685,4.010125435733434]]]}},{"type":"Feature","properties":{"code":"1113042018","desa":"Makmur Jaya","kecamatan":"Terangun","kecCode":"111304"},"geometry":{"type":"Polygon","coordinates":[[[97.08449889700654,4.054070480115186],[97.06804948289737,4.048548782153056],[97.07780026706871,4.0713030283404965],[97.08449889700654,4.054070480115186]]]}},{"type":"Feature","properties":{"code":"1113042020","desa":"Blang Kuncir","kecamatan":"Terangun","kecCode":"111304"},"geometry":{"type":"Polygon","coordinates":[[[97.04100017801585,4.051739065954209],[97.03549202203925,4.079865863837875],[97.04896346429251,4.093991237310177],[97.04100017801585,4.051739065954209]]]}},{"type":"Feature","properties":{"code":"1113042023","desa":"Reje Pudung","kecamatan":"Terangun","kecCode":"111304"},"geometry":{"type":"Polygon","coordinates":[[[97.06763601329148,4.0762010572561875],[97.06869814860072,4.084744714711014],[97.07996636785366,4.076505847389798],[97.07497569707083,4.073047019730701],[97.06763601329148,4.0762010572561875]]]}},{"type":"Feature","properties":{"code":"1113042024","desa":"Garut","kecamatan":"Terangun","kecCode":"111304"},"geometry":{"type":"Polygon","coordinates":[[[97.05336695512095,4.089955343473015],[97.04730315121951,4.0756320301179425],[97.05272502084306,4.065579543195823],[97.04830638363275,4.054163301841459],[97.04239819032426,4.053741816578538],[97.04354548693475,4.083919448239027],[97.05336695512095,4.089955343473015]]]}},{"type":"Feature","properties":{"code":"1113042025","desa":"Telege Jernih","kecamatan":"Terangun","kecCode":"111304"},"geometry":{"type":"Polygon","coordinates":[[[97.06279391230925,4.061237397826711],[97.06763601329148,4.0762010572561875],[97.07780026706871,4.0713030283404965],[97.07086651028128,4.0567343205762585],[97.06279391230925,4.061237397826711]]]}},{"type":"Feature","properties":{"code":"1113042026","desa":"Rime Raya","kecamatan":"Terangun","kecCode":"111304"},"geometry":{"type":"Polygon","coordinates":[[[97.11819988721508,4.03363489300413],[97.1072145236314,4.047542702487227],[97.08456408796233,4.0553624677489575],[97.07497569707083,4.073047019730701],[97.0864989676533,4.074070773772665],[97.09363716372418,4.062775923807258],[97.12335054918854,4.054685877197405],[97.1178580324223,4.0509294683702075],[97.11819988721508,4.03363489300413]]]}},{"type":"Feature","properties":{"code":"1113042027","desa":"Lestari","kecamatan":"Terangun","kecCode":"111304"},"geometry":{"type":"Polygon","coordinates":[[[96.97559665666046,3.969533260887456],[96.96881433401438,3.970502133801546],[96.97218020864977,3.9974168946805597],[96.96201080085784,4.001269135264935],[96.97002056229915,4.023645538489603],[96.94736944314536,4.04933224993501],[96.94941748003275,4.057706801570399],[96.9580638157925,4.060733096694646],[96.9584918130468,4.080289736800798],[96.96699757937483,4.079341724560827],[96.96457972327568,4.059774345650122],[96.97775959722769,4.041835551728863],[96.97513531614197,4.020072244221284],[96.98170060539866,4.000926736382649],[96.97559665666046,3.969533260887456]]]}},{"type":"Feature","properties":{"code":"1113042028","desa":"Gawar Belangi","kecamatan":"Terangun","kecCode":"111304"},"geometry":{"type":"Polygon","coordinates":[[[97.04001734942119,4.098340006186155],[97.02849436572245,4.083423667283996],[97.01094610867601,4.085853880964835],[97.01154862926586,4.11175003642066],[97.02601222698274,4.112992890493821],[97.04001734942119,4.098340006186155]]]}},{"type":"Feature","properties":{"code":"1113042029","desa":"Blang Kala","kecamatan":"Terangun","kecCode":"111304"},"geometry":{"type":"Polygon","coordinates":[[[97.02883020584937,4.076205624912833],[97.025104408142,4.069249037943306],[97.01478845672199,4.073049022520923],[97.01797647423496,4.075865917701508],[97.02883020584937,4.076205624912833]]]}},{"type":"Feature","properties":{"code":"1113052001","desa":"Pining","kecamatan":"Pining","kecCode":"111305"},"geometry":{"type":"Polygon","coordinates":[[[97.72909091701229,4.146142724856224],[97.75942855698237,4.115088350429159],[97.77544790269859,4.108829348684253],[97.75831834931243,4.099927179194086],[97.73176356543625,4.104210209427237],[97.72229741489382,4.094648935803435],[97.6314800804414,4.104217239427618],[97.59874443870494,4.09531351321108],[97.5574215466671,4.118489056703107],[97.57734869038977,4.129777675266078],[97.57500203001972,4.139558841223825],[97.58400410880262,4.1484778685057275],[97.61404830898232,4.158987151671532],[97.63495541695897,4.159024427670973],[97.66838458887774,4.146879273208457],[97.70558671895195,4.145887457689649],[97.70914768172018,4.140164045390008],[97.72909091701229,4.146142724856224]]]}},{"type":"Feature","properties":{"code":"1113052002","desa":"Pertik","kecamatan":"Pining","kecCode":"111305"},"geometry":{"type":"Polygon","coordinates":[[[97.58455685641383,4.102350435719618],[97.59678474132284,4.095406829564441],[97.6314800804414,4.104217239427618],[97.72229741489382,4.094648935803435],[97.73176356543625,4.104210209427237],[97.75831834931243,4.099927179194086],[97.76167338891582,4.106066189794522],[97.78278960365735,4.107540093190833],[97.80168236335042,4.087310241286095],[97.81339929394231,4.0399240643057475],[97.81185887578653,4.00808186578077],[97.84110231691847,4.000821067841047],[97.8743485811222,3.9318195955740403],[97.86111080971612,3.922513425440247],[97.84922189457482,3.9343955300031173],[97.78702637636621,3.955123851835733],[97.70292252325589,3.9954252326969923],[97.69653994296408,4.012009451566072],[97.67827297561739,4.027266272895122],[97.64685041421528,4.031085150430261],[97.60465884632873,4.072977758443413],[97.58388661597462,4.078043477645678],[97.58455685641383,4.102350435719618]]]}},{"type":"Feature","properties":{"code":"1113052003","desa":"Ekan","kecamatan":"Pining","kecCode":"111305"},"geometry":{"type":"Polygon","coordinates":[[[97.82263046602327,3.7502254898838707],[97.78076265317394,3.7488460629663014],[97.78148725942953,3.768798431751839],[97.76332721338024,3.7918696862620687],[97.76515463937518,3.8135132625289963],[97.76138557258615,3.827618707924008],[97.74999999720215,3.8369271596377694],[97.75000000529603,3.859986871349571],[97.73548824798434,3.884340875657491],[97.73645473409874,3.892727122076722],[97.72160900814924,3.9007154256855365],[97.70293754283341,3.934719415441783],[97.69040051507176,3.9417419847704136],[97.69231198990643,3.9532355309484073],[97.65438521760376,3.943302244666869],[97.64107612006693,3.960957962585183],[97.63313196237021,3.9576776206743944],[97.60393470142537,3.971158700048412],[97.57817246488742,4.017311629513635],[97.59338413936659,4.027370490830404],[97.5820413959937,4.0521501946243985],[97.5837902922882,4.078339257471694],[97.60465884632873,4.072977758443413],[97.64685041421528,4.031085150430261],[97.67827297561739,4.027266272895122],[97.69653994296408,4.012009451566072],[97.70292252325589,3.9954252326969923],[97.78702637636621,3.955123851835733],[97.84922189457482,3.9343955300031173],[97.86111080971612,3.922513425440247],[97.8743485811222,3.9318195955740403],[97.8955858940738,3.923963845739384],[97.90238000773121,3.8854690850556244],[97.92191634386421,3.8446940771387097],[97.90870297196464,3.818429459548687],[97.90059660804705,3.81753776015721],[97.89516534500473,3.807161613526365],[97.82263046602327,3.7502254898838707]]]}},{"type":"Feature","properties":{"code":"1113052004","desa":"Uring","kecamatan":"Pining","kecCode":"111305"},"geometry":{"type":"Polygon","coordinates":[[[97.4535291830254,4.163931699818684],[97.47510138731921,4.159466414778487],[97.47380048740263,4.134772826466104],[97.49052980021018,4.071133245331588],[97.54969880835336,3.9968310043545663],[97.5509268164195,3.990742663356919],[97.53098106392501,3.977186198312445],[97.51722526593335,3.9885501818613864],[97.49895055902113,3.992844345701447],[97.50517823468782,4.0040814483996785],[97.481427670051,4.024207368353605],[97.46339863184147,4.050491360937951],[97.45856776159297,4.062896350223672],[97.46270662331209,4.098027419829722],[97.45285077764134,4.116183509742177],[97.4500127699734,4.145717134188142],[97.4535291830254,4.163931699818684]]]}},{"type":"Feature","properties":{"code":"1113052005","desa":"Gajah","kecamatan":"Pining","kecCode":"111305"},"geometry":{"type":"Polygon","coordinates":[[[97.44085904121187,4.168199403805496],[97.4535291830254,4.163931699818684],[97.45285077764134,4.116183509742177],[97.46270662331209,4.098027419829722],[97.45856776159297,4.062896350223672],[97.4690964305559,4.041570289497072],[97.45008779591511,4.035249074451759],[97.41231418355278,4.055700420383025],[97.40555651492127,4.088632161954781],[97.39234374107089,4.1118539305999775],[97.42066001894477,4.162240977071788],[97.44085904121187,4.168199403805496]]]}},{"type":"Feature","properties":{"code":"1113052006","desa":"Pintu Rime","kecamatan":"Pining","kecCode":"111305"},"geometry":{"type":"Polygon","coordinates":[[[97.49136726598657,4.156577978529241],[97.50467475643488,4.15846919163625],[97.52652834420779,4.131986982177761],[97.58455685641383,4.102350435719618],[97.58095657528577,4.059508287518357],[97.59338413936659,4.027370490830404],[97.58182999865555,4.016969640722252],[97.5557005212621,4.051434180492447],[97.54901664470248,4.0957791425958865],[97.50187160559017,4.119467814065847],[97.49136726598657,4.156577978529241]]]}},{"type":"Feature","properties":{"code":"1113052007","desa":"Pepelah","kecamatan":"Pining","kecCode":"111305"},"geometry":{"type":"Polygon","coordinates":[[[97.47510138731921,4.159466414778487],[97.49136726598657,4.156577978529241],[97.50187160559017,4.119467814065847],[97.54901664470248,4.0957791425958865],[97.5557005212621,4.051434180492447],[97.60393470142537,3.971158700048412],[97.59496879607316,3.9509868580129393],[97.56447410569547,3.9674472762091813],[97.55623054480382,3.989130015253355],[97.49063494894379,4.070935126483658],[97.47380048740263,4.134772826466104],[97.47510138731921,4.159466414778487]]]}},{"type":"Feature","properties":{"code":"1113052008","desa":"Pasir Putih","kecamatan":"Pining","kecCode":"111305"},"geometry":{"type":"Polygon","coordinates":[[[97.50391189931473,4.158535085861758],[97.51876256793821,4.184414553497854],[97.56249309258219,4.198096928125277],[97.60205419564466,4.250320480145595],[97.62383343916194,4.241202710785634],[97.62678089342351,4.230600906267143],[97.60987219284748,4.193346167691004],[97.60775968805922,4.159573438598446],[97.58070611499528,4.145860072434022],[97.57090472057644,4.12420396141615],[97.5574215466671,4.118489056703107],[97.53846227491415,4.124322908447828],[97.50391189931473,4.158535085861758]]]}},{"type":"Feature","properties":{"code":"1113052009","desa":"Lesten","kecamatan":"Pining","kecCode":"111305"},"geometry":{"type":"Polygon","coordinates":[[[97.68698764996014,4.246871594491717],[97.73290018799331,4.249226820002451],[97.74000342921494,4.233370444947518],[97.7405588720943,4.21591144563249],[97.72827293684661,4.199447386081131],[97.74645364661852,4.131526955569286],[97.72909091701229,4.146142724856224],[97.70914768172018,4.140164045390008],[97.70625650793151,4.145724308080121],[97.66838458887774,4.146879273208457],[97.63495541695897,4.159024427670973],[97.6057629745817,4.157142141234571],[97.60987219284748,4.193346167691004],[97.6271754026228,4.23308408731849],[97.63071852104297,4.225218705744703],[97.6474599953825,4.21999780492627],[97.68698764996014,4.246871594491717]]]}},{"type":"Feature","properties":{"code":"1113062001","desa":"Gantung Geluni","kecamatan":"Blangpegayon","kecCode":"111306"},"geometry":{"type":"Polygon","coordinates":[[[97.32584652179956,3.984251927005357],[97.31799856458213,3.974935349017574],[97.31537796262295,3.980415734822914],[97.32584652179956,3.984251927005357]]]}},{"type":"Feature","properties":{"code":"1113062002","desa":"Kutebukit","kecamatan":"Blangpegayon","kecCode":"111306"},"geometry":{"type":"Polygon","coordinates":[[[97.23785271593016,3.7054932662184052],[97.2414197131493,3.716926604584083],[97.2342296450821,3.7257407160567397],[97.23500501806716,3.736370363585624],[97.25373454361437,3.7586066938043636],[97.25202782372514,3.797435602090435],[97.26486012229685,3.808485048653387],[97.26136390981661,3.836824627032036],[97.26736572075146,3.8596924890699107],[97.28182706836458,3.8809033088708587],[97.27577970586877,3.893310439442307],[97.29562363532254,3.9194800958190448],[97.29016653116054,3.924366546862757],[97.30095093943436,3.945789237944363],[97.29890817437278,3.953725984319667],[97.32207083420172,3.9779195909435967],[97.32070736934969,3.9599839149719385],[97.3022306531222,3.9268657475376765],[97.30902696382337,3.918637761113993],[97.2994436675912,3.9116710243958654],[97.30215651121408,3.8787622353214273],[97.28492860706962,3.84171931676498],[97.28824520695082,3.825990372946039],[97.27562699918673,3.81635361292783],[97.28256872576615,3.7962171789999792],[97.2718793893224,3.7764982526336546],[97.27641546540144,3.7702646009785825],[97.27137849032509,3.746373922891738],[97.25323689476691,3.7116938704862474],[97.23785271593016,3.7054932662184052]]]}},{"type":"Feature","properties":{"code":"1113062003","desa":"Bener Baru","kecamatan":"Blangpegayon","kecCode":"111306"},"geometry":{"type":"Polygon","coordinates":[[[97.25417857668003,3.6900822471316355],[97.23999238474083,3.6922375992171386],[97.24431111086915,3.693898493250392],[97.23712662669253,3.697693313021478],[97.24266651884483,3.7017245510683456],[97.23785271593016,3.7054932662184052],[97.25323689476691,3.7116938704862474],[97.27137849032509,3.746373922891738],[97.27641546540144,3.7702646009785825],[97.2718793893224,3.7764982526336546],[97.28256872576615,3.7962171789999792],[97.27562699918673,3.81635361292783],[97.28824520695082,3.825990372946039],[97.28492860706962,3.84171931676498],[97.30215651121408,3.8787622353214273],[97.2994436675912,3.9116710243958654],[97.30902696382337,3.918637761113993],[97.3022306531222,3.9268657475376765],[97.31309628096862,3.9518747586680614],[97.32774377835271,3.966723563880501],[97.30835006300502,3.9135796402836838],[97.31366203277668,3.891604867089821],[97.30511292811916,3.8920415598885194],[97.30653530935712,3.866194865346671],[97.29876819489634,3.8669414366430934],[97.30013378394703,3.8424847639318527],[97.29254565615717,3.8362474286536483],[97.2968026510216,3.822780264489684],[97.28386752486642,3.788875090441295],[97.28649097407923,3.767175141970549],[97.27856730743535,3.7638014009688545],[97.28042271943303,3.7453616891652346],[97.27308261656958,3.742868392539525],[97.26935462811365,3.7180249654835613],[97.25254000831477,3.704455604161032],[97.25417857668003,3.6900822471316355]]]}},{"type":"Feature","properties":{"code":"1113062004","desa":"Blang Bengkik","kecamatan":"Blangpegayon","kecCode":"111306"},"geometry":{"type":"Polygon","coordinates":[[[97.32774377835271,3.966723563880501],[97.33804631098856,3.970832131932152],[97.33610219615946,3.9565323592309376],[97.32774377835271,3.966723563880501]]]}},{"type":"Feature","properties":{"code":"1113062005","desa":"Kong","kecamatan":"Blangpegayon","kecCode":"111306"},"geometry":{"type":"Polygon","coordinates":[[[97.30067799339473,3.990576918304004],[97.30636400829239,3.987503098506295],[97.29927826787781,3.9773660537282844],[97.29930791762638,3.985664234036208],[97.30067799339473,3.990576918304004]]]}},{"type":"Feature","properties":{"code":"1113062006","desa":"Ume Lah","kecamatan":"Blangpegayon","kecCode":"111306"},"geometry":{"type":"Polygon","coordinates":[[[97.31537796262295,3.980415734822914],[97.31781351198406,3.9745469848862953],[97.29890817437278,3.953725984319667],[97.29381440261265,3.9580361623873728],[97.30132523726995,3.966570548731171],[97.29765248157685,3.968870078328319],[97.31537796262295,3.980415734822914]]]}},{"type":"Feature","properties":{"code":"1113062007","desa":"Cinta Maju","kecamatan":"Blangpegayon","kecCode":"111306"},"geometry":{"type":"Polygon","coordinates":[[[97.29927826787781,3.9773660537282844],[97.31202099667172,3.9896597689979667],[97.31571656816516,3.980665029591827],[97.30357933222045,3.9742679423428435],[97.29927826787781,3.9773660537282844]]]}},{"type":"Feature","properties":{"code":"1113062008","desa":"Porang Ayu","kecamatan":"Blangpegayon","kecCode":"111306"},"geometry":{"type":"Polygon","coordinates":[[[97.32319099197076,3.9921927032427704],[97.3272679713399,3.98429103492381],[97.31295774310543,3.982830263427987],[97.31294489359203,3.992333144970661],[97.32319099197076,3.9921927032427704]]]}},{"type":"Feature","properties":{"code":"1113062009","desa":"Tetingi","kecamatan":"Blangpegayon","kecCode":"111306"},"geometry":{"type":"Polygon","coordinates":[[[97.25373454361437,3.7586066938043636],[97.23816920174731,3.748484334955339],[97.2434220060208,3.765710135567233],[97.24804107513557,3.772614730031303],[97.23763708188591,3.7909007944621282],[97.24120419421824,3.842847729409926],[97.25606762961745,3.866242051875046],[97.24631764134614,3.884641688989062],[97.2520576326537,3.9163885296994847],[97.2623313177362,3.9264849233224255],[97.26461053794606,3.948089037338106],[97.28586903982436,3.9729385447106504],[97.30248527367648,3.978515432268004],[97.29381440261265,3.9580361623873728],[97.30096374128367,3.9460567089110703],[97.29078019704849,3.929113490574152],[97.295888708697,3.9202435833631535],[97.27577970586877,3.893310439442307],[97.28175869470805,3.880594952026028],[97.26736572075146,3.8596924890699107],[97.26136390981661,3.836824627032036],[97.26486012229685,3.808485048653387],[97.25202782372514,3.797435602090435],[97.25373454361437,3.7586066938043636]]]}},{"type":"Feature","properties":{"code":"1113062010","desa":"Anak Reje","kecamatan":"Blangpegayon","kecCode":"111306"},"geometry":{"type":"Polygon","coordinates":[[[97.32949941506602,3.982012033251663],[97.32931714137305,3.9744346766499485],[97.33800943878464,3.973060437021923],[97.32173986030637,3.9640445239775737],[97.31915614583954,3.9729129634950175],[97.32949941506602,3.982012033251663]]]}},{"type":"Feature","properties":{"code":"1113062011","desa":"Rak Lintang","kecamatan":"Blangpegayon","kecCode":"111306"},"geometry":{"type":"Polygon","coordinates":[[[97.32700201662983,3.9863772489291995],[97.3268190972236,3.9782526404738965],[97.32049228569048,3.975769963042873],[97.32700201662983,3.9863772489291995]]]}},{"type":"Feature","properties":{"code":"1113062012","desa":"Akang Siwah","kecamatan":"Blangpegayon","kecCode":"111306"},"geometry":{"type":"Polygon","coordinates":[[[97.30973606576687,3.6739751896541146],[97.26087487827304,3.6827536070347744],[97.25254000831477,3.704455604161032],[97.26935462811365,3.7180249654835613],[97.27308261656958,3.742868392539525],[97.28042271943303,3.7453616891652346],[97.27856730743535,3.7638014009688545],[97.287844022084,3.7746954869504803],[97.28386752486642,3.788875090441295],[97.2968026510216,3.822780264489684],[97.29254565615717,3.8362474286536483],[97.30016944656279,3.8427181254120155],[97.29876819489634,3.8669414366430934],[97.30653530935712,3.866194865346671],[97.30511292811916,3.8920415598885194],[97.31366203277668,3.891604867089821],[97.30835006300502,3.9135796402836838],[97.32120119427975,3.955163833895236],[97.33387544689441,3.960999880885017],[97.3373481322106,3.9550319258342546],[97.33169962533746,3.947639903318291],[97.33746804691287,3.9393374485326165],[97.31878561976059,3.9214705491137485],[97.32294195710567,3.909937355424034],[97.31722243616655,3.903672535964811],[97.32270647592321,3.894994031464691],[97.3154362431881,3.881314114684453],[97.3232436742562,3.878920937783459],[97.32276344257889,3.8453311874524596],[97.34355735828552,3.830850597060916],[97.31727056608383,3.769911538834877],[97.30845708142918,3.7628030464794113],[97.30703507790656,3.744514275988528],[97.32892015993745,3.713516072317423],[97.30685567574892,3.6859167645850937],[97.30973606576687,3.6739751896541146]]]}},{"type":"Feature","properties":{"code":"1113072001","desa":"Gumpang","kecamatan":"Puteri Betung","kecCode":"111307"},"geometry":{"type":"Polygon","coordinates":[[[97.48006531316372,3.700246348912606],[97.44278358679315,3.694373233666838],[97.44841916771047,3.6988921075089882],[97.44400893916128,3.702988771234622],[97.45055341540785,3.710027748693968],[97.44612585242623,3.7214741829872713],[97.45332170942942,3.7256555178834425],[97.45259387280902,3.7439326637375605],[97.45982937192802,3.7454146034757025],[97.45942801888803,3.754507965235275],[97.4653654860284,3.7522601349644953],[97.46928552470722,3.7654895696410904],[97.48480557311875,3.7768052739852704],[97.48479247629183,3.793442853228435],[97.50150196984009,3.798000946504993],[97.52140690120757,3.818513351007002],[97.53406377082642,3.8208704803824975],[97.5552880966684,3.8387132339037353],[97.56931054004946,3.837285234602543],[97.56157144486632,3.8468066934406897],[97.5784338402496,3.855250723999229],[97.57475682986387,3.8606506825347777],[97.58267556732363,3.862331665623888],[97.59924682158363,3.8915606537201315],[97.60241855417297,3.882426826065792],[97.61507446961116,3.878819355761116],[97.61610981501597,3.8615612029379975],[97.58204200843197,3.821808556912491],[97.57149211367015,3.8176903274441365],[97.57165821935138,3.8117109024400984],[97.56055491237936,3.8156895616235955],[97.55820602618724,3.8045900048363195],[97.54954461689061,3.817985254712969],[97.53803123615268,3.8157951222466133],[97.5056060313933,3.787229905765463],[97.5014673774176,3.781355904687496],[97.5065168009097,3.776238130027361],[97.49926593237693,3.7721560191310104],[97.47962239975402,3.725735868710897],[97.48006531316372,3.700246348912606]]]}},{"type":"Feature","properties":{"code":"1113072002","desa":"Marpunge Gabungan","kecamatan":"Puteri Betung","kecCode":"111307"},"geometry":{"type":"Polygon","coordinates":[[[97.78076265317394,3.7488460629663014],[97.7039048931963,3.735458435743373],[97.63598387265769,3.73371899312405],[97.62490265483369,3.722852632341722],[97.51031232035733,3.703949249876768],[97.53527561987403,3.729333949194141],[97.5623149872469,3.7299251518153613],[97.58327293389885,3.7359523730881787],[97.59110450726723,3.746343608544255],[97.62576996641087,3.750127103152786],[97.63197457716507,3.7650104684120365],[97.66250181400757,3.7844406368587955],[97.68630789109636,3.7706897437842093],[97.68645991968957,3.796984140625156],[97.70244750944505,3.8019085529516867],[97.71103137469822,3.7950694965815712],[97.72761562236315,3.8136852353870854],[97.72557989989254,3.8028576138011343],[97.73555365837467,3.788867439009289],[97.74557529316532,3.8126916059357114],[97.76073948973571,3.8118036765022345],[97.7638411759296,3.7905562228178153],[97.78148725942953,3.768798431751839],[97.78076265317394,3.7488460629663014]]]}},{"type":"Feature","properties":{"code":"1113072003","desa":"Ramung Musara","kecamatan":"Puteri Betung","kecCode":"111307"},"geometry":{"type":"Polygon","coordinates":[[[97.34345054580609,3.830904002401255],[97.37214088409455,3.8420543627901984],[97.40655326771918,3.838171001166518],[97.42241096479425,3.8577556569528935],[97.44939231870063,3.873495097658759],[97.46900367717801,3.914491649064969],[97.49132880827796,3.9253716876363276],[97.52526764398662,3.906988545887244],[97.52431183102622,3.8985211905120587],[97.5116065823779,3.887408520709974],[97.51130574566366,3.8691342607802954],[97.5187968267122,3.860163529675484],[97.51283376576572,3.8514968377703815],[97.50522965612379,3.85358736852153],[97.49963847923249,3.843469919970891],[97.48468491467713,3.8394190569183313],[97.46839174608226,3.8396746955049124],[97.46130165564693,3.825041013521647],[97.45010658455128,3.8267673961862627],[97.43158826388729,3.8169944797096886],[97.4318101967832,3.7993082891633154],[97.41568109690513,3.802566521241578],[97.3933546509964,3.7856079002160867],[97.36646898765372,3.780781745118254],[97.36295020039147,3.754670240703735],[97.34647521136195,3.7402721370294802],[97.34181317084125,3.719799270321936],[97.32687345134876,3.7204792818944905],[97.3071106551327,3.7443405845260247],[97.30840585964279,3.7625389632588013],[97.31727056608383,3.769911538834877],[97.31915720164356,3.7842428264783825],[97.3236197356623,3.7822368239055737],[97.34345054580609,3.830904002401255]]]}},{"type":"Feature","properties":{"code":"1113072004","desa":"Meloak Sepakat","kecamatan":"Puteri Betung","kecCode":"111307"},"geometry":{"type":"Polygon","coordinates":[[[97.55820602618724,3.8045900048363195],[97.56055491237936,3.8156895616235955],[97.57165821935138,3.8117109024400984],[97.57149211367015,3.8176903274441365],[97.59962611155584,3.840260435644085],[97.61778359273863,3.8721833600135613],[97.64168641259795,3.862679570155687],[97.64536476117483,3.8443889578532198],[97.63717842144706,3.8293743086624685],[97.59953880267369,3.79438590570735],[97.56987953211478,3.7862186388101766],[97.55820602618724,3.8045900048363195]]]}},{"type":"Feature","properties":{"code":"1113072005","desa":"Kutelengat Sepakat","kecamatan":"Puteri Betung","kecCode":"111307"},"geometry":{"type":"Polygon","coordinates":[[[97.75000000079945,3.840856964050504],[97.76138557258615,3.827618707924008],[97.76515463937518,3.8116287295862232],[97.74557529316532,3.8126916059357114],[97.73555365837467,3.788867439009289],[97.72557989989254,3.8028576138011343],[97.72761562236315,3.8136852353870854],[97.71103137469822,3.7950694965815712],[97.70244750944505,3.8019085529516867],[97.68645991968957,3.796984140625156],[97.68630789109636,3.7706897437842093],[97.66301620013758,3.78460080881307],[97.63197457716507,3.7650104684120365],[97.62576996641087,3.750127103152786],[97.61394534110467,3.7454215732215674],[97.60556983887703,3.7490558577123294],[97.62697410557058,3.7888774826378846],[97.64310646099442,3.7894840195994095],[97.68028831495381,3.8296985592258475],[97.67618370121687,3.845556254485387],[97.70145272616242,3.8520277543383883],[97.71893745599884,3.843528091718051],[97.72575193120672,3.847641687879269],[97.73275982270769,3.8329486380504965],[97.74071678585102,3.8414849201651506],[97.75000000079945,3.840856964050504]]]}},{"type":"Feature","properties":{"code":"1113072006","desa":"Singah Mulo","kecamatan":"Puteri Betung","kecCode":"111307"},"geometry":{"type":"Polygon","coordinates":[[[97.60556983887703,3.7490558577123294],[97.5623149872469,3.7299251518153613],[97.53527561987403,3.729333949194141],[97.56045722981736,3.781881328196412],[97.58753395143077,3.7886981919963905],[97.6201457978903,3.809057231512734],[97.64495658857577,3.8422679859501363],[97.64557295242984,3.858439963687512],[97.65309998027992,3.859328888670446],[97.67585182170428,3.8453311874524596],[97.68028831495381,3.8296985592258475],[97.64310646099442,3.7894840195994095],[97.62697410557058,3.7888774826378846],[97.60556983887703,3.7490558577123294]]]}},{"type":"Feature","properties":{"code":"1113072007","desa":"Uning Pune","kecamatan":"Puteri Betung","kecCode":"111307"},"geometry":{"type":"Polygon","coordinates":[[[97.38141590531986,3.6832461180548464],[97.30973606576687,3.6739751896541146],[97.30519171232771,3.6786439256225374],[97.3281638372913,3.706593475224687],[97.32703593725874,3.720836120291479],[97.34181317084125,3.719799270321936],[97.34647521136195,3.7402721370294802],[97.36282735569795,3.7544326730942763],[97.36646898765372,3.780781745118254],[97.3933546509964,3.7856079002160867],[97.41568109690513,3.802566521241578],[97.4318101967832,3.7993082891633154],[97.43158826388729,3.8169944797096886],[97.45010658455128,3.8267673961862627],[97.46130165564693,3.825041013521647],[97.46839174608226,3.8396746955049124],[97.48468491467713,3.8394190569183313],[97.49963847923249,3.843469919970891],[97.50522965612379,3.85358736852153],[97.51283376576572,3.8514968377703815],[97.5187968267122,3.860163529675484],[97.51130574566366,3.8691342607802954],[97.5116065823779,3.887408520709974],[97.52978985791566,3.911824616909947],[97.57110347164797,3.9035940925994503],[97.56015889591635,3.8820694894444143],[97.56237493605454,3.871655619851064],[97.54326295222353,3.852873805042149],[97.5361790958886,3.831884685212451],[97.52506468768524,3.833818742920991],[97.48315798815071,3.806864878620317],[97.47359724961342,3.809651966670995],[97.46937484897018,3.79657776667055],[97.45843367717254,3.790218067836336],[97.46161833122106,3.7856011562001157],[97.41602325027281,3.7662570249940193],[97.42154304707401,3.7610679349950527],[97.38496137906446,3.710811817223036],[97.38141590531986,3.6832461180548464]]]}},{"type":"Feature","properties":{"code":"1113072008","desa":"Gumpang Lempuh","kecamatan":"Puteri Betung","kecCode":"111307"},"geometry":{"type":"Polygon","coordinates":[[[97.44841916771047,3.6988921075089882],[97.38141590531986,3.6832461180548464],[97.3784302928238,3.6897518209237723],[97.39226213838701,3.725822105601152],[97.42154304707401,3.7610679349950527],[97.41602325027281,3.7662570249940193],[97.46161833122106,3.7856011562001157],[97.45843367717254,3.790218067836336],[97.46937484897018,3.79657776667055],[97.47359724961342,3.809651966670995],[97.48315798815071,3.806864878620317],[97.52506468768524,3.833818742920991],[97.5361790958886,3.831884685212451],[97.54326295222353,3.852873805042149],[97.56237493605454,3.871655619851064],[97.56015889591635,3.8820694894444143],[97.57110347164797,3.9035940925994503],[97.59563514784382,3.8967939400016953],[97.59875715871594,3.8841054133609987],[97.59117156071903,3.8814214172942956],[97.58267556732363,3.862331665623888],[97.57475682986387,3.8606506825347777],[97.5784338402496,3.855250723999229],[97.56157144486632,3.8468066934406897],[97.56931054004946,3.837285234602543],[97.5552880966684,3.8387132339037353],[97.53406377082642,3.8208704803824975],[97.52140690120757,3.818513351007002],[97.50150196984009,3.798000946504993],[97.48479247629183,3.793442853228435],[97.48480557311875,3.7768052739852704],[97.46928552470722,3.7654895696410904],[97.4653654860284,3.7522601349644953],[97.45942801888803,3.754507965235275],[97.45982937192802,3.7454146034757025],[97.45259387280902,3.7439326637375605],[97.45332170942942,3.7256555178834425],[97.44612585242623,3.7214741829872713],[97.45055341540785,3.710027748693968],[97.44400893916128,3.702988771234622],[97.44841916771047,3.6988921075089882]]]}},{"type":"Feature","properties":{"code":"1113072009","desa":"Putri Betung","kecamatan":"Puteri Betung","kecCode":"111307"},"geometry":{"type":"Polygon","coordinates":[[[97.51031232035733,3.703949249876768],[97.48006531316372,3.700246348912606],[97.48544820167325,3.7452185305854457],[97.5065168009097,3.776238130027361],[97.5014673774176,3.781355904687496],[97.50578284620146,3.7874309914768536],[97.5287438213703,3.810743980155457],[97.54954461689061,3.817985254712969],[97.56974983188927,3.786359782908547],[97.5543231960587,3.773195263095844],[97.53201103228338,3.7237567855449156],[97.51031232035733,3.703949249876768]]]}},{"type":"Feature","properties":{"code":"1113082001","desa":"Pangur","kecamatan":"Dabun Gelang","kecCode":"111308"},"geometry":{"type":"Polygon","coordinates":[[[97.42169292988486,4.031123779010132],[97.44334869198859,4.016593403948699],[97.39879126230697,4.009821674424174],[97.3880505673798,4.000876368952171],[97.37114629236753,4.010394110892329],[97.38649424741163,4.005886732184547],[97.42169292988486,4.031123779010132]]]}},{"type":"Feature","properties":{"code":"1113082002","desa":"Badak","kecamatan":"Dabun Gelang","kecCode":"111308"},"geometry":{"type":"Polygon","coordinates":[[[97.35118987841018,4.010923812476245],[97.3492297817291,4.017852924257996],[97.3542565234199,4.031606351622225],[97.37612906800217,4.0314911026028275],[97.36652983578334,4.014800547895169],[97.35118987841018,4.010923812476245]]]}},{"type":"Feature","properties":{"code":"1113082003","desa":"Kendawi","kecamatan":"Dabun Gelang","kecCode":"111308"},"geometry":{"type":"Polygon","coordinates":[[[97.34114180714874,4.0463562511947995],[97.33158430527153,4.054067065389399],[97.31861350211148,4.053184607431271],[97.34188141409606,4.071730649677644],[97.36386355455943,4.074927440973197],[97.36428320700446,4.0864573035740825],[97.38798395279724,4.10575058711191],[97.39411685790672,4.094987205898169],[97.38109790594365,4.073755284404649],[97.37589381165013,4.078086173859048],[97.37362559464553,4.072174263658827],[97.36543474661629,4.072823708174366],[97.36243229521432,4.064297809631995],[97.34395303930135,4.055964656488296],[97.34114180714874,4.0463562511947995]]]}},{"type":"Feature","properties":{"code":"1113082004","desa":"Sangir","kecamatan":"Dabun Gelang","kecCode":"111308"},"geometry":{"type":"Polygon","coordinates":[[[97.41708059399429,3.950299307423691],[97.39606666634364,3.966009135253284],[97.39084052966676,3.9917201958430075],[97.39910203293255,4.0007605092931735],[97.39339808465392,4.0021848249712795],[97.40016537423269,4.009785529771908],[97.44370020639944,4.0176993596228465],[97.42169292988486,4.031123779010132],[97.41635770274586,4.041626303770679],[97.39965828520177,4.039077017153116],[97.39628172392247,4.045472807579721],[97.40523896430682,4.056522374651855],[97.39207992674726,4.076607345775133],[97.39066775821057,4.112429233207475],[97.40191593966892,4.098709178784971],[97.41464605457185,4.053178191667751],[97.43945306540672,4.0455001020037935],[97.45008779591511,4.035249074451759],[97.4690964305559,4.041570289497072],[97.50564356909545,4.002492022590009],[97.50221068507511,3.9940113563492425],[97.47399577518496,3.9811034257063804],[97.46222882160288,3.9854690784544826],[97.45695463864568,3.980603225482875],[97.42506820783159,3.9820840788400154],[97.41882029921749,3.976397241968062],[97.41084281894096,3.9800832257852163],[97.40969248981662,3.9738431736551196],[97.42106868976826,3.971769905390571],[97.41708059399429,3.950299307423691]]]}},{"type":"Feature","properties":{"code":"1113082005","desa":"Panglima Linting","kecamatan":"Dabun Gelang","kecCode":"111308"},"geometry":{"type":"Polygon","coordinates":[[[97.35970115668312,3.9921627000607294],[97.36962902815718,3.996068388253553],[97.37472649792959,4.007141732501268],[97.3880505673798,4.000876368952171],[97.40016537423269,4.009785529771908],[97.39084052966676,3.9917201958430075],[97.39515876836252,3.9629802653700934],[97.36622674177079,3.971662659438069],[97.35970115668312,3.9921627000607294]]]}},{"type":"Feature","properties":{"code":"1113082006","desa":"Blangtemung","kecamatan":"Dabun Gelang","kecCode":"111308"},"geometry":{"type":"Polygon","coordinates":[[[97.47355079693182,3.915201182682289],[97.45692213804631,3.939041085945871],[97.41873376555087,3.9496054723719847],[97.42106868976826,3.971769905390571],[97.40969248981662,3.9738431736551196],[97.41084281894096,3.9800832257852163],[97.41882029921749,3.976397241968062],[97.42506820783159,3.9820840788400154],[97.45695463864568,3.980603225482875],[97.46222882160288,3.9854690784544826],[97.47399577518496,3.9811034257063804],[97.49932618155809,3.9925435512556566],[97.51722526593335,3.9885501818613864],[97.53098106392501,3.977186198312445],[97.55400276221773,3.9910182902752425],[97.56447410569547,3.9674472762091813],[97.59496879607316,3.9509868580129393],[97.60858290497713,3.9725975874416126],[97.63313196237021,3.9576776206743944],[97.64341962291734,3.9595123743433867],[97.65438521760376,3.943302244666869],[97.69231198990643,3.9532355309484073],[97.69040051507176,3.9417419847704136],[97.70293754283341,3.934719415441783],[97.72160900814924,3.9007154256855365],[97.73645473409874,3.892727122076722],[97.73548824798434,3.884340875657491],[97.74968193307477,3.8612667927794084],[97.75000000079945,3.840856964050504],[97.74071678585102,3.8414849201651506],[97.73275982270769,3.8329486380504965],[97.72575193120672,3.847641687879269],[97.71893745599884,3.843528091718051],[97.70145272616242,3.8520277543383883],[97.67399025024991,3.845651623091709],[97.65309998027992,3.859328888670446],[97.64500998672155,3.856512150871284],[97.63013330610727,3.870329727776232],[97.61517310815246,3.8727308843618133],[97.59559091199104,3.896821590557304],[97.53149209468448,3.9126438345418855],[97.52570748171496,3.9066899682702707],[97.49237788633047,3.9254884277316386],[97.47355079693182,3.915201182682289]]]}},{"type":"Feature","properties":{"code":"1113082006","desa":"Blangtemung","kecamatan":"Dabun Gelang","kecCode":"111308"},"geometry":{"type":"Polygon","coordinates":[[[97.50196164301548,3.993784606684662],[97.50128687089243,3.993933910331984],[97.50221068507511,3.9940113563492425],[97.50196164301548,3.993784606684662]]]}},{"type":"Feature","properties":{"code":"1113082007","desa":"Rerebe","kecamatan":"Dabun Gelang","kecCode":"111308"},"geometry":{"type":"Polygon","coordinates":[[[97.35984611480642,3.9924373584092034],[97.3512310134006,4.011202770483478],[97.36358413699838,4.016365063383489],[97.37508835544331,4.005879548400087],[97.35984611480642,3.9924373584092034]]]}},{"type":"Feature","properties":{"code":"1113082008","desa":"Uning Gelung","kecamatan":"Dabun Gelang","kecCode":"111308"},"geometry":{"type":"Polygon","coordinates":[[[97.42169292988486,4.031123779010132],[97.38649424741163,4.005886732184547],[97.36652983578334,4.014800547895169],[97.37649614967762,4.031768098289345],[97.39343605223205,4.030962995516885],[97.41243286438527,4.042976408292958],[97.42167697771042,4.038805250124961],[97.42169292988486,4.031123779010132]]]}},{"type":"Feature","properties":{"code":"1113082009","desa":"Uning Sepakat","kecamatan":"Dabun Gelang","kecCode":"111308"},"geometry":{"type":"Polygon","coordinates":[[[97.3492297817291,4.017852924257996],[97.33460859491076,4.035551593797225],[97.33916701824334,4.042301143342145],[97.33426969978687,4.04770651129977],[97.34114180714874,4.0463562511947995],[97.34395303930135,4.055964656488296],[97.36243229521432,4.064297809631995],[97.36543474661629,4.072823708174366],[97.37362559464553,4.072174263658827],[97.37589381165013,4.078086173859048],[97.38109790594365,4.073755284404649],[97.39116718231968,4.089101709685746],[97.39417658188381,4.068767661429504],[97.40523896430682,4.056522374651855],[97.39628172392247,4.045472807579721],[97.40777616763609,4.036230101703319],[97.3928295782225,4.030875756781931],[97.35766110937277,4.033858048977823],[97.3492297817291,4.017852924257996]]]}},{"type":"Feature","properties":{"code":"1113092001","desa":"Penosan","kecamatan":"Blangjerango","kecCode":"111309"},"geometry":{"type":"Polygon","coordinates":[[[97.27232123973344,4.014989120439547],[97.26501325705622,4.001055626318842],[97.24036346839937,4.004300779556657],[97.2314727706519,3.9906496932425086],[97.21780683741564,3.9865301849382506],[97.23152527487161,4.003399032939252],[97.22380858629725,4.014817283379089],[97.2541287767217,4.014204224534139],[97.26100278614973,4.007629426752405],[97.27232123973344,4.014989120439547]]]}},{"type":"Feature","properties":{"code":"1113092002","desa":"Sekuelen","kecamatan":"Blangjerango","kecCode":"111309"},"geometry":{"type":"Polygon","coordinates":[[[97.21696547937341,4.057873675272486],[97.23382680276478,4.061663548772345],[97.24698578096904,4.051320710332042],[97.23266944903588,4.023440034409097],[97.2204974210192,4.016887332970028],[97.18485353995897,4.02555837219789],[97.18955918320978,4.033499594499064],[97.21264278813423,4.040896488642574],[97.21696547937341,4.057873675272486]]]}},{"type":"Feature","properties":{"code":"1113092003","desa":"Akul","kecamatan":"Blangjerango","kecCode":"111309"},"geometry":{"type":"Polygon","coordinates":[[[97.19332588658045,4.065955503877448],[97.21696547937341,4.057873675272486],[97.21264278813423,4.040896488642574],[97.18916355435458,4.033179217315753],[97.18038958681007,4.009570227577651],[97.142901108999,3.9726317023240463],[97.12850735622958,3.9900089784460304],[97.14744469981308,4.038148091224879],[97.14578648485845,4.052124151157323],[97.15372600744934,4.050121044401476],[97.15951825476373,4.061173454230627],[97.17714391466,4.055526913281494],[97.19332588658045,4.065955503877448]]]}},{"type":"Feature","properties":{"code":"1113092004","desa":"Gegarang","kecamatan":"Blangjerango","kecCode":"111309"},"geometry":{"type":"Polygon","coordinates":[[[97.27303446416927,4.027164182755971],[97.27663209229729,4.021435758534578],[97.27349492155342,4.017314443492324],[97.2678028829967,4.023641408802774],[97.27303446416927,4.027164182755971]]]}},{"type":"Feature","properties":{"code":"1113092005","desa":"Peparik Gaib","kecamatan":"Blangjerango","kecCode":"111309"},"geometry":{"type":"Polygon","coordinates":[[[97.2553330867526,4.049216990123736],[97.27418287863702,4.027321589294853],[97.2507135212121,4.010997908518898],[97.2342662357982,4.016811193667687],[97.22220014432128,4.01393377501279],[97.24447722914088,4.0403826484015966],[97.2422132038763,4.049506213892092],[97.2553330867526,4.049216990123736]]]}},{"type":"Feature","properties":{"code":"1113092006","desa":"Penosan Sepakat","kecamatan":"Blangjerango","kecCode":"111309"},"geometry":{"type":"Polygon","coordinates":[[[97.10815327825121,3.8529725586965675],[97.11511182215291,3.8663469110268784],[97.1084608023242,3.872322669494952],[97.10869096491614,3.887498707422665],[97.11703856657662,3.903422055889516],[97.1232915662528,3.8975369976468883],[97.1729735739713,3.9083786342676192],[97.18767658200869,3.9366272228391566],[97.19828818285337,3.941383163368332],[97.1911054316704,3.9595866520490364],[97.20533869142754,3.985395303469823],[97.21653045211873,3.9824509239934347],[97.2314727706519,3.9906496932425086],[97.24036346839937,4.004300779556657],[97.267756064291,4.000841124521243],[97.2590191632039,3.9836818827338787],[97.2385102993109,3.9697297627543],[97.23648498559368,3.9569558796596227],[97.22663806389558,3.9525710947343953],[97.220944394868,3.9281713464105836],[97.19742924216585,3.909641154715264],[97.20006650496526,3.896193397920966],[97.19232993777648,3.8963008785965556],[97.17462483356928,3.802891716992382],[97.14756156671297,3.7945570475918013],[97.13732315573911,3.7807863208688577],[97.11203622079499,3.8317492023463755],[97.10815327825121,3.8529725586965675]]]}},{"type":"Feature","properties":{"code":"1113092007","desa":"Tingkem","kecamatan":"Blangjerango","kecCode":"111309"},"geometry":{"type":"Polygon","coordinates":[[[97.11703856657662,3.903422055889516],[97.11812788479409,3.923814587058181],[97.1052084787883,3.943041352240895],[97.1417223244258,3.9510212804634803],[97.14901593323877,3.959999398599613],[97.14396113809612,3.973125967921467],[97.18038958681007,4.009570227577651],[97.18485353995897,4.02555837219789],[97.2214392459245,4.016949088515504],[97.2313912453098,4.00303863142836],[97.21665422131531,3.9825416862721537],[97.20546941058488,3.98546126604387],[97.19923878783987,3.9782637920672292],[97.1910937971411,3.959455017381985],[97.19828818285337,3.941383163368332],[97.18767658200869,3.9366272228391566],[97.17334769284179,3.9087568450530097],[97.1232915662528,3.8975369976468883],[97.11703856657662,3.903422055889516]]]}},{"type":"Feature","properties":{"code":"1113092008","desa":"Ketukah","kecamatan":"Blangjerango","kecCode":"111309"},"geometry":{"type":"Polygon","coordinates":[[[97.1052084787883,3.943041352240895],[97.08183540098304,3.9476419987386495],[97.07995472612974,3.988784203444035],[97.08930935084594,4.012145287865714],[97.09511155365531,4.017157619714057],[97.10959315939685,4.010125435733434],[97.114754468444,4.019111184617109],[97.12093523277484,4.037572224742503],[97.11643516285255,4.039153751806619],[97.1178580324223,4.0509294683702075],[97.12343225529439,4.054170618725589],[97.11691343400781,4.0560948621326816],[97.12033620605114,4.069226501832172],[97.13293684286106,4.060644685243683],[97.15687573542691,4.05770046224935],[97.15372600744934,4.050121044401476],[97.14518130587264,4.051183942334732],[97.14744469981308,4.038148091224879],[97.12850735622958,3.9900089784460304],[97.14901593323877,3.959999398599613],[97.14040287329402,3.950106837217548],[97.1052084787883,3.943041352240895]]]}},{"type":"Feature","properties":{"code":"1113092009","desa":"Peparik Dekat","kecamatan":"Blangjerango","kecCode":"111309"},"geometry":{"type":"Polygon","coordinates":[[[97.26705541507538,4.0145864795707595],[97.25898628668784,4.007697246426476],[97.2540138820351,4.0161389099694755],[97.2674788356798,4.026497121420819],[97.26705541507538,4.0145864795707595]]]}},{"type":"Feature","properties":{"code":"1113092010","desa":"Blang Jerango","kecamatan":"Blangjerango","kecCode":"111309"},"geometry":{"type":"Polygon","coordinates":[[[97.2697911383504,4.01863923030038],[97.27232123973344,4.014989120439547],[97.26705541507538,4.0145864795707595],[97.2697911383504,4.01863923030038]]]}},{"type":"Feature","properties":{"code":"1113102001","desa":"Perlak","kecamatan":"Teripe Jaya","kecCode":"111310"},"geometry":{"type":"Polygon","coordinates":[[[96.83658251876828,4.281600765169825],[96.85961088013806,4.24870106554299],[96.87748457755129,4.238239763906231],[96.88847648190415,4.2205669040103],[96.90945349238484,4.214630927052808],[96.9299800486404,4.199645298984303],[96.97302017544081,4.200180822779146],[96.9888070464081,4.175028258266349],[96.98763147511254,4.1623202550080585],[96.97797470516855,4.1577463003885615],[96.9889529407257,4.155749247868716],[97.00968552626608,4.136876245401493],[96.93002805714917,4.107284719904261],[96.92037873089379,4.109218071645016],[96.91616669493709,4.117271741577429],[96.87998660569734,4.127685561708117],[96.86979143592606,4.141051225688199],[96.83579131771518,4.1376475822284435],[96.83245795626969,4.147946348492601],[96.81231168283797,4.153577779032756],[96.78524888992438,4.1502459662233715],[96.77619886918251,4.160288521032845],[96.76709447812772,4.155587548865657],[96.75300171585656,4.162690408767249],[96.79356146838711,4.2031074136655135],[96.78977737932263,4.244403415031347],[96.79931279744773,4.264787832516812],[96.79366468897427,4.280400217903663],[96.83658251876828,4.281600765169825]],[[96.87875088144807,4.232363851768831],[96.87875145341688,4.232416150943033],[96.87874846856704,4.2323503502469455],[96.87875088144807,4.232363851768831]]]}},{"type":"Feature","properties":{"code":"1113102002","desa":"Rerebe","kecamatan":"Teripe Jaya","kecCode":"111310"},"geometry":{"type":"Polygon","coordinates":[[[97.02601222698274,4.112992890493821],[96.97890253662285,4.117988286309384],[96.95553359659827,4.114133700293186],[96.96742858576066,4.123247741063894],[96.97653926217724,4.121496005611535],[96.98742997211558,4.132766128717302],[96.9912574273884,4.128500062395886],[96.9952086743409,4.135306747669028],[97.00339331255138,4.1320534951369],[97.00968552626608,4.136876245401493],[97.04693722067623,4.112465715105562],[97.03514995500649,4.104238268275037],[97.02601222698274,4.112992890493821]]]}},{"type":"Feature","properties":{"code":"1113102003","desa":"Pasir","kecamatan":"Teripe Jaya","kecCode":"111310"},"geometry":{"type":"Polygon","coordinates":[[[97.08448657179791,4.074754617356441],[97.06943503959548,4.0840833316952585],[97.08344432589494,4.089600299223499],[97.08743968909043,4.099292431399422],[97.09238265983197,4.097469094623764],[97.08448657179791,4.074754617356441]]]}},{"type":"Feature","properties":{"code":"1113102004","desa":"Setul","kecamatan":"Teripe Jaya","kecCode":"111310"},"geometry":{"type":"Polygon","coordinates":[[[97.05604919571385,4.089511102664362],[97.03514995500649,4.104238268275037],[97.03960790608004,4.108547679221057],[97.05191807895623,4.1082275115797415],[97.06309037741903,4.0992273132887265],[97.05604919571385,4.089511102664362]]]}},{"type":"Feature","properties":{"code":"1113102005","desa":"UPT. Paya Kumer","kecamatan":"Teripe Jaya","kecCode":"111310"},"geometry":{"type":"Polygon","coordinates":[[[97.02239827076363,4.1307739505229835],[96.99495686416797,4.149205435328715],[97.0168798184489,4.163442515390868],[97.01979464980332,4.1808949865270915],[97.02987897003851,4.19062946328152],[97.0493110522633,4.198843891526149],[97.04936134235214,4.185136815220073],[97.02239827076363,4.1307739505229835]]]}},{"type":"Feature","properties":{"code":"1113102006","desa":"UPT. Pantan Kela","kecamatan":"Teripe Jaya","kecCode":"111310"},"geometry":{"type":"Polygon","coordinates":[[[96.98734616429408,4.183765921070039],[97.00537599390708,4.177043054410167],[97.00876352871391,4.198833309203668],[97.0240539451335,4.208443952010436],[97.04387495086836,4.211487386414205],[97.04932604665974,4.200515016247008],[97.02987897003851,4.19062946328152],[97.01979464980332,4.1808949865270915],[97.0168798184489,4.163442515390868],[96.99495195117169,4.149015436459536],[96.97797470516855,4.1577463003885615],[96.98868129600503,4.1642399721272625],[96.98734616429408,4.183765921070039]]]}},{"type":"Feature","properties":{"code":"1113102007","desa":"Buntul Musara","kecamatan":"Teripe Jaya","kecCode":"111310"},"geometry":{"type":"Polygon","coordinates":[[[97.03212398183638,4.125457122619245],[97.02127022234292,4.129564455901733],[97.04936134235214,4.185136815220073],[97.0493110522633,4.198843891526149],[97.07101788326877,4.194780717654033],[97.10290303794488,4.175706047614163],[97.09291233893333,4.158400369218046],[97.07733606310886,4.1551533067196065],[97.07921923717811,4.142090712470043],[97.07202554304443,4.132917591636818],[97.03212398183638,4.125457122619245]]]}},{"type":"Feature","properties":{"code":"1113102008","desa":"Kuala Jernih","kecamatan":"Teripe Jaya","kecCode":"111310"},"geometry":{"type":"Polygon","coordinates":[[[97.05488320579536,4.1036006759247305],[97.0326887093165,4.123950585523855],[97.03504802674507,4.128390779478978],[97.0407299686132,4.124297163555622],[97.05070039960384,4.1312007022157715],[97.07202554304443,4.132917591636818],[97.07921923717811,4.142090712470043],[97.07733606310886,4.1551533067196065],[97.09291233893333,4.158400369218046],[97.10360633566391,4.174570731773231],[97.1169887738129,4.162062445458081],[97.11918923139797,4.147591827648533],[97.08578068992692,4.139975842467016],[97.06894917366547,4.109612891109937],[97.05488320579536,4.1036006759247305]]]}},{"type":"Feature","properties":{"code":"1113102009","desa":"Uyem Beriring","kecamatan":"Teripe Jaya","kecCode":"111310"},"geometry":{"type":"Polygon","coordinates":[[[97.11691343400781,4.0560948621326816],[97.09363716372418,4.062775923807258],[97.08370799722633,4.076771911816894],[97.09238265983197,4.097469094623764],[97.12836476871917,4.121377319383257],[97.13210877769795,4.136477513885718],[97.14239810918542,4.12739029449564],[97.14663187006482,4.109759084901574],[97.11709326873942,4.067626957750195],[97.11691343400781,4.0560948621326816]]]}},{"type":"Feature","properties":{"code":"1113102010","desa":"Pulo Gelime","kecamatan":"Teripe Jaya","kecCode":"111310"},"geometry":{"type":"Polygon","coordinates":[[[97.06114559439374,4.089106427529178],[97.06305749460773,4.099320155699406],[97.05488320579536,4.1036006759247305],[97.07935786677217,4.120710724796274],[97.08578068992692,4.139975842467016],[97.12908761859876,4.146290570702462],[97.13287158085882,4.137499433310664],[97.1249971871705,4.117885299546119],[97.09756400667362,4.097266679714466],[97.08743968909043,4.099292431399422],[97.07964435660182,4.0871897393265915],[97.06943503959548,4.0840833316952585],[97.06114559439374,4.089106427529178]]]}},{"type":"Feature","properties":{"code":"1113112001","desa":"Seneren","kecamatan":"Pantan Cuaca","kecCode":"111311"},"geometry":{"type":"Polygon","coordinates":[[[97.22754025298035,4.116278423291444],[97.22581605116989,4.100926471676386],[97.23579887032167,4.09541843441609],[97.21766069578455,4.085025771735862],[97.2183432560365,4.110444667774211],[97.22754025298035,4.116278423291444]]]}},{"type":"Feature","properties":{"code":"1113112002","desa":"Remukut","kecamatan":"Pantan Cuaca","kecCode":"111311"},"geometry":{"type":"Polygon","coordinates":[[[97.06712788284558,4.225254449299345],[97.10982571868203,4.233998118674981],[97.12660091400102,4.226332887517552],[97.12741676277345,4.2106092227188485],[97.14196556136166,4.213944557273344],[97.16131154699036,4.172041692492147],[97.16785038538704,4.171684296515485],[97.1814641561459,4.149391176807288],[97.19520499031812,4.148521356122505],[97.20284579499747,4.140221825032753],[97.19209019200883,4.1135509620909785],[97.20517661021245,4.113495038648949],[97.21823661712625,4.095288817827699],[97.21670365435024,4.085552969607208],[97.22734943123135,4.088690002751439],[97.21911665231168,4.062709162635246],[97.19332588658045,4.065955503877448],[97.17692821676383,4.055527773932688],[97.1511640448848,4.064102779955337],[97.13502293725878,4.089853762350009],[97.14663187006482,4.109759084901574],[97.14369177585485,4.124748950575542],[97.13246753794658,4.133965895371952],[97.12868004404883,4.146713179218554],[97.11918923139797,4.147591827648533],[97.1169887738129,4.162062445458081],[97.0724586880181,4.194045679263481],[97.05648432009536,4.194554994116002],[97.04431158790953,4.203174778282586],[97.04549961841269,4.210362877726273],[97.03982767340847,4.211824139352658],[97.06712788284558,4.225254449299345]],[[97.07193818290085,4.221117462671117],[97.07181347840934,4.221126487367841],[97.07205592843842,4.221104152704841],[97.07193818290085,4.221117462671117]]]}},{"type":"Feature","properties":{"code":"1113112003","desa":"Kenyaran","kecamatan":"Pantan Cuaca","kecCode":"111311"},"geometry":{"type":"Polygon","coordinates":[[[97.19226301832366,4.1494600882583175],[97.18094073902391,4.151313787045507],[97.18769908034834,4.155657648321102],[97.18944852612861,4.17497792141288],[97.19946699800362,4.169727031801511],[97.19226301832366,4.1494600882583175]]]}},{"type":"Feature","properties":{"code":"1113112004","desa":"Tetingi","kecamatan":"Pantan Cuaca","kecCode":"111311"},"geometry":{"type":"Polygon","coordinates":[[[97.15719597771226,4.059750770822054],[97.14233629968055,4.05774695450105],[97.11785314370769,4.068458290149341],[97.13562242263674,4.089112017715046],[97.15719597771226,4.059750770822054]]]}},{"type":"Feature","properties":{"code":"1113112005","desa":"Atu Kapur","kecamatan":"Pantan Cuaca","kecCode":"111311"},"geometry":{"type":"Polygon","coordinates":[[[97.20297434229212,4.138849703308192],[97.19568227042049,4.148201881858538],[97.2088849475823,4.157526658066133],[97.21153507068702,4.146361405803307],[97.20297434229212,4.138849703308192]]]}},{"type":"Feature","properties":{"code":"1113112006","desa":"Suri Musara","kecamatan":"Pantan Cuaca","kecCode":"111311"},"geometry":{"type":"Polygon","coordinates":[[[97.10398857721111,4.234426959492891],[97.16201866143211,4.2790668092951805],[97.17747291814072,4.262645433366672],[97.19289777421294,4.259998283423424],[97.20626839706892,4.243578032546811],[97.19920921813097,4.231298084098898],[97.20557599373716,4.210711754425222],[97.20151756828119,4.19619192031745],[97.20839758518048,4.189681004078465],[97.21166867397018,4.168731648672143],[97.20498228200675,4.15022273223835],[97.19119454009603,4.149815562383774],[97.19946699800362,4.169727031801511],[97.18944852612861,4.17497792141288],[97.18769908034834,4.155657648321102],[97.18094073902391,4.151313787045507],[97.16785038538704,4.171684296515485],[97.16131154699036,4.172041692492147],[97.14196556136166,4.213944557273344],[97.12741676277345,4.2106092227188485],[97.12660091400102,4.226332887517552],[97.10398857721111,4.234426959492891]]]}},{"type":"Feature","properties":{"code":"1113112007","desa":"UPT. Aih Selah","kecamatan":"Pantan Cuaca","kecCode":"111311"},"geometry":{"type":"Polygon","coordinates":[[[97.23129096460639,4.205587077468349],[97.23693792914217,4.1764029736357555],[97.26224718795743,4.176889148032699],[97.2539736166891,4.165497742355827],[97.25987998437381,4.142887216824369],[97.2519501609712,4.14144116003578],[97.2434267814209,4.126071097873415],[97.22690392597546,4.137693168862862],[97.2270225969154,4.164813976113783],[97.23566248723404,4.179730659456306],[97.22585414914971,4.1970472745077565],[97.23129096460639,4.205587077468349]]]}},{"type":"Feature","properties":{"code":"1113112008","desa":"Cane Baru","kecamatan":"Pantan Cuaca","kecCode":"111311"},"geometry":{"type":"Polygon","coordinates":[[[97.20626839706892,4.243578032546811],[97.22239476210865,4.226038614955245],[97.23129096460639,4.205587077468349],[97.22546564022717,4.200956562686726],[97.22805239530184,4.189311592259999],[97.23539005830462,4.183632851085028],[97.2270225969154,4.164813976113783],[97.22800432923646,4.136458463546837],[97.2208961417436,4.134023954703912],[97.20168800779538,4.133732553676833],[97.21153507068702,4.146361405803307],[97.19920931975433,4.231074654731338],[97.20626839706892,4.243578032546811]]]}},{"type":"Feature","properties":{"code":"1113112009","desa":"Kuning Kurnia","kecamatan":"Pantan Cuaca","kecCode":"111311"},"geometry":{"type":"Polygon","coordinates":[[[97.23937436703345,4.128303838419574],[97.23294262260401,4.126358222624063],[97.23260837517643,4.1162802345260525],[97.22069519093036,4.115037940730561],[97.21804963188504,4.095708080865813],[97.20460937092575,4.113932388852017],[97.19209019200883,4.1135509620909785],[97.19290460726188,4.124862249864758],[97.20309162737675,4.134219768589364],[97.2276049645975,4.136570823044523],[97.23937436703345,4.128303838419574]]]}}]}