{"type":"FeatureCollection","features":[{"type":"Feature","properties":{"code":"1173012002","desa":"Alue Awe","kecamatan":"Muara Dua","kecCode":"117301","kabCode":"1173","province":"Aceh"},"geometry":{"type":"Polygon","coordinates":[[[97.15410345830797,5.142724928426623],[97.16015089904482,5.1338603290139515],[97.15597496727099,5.131277196411091],[97.1566374528562,5.128073757326945],[97.15117837018568,5.124346782410782],[97.14369703239218,5.129312984434269],[97.14484772034608,5.136365324020905],[97.14863930525978,5.140599158640318],[97.15410345830797,5.142724928426623]]]}},{"type":"Feature","properties":{"code":"1173012003","desa":"Blang Crum","kecamatan":"Muara Dua","kecCode":"117301","kabCode":"1173","province":"Aceh"},"geometry":{"type":"Polygon","coordinates":[[[97.15087262587105,5.14131621778454],[97.14484772034608,5.136365324020905],[97.14369703239218,5.129312984434269],[97.14696205615405,5.126614309633067],[97.1409436149559,5.127434139703336],[97.13808350285143,5.125554364174055],[97.13638456659453,5.1272628170551],[97.13293456937492,5.125172056077383],[97.13203073093352,5.129096127312239],[97.13740032386589,5.144471316510143],[97.1428261010438,5.148958235641569],[97.14969901869483,5.149237843858659],[97.15087262587105,5.14131621778454]]]}},{"type":"Feature","properties":{"code":"1173012004","desa":"Cut Mamplam","kecamatan":"Muara Dua","kecCode":"117301","kabCode":"1173","province":"Aceh"},"geometry":{"type":"Polygon","coordinates":[[[97.1502714812439,5.148948743297431],[97.1428261010438,5.148958235641569],[97.13757519703779,5.1459298549894665],[97.1348315075681,5.149123112848784],[97.13736414503933,5.154639130693066],[97.14628987857509,5.156777880394451],[97.14591412024048,5.153165633790219],[97.1502714812439,5.148948743297431]]]}},{"type":"Feature","properties":{"code":"1173012005","desa":"Meunasah Mee","kecamatan":"Muara Dua","kecCode":"117301","kabCode":"1173","province":"Aceh"},"geometry":{"type":"Polygon","coordinates":[[[97.14628987857509,5.156777880394451],[97.14212295531017,5.154252384442118],[97.13791963738139,5.153508207140944],[97.1334834885722,5.166947544482741],[97.13725435130732,5.168997641714896],[97.14329145343788,5.155452053970029],[97.14628987857509,5.156777880394451]]]}},{"type":"Feature","properties":{"code":"1173012006","desa":"Cot Girek Kandang","kecamatan":"Muara Dua","kecCode":"117301","kabCode":"1173","province":"Aceh"},"geometry":{"type":"Polygon","coordinates":[[[97.13736414503933,5.154639130693066],[97.12363922167282,5.131265562781114],[97.10860641875126,5.1350034662588],[97.11225929043394,5.148490857075385],[97.1332332324278,5.153865044638669],[97.1362973179669,5.156549396837023],[97.13736414503933,5.154639130693066]]]}},{"type":"Feature","properties":{"code":"1173012007","desa":"Keude Cunda","kecamatan":"Muara Dua","kecCode":"117301","kabCode":"1173","province":"Aceh"},"geometry":{"type":"Polygon","coordinates":[[[97.13319773438796,5.175520030605336],[97.13091306158856,5.172878599450902],[97.12811764941004,5.175174879797633],[97.13101050043427,5.177720255263737],[97.13319773438796,5.175520030605336]]]}},{"type":"Feature","properties":{"code":"1173012008","desa":"Uteunkot","kecamatan":"Muara Dua","kecCode":"117301","kabCode":"1173","province":"Aceh"},"geometry":{"type":"Polygon","coordinates":[[[97.13725435130732,5.168997641714896],[97.12741631940769,5.166007032588645],[97.12346306696702,5.172026354216866],[97.12613198320452,5.1722847753058705],[97.1265709989525,5.175002369145007],[97.13142628759316,5.172931048811924],[97.13319773438796,5.175520030605336],[97.13725435130732,5.168997641714896]]]}},{"type":"Feature","properties":{"code":"1173012009","desa":"Lhok Mon Puteh","kecamatan":"Muara Dua","kecCode":"117301","kabCode":"1173","province":"Aceh"},"geometry":{"type":"Polygon","coordinates":[[[97.12685755443266,5.161241741807937],[97.12646993943622,5.155695096652014],[97.12306129124566,5.153702451709444],[97.11476969666421,5.15306556083035],[97.10783515476861,5.15696073864655],[97.1110792162329,5.160951642099873],[97.1199476575584,5.161029907399509],[97.12118500058739,5.163236535230894],[97.12685755443266,5.161241741807937]]]}},{"type":"Feature","properties":{"code":"1173012010","desa":"Meunasah Mesjid","kecamatan":"Muara Dua","kecCode":"117301","kabCode":"1173","province":"Aceh"},"geometry":{"type":"Polygon","coordinates":[[[97.13277007168153,5.181776611375545],[97.12504489170846,5.171856885970674],[97.11993909241522,5.181538790157358],[97.12895469340441,5.188607353513616],[97.13277007168153,5.181776611375545]]]}},{"type":"Feature","properties":{"code":"1173012011","desa":"Mns. Panggoi","kecamatan":"Muara Dua","kecCode":"117301","kabCode":"1173","province":"Aceh"},"geometry":{"type":"Polygon","coordinates":[[[97.12895469340441,5.188607353513616],[97.11993909241522,5.181538790157358],[97.1151555435935,5.186986039542823],[97.11107179502737,5.1833870291605],[97.11095188662034,5.187807219495464],[97.10229364923259,5.191711703496244],[97.10489040207045,5.193807279444195],[97.10098446655996,5.198119310115427],[97.11511113327224,5.198659737913371],[97.12123083723338,5.194737587630374],[97.12422374143256,5.197137515742158],[97.12895469340441,5.188607353513616]]]}},{"type":"Feature","properties":{"code":"1173012013","desa":"Paya Bili","kecamatan":"Muara Dua","kecCode":"117301","kabCode":"1173","province":"Aceh"},"geometry":{"type":"Polygon","coordinates":[[[97.10165763878905,5.19277770678857],[97.11095188662034,5.187807219495464],[97.11107179502737,5.1833870291605],[97.10125943697352,5.178555681376956],[97.09379354683476,5.186832212305609],[97.10165763878905,5.19277770678857]]]}},{"type":"Feature","properties":{"code":"1173012014","desa":"Meunasah Alue","kecamatan":"Muara Dua","kecCode":"117301","kabCode":"1173","province":"Aceh"},"geometry":{"type":"Polygon","coordinates":[[[97.1151555435935,5.186986039542823],[97.12165940555718,5.180373948674305],[97.1206172010231,5.176376201380121],[97.11706066831526,5.176914268457718],[97.10938082676381,5.171331791613583],[97.10416750992272,5.17266971751682],[97.10137367335642,5.176541065097463],[97.10153601177757,5.178833850678741],[97.1151555435935,5.186986039542823]]]}},{"type":"Feature","properties":{"code":"1173012015","desa":"Paya Punteuet","kecamatan":"Muara Dua","kecCode":"117301","kabCode":"1173","province":"Aceh"},"geometry":{"type":"Polygon","coordinates":[[[97.12448917903241,5.172276985378318],[97.1189373807556,5.169258499966619],[97.11657322857171,5.163080242951948],[97.11397895786267,5.161966273419024],[97.10529909357835,5.166003439797048],[97.11706066831526,5.176914268457718],[97.12102051998106,5.176932995940017],[97.12448917903241,5.172276985378318]]]}},{"type":"Feature","properties":{"code":"1173012016","desa":"Blang Poroh","kecamatan":"Muara Dua","kecCode":"117301","kabCode":"1173","province":"Aceh"},"geometry":{"type":"Polygon","coordinates":[[[97.12344990359026,5.17120892353781],[97.12685755443266,5.161241741807937],[97.12118500058739,5.163236535230894],[97.12025103755542,5.161134009322173],[97.11779602956318,5.16164415424892],[97.11668978160823,5.1665295566832725],[97.12344990359026,5.17120892353781]]]}},{"type":"Feature","properties":{"code":"1173012024","desa":"Meunasah Manyang","kecamatan":"Muara Dua","kecCode":"117301","kabCode":"1173","province":"Aceh"},"geometry":{"type":"Polygon","coordinates":[[[97.14150232777028,5.14740246426146],[97.13511145033321,5.141004130551876],[97.13203073093352,5.129096127312239],[97.12363922167282,5.131265562781114],[97.13267809531789,5.147885793203464],[97.1348315075681,5.149123112848784],[97.13757519703779,5.1459298549894665],[97.14150232777028,5.14740246426146]]]}},{"type":"Feature","properties":{"code":"1173012025","desa":"Meunasah Blang","kecamatan":"Muara Dua","kecCode":"117301","kabCode":"1173","province":"Aceh"},"geometry":{"type":"Polygon","coordinates":[[[97.1334834885722,5.166947544482741],[97.13676090139454,5.158109743967687],[97.13473243105692,5.154403053260317],[97.11486487641298,5.150424358103702],[97.11531697280009,5.1533986841050305],[97.12646993943622,5.155695096652014],[97.1258161314094,5.166905277245955],[97.1334834885722,5.166947544482741]]]}},{"type":"Feature","properties":{"code":"1173012026","desa":"Paloh Batee","kecamatan":"Muara Dua","kecCode":"117301","kabCode":"1173","province":"Aceh"},"geometry":{"type":"Polygon","coordinates":[[[97.10218537535486,5.175454032957769],[97.10938082676381,5.171331791613583],[97.10846666680327,5.167939238593162],[97.10304676309771,5.16518853981027],[97.09839077141703,5.167376210832191],[97.10218537535486,5.175454032957769]]]}},{"type":"Feature","properties":{"code":"1173022001","desa":"Kuta Blang","kecamatan":"Banda Sakti","kecCode":"117302","kabCode":"1173","province":"Aceh"},"geometry":{"type":"Polygon","coordinates":[[[97.1310093960668,5.177722138444121],[97.13302316878429,5.186737925583767],[97.1385301295619,5.186255214476064],[97.14199242141318,5.182981027525219],[97.14032661258317,5.176600896093805],[97.1382468107418,5.182566657698357],[97.1310093960668,5.177722138444121]]]}},{"type":"Feature","properties":{"code":"1173022002","desa":"Tumpok Teungoh","kecamatan":"Banda Sakti","kecCode":"117302","kabCode":"1173","province":"Aceh"},"geometry":{"type":"Polygon","coordinates":[[[97.14199242141318,5.182981027525219],[97.13515911440169,5.186672871325003],[97.1333321200813,5.192521038478258],[97.13487029083132,5.195010445536159],[97.13843299558634,5.1955242282206],[97.1390858188555,5.191407157078855],[97.14196564769655,5.19109431981154],[97.14199242141318,5.182981027525219]]]}},{"type":"Feature","properties":{"code":"1173022003","desa":"Simpang Empat","kecamatan":"Banda Sakti","kecCode":"117302","kabCode":"1173","province":"Aceh"},"geometry":{"type":"Polygon","coordinates":[[[97.14061949029728,5.1778249786179416],[97.14199242141318,5.182981027525219],[97.14931796605133,5.178529795291201],[97.14762139321277,5.175684640713841],[97.14061949029728,5.1778249786179416]]]}},{"type":"Feature","properties":{"code":"1173022004","desa":"Kampung Jawa Lhokseumawe","kecamatan":"Banda Sakti","kecCode":"117302","kabCode":"1173","province":"Aceh"},"geometry":{"type":"Polygon","coordinates":[[[97.14931796605133,5.178529795291201],[97.14995224979656,5.184250017695702],[97.14564988233627,5.183968156676897],[97.14662281029449,5.1882554434013946],[97.15056856688592,5.188622713034847],[97.15392103802554,5.176671083682797],[97.14931796605133,5.178529795291201]]]}},{"type":"Feature","properties":{"code":"1173022005","desa":"Kota Lhokseumawe","kecamatan":"Banda Sakti","kecCode":"117302","kabCode":"1173","province":"Aceh"},"geometry":{"type":"Polygon","coordinates":[[[97.14762139321277,5.175684640713841],[97.14931796605133,5.178529795291201],[97.15392103802554,5.176671083682797],[97.1537662152387,5.173804729386918],[97.14762139321277,5.175684640713841]]]}},{"type":"Feature","properties":{"code":"1173022006","desa":"Mon Geudong","kecamatan":"Banda Sakti","kecCode":"117302","kabCode":"1173","province":"Aceh"},"geometry":{"type":"Polygon","coordinates":[[[97.13747034597975,5.1708264706503275],[97.1310093960668,5.177722138444121],[97.1382468107418,5.182566657698357],[97.14051477233892,5.170790343984453],[97.13747034597975,5.1708264706503275]]]}},{"type":"Feature","properties":{"code":"1173022007","desa":"Keude Aceh","kecamatan":"Banda Sakti","kecCode":"117302","kabCode":"1173","province":"Aceh"},"geometry":{"type":"Polygon","coordinates":[[[97.14119919778481,5.16345144711937],[97.13619785474725,5.172936636299816],[97.14019589162717,5.170422404356125],[97.14061949029728,5.1778249786179416],[97.14858154000615,5.1747795737995],[97.14072607704685,5.16768169344383],[97.14274910378815,5.164822559804638],[97.14119919778481,5.16345144711937]]]}},{"type":"Feature","properties":{"code":"1173022008","desa":"Pusong Lhokseumawe","kecamatan":"Banda Sakti","kecCode":"117302","kabCode":"1173","province":"Aceh"},"geometry":{"type":"Polygon","coordinates":[[[97.14858154000615,5.1747795737995],[97.15153520588511,5.1711048108232935],[97.1490857233275,5.168882268589023],[97.14965933700887,5.168113099128228],[97.14943090920916,5.1671958176218284],[97.15001446579502,5.167107612115634],[97.15083098366301,5.169759120173565],[97.15048817109225,5.166664619566027],[97.14613544609402,5.168042393529684],[97.14332942641198,5.16432027135527],[97.14072607704685,5.16768169344383],[97.14858154000615,5.1747795737995]]]}},{"type":"Feature","properties":{"code":"1173022009","desa":"Hagu Teungoh","kecamatan":"Banda Sakti","kecCode":"117302","kabCode":"1173","province":"Aceh"},"geometry":{"type":"Polygon","coordinates":[[[97.14807092923007,5.193007238056203],[97.1390858188555,5.191407157078855],[97.13793467494536,5.197921374729251],[97.14070289522247,5.200612368420907],[97.14807092923007,5.193007238056203]]]}},{"type":"Feature","properties":{"code":"1173022010","desa":"Uteun Bayi","kecamatan":"Banda Sakti","kecCode":"117302","kabCode":"1173","province":"Aceh"},"geometry":{"type":"Polygon","coordinates":[[[97.13148584159835,5.184645569208767],[97.12739608466164,5.190322491954812],[97.13000214997929,5.191757407941917],[97.12751875668533,5.196276092926602],[97.13072507360334,5.196794356932755],[97.13128662108073,5.199523918949628],[97.13487029083132,5.195010445536159],[97.1333321200813,5.192521038478258],[97.13480131642768,5.187305342935631],[97.13148584159835,5.184645569208767]]]}},{"type":"Feature","properties":{"code":"1173022011","desa":"Ujong Blang","kecamatan":"Banda Sakti","kecCode":"117302","kabCode":"1173","province":"Aceh"},"geometry":{"type":"Polygon","coordinates":[[[97.1259627253995,5.208127754539373],[97.12347931142114,5.205733746664708],[97.12458499460188,5.201955284662154],[97.11890659426398,5.203077283342275],[97.11551783278179,5.1982680984512255],[97.11441662372829,5.201851874318094],[97.11144781506465,5.202058180593893],[97.11393555658071,5.205284475947864],[97.11242598966777,5.211358753347652],[97.11633578237053,5.215892637774286],[97.1180093073837,5.216276904594348],[97.11618147489519,5.215092751069673],[97.11756601535937,5.212269869102144],[97.1259627253995,5.208127754539373]]]}},{"type":"Feature","properties":{"code":"1173022012","desa":"Hagu Selatan","kecamatan":"Banda Sakti","kecCode":"117302","kabCode":"1173","province":"Aceh"},"geometry":{"type":"Polygon","coordinates":[[[97.14306434674226,5.187342759229282],[97.14196564769655,5.19109431981154],[97.14807092923007,5.193007238056203],[97.15065066959276,5.188775584292712],[97.14306434674226,5.187342759229282]]]}},{"type":"Feature","properties":{"code":"1173022013","desa":"Pusong Baru","kecamatan":"Banda Sakti","kecCode":"117302","kabCode":"1173","province":"Aceh"},"geometry":{"type":"Polygon","coordinates":[[[97.14978296770983,5.174623124139212],[97.15342803687446,5.173895508752833],[97.15343964262547,5.173057692241641],[97.15088364796202,5.168195609227855],[97.1533693749967,5.1729648444350635],[97.14916788988626,5.17202336666908],[97.14978296770983,5.174623124139212]]]}},{"type":"Feature","properties":{"code":"1173022014","desa":"Ulee Jalan","kecamatan":"Banda Sakti","kecCode":"117302","kabCode":"1173","province":"Aceh"},"geometry":{"type":"Polygon","coordinates":[[[97.13108372683257,5.2057151819596665],[97.12961166704486,5.196672957449901],[97.12499885001698,5.200454442073871],[97.12347931142114,5.205733746664708],[97.1259627253995,5.208127754539373],[97.13108372683257,5.2057151819596665]]]}},{"type":"Feature","properties":{"code":"1173022015","desa":"Banda Masen","kecamatan":"Banda Sakti","kecCode":"117302","kabCode":"1173","province":"Aceh"},"geometry":{"type":"Polygon","coordinates":[[[97.12739608466164,5.190322491954812],[97.1251817199605,5.1966644597558895],[97.12123083723338,5.194737587630374],[97.11551783278179,5.1982680984512255],[97.11890659426398,5.203077283342275],[97.12949469402497,5.198018153472496],[97.12751875668533,5.196276092926602],[97.13000214997929,5.191757407941917],[97.12739608466164,5.190322491954812]]]}},{"type":"Feature","properties":{"code":"1173022016","desa":"Lancang Garam","kecamatan":"Banda Sakti","kecCode":"117302","kabCode":"1173","province":"Aceh"},"geometry":{"type":"Polygon","coordinates":[[[97.14808428955835,5.178983635463303],[97.1444812394177,5.180320471388195],[97.14564988233627,5.183968156676897],[97.14995224979656,5.184250017695702],[97.14808428955835,5.178983635463303]]]}},{"type":"Feature","properties":{"code":"1173022017","desa":"Jawa Baroe","kecamatan":"Banda Sakti","kecCode":"117302","kabCode":"1173","province":"Aceh"},"geometry":{"type":"Polygon","coordinates":[[[97.14199242141318,5.182981027525219],[97.14270311965333,5.187409388200996],[97.14659652041314,5.1880389900749915],[97.14490717632519,5.181657627471658],[97.14199242141318,5.182981027525219]]]}},{"type":"Feature","properties":{"code":"1173022018","desa":"Hagu Barat Laut","kecamatan":"Banda Sakti","kecCode":"117302","kabCode":"1173","province":"Aceh"},"geometry":{"type":"Polygon","coordinates":[[[97.13843299558634,5.1955242282206],[97.13465876399083,5.195042476689465],[97.1314364229526,5.198761789381776],[97.13108372683257,5.2057151819596665],[97.14070289522247,5.200612368420907],[97.13843299558634,5.1955242282206]]]}},{"type":"Feature","properties":{"code":"1173032001","desa":"Kuala","kecamatan":"Blang Mangat","kecCode":"117303","kabCode":"1173","province":"Aceh"},"geometry":{"type":"Polygon","coordinates":[[[97.15709040539791,5.139203721991714],[97.15461126769588,5.142637598860106],[97.15087262587105,5.14131621778454],[97.15077031180049,5.150275159677063],[97.1482104383611,5.153097179194764],[97.16378772592287,5.1454089847480144],[97.15709040539791,5.139203721991714]]]}},{"type":"Feature","properties":{"code":"1173032002","desa":"Blang Cut","kecamatan":"Blang Mangat","kecCode":"117303","kabCode":"1173","province":"Aceh"},"geometry":{"type":"Polygon","coordinates":[[[97.16015089904482,5.1338603290139515],[97.15709040539791,5.139203721991714],[97.16105366189703,5.142357707356586],[97.167489216754,5.136700773841713],[97.16850735543015,5.132958864783704],[97.16015089904482,5.1338603290139515]]]}},{"type":"Feature","properties":{"code":"1173032003","desa":"Jambo Mesjid","kecamatan":"Blang Mangat","kecCode":"117303","kabCode":"1173","province":"Aceh"},"geometry":{"type":"Polygon","coordinates":[[[97.16105366189703,5.142357707356586],[97.16378772592287,5.1454089847480144],[97.16761846821777,5.1441231430810905],[97.16573912885775,5.139708185001706],[97.16105366189703,5.142357707356586]]]}},{"type":"Feature","properties":{"code":"1173032004","desa":"Jambo Timu","kecamatan":"Blang Mangat","kecCode":"117303","kabCode":"1173","province":"Aceh"},"geometry":{"type":"Polygon","coordinates":[[[97.16761846821777,5.1441231430810905],[97.1787688726854,5.139649077060324],[97.17697644740518,5.1323164223894935],[97.16626398579439,5.139930759114019],[97.16761846821777,5.1441231430810905]]]}},{"type":"Feature","properties":{"code":"1173032005","desa":"Tunong","kecamatan":"Blang Mangat","kecCode":"117303","kabCode":"1173","province":"Aceh"},"geometry":{"type":"Polygon","coordinates":[[[97.17667776007062,5.1292524888389535],[97.17670741521509,5.126974199429792],[97.17268945295594,5.12798711933906],[97.1693963838361,5.125908220419133],[97.16852411609513,5.121727597785745],[97.16096912922198,5.125507016666991],[97.15597496727099,5.131277196411091],[97.16015089904482,5.1338603290139515],[97.16156617923582,5.130813431320894],[97.16890295640638,5.131862737800106],[97.17667776007062,5.1292524888389535]]]}},{"type":"Feature","properties":{"code":"1173032006","desa":"Blang Teue","kecamatan":"Blang Mangat","kecCode":"117303","kabCode":"1173","province":"Aceh"},"geometry":{"type":"Polygon","coordinates":[[[97.17697644740518,5.1323164223894935],[97.17497440274656,5.1311945046483585],[97.17667776007062,5.1292524888389535],[97.16961724024348,5.13014702828949],[97.16407833644615,5.140500977854027],[97.17697644740518,5.1323164223894935]]]}},{"type":"Feature","properties":{"code":"1173032007","desa":"Teungoh","kecamatan":"Blang Mangat","kecCode":"117303","kabCode":"1173","province":"Aceh"},"geometry":{"type":"Polygon","coordinates":[[[97.16050101321126,5.1330443750217],[97.16850735543015,5.132958864783704],[97.16890295640638,5.131862737800106],[97.16156617923582,5.130813431320894],[97.16050101321126,5.1330443750217]]]}},{"type":"Feature","properties":{"code":"1173032008","desa":"Baloi","kecamatan":"Blang Mangat","kecCode":"117303","kabCode":"1173","province":"Aceh"},"geometry":{"type":"Polygon","coordinates":[[[97.17670741521509,5.126974199429792],[97.17459212162919,5.122555830221946],[97.17655425617403,5.120012826268058],[97.16876758595537,5.121061184861857],[97.1693963838361,5.125908220419133],[97.17268945295594,5.12798711933906],[97.17670741521509,5.126974199429792]]]}},{"type":"Feature","properties":{"code":"1173032009","desa":"Mane Kareung","kecamatan":"Blang Mangat","kecCode":"117303","kabCode":"1173","province":"Aceh"},"geometry":{"type":"Polygon","coordinates":[[[97.17631424330771,5.094162176506803],[97.17818209832522,5.085116109193919],[97.17597209083935,5.081946427062055],[97.16776884655508,5.08433231136072],[97.15975086081362,5.081354423144772],[97.15776787188985,5.084205836104214],[97.16882605537818,5.093992159674173],[97.17631424330771,5.094162176506803]]]}},{"type":"Feature","properties":{"code":"1173032010","desa":"Asan Kareung","kecamatan":"Blang Mangat","kecCode":"117303","kabCode":"1173","province":"Aceh"},"geometry":{"type":"Polygon","coordinates":[[[97.1730863777342,5.100066801299381],[97.17482005300307,5.094637018546622],[97.16726178180583,5.093131009353226],[97.16524483178364,5.0888981262164785],[97.1563936664346,5.085772786057386],[97.1540764984317,5.080341263116523],[97.15212863882566,5.080375557863417],[97.1537348828586,5.086483187520504],[97.14914217197372,5.089911408552577],[97.15533208780566,5.096791947051611],[97.16120178473466,5.099813366051838],[97.1730863777342,5.100066801299381]]]}},{"type":"Feature","properties":{"code":"1173032011","desa":"Rayeuk Kareung","kecamatan":"Blang Mangat","kecCode":"117303","kabCode":"1173","province":"Aceh"},"geometry":{"type":"Polygon","coordinates":[[[97.1732340482128,5.104989425773837],[97.1730863777342,5.100066801299381],[97.16120178473466,5.099813366051838],[97.1491416548635,5.089877022074841],[97.14518047130177,5.092451101202662],[97.14032379410787,5.090196331762888],[97.14282368726339,5.096414900888269],[97.1479548474383,5.097652825777274],[97.15616492387221,5.110055027165099],[97.16680771230614,5.109934179865952],[97.16702288589755,5.107224036010679],[97.1732340482128,5.104989425773837]]]}},{"type":"Feature","properties":{"code":"1173032012","desa":"Blang Punteuet","kecamatan":"Blang Mangat","kecCode":"117303","kabCode":"1173","province":"Aceh"},"geometry":{"type":"Polygon","coordinates":[[[97.17334615140385,5.105467143845631],[97.16702288589755,5.107224036010679],[97.16744870679247,5.109591466220998],[97.16349429422637,5.113474598517711],[97.17228954242847,5.115563390879446],[97.17334615140385,5.105467143845631]]]}},{"type":"Feature","properties":{"code":"1173032013","desa":"Kumbang Punteuet","kecamatan":"Blang Mangat","kecCode":"117303","kabCode":"1173","province":"Aceh"},"geometry":{"type":"Polygon","coordinates":[[[97.16495188032506,5.110136223355291],[97.16140519429432,5.111364490424914],[97.1535197524347,5.11093908681578],[97.15685642968053,5.116963175750237],[97.16608916298452,5.115362628024772],[97.16349429422637,5.113474598517711],[97.16495188032506,5.110136223355291]]]}},{"type":"Feature","properties":{"code":"1173032014","desa":"Mesjid Punteuet","kecamatan":"Blang Mangat","kecCode":"117303","kabCode":"1173","province":"Aceh"},"geometry":{"type":"Polygon","coordinates":[[[97.14568690922351,5.115675439211689],[97.15754783566416,5.129724061843163],[97.16380663776619,5.123452829318223],[97.16716481240621,5.123488929004493],[97.16716970741611,5.116039784249833],[97.15685642968053,5.116963175750237],[97.1535197524347,5.11093908681578],[97.15616492387221,5.110055027165099],[97.15449921756486,5.106863523883078],[97.14721806706017,5.1029374138851935],[97.14774752223042,5.11354582212573],[97.14568690922351,5.115675439211689]]]}},{"type":"Feature","properties":{"code":"1173032015","desa":"Ulee Blang Mane","kecamatan":"Blang Mangat","kecCode":"117303","kabCode":"1173","province":"Aceh"},"geometry":{"type":"Polygon","coordinates":[[[97.17655425617403,5.120012826268058],[97.17571204377582,5.109444109605906],[97.17435358544968,5.10520734049865],[97.17228954242847,5.115563390879446],[97.16712561095822,5.1168994686758476],[97.1666797675573,5.1207964208545045],[97.16772324373278,5.12241257361609],[97.17655425617403,5.120012826268058]]]}},{"type":"Feature","properties":{"code":"1173032016","desa":"Keude Punteuet","kecamatan":"Blang Mangat","kecCode":"117303","kabCode":"1173","province":"Aceh"},"geometry":{"type":"Polygon","coordinates":[[[97.16712561095822,5.1168994686758476],[97.16894543858119,5.1147951998810255],[97.16608916298452,5.115362628024772],[97.16712561095822,5.1168994686758476]]]}},{"type":"Feature","properties":{"code":"1173032017","desa":"Alue Lim","kecamatan":"Blang Mangat","kecCode":"117303","kabCode":"1173","province":"Aceh"},"geometry":{"type":"Polygon","coordinates":[[[97.1011467887933,5.114341408272299],[97.10640439094993,5.114588539272347],[97.10714671115187,5.123932847855785],[97.11178497269839,5.134251150992393],[97.13203073093352,5.129096127312239],[97.13293456937492,5.125172056077383],[97.13638456659453,5.1272628170551],[97.14333417842965,5.125741749613334],[97.13759593990079,5.114056714389105],[97.12513615490967,5.105077024237686],[97.1258709909535,5.097340265501157],[97.1205167350593,5.10129840215585],[97.12199136421015,5.105194552139164],[97.11289823806328,5.108397732218574],[97.11082857068202,5.112449456821894],[97.1011467887933,5.114341408272299]]]}},{"type":"Feature","properties":{"code":"1173032018","desa":"Blang Buloh","kecamatan":"Blang Mangat","kecCode":"117303","kabCode":"1173","province":"Aceh"},"geometry":{"type":"Polygon","coordinates":[[[97.14032379410787,5.090196331762888],[97.12878221242919,5.092666356632169],[97.12515451366993,5.098408011679645],[97.12513615490967,5.105077024237686],[97.13759593990079,5.114056714389105],[97.14252754141296,5.125063603234647],[97.14773740575673,5.126555605487239],[97.15117837018568,5.124346782410782],[97.14568690922351,5.115675439211689],[97.14774752223042,5.11354582212573],[97.1462686617694,5.104685365889717],[97.14721806706017,5.1029374138851935],[97.15154899159273,5.105272715815376],[97.14913401332409,5.099104963781589],[97.14282368726339,5.096414900888269],[97.14032379410787,5.090196331762888]]]}},{"type":"Feature","properties":{"code":"1173032019","desa":"Blang Weu Panjoe","kecamatan":"Blang Mangat","kecCode":"117303","kabCode":"1173","province":"Aceh"},"geometry":{"type":"Polygon","coordinates":[[[97.08469308761596,5.14705400125066],[97.08389884955233,5.151736672214382],[97.08697354259499,5.156794619475654],[97.09096875740227,5.15673198079589],[97.08968261356183,5.155081914599977],[97.0937659682249,5.1514588878224075],[97.098582631883,5.153833044961662],[97.10616969487556,5.150767919809346],[97.10298083559712,5.148448611422319],[97.09299503159546,5.1504345438251695],[97.08469308761596,5.14705400125066]]]}},{"type":"Feature","properties":{"code":"1173032020","desa":"Jeulikat","kecamatan":"Blang Mangat","kecCode":"117303","kabCode":"1173","province":"Aceh"},"geometry":{"type":"Polygon","coordinates":[[[97.10867217627997,5.1286565953538705],[97.10238495560128,5.134687913038874],[97.10110214284968,5.133193540173399],[97.08932850100956,5.139926150987835],[97.08469308761596,5.14705400125066],[97.09299503159546,5.1504345438251695],[97.1030234760526,5.148454703429869],[97.10723553089507,5.15190676279145],[97.10813496715507,5.155875703001782],[97.11308027973122,5.154826361448987],[97.11594263744279,5.149285844273484],[97.11170449506648,5.148006872527686],[97.10860641875126,5.1350034662588],[97.11178497269839,5.134251150992393],[97.10867217627997,5.1286565953538705]]]}},{"type":"Feature","properties":{"code":"1173032021","desa":"Blang Weu Baroh","kecamatan":"Blang Mangat","kecCode":"117303","kabCode":"1173","province":"Aceh"},"geometry":{"type":"Polygon","coordinates":[[[97.11779602956318,5.16164415424892],[97.1110792162329,5.160951642099873],[97.1060586214083,5.15122052521232],[97.098582631883,5.153833044961662],[97.0937659682249,5.1514588878224075],[97.08968261356183,5.155081914599977],[97.09096875740227,5.15673198079589],[97.08659429309222,5.158550516091212],[97.08946619261076,5.168473568088336],[97.09182527621554,5.167707922171274],[97.0951215514185,5.171243812736591],[97.10126502176342,5.165736767428284],[97.11779602956318,5.16164415424892]]]}},{"type":"Feature","properties":{"code":"1173032022","desa":"Seuneubok","kecamatan":"Blang Mangat","kecCode":"117303","kabCode":"1173","province":"Aceh"},"geometry":{"type":"Polygon","coordinates":[[[97.08697354259499,5.156794619475654],[97.0746878816405,5.158262291469589],[97.07492879023154,5.162411269658173],[97.06894673470414,5.165084436988274],[97.08151357589087,5.173427742578836],[97.08803692796191,5.170806068630435],[97.09027098241995,5.168025485375937],[97.08697354259499,5.156794619475654]]]}},{"type":"Feature","properties":{"code":"1173042001","desa":"Batuphat Barat","kecamatan":"Muara Satu","kecCode":"117304","kabCode":"1173","province":"Aceh"},"geometry":{"type":"Polygon","coordinates":[[[97.03496570010702,5.220397453414416],[97.03778610714316,5.223609364112246],[97.03648379169368,5.227631733045334],[97.0429797297308,5.225667734207861],[97.05240267774144,5.2388615341483575],[97.06744138381288,5.233868164505133],[97.06245882041827,5.2196024869007145],[97.05074033399926,5.225888553742866],[97.04676795657599,5.216766487421855],[97.0403995945657,5.210235309457],[97.0369155238324,5.213397880649509],[97.03869873915556,5.2160041123390375],[97.03496570010702,5.220397453414416]]]}},{"type":"Feature","properties":{"code":"1173042002","desa":"Blang Panyang","kecamatan":"Muara Satu","kecCode":"117304","kabCode":"1173","province":"Aceh"},"geometry":{"type":"Polygon","coordinates":[[[97.11551783278179,5.1982680984512255],[97.10536446979448,5.199178172790769],[97.101621229736,5.206674981613767],[97.09186035427199,5.211144131940263],[97.09138524873032,5.215866200404082],[97.0947379024323,5.21586385047562],[97.09629647070562,5.219304822095661],[97.10088300144939,5.214384266961173],[97.10967335284299,5.210565293198433],[97.1112426608202,5.213132780295655],[97.10738213028117,5.2149334865313985],[97.10794522729047,5.219256877438816],[97.10906342813472,5.221669225187942],[97.11778232659314,5.216871752167881],[97.11231526333881,5.210860016321131],[97.11393555658071,5.205284475947864],[97.11139971842232,5.202226016570627],[97.11441662372829,5.201851874318094],[97.11551783278179,5.1982680984512255]]]}},{"type":"Feature","properties":{"code":"1173042003","desa":"Meunasah Dayah","kecamatan":"Muara Satu","kecCode":"117304","kabCode":"1173","province":"Aceh"},"geometry":{"type":"Polygon","coordinates":[[[97.10536446979448,5.199178172790769],[97.10092498000388,5.197845673396781],[97.10487985841877,5.193748644546149],[97.09379354683476,5.186832212305609],[97.08674194738302,5.1997640927943545],[97.09585379741485,5.209585632916291],[97.101621229736,5.206674981613767],[97.10536446979448,5.199178172790769]]]}},{"type":"Feature","properties":{"code":"1173042004","desa":"Paloh Punti","kecamatan":"Muara Satu","kecCode":"117304","kabCode":"1173","province":"Aceh"},"geometry":{"type":"Polygon","coordinates":[[[97.08582820920456,5.201672443382289],[97.10253923339894,5.174850359437636],[97.09851021307593,5.167967460218255],[97.0951215514185,5.171243812736591],[97.09126157755979,5.167722338303643],[97.08409303656447,5.1729632904065825],[97.08283084256935,5.176936234398685],[97.07850410438095,5.178823720715247],[97.08042797906802,5.186552955723483],[97.07307619041394,5.1819394408264134],[97.07452437140266,5.188143851924774],[97.07148498574355,5.1909462437388685],[97.07503945630594,5.19262639405584],[97.07772280666228,5.190672823756792],[97.08852795240313,5.191032861941611],[97.08582820920456,5.201672443382289]]]}},{"type":"Feature","properties":{"code":"1173042005","desa":"Blang Pulo","kecamatan":"Muara Satu","kecCode":"117304","kabCode":"1173","province":"Aceh"},"geometry":{"type":"Polygon","coordinates":[[[97.05460316860143,5.187851219725857],[97.05178671228701,5.188852936780459],[97.0515508812682,5.194399365199696],[97.05764574955172,5.19808094143974],[97.05357577500205,5.201718284524879],[97.06077282990223,5.210669618152965],[97.06245882041827,5.2196024869007145],[97.07511776657172,5.213986404190433],[97.0726275995841,5.210343391779018],[97.07793331007429,5.209383614608041],[97.07807944001422,5.206549145775215],[97.07239270835686,5.202860602487376],[97.0667370932423,5.192521267805349],[97.05967597356738,5.19147083267694],[97.05763017779054,5.193243815512039],[97.05460316860143,5.187851219725857]]]}},{"type":"Feature","properties":{"code":"1173042006","desa":"Batuphat Timur","kecamatan":"Muara Satu","kecCode":"117304","kabCode":"1173","province":"Aceh"},"geometry":{"type":"Polygon","coordinates":[[[97.03938071934475,5.2076103601777],[97.04676795657599,5.216766487421855],[97.05074033399926,5.225888553742866],[97.06245882041827,5.2196024869007145],[97.06077282990223,5.210669618152965],[97.05357577500205,5.201718284524879],[97.05048842490093,5.204492655262747],[97.04445743186507,5.203379274785707],[97.04400068058698,5.205731537929787],[97.03938071934475,5.2076103601777]]]}},{"type":"Feature","properties":{"code":"1173042007","desa":"Blang Naleung Mameh","kecamatan":"Muara Satu","kecCode":"117304","kabCode":"1173","province":"Aceh"},"geometry":{"type":"Polygon","coordinates":[[[97.03648379169368,5.227631733045334],[97.04587306908695,5.241785025071752],[97.05240267774144,5.2388615341483575],[97.0429797297308,5.225667734207861],[97.03648379169368,5.227631733045334]]]}},{"type":"Feature","properties":{"code":"1173042008","desa":"Cot Trieng","kecamatan":"Muara Satu","kecCode":"117304","kabCode":"1173","province":"Aceh"},"geometry":{"type":"Polygon","coordinates":[[[97.06919845224684,5.165314488963334],[97.0670673800556,5.166341199076868],[97.0654970108784,5.162065524398556],[97.06450754618633,5.170276671017357],[97.05796508621982,5.172430160607065],[97.06091401087296,5.178189788605562],[97.05445564471226,5.18624735530071],[97.05763017779054,5.193243815512039],[97.07334840440542,5.19011824242847],[97.07307619041394,5.1819394408264134],[97.08042797906802,5.186552955723483],[97.07850410438095,5.178823720715247],[97.08283084256935,5.176936234398685],[97.08642475020211,5.1707813984280655],[97.08151357589087,5.173427742578836],[97.06919845224684,5.165314488963334]]]}},{"type":"Feature","properties":{"code":"1173042009","desa":"Padang Sakti","kecamatan":"Muara Satu","kecCode":"117304","kabCode":"1173","province":"Aceh"},"geometry":{"type":"Polygon","coordinates":[[[97.08462025781868,5.191121568370203],[97.07772280666228,5.190672823756792],[97.07503945630594,5.19262639405584],[97.06888634343005,5.190316608589974],[97.06628382144127,5.192294967801874],[97.07479500528534,5.205800806411633],[97.07807944001422,5.206549145775215],[97.07775316957316,5.216121805715806],[97.08068105009045,5.215491725402497],[97.081815216599,5.2116949343173244],[97.08363817656065,5.2025117024060465],[97.08161649340649,5.200207694184966],[97.08462025781868,5.191121568370203]]]}},{"type":"Feature","properties":{"code":"1173042010","desa":"Meuria Paloh","kecamatan":"Muara Satu","kecCode":"117304","kabCode":"1173","province":"Aceh"},"geometry":{"type":"Polygon","coordinates":[[[97.06245882041827,5.2196024869007145],[97.06744138381288,5.233868164505133],[97.10439083406982,5.224232255245184],[97.10355078993706,5.221079920136205],[97.09724104303977,5.222900401564393],[97.0947379024323,5.21586385047562],[97.09138524873032,5.215866200404082],[97.09186035427199,5.211144131940263],[97.09512092279242,5.209328651641909],[97.09299171579511,5.204535217477154],[97.08582820920456,5.201672443382289],[97.08852795240313,5.191032861941611],[97.08462025781868,5.191121568370203],[97.08169602495165,5.199884485036546],[97.08363817656065,5.2025117024060465],[97.08068105009045,5.215491725402497],[97.07761325844518,5.216078975503386],[97.07793331007429,5.209383614608041],[97.07560461456136,5.209423479755644],[97.0726275995841,5.210343391779018],[97.07511776657172,5.213986404190433],[97.06245882041827,5.2196024869007145]]]}},{"type":"Feature","properties":{"code":"1173042011","desa":"Ujong Pacu","kecamatan":"Muara Satu","kecCode":"117304","kabCode":"1173","province":"Aceh"},"geometry":{"type":"Polygon","coordinates":[[[97.02626626387706,5.208954589429089],[97.0369155238324,5.213397880649509],[97.0403995945657,5.210235309457],[97.03946638066901,5.207490434683616],[97.04400068058698,5.205731537929787],[97.04445743186507,5.203379274785707],[97.05092578139976,5.204377481786349],[97.05764574955172,5.19808094143974],[97.0515508812682,5.194399365199696],[97.04805640897614,5.199286247918228],[97.0279889854034,5.196223451110716],[97.02664545762184,5.198088352752695],[97.03119900483027,5.204577203226121],[97.02626626387706,5.208954589429089]]]}}]}