{"type":"FeatureCollection","features":[{"type":"Feature","properties":{"code":"1174012007","desa":"Buket Medang Ara","kecamatan":"Langsa Timur","kecCode":"117401","kabCode":"1174","province":"Aceh"},"geometry":{"type":"Polygon","coordinates":[[[97.9957218749646,4.442509470073968],[97.99128150923435,4.432405467287032],[97.99210548428074,4.4298114735718945],[97.98694892005665,4.431331914186106],[97.99111406536188,4.447501147192956],[97.99401912558221,4.446847139517338],[97.9957218749646,4.442509470073968]]]}},{"type":"Feature","properties":{"code":"1174012009","desa":"Matang Seutui","kecamatan":"Langsa Timur","kecCode":"117401","kabCode":"1174","province":"Aceh"},"geometry":{"type":"Polygon","coordinates":[[[98.0055357016114,4.444209030458575],[98.01164260462258,4.442971592102778],[98.01246833784359,4.435609812887767],[98.00122889869475,4.436410035039456],[98.00093398041888,4.440681416354166],[98.0055357016114,4.444209030458575]]]}},{"type":"Feature","properties":{"code":"1174012010","desa":"Buket Pulo","kecamatan":"Langsa Timur","kecCode":"117401","kabCode":"1174","province":"Aceh"},"geometry":{"type":"Polygon","coordinates":[[[97.99321553097202,4.433863216161496],[97.99515724191325,4.4423274940567845],[97.99962307824251,4.442930596507332],[97.99977762044091,4.4336788065789206],[97.99321553097202,4.433863216161496]]]}},{"type":"Feature","properties":{"code":"1174012011","desa":"Matang Panyang","kecamatan":"Langsa Timur","kecCode":"117401","kabCode":"1174","province":"Aceh"},"geometry":{"type":"Polygon","coordinates":[[[98.00862662202103,4.443395255523653],[98.0055357016114,4.444209030458575],[97.9997817132555,4.440731842240584],[98.00138354341583,4.454424354026231],[98.00702021341222,4.456199252417214],[98.00514491920272,4.453757112826676],[98.00667830735806,4.450850890685313],[98.00789136869177,4.453039210118404],[98.0090477862264,4.451061877932355],[98.01036973477551,4.446192309861333],[98.00862662202103,4.443395255523653]]]}},{"type":"Feature","properties":{"code":"1174012012","desa":"Simpang Wie","kecamatan":"Langsa Timur","kecCode":"117401","kabCode":"1174","province":"Aceh"},"geometry":{"type":"Polygon","coordinates":[[[97.9957218749646,4.442509470073968],[97.99074901795285,4.449676568549258],[98.00026073084808,4.453317796705645],[98.00151932665567,4.444071568184651],[97.9957218749646,4.442509470073968]]]}},{"type":"Feature","properties":{"code":"1174012013","desa":"Buket Rata","kecamatan":"Langsa Timur","kecCode":"117401","kabCode":"1174","province":"Aceh"},"geometry":{"type":"Polygon","coordinates":[[[98.00226783868987,4.4052232120585995],[97.99525716738441,4.406299540467279],[97.99295150171048,4.409523428336059],[97.99018794801542,4.40798073129979],[97.98888872263649,4.410643176013094],[97.98258164132972,4.410840931534862],[97.9825410630197,4.419336368241047],[97.97195024101086,4.418028512969116],[97.97082454521666,4.423014527057186],[97.97879694971954,4.422440625593385],[97.98082684458325,4.427046067276332],[97.98952141188367,4.428297439727922],[97.99210548428074,4.4298114735718945],[97.99165535021427,4.433237071281449],[97.99977762044091,4.4336788065789206],[98.00097924869344,4.436403288325454],[98.01168583593267,4.435326887071664],[98.01454605055983,4.424882275952665],[98.01331204041838,4.420200196743],[98.01879517455772,4.422460213726869],[98.01954874078184,4.415668638862641],[98.01304321687104,4.411007769264099],[98.00239479778172,4.408521733764535],[98.00226783868987,4.4052232120585995]]]}},{"type":"Feature","properties":{"code":"1174012014","desa":"Buket Meutuah","kecamatan":"Langsa Timur","kecCode":"117401","kabCode":"1174","province":"Aceh"},"geometry":{"type":"Polygon","coordinates":[[[98.03740211981203,4.422956032453343],[98.03825242430997,4.416621158504719],[98.03242304129037,4.417480336612442],[98.02582005425215,4.408266955829142],[98.02554129769277,4.416058512955672],[98.01954874078184,4.415668638862641],[98.02081476229148,4.4229172878610195],[98.04083656955208,4.428781860446849],[98.03740211981203,4.422956032453343]]]}},{"type":"Feature","properties":{"code":"1174012015","desa":"Alue Merbau","kecamatan":"Langsa Timur","kecCode":"117401","kabCode":"1174","province":"Aceh"},"geometry":{"type":"Polygon","coordinates":[[[98.02446543962837,4.424773482266922],[98.01331204041838,4.420200196743],[98.01325208621488,4.429546375916075],[98.01612277794389,4.432241099995501],[98.01817063856417,4.4274452520504415],[98.01910129928558,4.430810057388428],[98.02287774501194,4.430274206240412],[98.03035710879362,4.436721898340937],[98.03218746208175,4.426003578557552],[98.02446543962837,4.424773482266922]]]}},{"type":"Feature","properties":{"code":"1174012016","desa":"Matang Cengai","kecamatan":"Langsa Timur","kecCode":"117401","kabCode":"1174","province":"Aceh"},"geometry":{"type":"Polygon","coordinates":[[[98.04325378893128,4.447076767012373],[98.04083656955208,4.428781860446849],[98.03239980101006,4.426497934087095],[98.03015384492407,4.446241461408394],[98.04325378893128,4.447076767012373]]]}},{"type":"Feature","properties":{"code":"1174012017","desa":"Seunebok Antara","kecamatan":"Langsa Timur","kecCode":"117401","kabCode":"1174","province":"Aceh"},"geometry":{"type":"Polygon","coordinates":[[[98.03035710879362,4.436721898340937],[98.02287774501194,4.430274206240412],[98.01910129928558,4.430810057388428],[98.01817063856417,4.4274452520504415],[98.01387895684842,4.433024699977833],[98.01857548097371,4.43658777974637],[98.01735778543349,4.439206392402491],[98.02829696163553,4.441156024570244],[98.03028403977667,4.445218021229836],[98.03035710879362,4.436721898340937]]]}},{"type":"Feature","properties":{"code":"1174012018","desa":"Alue Pineung","kecamatan":"Langsa Timur","kecCode":"117401","kabCode":"1174","province":"Aceh"},"geometry":{"type":"Polygon","coordinates":[[[98.01284141260116,4.4360828329011],[98.01164260462258,4.442971592102778],[98.00847868174581,4.4453707602873855],[98.01414459139983,4.447876494536976],[98.01604778078051,4.442781343222117],[98.01937608623746,4.443067842044651],[98.01557350171576,4.441568370023241],[98.01284141260116,4.4360828329011]]]}},{"type":"Feature","properties":{"code":"1174012019","desa":"Sukarejo","kecamatan":"Langsa Timur","kecCode":"117401","kabCode":"1174","province":"Aceh"},"geometry":{"type":"Polygon","coordinates":[[[98.02490556603908,4.447227971826459],[98.01604778078051,4.442781343222117],[98.01536525560213,4.446919950428736],[98.01257349736908,4.44748045649066],[98.01116417878387,4.457657149679869],[98.0133770766908,4.463717635975939],[98.017681521585,4.465951950335688],[98.02462003039015,4.461854517689577],[98.02329942992479,4.458942057850491],[98.02513042442962,4.453825265249915],[98.02490556603908,4.447227971826459]]]}},{"type":"Feature","properties":{"code":"1174012020","desa":"Cinta Raja","kecamatan":"Langsa Timur","kecCode":"117401","kabCode":"1174","province":"Aceh"},"geometry":{"type":"Polygon","coordinates":[[[98.04821288541636,4.469116863362722],[98.04325378893128,4.447076767012373],[98.03015384492407,4.446241461408394],[98.02829696163553,4.441156024570244],[98.02600196102172,4.441162682251373],[98.02345330842348,4.446274550164389],[98.02531007390087,4.448893594495137],[98.02462003039015,4.461854517689577],[98.02107225258241,4.464752701690536],[98.0262547199794,4.480241406913912],[98.03572973334059,4.477620429940164],[98.03954872869093,4.4671991085641585],[98.04565876134278,4.470364649317958],[98.04821288541636,4.469116863362722]]]}},{"type":"Feature","properties":{"code":"1174012021","desa":"Sungai Lueng","kecamatan":"Langsa Timur","kecCode":"117401","kabCode":"1174","province":"Aceh"},"geometry":{"type":"MultiPolygon","coordinates":[[[[98.0474858518906,4.465966165919253],[98.0480265154677,4.46660089883286],[98.0477570874197,4.466182029290449],[98.0474858518906,4.465966165919253]]],[[[98.07622231820545,4.5126976859141115],[98.06196128468558,4.510930572954078],[98.06128761693002,4.506071495474678],[98.06676326960928,4.493171635347731],[98.06239639557724,4.4877276037366505],[98.06348628486421,4.4829250594396886],[98.06115698230894,4.478260561076648],[98.05804079904368,4.479034844082584],[98.04815042966892,4.466793543530224],[98.04565876134278,4.470364649317958],[98.03954872869093,4.4671991085641585],[98.03572973334059,4.477620429940164],[98.02644507677894,4.480443660844618],[98.02289492026445,4.466059422917416],[98.01751020073523,4.465937672698904],[98.01207075296293,4.461783134901615],[98.01338749803466,4.449393377433215],[98.01036973477551,4.446192309861333],[98.00817690344137,4.452817920238004],[98.00691625358229,4.450727159260407],[98.00512334626546,4.454148987911248],[98.00941646329919,4.46259522540625],[98.0070812539967,4.467126741018515],[98.00786835593992,4.475070205329669],[98.01394092643265,4.476625776160971],[98.0064653676826,4.476929416961038],[98.00269123501255,4.483304372793911],[98.00743199409129,4.485321456813012],[98.01068816043033,4.4909420118517085],[98.0161486289561,4.485341973946171],[98.02063837735925,4.496918346785418],[98.03334194427536,4.50161640245121],[98.03348471344884,4.505114210325122],[98.02664436114839,4.514896572381287],[98.02830977337739,4.518405859201746],[98.04162336572578,4.529968211610326],[98.05498818435727,4.535682940056288],[98.06319638210744,4.546106876660842],[98.06826585418588,4.54476509806206],[98.06971280490211,4.547221794978486],[98.08116804536905,4.539594272394371],[98.08396113639736,4.5331217913809025],[98.07715893333818,4.521457388403249],[98.0788105715507,4.515927562368388],[98.07608391703921,4.515058308256508],[98.07622231820545,4.5126976859141115]]],[[[98.08448747181944,4.531386449670054],[98.0839901647144,4.531381691357142],[98.0843354252397,4.5320998117013325],[98.08448747181944,4.531386449670054]]],[[[98.06656293303297,4.54989979706384],[98.0685805971169,4.547969577661743],[98.06552417919754,4.546310499359628],[98.06489810176606,4.54724570975033],[98.06656293303297,4.54989979706384]]]]}},{"type":"Feature","properties":{"code":"1174012025","desa":"Alue Pineung Timue","kecamatan":"Langsa Timur","kecCode":"117401","kabCode":"1174","province":"Aceh"},"geometry":{"type":"Polygon","coordinates":[[[98.01168583593267,4.435326887071664],[98.01883543001115,4.443993843377574],[98.02508344024864,4.445248551414602],[98.02600196102172,4.441162682251373],[98.01735778543349,4.439206392402491],[98.01857548097371,4.43658777974637],[98.01387895684842,4.433024699977833],[98.01514449542219,4.4301518975429435],[98.01191940155915,4.430610264902205],[98.01168583593267,4.435326887071664]]]}},{"type":"Feature","properties":{"code":"1174012026","desa":"Kapa","kecamatan":"Langsa Timur","kecCode":"117401","kabCode":"1174","province":"Aceh"},"geometry":{"type":"Polygon","coordinates":[[[98.00697989590553,4.456180198481065],[98.00007137769198,4.453291081444918],[98.00047189795974,4.460710755415978],[98.00375059591335,4.4606866526858555],[98.00296589785796,4.462960022803363],[98.00692129338302,4.4646240905442065],[98.00341682422707,4.472376477699016],[98.00585353821025,4.472982271820483],[98.0064653676826,4.476929416961038],[98.01240617400576,4.477418137338661],[98.01394092643265,4.476625776160971],[98.00786835593992,4.475070205329669],[98.0070812539967,4.467126741018515],[98.00951164304797,4.463813509101849],[98.00697989590553,4.456180198481065]]]}},{"type":"Feature","properties":{"code":"1174022005","desa":"Lhok Banie","kecamatan":"Langsa Barat","kecCode":"117402","kabCode":"1174","province":"Aceh"},"geometry":{"type":"Polygon","coordinates":[[[97.98445409368156,4.494321278288185],[97.97689748623007,4.487783700747879],[97.96711124089107,4.489750909265638],[97.97074572773322,4.496483159451784],[97.98352174133538,4.50004776806787],[97.98445409368156,4.494321278288185]]]}},{"type":"Feature","properties":{"code":"1174022006","desa":"PB. Teungoh","kecamatan":"Langsa Barat","kecCode":"117402","kabCode":"1174","province":"Aceh"},"geometry":{"type":"Polygon","coordinates":[[[97.96939561241764,4.494973362313966],[97.96610079591505,4.487204531055507],[97.95884306105847,4.48830487316148],[97.9625344677915,4.4976658578733755],[97.96939561241764,4.494973362313966]]]}},{"type":"Feature","properties":{"code":"1174022007","desa":"PB. Beuramo","kecamatan":"Langsa Barat","kecCode":"117402","kabCode":"1174","province":"Aceh"},"geometry":{"type":"Polygon","coordinates":[[[97.96246090684541,4.497437858151202],[97.95884306105847,4.48830487316148],[97.96639161957762,4.487490891382509],[97.96381104644269,4.483615420410336],[97.95726952177108,4.486541968129287],[97.95885882437528,4.4868325822495],[97.95722935355188,4.495066382790406],[97.9588289605881,4.4975872103618695],[97.96246090684541,4.497437858151202]]]}},{"type":"Feature","properties":{"code":"1174022008","desa":"Simpang Lhee","kecamatan":"Langsa Barat","kecCode":"117402","kabCode":"1174","province":"Aceh"},"geometry":{"type":"Polygon","coordinates":[[[97.98301782870986,4.499692537658689],[97.96794013073253,4.494500184019924],[97.96482172794043,4.495922666879691],[97.9686920152244,4.503656455155321],[97.96562686668658,4.508311465670834],[97.97357166559992,4.517503552306683],[97.98173526057388,4.521970242987281],[97.97894693865037,4.523289158121739],[97.98326995274617,4.535062034626522],[97.98875384231603,4.529504326010942],[97.99520015126602,4.532393251491475],[97.99741999463707,4.525049588219666],[97.9874593140961,4.513218692852501],[97.98374989484181,4.517358375648272],[97.97703626780957,4.513325691491464],[97.97663021940917,4.511185725007434],[97.98021635060417,4.510018268295868],[97.98301782870986,4.499692537658689]]]}},{"type":"Feature","properties":{"code":"1174022009","desa":"Seuriget","kecamatan":"Langsa Barat","kecCode":"117402","kabCode":"1174","province":"Aceh"},"geometry":{"type":"Polygon","coordinates":[[[97.9605119185902,4.531828381918944],[97.9666646762339,4.530846731437237],[97.97918071381893,4.542194142279707],[97.98043388131862,4.546475038421682],[97.97512220292735,4.555351505287863],[97.97621292678518,4.5573955240022626],[97.98377095966214,4.547420865309131],[97.98542925015981,4.539561930974994],[97.98191571313968,4.535863341360589],[97.98326995274617,4.535062034626522],[97.97894693865037,4.523289158121739],[97.98173526057388,4.521970242987281],[97.97357166559992,4.517503552306683],[97.96649439859765,4.509595672370268],[97.9686920152244,4.503656455155321],[97.9648669746312,4.4972067134998515],[97.95972803981726,4.4991833109398165],[97.9562662039222,4.5071171435118575],[97.96056154497937,4.51191257237276],[97.96162742956227,4.51968897502353],[97.96782997907036,4.5192897003171915],[97.97043980265482,4.523668821312266],[97.96576842896985,4.522677396998513],[97.9605119185902,4.531828381918944]]]}},{"type":"Feature","properties":{"code":"1174022015","desa":"Matang Seulimeng","kecamatan":"Langsa Barat","kecCode":"117402","kabCode":"1174","province":"Aceh"},"geometry":{"type":"Polygon","coordinates":[[[97.96711124089107,4.489750909265638],[97.97689748623007,4.487783700747879],[97.98176662532954,4.49021763492403],[97.975678210581,4.4828923043321645],[97.97456276166217,4.477469967066741],[97.97271008000627,4.478691366913202],[97.97042389094985,4.475724988220888],[97.96660557908426,4.477291133280791],[97.96711124089107,4.489750909265638]]]}},{"type":"Feature","properties":{"code":"1174022016","desa":"Sungai Pauh","kecamatan":"Langsa Barat","kecCode":"117402","kabCode":"1174","province":"Aceh"},"geometry":{"type":"Polygon","coordinates":[[[97.975678210581,4.4828923043321645],[97.9849363020687,4.49809332182924],[97.97703626780957,4.513325691491464],[97.98374989484181,4.517358375648272],[97.9874593140961,4.513218692852501],[97.9906537509699,4.518105170875936],[97.99584695087611,4.51250563209411],[98.00808330020419,4.5135117522293475],[98.00521146094025,4.507967421928552],[98.00777197020034,4.5040548017613675],[97.99365310330813,4.496013585640542],[97.99090926634959,4.498309538633958],[97.98966397241448,4.498543757168059],[97.99143949583612,4.496567639066744],[97.98090853000474,4.482833682024654],[97.97817967215421,4.477640948871937],[97.97892894501483,4.477296423093086],[97.97789535059002,4.475077064458868],[97.97453160734784,4.477419165263747],[97.975678210581,4.4828923043321645]]]}},{"type":"Feature","properties":{"code":"1174022017","desa":"Kuala Langsa","kecamatan":"Langsa Barat","kecCode":"117402","kabCode":"1174","province":"Aceh"},"geometry":{"type":"MultiPolygon","coordinates":[[[[98.03685569803207,4.525285716014454],[98.026342286967,4.515916422466179],[98.03348471344884,4.505114210325122],[98.03186667840453,4.500022164369236],[98.02063837735925,4.496918346785418],[98.0161486289561,4.485341973946171],[98.01068816043033,4.4909420118517085],[98.00668829792663,4.484806693867575],[98.00439016857148,4.4885153936604],[97.99793911299973,4.486049547940768],[97.99900583844874,4.492309769166474],[97.99516468560182,4.494101670140049],[97.99535671424104,4.497139437915585],[98.00777197020034,4.5040548017613675],[98.00521146094025,4.507967421928552],[98.00808330020419,4.5135117522293475],[97.99584695087611,4.51250563209411],[97.9906537509699,4.518105170875936],[97.99699328161472,4.523337250267444],[98.00077371403573,4.523126902438363],[98.00177057115502,4.53069861129771],[98.01884778399807,4.537826437278703],[98.02524615638508,4.5370815333253045],[98.02815880508483,4.542540667251473],[98.03252616385146,4.5423932737642225],[98.03776666180202,4.546168832755149],[98.03895297639878,4.544394198764802],[98.03438512907051,4.532754874281746],[98.03685569803207,4.525285716014454]]],[[[98.03882027423634,4.536445640693611],[98.03785800234499,4.536504793601132],[98.03865371169951,4.537064301415635],[98.03882027423634,4.536445640693611]]]]}},{"type":"Feature","properties":{"code":"1174022018","desa":"Teulaga Tujuh","kecamatan":"Langsa Barat","kecCode":"117402","kabCode":"1174","province":"Aceh"},"geometry":{"type":"MultiPolygon","coordinates":[[[[98.047586903313,4.544717342262782],[98.04974901920194,4.538343784875659],[98.04146386556499,4.536787301232485],[98.04007924955776,4.540698459102067],[98.04196346324328,4.543670471147669],[98.047586903313,4.544717342262782]]],[[[98.06410665519805,4.551890571416528],[98.066198201286,4.5520241782968425],[98.06457064961586,4.550057790860016],[98.06410665519805,4.551890571416528]]],[[[98.06328281774789,4.557376399919006],[98.05912897422284,4.555480377237672],[98.05604995094455,4.56103879811627],[98.06049548507866,4.56021989075046],[98.06328281774789,4.557376399919006]]]]}},{"type":"Feature","properties":{"code":"1174022019","desa":"Serambi Indah","kecamatan":"Langsa Barat","kecCode":"117402","kabCode":"1174","province":"Aceh"},"geometry":{"type":"Polygon","coordinates":[[[97.96143193043928,4.497618522057527],[97.95869221057711,4.497486471903673],[97.9578995058576,4.500605655303995],[97.95998804371328,4.500142624959912],[97.96143193043928,4.497618522057527]]]}},{"type":"Feature","properties":{"code":"1174022020","desa":"Sungai Pauh Pusaka","kecamatan":"Langsa Barat","kecCode":"117402","kabCode":"1174","province":"Aceh"},"geometry":{"type":"Polygon","coordinates":[[[97.97892894501483,4.477296423093086],[97.98090853000474,4.482833682024654],[97.99143949583612,4.496567639066744],[97.98966397241448,4.498543757168059],[97.99551648869505,4.496825267853028],[97.99516468560182,4.494101670140049],[97.99900583844874,4.492309769166474],[97.99855685821251,4.48650063079147],[97.99286881984023,4.4857956693274],[97.99548860701368,4.484153840921451],[97.9902785789933,4.478003727291076],[97.98678680376804,4.48319184422367],[97.98422284920518,4.4790887620364765],[97.97892894501483,4.477296423093086]]]}},{"type":"Feature","properties":{"code":"1174022021","desa":"Sungai Pauh Tanjong","kecamatan":"Langsa Barat","kecCode":"117402","kabCode":"1174","province":"Aceh"},"geometry":{"type":"Polygon","coordinates":[[[98.00668829792663,4.484806693867575],[98.00266981855735,4.4831616063185615],[98.00690288066346,4.478764362185638],[98.00546092658055,4.472532553241326],[97.9941955249036,4.472163104550577],[97.98950798590488,4.47782622090443],[97.98067017099163,4.473817583719749],[97.98089381889469,4.478313449306767],[97.98432754557984,4.4791744224612575],[97.9861644908986,4.48306722067126],[97.98862961176722,4.482505667798481],[97.9902785789933,4.478003727291076],[97.99548860701368,4.484153840921451],[97.99361834990697,4.48647381480676],[98.00439016857148,4.4885153936604],[98.00668829792663,4.484806693867575]]]}},{"type":"Feature","properties":{"code":"1174022022","desa":"Sungai Pauh Firdaus","kecamatan":"Langsa Barat","kecCode":"117402","kabCode":"1174","province":"Aceh"},"geometry":{"type":"Polygon","coordinates":[[[97.97789535059002,4.475077064458868],[97.97930877727833,4.478217017701861],[97.98071675857157,4.478254393526103],[97.98067017099163,4.473817583719749],[97.97789535059002,4.475077064458868]]]}},{"type":"Feature","properties":{"code":"1174032001","desa":"Teungoh","kecamatan":"Langsa Kota","kecCode":"117403","kabCode":"1174","province":"Aceh"},"geometry":{"type":"Polygon","coordinates":[[[97.97174469466198,4.470148169011845],[97.9758132842557,4.467543278211498],[97.9798791785813,4.46914721368311],[97.98410156213741,4.465469268905625],[97.9824867610552,4.462642899367272],[97.97931060290203,4.464411060936786],[97.97690193607554,4.458431323867783],[97.9721964726891,4.45904870395518],[97.97174469466198,4.470148169011845]]]}},{"type":"Feature","properties":{"code":"1174032002","desa":"Peukan Langsa","kecamatan":"Langsa Kota","kecCode":"117403","kabCode":"1174","province":"Aceh"},"geometry":{"type":"Polygon","coordinates":[[[97.97119515403317,4.471939588848146],[97.97107294336172,4.470215198181818],[97.9676863582389,4.47184545141373],[97.97119515403317,4.471939588848146]]]}},{"type":"Feature","properties":{"code":"1174032004","desa":"Jawa","kecamatan":"Langsa Kota","kecCode":"117403","kabCode":"1174","province":"Aceh"},"geometry":{"type":"Polygon","coordinates":[[[97.97107294336172,4.470215198181818],[97.96605935335651,4.466049823553889],[97.96159657831946,4.468875218227153],[97.95919333440492,4.466856944405014],[97.95732559629931,4.470337322518309],[97.95523061120383,4.469927129143008],[97.95907585956331,4.475948588459606],[97.95608174577602,4.47914709206433],[97.95974471684524,4.481616163652132],[97.96132832764026,4.474980931428899],[97.97107294336172,4.470215198181818]]]}},{"type":"Feature","properties":{"code":"1174032005","desa":"Paya Bujok Blang Pase","kecamatan":"Langsa Kota","kecCode":"117403","kabCode":"1174","province":"Aceh"},"geometry":{"type":"Polygon","coordinates":[[[97.96660557908426,4.477291133280791],[97.97049026271547,4.475681851339654],[97.9676863582389,4.47184545141373],[97.96091912801539,4.475720629206931],[97.96660557908426,4.477291133280791]]]}},{"type":"Feature","properties":{"code":"1174032006","desa":"Blang","kecamatan":"Langsa Kota","kecCode":"117403","kabCode":"1174","province":"Aceh"},"geometry":{"type":"Polygon","coordinates":[[[97.97738374336511,4.473861736834918],[97.98052325414494,4.470201224515918],[97.9758132842557,4.467543278211498],[97.97337654059491,4.469346887458804],[97.97738374336511,4.473861736834918]]]}},{"type":"Feature","properties":{"code":"1174032007","desa":"Alue Beurawe","kecamatan":"Langsa Kota","kecCode":"117403","kabCode":"1174","province":"Aceh"},"geometry":{"type":"Polygon","coordinates":[[[97.98067017099163,4.473817583719749],[97.98950798590488,4.47782622090443],[97.9941955249036,4.472163104550577],[98.00082681000936,4.47287810154938],[97.99169562275483,4.469138135027076],[97.98907566740819,4.462027176730368],[97.97975435897655,4.46923869631883],[97.98067017099163,4.473817583719749]]]}},{"type":"Feature","properties":{"code":"1174032009","desa":"Daulat","kecamatan":"Langsa Kota","kecCode":"117403","kabCode":"1174","province":"Aceh"},"geometry":{"type":"Polygon","coordinates":[[[97.97225548170518,4.471024326319738],[97.96864631437597,4.472995738268801],[97.96979383671624,4.474756197145038],[97.97390418722853,4.472906028196822],[97.97225548170518,4.471024326319738]]]}},{"type":"Feature","properties":{"code":"1174032010","desa":"Meutia","kecamatan":"Langsa Kota","kecCode":"117403","kabCode":"1174","province":"Aceh"},"geometry":{"type":"Polygon","coordinates":[[[97.97042389094985,4.475724988220888],[97.97271008000627,4.478691366913202],[97.97608884642318,4.476027981509045],[97.9745469542786,4.472601557322533],[97.97042389094985,4.475724988220888]]]}},{"type":"Feature","properties":{"code":"1174032011","desa":"Blang Seunibong","kecamatan":"Langsa Kota","kecCode":"117403","kabCode":"1174","province":"Aceh"},"geometry":{"type":"Polygon","coordinates":[[[97.97524150159408,4.4768101443747454],[97.97823125906541,4.475810575800602],[97.97337654059491,4.469346887458804],[97.97174469466198,4.470148169011845],[97.97524150159408,4.4768101443747454]]]}},{"type":"Feature","properties":{"code":"1174032013","desa":"Tualang Teungoh","kecamatan":"Langsa Kota","kecCode":"117403","kabCode":"1174","province":"Aceh"},"geometry":{"type":"Polygon","coordinates":[[[97.96272273366729,4.484035863358991],[97.96746639575764,4.4840894602548955],[97.9664222855601,4.476296518172431],[97.96090640980303,4.475800545661829],[97.96003530308684,4.480353347327502],[97.96272273366729,4.484035863358991]]]}},{"type":"Feature","properties":{"code":"1174042001","desa":"Pondok Kemuning","kecamatan":"Langsa Lama","kecCode":"117404","kabCode":"1174","province":"Aceh"},"geometry":{"type":"Polygon","coordinates":[[[97.92678592992678,4.434923586999872],[97.9260760419758,4.441964605920369],[97.91922613527798,4.4420645053111425],[97.91763353755776,4.44879168152229],[97.92392426469313,4.455707833174142],[97.92456723139269,4.453513978413838],[97.92896415087493,4.457675758451624],[97.93219869841123,4.4568344723560145],[97.93180629632359,4.459428743062327],[97.93381191308934,4.459165957563465],[97.93599730343288,4.4631433666894464],[97.9389499809569,4.462356187405388],[97.93889158258054,4.465329718405922],[97.94052059834699,4.462991622282101],[97.94345810970405,4.467580383339803],[97.9450463349205,4.4641850738973785],[97.94674526937875,4.466048192183683],[97.94867225392142,4.466791824495717],[97.94965171815232,4.465295786985136],[97.94347919520872,4.459311377038811],[97.94081667225167,4.4525650875362635],[97.93409379029623,4.45207740587558],[97.92678592992678,4.434923586999872]]]}},{"type":"Feature","properties":{"code":"1174042002","desa":"Seulalah","kecamatan":"Langsa Lama","kecCode":"117404","kabCode":"1174","province":"Aceh"},"geometry":{"type":"Polygon","coordinates":[[[97.94791221617588,4.4659671731599655],[97.95732559629931,4.470337322518309],[97.9564490082152,4.4657079130035156],[97.94791221617588,4.4659671731599655]]]}},{"type":"Feature","properties":{"code":"1174042003","desa":"Pondok Pabrik","kecamatan":"Langsa Lama","kecCode":"117404","kabCode":"1174","province":"Aceh"},"geometry":{"type":"Polygon","coordinates":[[[97.96030887505457,4.464086162861549],[97.96337125637841,4.4675903253449825],[97.96436245136607,4.466540877672239],[97.96652386038788,4.461614660406252],[97.95909386578933,4.452189042318288],[97.95686740340801,4.453874035484411],[97.9581326470041,4.461177195989265],[97.95284217192874,4.464705050212663],[97.96030887505457,4.464086162861549]]]}},{"type":"Feature","properties":{"code":"1174042004","desa":"Sidodadi","kecamatan":"Langsa Lama","kecCode":"117404","kabCode":"1174","province":"Aceh"},"geometry":{"type":"Polygon","coordinates":[[[97.96780679274936,4.463144893738262],[97.9721964726891,4.45904870395518],[97.9677182347088,4.458442783928648],[97.96436245136607,4.466540877672239],[97.96754331387291,4.466681163817381],[97.96780679274936,4.463144893738262]]]}},{"type":"Feature","properties":{"code":"1174042005","desa":"Sidorejo","kecamatan":"Langsa Lama","kecCode":"117404","kabCode":"1174","province":"Aceh"},"geometry":{"type":"Polygon","coordinates":[[[97.97059276294573,4.467928730338017],[97.97260595739908,4.464070082084039],[97.97125847709708,4.461757273996865],[97.96768346961646,4.463325071111369],[97.96754331387291,4.466681163817381],[97.97059276294573,4.467928730338017]]]}},{"type":"Feature","properties":{"code":"1174042006","desa":"Baro","kecamatan":"Langsa Lama","kecCode":"117404","kabCode":"1174","province":"Aceh"},"geometry":{"type":"Polygon","coordinates":[[[97.98374830663909,4.460975525718611],[97.97665487342374,4.460524579564846],[97.97931060290203,4.464411060936786],[97.98374830663909,4.460975525718611]]]}},{"type":"Feature","properties":{"code":"1174042007","desa":"Meurandeh","kecamatan":"Langsa Lama","kecCode":"117404","kabCode":"1174","province":"Aceh"},"geometry":{"type":"Polygon","coordinates":[[[97.97035345604722,4.4289340922867035],[97.97158945638834,4.436887805271854],[97.96698148131036,4.4406722333767865],[97.96761516430841,4.445471351256712],[97.96310340140091,4.4493289338140904],[97.97372385157455,4.450378157555654],[97.97596931483207,4.444036479336442],[97.9792500308643,4.442834800723126],[97.98003578202577,4.437105174108124],[97.97745323218099,4.432146066836351],[97.97035345604722,4.4289340922867035]]]}},{"type":"Feature","properties":{"code":"1174042008","desa":"Asam Peutik","kecamatan":"Langsa Lama","kecCode":"117404","kabCode":"1174","province":"Aceh"},"geometry":{"type":"Polygon","coordinates":[[[97.97879694971954,4.422440625593385],[97.96869095312502,4.424195707423086],[97.97035345604722,4.4289340922867035],[97.97745323218099,4.432146066836351],[97.97989463792726,4.436475749400569],[97.9792500308643,4.442834800723126],[97.98345447744225,4.448314513835606],[97.99075088134815,4.449647620271966],[97.99180076429387,4.446087986705452],[97.98694892005665,4.431331914186106],[97.9905207987959,4.429585341741623],[97.98423646943758,4.428444419527048],[97.98302367340385,4.425902261835255],[97.98082684458325,4.427046067276332],[97.97879694971954,4.422440625593385]]]}},{"type":"Feature","properties":{"code":"1174042009","desa":"Baroh Langsa Lama","kecamatan":"Langsa Lama","kecCode":"117404","kabCode":"1174","province":"Aceh"},"geometry":{"type":"Polygon","coordinates":[[[98.00341682422707,4.472376477699016],[98.00692592399224,4.464700080559062],[98.00296589785796,4.462960022803363],[98.00375059591335,4.4606866526858555],[97.99625366207692,4.458380550843155],[97.99231668466733,4.459916298817902],[97.98416981168752,4.454315869707249],[97.9838593935962,4.45902814095663],[97.97902119387305,4.455820911230102],[97.97690193607554,4.458431323867783],[97.98341064988165,4.460438865180675],[97.98146566540818,4.462622472166295],[97.98410156213741,4.465469268905625],[97.98907566740819,4.462027176730368],[97.99169562275483,4.469138135027076],[98.00341682422707,4.472376477699016]]]}},{"type":"Feature","properties":{"code":"1174042010","desa":"Seulalah Baru","kecamatan":"Langsa Lama","kecCode":"117404","kabCode":"1174","province":"Aceh"},"geometry":{"type":"Polygon","coordinates":[[[97.95718549901163,4.468335569242075],[97.95949767757583,4.466733004337357],[97.96087380758024,4.4688296010157424],[97.96254827957948,4.467550666142121],[97.96030887505457,4.464086162861549],[97.95393233191163,4.464608463924352],[97.95718549901163,4.468335569242075]]]}},{"type":"Feature","properties":{"code":"1174042011","desa":"Sukajadi Kebun Ireng","kecamatan":"Langsa Lama","kecCode":"117404","kabCode":"1174","province":"Aceh"},"geometry":{"type":"Polygon","coordinates":[[[97.92862362528011,4.42052410916125],[97.92287479543552,4.422841955250581],[97.91718334683405,4.419522105222989],[97.91372727019738,4.420864040303853],[97.91516613870641,4.425349827188691],[97.92271207929906,4.426195015442656],[97.92557472299511,4.4297013749698815],[97.93409379029623,4.45207740587558],[97.94081667225167,4.4525650875362635],[97.94347919520872,4.459311377038811],[97.9505965270082,4.466716048519527],[97.9581326470041,4.461177195989265],[97.95686740340801,4.453874035484411],[97.96757352389908,4.445548683959368],[97.96707264738484,4.442404703552318],[97.94026429695981,4.436052974509885],[97.94044847271891,4.430768996142525],[97.93504415336503,4.428685373083905],[97.92862362528011,4.42052410916125]]]}},{"type":"Feature","properties":{"code":"1174042012","desa":"Meurandeh Tengah","kecamatan":"Langsa Lama","kecCode":"117404","kabCode":"1174","province":"Aceh"},"geometry":{"type":"Polygon","coordinates":[[[97.95909386578933,4.452189042318288],[97.9629402508919,4.455593998788321],[97.96907290509056,4.452732507126774],[97.98245100221202,4.4523370545391066],[97.98383056223071,4.454475173815703],[97.98603952380506,4.4480924505383275],[97.98345447744225,4.448314513835606],[97.9792075343003,4.442813341100506],[97.97596931483207,4.444036479336442],[97.97372385157455,4.450378157555654],[97.96310340140091,4.4493289338140904],[97.95909386578933,4.452189042318288]]]}},{"type":"Feature","properties":{"code":"1174042013","desa":"Meurandeh Dayah","kecamatan":"Langsa Lama","kecCode":"117404","kabCode":"1174","province":"Aceh"},"geometry":{"type":"Polygon","coordinates":[[[97.9677182347088,4.458442783928648],[97.9762120958116,4.458907550863592],[97.98027712858668,4.454053333320579],[97.98332318631606,4.454142581141016],[97.98245100221202,4.4523370545391066],[97.96700437265372,4.452893722294558],[97.96309474272823,4.454937374085515],[97.96464188961158,4.46078982470947],[97.96652386038788,4.461614660406252],[97.9677182347088,4.458442783928648]]]}},{"type":"Feature","properties":{"code":"1174042014","desa":"Meurandeh Aceh","kecamatan":"Langsa Lama","kecCode":"117404","kabCode":"1174","province":"Aceh"},"geometry":{"type":"Polygon","coordinates":[[[97.97902864205827,4.455824993252889],[97.98241388539252,4.458922900492298],[97.98481225228369,4.457105262720382],[97.98355840579585,4.4541842044632265],[97.97902864205827,4.455824993252889]]]}},{"type":"Feature","properties":{"code":"1174042015","desa":"Batee Puteh","kecamatan":"Langsa Lama","kecCode":"117404","kabCode":"1174","province":"Aceh"},"geometry":{"type":"Polygon","coordinates":[[[98.00007137769198,4.453291081444918],[97.98609751658717,4.448024885372358],[97.98388167879648,4.450607767963629],[97.98416981168752,4.454315869707249],[97.99231668466733,4.459916298817902],[97.99625366207692,4.458380550843155],[98.00098353576163,4.460347940124679],[98.00007137769198,4.453291081444918]]]}},{"type":"Feature","properties":{"code":"1174052001","desa":"Timbang Langsa","kecamatan":"Langsa Baro","kecCode":"117405","kabCode":"1174","province":"Aceh"},"geometry":{"type":"Polygon","coordinates":[[[97.89347731482627,4.500917472740133],[97.89794472496912,4.509180946411873],[97.91227641372558,4.5225924362462475],[97.91679348443182,4.531397583276976],[97.92718052006501,4.535577261622097],[97.93658220180725,4.534558345932712],[97.93596422007278,4.518258750799522],[97.94141960113375,4.5138225507336225],[97.93627577670576,4.5081063420034875],[97.93828752864658,4.503294755922712],[97.92709429126859,4.502154457837627],[97.9234125432543,4.498556245154006],[97.9122327993043,4.496422966028704],[97.89347731482627,4.500917472740133]]]}},{"type":"Feature","properties":{"code":"1174052002","desa":"Alue Dua","kecamatan":"Langsa Baro","kecCode":"117405","kabCode":"1174","province":"Aceh"},"geometry":{"type":"Polygon","coordinates":[[[97.94833389389413,4.530935149183432],[97.9514998402455,4.531389045113498],[97.95119769411832,4.536140307369473],[97.95544005971107,4.5368004574146905],[97.963386002562,4.528895387859587],[97.9622306462274,4.5266591606418105],[97.96576842896985,4.522677396998513],[97.97043980265482,4.523668821312266],[97.96782997907036,4.5192897003171915],[97.96162742956227,4.51968897502353],[97.96056154497937,4.51191257237276],[97.95647270355248,4.506595607772084],[97.95299863957563,4.507990208950516],[97.9443634113424,4.502509395967121],[97.93760802429098,4.505129112990729],[97.93627577670576,4.5081063420034875],[97.94428693479425,4.517009087059856],[97.94833389389413,4.530935149183432]]]}},{"type":"Feature","properties":{"code":"1174052003","desa":"Birem Puntong","kecamatan":"Langsa Baro","kecCode":"117405","kabCode":"1174","province":"Aceh"},"geometry":{"type":"Polygon","coordinates":[[[97.9578995058576,4.500605655303995],[97.9575564999326,4.493413294872408],[97.9548976677932,4.4934303064482375],[97.94664769383603,4.503689608662568],[97.95299863957563,4.507990208950516],[97.95647270355248,4.506595607772084],[97.96020734339426,4.500986516391496],[97.9578995058576,4.500605655303995]]]}},{"type":"Feature","properties":{"code":"1174052004","desa":"Paya Bujok Seuleumak","kecamatan":"Langsa Baro","kecCode":"117405","kabCode":"1174","province":"Aceh"},"geometry":{"type":"Polygon","coordinates":[[[97.9575564999326,4.493413294872408],[97.95885882437528,4.4868325822495],[97.95734098459882,4.48632159825537],[97.96302629982391,4.484745990528894],[97.96114494598254,4.480427047668469],[97.95608174577602,4.47914709206433],[97.95508502265574,4.481372692892825],[97.94730446512902,4.481600321194986],[97.95151810367757,4.487848100300214],[97.9505969568841,4.492020206353655],[97.94344200284621,4.489303660224792],[97.93760802429098,4.505129112990729],[97.9443634113424,4.502509395967121],[97.94664769383603,4.503689608662568],[97.95223426799713,4.495138163078713],[97.9575564999326,4.493413294872408]]]}},{"type":"Feature","properties":{"code":"1174052005","desa":"Pondok Kelapa","kecamatan":"Langsa Baro","kecCode":"117405","kabCode":"1174","province":"Aceh"},"geometry":{"type":"Polygon","coordinates":[[[97.90731446728887,4.497013984288965],[97.92304722964597,4.498470599118366],[97.92709429126859,4.502154457837627],[97.93828752864658,4.503294755922712],[97.94344200284621,4.489303660224792],[97.9505969568841,4.492020206353655],[97.95159827194277,4.488876346455745],[97.94687301267946,4.480475696494478],[97.94609804438932,4.482417062094],[97.94076252856792,4.480596913414957],[97.94174550824869,4.478276050999538],[97.9376547143936,4.474200982694042],[97.93372270843626,4.470918617308579],[97.93170994655685,4.472282823200582],[97.93265795879783,4.469705204341285],[97.92869019669529,4.465708463388602],[97.93122292499805,4.459908900095461],[97.91810300075292,4.452783577827056],[97.91337120072039,4.455163234320541],[97.91252379563673,4.464461365414708],[97.90878606392577,4.471549463844274],[97.91146072683114,4.473367808483332],[97.9113937983851,4.476915686112043],[97.91574631024405,4.477250207832517],[97.9160797150069,4.486434826498104],[97.90731446728887,4.497013984288965]]]}},{"type":"Feature","properties":{"code":"1174052006","desa":"Karang Anyar","kecamatan":"Langsa Baro","kecCode":"117405","kabCode":"1174","province":"Aceh"},"geometry":{"type":"Polygon","coordinates":[[[97.93816682523885,4.475241624205387],[97.94174550824869,4.478276050999538],[97.94076252856792,4.480596913414957],[97.94609804438932,4.482417062094],[97.94753940491965,4.478758570551679],[97.94344772343372,4.475541341263339],[97.9423654585991,4.477669393528899],[97.93816682523885,4.475241624205387]]]}},{"type":"Feature","properties":{"code":"1174052007","desa":"Paya Bujok Tunong","kecamatan":"Langsa Baro","kecCode":"117405","kabCode":"1174","province":"Aceh"},"geometry":{"type":"Polygon","coordinates":[[[97.95508502265574,4.481372692892825],[97.95907585956331,4.475948588459606],[97.95372488259731,4.46879116489083],[97.9511550635554,4.469086218064678],[97.94939531783973,4.4738496454499925],[97.94301103782918,4.472297858965838],[97.9390270708427,4.475350288388744],[97.9423654585991,4.477669393528899],[97.94344772343372,4.475541341263339],[97.94753940491965,4.478758570551679],[97.94730446512902,4.481600321194986],[97.95508502265574,4.481372692892825]]]}},{"type":"Feature","properties":{"code":"1174052008","desa":"Geudubang Jawa","kecamatan":"Langsa Baro","kecCode":"117405","kabCode":"1174","province":"Aceh"},"geometry":{"type":"Polygon","coordinates":[[[97.9511550635554,4.469086218064678],[97.94491070456542,4.464227904109754],[97.94256954984492,4.472033675021214],[97.94939531783973,4.4738496454499925],[97.9511550635554,4.469086218064678]]]}},{"type":"Feature","properties":{"code":"1174052009","desa":"Geudubang Aceh","kecamatan":"Langsa Baro","kecCode":"117405","kabCode":"1174","province":"Aceh"},"geometry":{"type":"Polygon","coordinates":[[[97.94354489428149,4.467609712929658],[97.94101594582928,4.46322412221179],[97.93889158258054,4.465329718405922],[97.9389499809569,4.462356187405388],[97.93384222383962,4.4614600750406],[97.93208051040727,4.456766461126337],[97.92896415087493,4.457675758451624],[97.92456723139269,4.453513978413838],[97.92465325424433,4.455552093078978],[97.92392426469313,4.455707833174142],[97.91931226155168,4.451071266854486],[97.91549827272718,4.452459730159991],[97.93122292499805,4.459908900095461],[97.9287696284157,4.4659039463235555],[97.93320545976421,4.466719825672106],[97.9417480596253,4.4743342091611025],[97.94354489428149,4.467609712929658]]]}},{"type":"Feature","properties":{"code":"1174052010","desa":"Alue Dua Bakaran Batee","kecamatan":"Langsa Baro","kecCode":"117405","kabCode":"1174","province":"Aceh"},"geometry":{"type":"Polygon","coordinates":[[[97.93617502925423,4.53025416364502],[97.94234636779072,4.528548905155989],[97.94833389389413,4.530935149183432],[97.94514733867878,4.5228788954986445],[97.94639508956179,4.521411021157219],[97.94123808197195,4.514485091176762],[97.93596422007278,4.518258750799522],[97.93617502925423,4.53025416364502]]]}},{"type":"Feature","properties":{"code":"1174052011","desa":"Lengkong","kecamatan":"Langsa Baro","kecCode":"117405","kabCode":"1174","province":"Aceh"},"geometry":{"type":"Polygon","coordinates":[[[97.93063604991386,4.466802624454134],[97.93170994655685,4.472282823200582],[97.93372270843626,4.470918617308579],[97.93978816978823,4.474826382036089],[97.93961263741335,4.472213932433932],[97.93063604991386,4.466802624454134]]]}},{"type":"Feature","properties":{"code":"1174052012","desa":"Sukajadi Makmur","kecamatan":"Langsa Baro","kecCode":"117405","kabCode":"1174","province":"Aceh"},"geometry":{"type":"Polygon","coordinates":[[[97.90260535625224,4.443576955448986],[97.89217345793878,4.451716706688993],[97.88835634576878,4.447518290969048],[97.88568142116073,4.451311127735094],[97.87652960255917,4.448222819859272],[97.8726432039208,4.454348172455786],[97.86772928128134,4.455194604472123],[97.87005800017663,4.458449994692791],[97.86792523006538,4.467405543443037],[97.86982703988603,4.474819422182766],[97.88278671213708,4.4740861032960035],[97.88225776058727,4.4778730656904635],[97.88869079104722,4.477360934161348],[97.8915976067442,4.4793950207630555],[97.89058998384075,4.495800225981947],[97.89347731482627,4.500917472740133],[97.90690938835763,4.497502889926953],[97.9160797150069,4.486434826498104],[97.91574631024405,4.477250207832517],[97.9113937983851,4.476915686112043],[97.91146072683114,4.473367808483332],[97.90878606392577,4.471549463844274],[97.91252379563673,4.464461365414708],[97.91337120072039,4.455163234320541],[97.91901727222938,4.451085759429271],[97.9221938557619,4.453034825024097],[97.91865126704239,4.4501583713417245],[97.91203500780944,4.451167515897019],[97.91414300969222,4.4476919167810856],[97.90929966224968,4.44978358337604],[97.90798203314438,4.446879395501125],[97.90609560262999,4.450129929382749],[97.90857586628327,4.451552302525242],[97.90554808457648,4.451644905716236],[97.90404390909917,4.447644886734779],[97.90178361692045,4.447354196172085],[97.90260535625224,4.443576955448986]]]}}]}