{"type":"FeatureCollection","features":[{"type":"Feature","properties":{"code":"1215012001","desa":"Tanjung Meriah","kecamatan":"Sitelu Tali Urang Jehe","kecCode":"121501","kabCode":"1215","province":"Sumatera Utara"},"geometry":{"type":"Polygon","coordinates":[[[98.23608192723917,2.6738747807285557],[98.23502098533025,2.6644466760155496],[98.22557069523144,2.6566272524965373],[98.22087526558113,2.6603102478664633],[98.19520851456133,2.664627905595487],[98.20212990387205,2.6765922207833635],[98.20950332931528,2.681972024612378],[98.20791334502489,2.689424716292657],[98.22318493503677,2.6951336782853685],[98.22296053530049,2.6846622233031407],[98.23272465192122,2.6791530088305175],[98.23608192723917,2.6738747807285557]]]}},{"type":"Feature","properties":{"code":"1215012002","desa":"Tanjung Mulia","kecamatan":"Sitelu Tali Urang Jehe","kecCode":"121501","kabCode":"1215","province":"Sumatera Utara"},"geometry":{"type":"Polygon","coordinates":[[[98.07481698091895,2.727155877015975],[98.07146466716073,2.7391530732164777],[98.0765013580513,2.750604871965516],[98.06936527808516,2.76416676351876],[98.08961370460882,2.7729777165722016],[98.108233969722,2.7764384975586927],[98.11965733012175,2.785760071280196],[98.13594944381185,2.7748338857970154],[98.13786769503814,2.7702599059966686],[98.14303726435831,2.7713681648345085],[98.1524284779919,2.7667185061847857],[98.1579477783673,2.769264441029011],[98.15774230936016,2.7626861475827114],[98.1611703631218,2.7577896205349677],[98.17029873909557,2.7538941180637497],[98.17597616726634,2.761465583206508],[98.17839705587949,2.7602549059768235],[98.19313845957231,2.7378861128159717],[98.2052492581468,2.729129799872036],[98.21999062316875,2.723811714716318],[98.22433628938829,2.710460841886397],[98.22318493503677,2.6951336782853685],[98.17201081624624,2.680785209094561],[98.11988927786791,2.6960674047946918],[98.095964922843,2.6947655057326467],[98.08667549267987,2.704707062179515],[98.07481698091895,2.727155877015975]]]}},{"type":"Feature","properties":{"code":"1215012003","desa":"Kaban Tengah","kecamatan":"Sitelu Tali Urang Jehe","kecCode":"121501","kabCode":"1215","province":"Sumatera Utara"},"geometry":{"type":"Polygon","coordinates":[[[98.07943436110695,2.5847488984723133],[98.0848094417024,2.603409425313738],[98.09299155101932,2.602008581941007],[98.10900362032089,2.6057294423663215],[98.11010535727651,2.6121737817940196],[98.10579496336692,2.6227640309231584],[98.10667005497913,2.6272985592640157],[98.11288498995037,2.634819242388779],[98.11710752459265,2.635364148810494],[98.12159719295612,2.640603627823516],[98.13687009777688,2.64404437641142],[98.14513173324298,2.650911126504321],[98.15106136728832,2.651999021093825],[98.1625019595978,2.663973773813427],[98.17031919327621,2.664340357264089],[98.17463394799836,2.6615444594546798],[98.1802381722539,2.651539807472542],[98.17283675091538,2.634801005037076],[98.1720375503927,2.6253644143212362],[98.15326702295481,2.6010876860593823],[98.15104873631019,2.5827536715762904],[98.1214356558309,2.580642111977808],[98.07943436110695,2.5847488984723133]]]}},{"type":"Feature","properties":{"code":"1215012004","desa":"Bandar Baru","kecamatan":"Sitelu Tali Urang Jehe","kecCode":"121501","kabCode":"1215","province":"Sumatera Utara"},"geometry":{"type":"Polygon","coordinates":[[[98.08119827068371,2.5490668556193357],[98.08223523486828,2.555135050004378],[98.0773714170573,2.5612418432915875],[98.07853805628633,2.5673869414026473],[98.07656078075546,2.571563946063121],[98.07943436110695,2.5847488984723133],[98.1214356558309,2.580642111977808],[98.14896552334027,2.5814195471074477],[98.16993802821747,2.5948485161644608],[98.18678234542897,2.6014074984684576],[98.24410237442508,2.6158741736495754],[98.24981941773198,2.623862765940508],[98.25329805296286,2.640301296436404],[98.26225063755692,2.6363893561567955],[98.27018761956305,2.6271002875313436],[98.26184439040634,2.6162524617766607],[98.26144143297579,2.614326128345217],[98.26444901321145,2.614243943800118],[98.26348705788149,2.6118150044587103],[98.25480240290862,2.5991857431411276],[98.2436954815613,2.5970847253956935],[98.22976450372892,2.582737171714697],[98.21698661144302,2.5764649040705785],[98.20278335666666,2.5734264015489896],[98.18208982778337,2.574393670072566],[98.1723771182095,2.57114700597385],[98.16260241566901,2.5556967242856206],[98.15831325205498,2.555001474600365],[98.15351632042189,2.5482115499924247],[98.13096788585932,2.547106623142756],[98.11066651444816,2.5534569213635074],[98.08119827068371,2.5490668556193357]]]}},{"type":"Feature","properties":{"code":"1215012005","desa":"Simberruna","kecamatan":"Sitelu Tali Urang Jehe","kecCode":"121501","kabCode":"1215","province":"Sumatera Utara"},"geometry":{"type":"Polygon","coordinates":[[[98.22557069523144,2.6566272524965373],[98.23502098533025,2.6644466760155496],[98.23608192723917,2.6738747807285557],[98.25116735399024,2.6656476918284695],[98.2610641943571,2.6631145894105224],[98.2626619415954,2.6529971768330722],[98.26427464725725,2.6495587152210645],[98.26667678320706,2.6495781288860814],[98.25402719809676,2.6494625336276525],[98.25114418655505,2.6446036674892417],[98.23426821140889,2.6488191928109126],[98.22557069523144,2.6566272524965373]]]}},{"type":"Feature","properties":{"code":"1215012006","desa":"Perolihen","kecamatan":"Sitelu Tali Urang Jehe","kecCode":"121501","kabCode":"1215","province":"Sumatera Utara"},"geometry":{"type":"Polygon","coordinates":[[[98.21999062316875,2.723811714716318],[98.22508404419334,2.7211085361104814],[98.23160027633172,2.7232034357680655],[98.2404148689511,2.71895886054577],[98.2468902358957,2.7086366480569257],[98.25353610440776,2.708437010254086],[98.25693866958397,2.7154547439279177],[98.25941443662703,2.703378871437523],[98.25297394629062,2.688251610040066],[98.2610641943571,2.6631145894105224],[98.24160530244278,2.670180980004256],[98.23272465192122,2.6791530088305175],[98.22296053530049,2.6846622233031407],[98.22433628938829,2.710460841886397],[98.21999062316875,2.723811714716318]]]}},{"type":"Feature","properties":{"code":"1215012007","desa":"Maholida","kecamatan":"Sitelu Tali Urang Jehe","kecCode":"121501","kabCode":"1215","province":"Sumatera Utara"},"geometry":{"type":"Polygon","coordinates":[[[98.19520851456133,2.664627905595487],[98.22087526558113,2.6603102478664633],[98.23146916057334,2.6503618871490384],[98.24030415161535,2.647465522476768],[98.2226212525688,2.642953845009708],[98.20182034103597,2.633688306246226],[98.17283675091538,2.634801005037076],[98.1802381722539,2.651539807472542],[98.18847526072477,2.6561376840582263],[98.19520851456133,2.664627905595487]]]}},{"type":"Feature","properties":{"code":"1215012008","desa":"Perjaga","kecamatan":"Sitelu Tali Urang Jehe","kecCode":"121501","kabCode":"1215","province":"Sumatera Utara"},"geometry":{"type":"Polygon","coordinates":[[[98.15104873631019,2.5827536715762904],[98.15326702295481,2.6010876860593823],[98.1720375503927,2.6253644143212362],[98.17283675091538,2.634801005037076],[98.20182034103597,2.633688306246226],[98.2226212525688,2.642953845009708],[98.24030415161535,2.647465522476768],[98.25114418655505,2.6446036674892417],[98.25329805296286,2.640301296436404],[98.25174304330687,2.629372341041332],[98.24410237442508,2.6158741736495754],[98.18678234542897,2.6014074984684576],[98.16993802821747,2.5948485161644608],[98.15104873631019,2.5827536715762904]]]}},{"type":"Feature","properties":{"code":"1215012009","desa":"Malum","kecamatan":"Sitelu Tali Urang Jehe","kecCode":"121501","kabCode":"1215","province":"Sumatera Utara"},"geometry":{"type":"Polygon","coordinates":[[[98.10667005497913,2.6272985592640157],[98.10473715289737,2.6287476917338712],[98.10619798644797,2.639655414135459],[98.10352654581352,2.6522653454249507],[98.10401915396085,2.6819346352983664],[98.095964922843,2.6947655057326467],[98.11988927786791,2.6960674047946918],[98.17201081624624,2.680785209094561],[98.16182670903544,2.672576916025239],[98.15955238563413,2.6607857661964545],[98.15106136728832,2.651999021093825],[98.14513173324298,2.650911126504321],[98.13687009777688,2.64404437641142],[98.12159719295612,2.640603627823516],[98.10667005497913,2.6272985592640157]]]}},{"type":"Feature","properties":{"code":"1215012010","desa":"Mbinalun","kecamatan":"Sitelu Tali Urang Jehe","kecCode":"121501","kabCode":"1215","province":"Sumatera Utara"},"geometry":{"type":"Polygon","coordinates":[[[98.20791334502489,2.689424716292657],[98.20950332931528,2.681972024612378],[98.20212990387205,2.6765922207833635],[98.1903608009103,2.6583958493378654],[98.18218888900606,2.651077784369185],[98.17742342465141,2.654956222204529],[98.17283530120824,2.6637098407796094],[98.1651965316946,2.665059409305926],[98.15955238563413,2.6607857661964545],[98.16182670903544,2.672576916025239],[98.1703069517045,2.680184899038936],[98.19988586424131,2.6896498130032658],[98.20791334502489,2.689424716292657]]]}},{"type":"Feature","properties":{"code":"1215022001","desa":"Sukaramai","kecamatan":"Kerajaan","kecCode":"121502","kabCode":"1215","province":"Sumatera Utara"},"geometry":{"type":"Polygon","coordinates":[[[98.27736340189954,2.7173868905770213],[98.30745095389845,2.696067620631944],[98.30685115465711,2.6890281809212238],[98.29934334801715,2.675493047796154],[98.30364528290352,2.663349566073112],[98.30315779729453,2.657127289942777],[98.29559829222745,2.6523471018927407],[98.31004352398952,2.645370134487247],[98.29269415920815,2.63998467032527],[98.26344932862366,2.6352770881412675],[98.25337912144937,2.640184437630528],[98.25114418655505,2.6446036674892417],[98.25402719809676,2.6494625336276525],[98.27220524137884,2.650316689021684],[98.27008351943891,2.671722655410584],[98.26543413058072,2.6871923957299533],[98.26089643482266,2.692064543955657],[98.25433120492126,2.6918151457647594],[98.25941443662703,2.703378871437523],[98.25581062026394,2.7173306541708815],[98.26084642712095,2.7197273663068566],[98.27736340189954,2.7173868905770213]]]}},{"type":"Feature","properties":{"code":"1215022002","desa":"Kuta Saga","kecamatan":"Kerajaan","kecCode":"121502","kabCode":"1215","province":"Sumatera Utara"},"geometry":{"type":"Polygon","coordinates":[[[98.27427231241734,2.637170541459422],[98.29943653127096,2.64145161296898],[98.31979227479371,2.6519917293906943],[98.32829900339634,2.6393262038110032],[98.31825035387077,2.6352084599766634],[98.3050070849091,2.6249932056573306],[98.27427231241734,2.637170541459422]]]}},{"type":"Feature","properties":{"code":"1215022003","desa":"Kuta Meriah","kecamatan":"Kerajaan","kecCode":"121502","kabCode":"1215","province":"Sumatera Utara"},"geometry":{"type":"Polygon","coordinates":[[[98.30745095389845,2.696067620631944],[98.3258833731192,2.697692206336254],[98.33219444381858,2.7058333299413277],[98.33440718074682,2.6952668642829765],[98.32742341266042,2.684289935452797],[98.32490218129067,2.6723061202649796],[98.31997285776121,2.6660071040851627],[98.32231309157595,2.654872985452672],[98.31004352398952,2.645370134487247],[98.29559829222745,2.6523471018927407],[98.30315779729453,2.657127289942777],[98.30364528290352,2.663349566073112],[98.29934334801715,2.675493047796154],[98.30685115465711,2.6890281809212238],[98.30745095389845,2.696067620631944]]]}},{"type":"Feature","properties":{"code":"1215022004","desa":"Kuta Dame","kecamatan":"Kerajaan","kecCode":"121502","kabCode":"1215","province":"Sumatera Utara"},"geometry":{"type":"Polygon","coordinates":[[[98.3322205061715,2.7058100608827527],[98.34108001183313,2.699519679993267],[98.34064218678752,2.694851998030357],[98.33697893063322,2.6906732378932645],[98.34290174332085,2.6845728738593633],[98.34004499198284,2.678846231195172],[98.35623638789906,2.660410014157495],[98.33839402736253,2.642773841205783],[98.32829900339634,2.6393262038110032],[98.31979227479371,2.6519917293906943],[98.32270042958122,2.6564357301758723],[98.31984362788118,2.6650958084663516],[98.32490218129067,2.6723061202649796],[98.32742341266042,2.684289935452797],[98.33440718074682,2.6952668642829765],[98.3322205061715,2.7058100608827527]]]}},{"type":"Feature","properties":{"code":"1215022005","desa":"Perpulungen","kecamatan":"Kerajaan","kecCode":"121502","kabCode":"1215","province":"Sumatera Utara"},"geometry":{"type":"Polygon","coordinates":[[[98.35623638789906,2.660410014157495],[98.37770890863929,2.651513891709166],[98.35917755230223,2.632443461973429],[98.35422575921147,2.6302724589864592],[98.33342939644956,2.629674780347131],[98.32380761642843,2.6382917640245163],[98.33839402736253,2.642773841205783],[98.35623638789906,2.660410014157495]]]}},{"type":"Feature","properties":{"code":"1215022006","desa":"Pardomuan","kecamatan":"Kerajaan","kecCode":"121502","kabCode":"1215","province":"Sumatera Utara"},"geometry":{"type":"Polygon","coordinates":[[[98.3044096787637,2.6226501920407275],[98.32380761642843,2.6382917640245163],[98.33479958463317,2.62954505314212],[98.32982279758407,2.628958889422312],[98.31589719859686,2.6128183115145904],[98.3044096787637,2.6226501920407275]]]}},{"type":"Feature","properties":{"code":"1215022014","desa":"Majanggut I","kecamatan":"Kerajaan","kecCode":"121502","kabCode":"1215","province":"Sumatera Utara"},"geometry":{"type":"Polygon","coordinates":[[[98.29996720682117,2.613155090533351],[98.31160881739305,2.6059982722086974],[98.29919830535755,2.590498976569674],[98.2816226747467,2.592114109499901],[98.27203408240705,2.5988517025580373],[98.27178661775827,2.6064850113798195],[98.27732976185911,2.613989271984745],[98.29996720682117,2.613155090533351]]]}},{"type":"Feature","properties":{"code":"1215022015","desa":"Majanggut Ii","kecamatan":"Kerajaan","kecCode":"121502","kabCode":"1215","province":"Sumatera Utara"},"geometry":{"type":"Polygon","coordinates":[[[98.15149513009622,2.527795691309857],[98.16975023358644,2.5690248568582614],[98.18208982778337,2.574393670072566],[98.21083599058858,2.5748032591033887],[98.22976450372892,2.582737171714697],[98.24070796340185,2.571765739540891],[98.21986651582709,2.5655941204226718],[98.21683270326666,2.555302950732231],[98.2201209861946,2.5394109463371293],[98.20943720576246,2.5391730001131183],[98.2057966296108,2.534811448273798],[98.20609644289658,2.531299364561931],[98.20281278608128,2.5327413168446427],[98.19590283165041,2.526430987193553],[98.19127715881386,2.5301429461292226],[98.18345349228491,2.5259313004828994],[98.17905624814738,2.53085678390185],[98.16968830986762,2.5272994903714774],[98.16713038885644,2.5288937293526392],[98.15875402327957,2.5242014806095265],[98.15149513009622,2.527795691309857]]]}},{"type":"Feature","properties":{"code":"1215022016","desa":"Surung Mersada","kecamatan":"Kerajaan","kecCode":"121502","kabCode":"1215","province":"Sumatera Utara"},"geometry":{"type":"Polygon","coordinates":[[[98.27220524137884,2.650316689021684],[98.26427464725725,2.6495587152210645],[98.2626619415954,2.6529971768330722],[98.25670685673612,2.6805778407194065],[98.25297394629062,2.688251610040066],[98.25433120492126,2.6918151457647594],[98.26311179327467,2.690900153932368],[98.26923734372849,2.6759612024772212],[98.27220524137884,2.650316689021684]]]}},{"type":"Feature","properties":{"code":"1215022021","desa":"Perduhapen","kecamatan":"Kerajaan","kecCode":"121502","kabCode":"1215","province":"Sumatera Utara"},"geometry":{"type":"Polygon","coordinates":[[[98.26984070428512,2.6266141401141203],[98.26344932862366,2.6352770881412675],[98.26544773372598,2.6363900774131204],[98.27427231241734,2.637170541459422],[98.3050070849091,2.6249932056573306],[98.29854207006052,2.615119352872034],[98.29996720682117,2.613155090533351],[98.29049808222076,2.6132665884804984],[98.27732976185911,2.613989271984745],[98.28109506858259,2.616307427440732],[98.28254597811446,2.6227658763319517],[98.26984070428512,2.6266141401141203]]]}},{"type":"Feature","properties":{"code":"1215032001","desa":"Salak I","kecamatan":"Salak","kecCode":"121503","kabCode":"1215","province":"Sumatera Utara"},"geometry":{"type":"Polygon","coordinates":[[[98.31864320112288,2.5800043118840823],[98.32367476677712,2.5572596191956025],[98.3210907717218,2.548325294446044],[98.32203268565996,2.5371473959170934],[98.32575773243349,2.5436028743476435],[98.32286668634856,2.546279768468058],[98.3260694410519,2.5470435743721085],[98.32671425675761,2.552728652170036],[98.34471827492848,2.5447045735304674],[98.347455155631,2.541145733166177],[98.34064159143632,2.540344153937577],[98.33900364360333,2.5346629099495868],[98.32018639458654,2.532163072554761],[98.31977637388059,2.534575359149872],[98.30836689271796,2.5371781032683156],[98.30992727942049,2.5533700072837546],[98.30818346609414,2.5582041735422774],[98.31079636356138,2.5627727493163657],[98.30783066385413,2.564831431476624],[98.3074597339796,2.5756575125235854],[98.30974401737255,2.5794646503085668],[98.31455052768477,2.5776086699414],[98.31864320112288,2.5800043118840823]]]}},{"type":"Feature","properties":{"code":"1215032002","desa":"Salak Ii","kecamatan":"Salak","kecCode":"121503","kabCode":"1215","province":"Sumatera Utara"},"geometry":{"type":"Polygon","coordinates":[[[98.32700620277409,2.5571879108530045],[98.3260694410519,2.5470435743721085],[98.32286668634856,2.546279768468058],[98.32575773243349,2.5436028743476435],[98.32203268565996,2.5371473959170934],[98.3210907717218,2.548325294446044],[98.32390651037718,2.55751486927501],[98.32700620277409,2.5571879108530045]]]}},{"type":"Feature","properties":{"code":"1215032003","desa":"Boangmanalu","kecamatan":"Salak","kecCode":"121503","kabCode":"1215","province":"Sumatera Utara"},"geometry":{"type":"Polygon","coordinates":[[[98.32367476677712,2.5572596191956025],[98.31864320112288,2.5800043118840823],[98.3218983035639,2.580594418231806],[98.3270379398491,2.578405313690634],[98.33045581238588,2.572149982079196],[98.34010016808831,2.5699236195250523],[98.34306354844409,2.560195431730099],[98.34234233533056,2.5547403357601506],[98.35012260057759,2.543682937391974],[98.35569053898722,2.541041735564872],[98.35294340421477,2.5394851682848665],[98.347455155631,2.541145733166177],[98.34471827492848,2.5447045735304674],[98.3304626607233,2.5498022447454582],[98.32671425675761,2.552728652170036],[98.32700620277409,2.5571879108530045],[98.32367476677712,2.5572596191956025]]]}},{"type":"Feature","properties":{"code":"1215032009","desa":"Sibongkaras","kecamatan":"Salak","kecCode":"121503","kabCode":"1215","province":"Sumatera Utara"},"geometry":{"type":"Polygon","coordinates":[[[98.33195599936992,2.4195578729078986],[98.3254972222191,2.418281663879457],[98.31369972226439,2.4218088858793028],[98.29871888936532,2.4175052755606625],[98.29750000042475,2.411388886507267],[98.30315500040302,2.4026066640952766],[98.30750000022486,2.3872222190760106],[98.30138888928587,2.361388886662011],[98.30641305621765,2.3471249978102726],[98.30277777797215,2.3352777752520626],[98.29120416693883,2.334166664663945],[98.27666666743282,2.3388888860122306],[98.26493166676305,2.3461999974228545],[98.25833333281712,2.356111108221105],[98.25143555790474,2.354204567069216],[98.24509886102368,2.3601810252096804],[98.2417193346796,2.359281098820201],[98.2347142175871,2.4161442110006486],[98.21932947487545,2.474330197131218],[98.22124451192472,2.4905161746143354],[98.22717154782872,2.49229179156355],[98.23586462135523,2.48629044468551],[98.25692285140855,2.487718121130034],[98.2661313650705,2.484648616279615],[98.27462604095909,2.473726890534548],[98.28340625159727,2.472798901699981],[98.29763542843233,2.4617700990748643],[98.3040599737888,2.4532040395082855],[98.30173999900181,2.4448164396097045],[98.30322716290327,2.441068788380677],[98.309175814912,2.4397600841487717],[98.3166711155796,2.4266730490245423],[98.33195599936992,2.4195578729078986]]]}},{"type":"Feature","properties":{"code":"1215032013","desa":"Kuta Tinggi","kecamatan":"Salak","kecCode":"121503","kabCode":"1215","province":"Sumatera Utara"},"geometry":{"type":"Polygon","coordinates":[[[98.33195599936992,2.4195578729078986],[98.3166711155796,2.4266730490245423],[98.309175814912,2.4397600841487717],[98.30322716290327,2.441068788380677],[98.30173999900181,2.4448164396097045],[98.3040599737888,2.4532040395082855],[98.29763542843233,2.4617700990748643],[98.28340625159727,2.472798901699981],[98.27462604095909,2.473726890534548],[98.2661313650705,2.484648616279615],[98.25692285140855,2.487718121130034],[98.23586462135523,2.48629044468551],[98.22717154782872,2.49229179156355],[98.22124451192472,2.4905161746143354],[98.22548640267541,2.5285216834199065],[98.23467866109138,2.5185402780133317],[98.24662355543278,2.5167080946067344],[98.25890157394855,2.5218477290877024],[98.26083488342316,2.5280938021786143],[98.26270047934372,2.5276390321075777],[98.26951763543059,2.52474798692511],[98.27587079620035,2.517823755764375],[98.28936234099926,2.514433024770684],[98.29403798196734,2.5105782975609974],[98.31583527128083,2.5168990971193193],[98.33857128283847,2.5163375640316534],[98.33857542421651,2.5116759677810703],[98.34383658499046,2.504845345253389],[98.35497627583453,2.5039179706557],[98.35685307460976,2.472228306144029],[98.36214005042302,2.465439164845639],[98.36310273690185,2.457624737060574],[98.3558333333417,2.448055553000504],[98.35335277830812,2.4353261081064628],[98.35499999995011,2.4299999974008943],[98.34876277797986,2.428470553673697],[98.3487663887579,2.4230249977120524],[98.33195599936992,2.4195578729078986]]]}},{"type":"Feature","properties":{"code":"1215032014","desa":"Penanggalan Binanga Boang","kecamatan":"Salak","kecCode":"121503","kabCode":"1215","province":"Sumatera Utara"},"geometry":{"type":"Polygon","coordinates":[[[98.32337940423615,2.532205384757632],[98.33900364360333,2.5346629099495868],[98.33671118897023,2.530189932108805],[98.33902462478665,2.528641078313962],[98.33857128283847,2.5163375640316534],[98.32141764470862,2.516622809199268],[98.32337940423615,2.532205384757632]]]}},{"type":"Feature","properties":{"code":"1215042001","desa":"Ulumerah","kecamatan":"Sitelu Tali Urang Julu","kecCode":"121504","kabCode":"1215","province":"Sumatera Utara"},"geometry":{"type":"Polygon","coordinates":[[[98.36310273690185,2.457624737060574],[98.36214005042302,2.465439164845639],[98.35685307460976,2.472228306144029],[98.354684941357,2.5173302977582783],[98.3605320769938,2.5098657026514775],[98.36208824497658,2.5137632582749045],[98.36568599001644,2.513630009324713],[98.37159489199074,2.51944646997952],[98.3743269784074,2.5192873987954942],[98.37699233332954,2.5101861823574874],[98.38913095243156,2.507095416634617],[98.4066172120148,2.492266467554095],[98.40771652259953,2.485099530957109],[98.40502773224408,2.472540822353329],[98.40666956065176,2.469185781854302],[98.4040997434085,2.464188913848737],[98.40586092444214,2.4613566843280386],[98.39638888873628,2.4599999976678086],[98.37638888913597,2.462499996940577],[98.36310273690185,2.457624737060574]]]}},{"type":"Feature","properties":{"code":"1215042002","desa":"Pardomuan","kecamatan":"Sitelu Tali Urang Julu","kecCode":"121504","kabCode":"1215","province":"Sumatera Utara"},"geometry":{"type":"Polygon","coordinates":[[[98.40586092444214,2.4613566843280386],[98.4040997434085,2.464188913848737],[98.40666956065176,2.469185781854302],[98.40502773224408,2.472540822353329],[98.40771652259953,2.485099530957109],[98.4066172120148,2.492266467554095],[98.38913095243156,2.507095416634617],[98.37699233332954,2.5101861823574874],[98.37505385095454,2.519084655633652],[98.37983951857899,2.5208617519676264],[98.39347785521892,2.5187524307817535],[98.3988886469935,2.5203889999522353],[98.41595398608762,2.5170413797594122],[98.4221857140995,2.5146004362673184],[98.43265583359987,2.5027374926603705],[98.44107937401395,2.498566756274557],[98.43868856232734,2.49438261819161],[98.42570090227485,2.48471375057806],[98.4298117609041,2.476769465186348],[98.43104621531063,2.467493415146851],[98.42138888868634,2.4763888864860104],[98.41464944391673,2.4659880534653214],[98.40586092444214,2.4613566843280386]]]}},{"type":"Feature","properties":{"code":"1215042003","desa":"Silima Kuta","kecamatan":"Sitelu Tali Urang Julu","kecCode":"121504","kabCode":"1215","province":"Sumatera Utara"},"geometry":{"type":"Polygon","coordinates":[[[98.35294340421477,2.5394851682848665],[98.3607349973223,2.542088698410805],[98.3690310453465,2.5485850887998063],[98.37554506155539,2.544990203607971],[98.38383231420998,2.544664411606576],[98.37092104706875,2.5177982914606347],[98.36568599001644,2.513630009324713],[98.36208824497658,2.5137632582749045],[98.3605320769938,2.5098657026514775],[98.35323224127495,2.5219471941058758],[98.35294340421477,2.5394851682848665]]]}},{"type":"Feature","properties":{"code":"1215042004","desa":"Lae Langge Namuseng","kecamatan":"Sitelu Tali Urang Julu","kecCode":"121504","kabCode":"1215","province":"Sumatera Utara"},"geometry":{"type":"Polygon","coordinates":[[[98.37983951857899,2.5208617519676264],[98.37159489199074,2.51944646997952],[98.37335120229619,2.5259097329416336],[98.38604163731179,2.5471066591156477],[98.40088392875037,2.546810485386519],[98.44346692385949,2.5539607764318326],[98.45104662680046,2.553860559580384],[98.45466606168947,2.5484206657502697],[98.43301937914111,2.5391954633791634],[98.42014576301659,2.536844417018057],[98.4441523907203,2.505136747179688],[98.44134275306567,2.4980400008697057],[98.43265583359987,2.5027374926603705],[98.4221857140995,2.5146004362673184],[98.41595398608762,2.5170413797594122],[98.3988886469935,2.5203889999522353],[98.39347785521892,2.5187524307817535],[98.37983951857899,2.5208617519676264]]]}},{"type":"Feature","properties":{"code":"1215042005","desa":"Cikaok","kecamatan":"Sitelu Tali Urang Julu","kecCode":"121504","kabCode":"1215","province":"Sumatera Utara"},"geometry":{"type":"Polygon","coordinates":[[[98.33671118897023,2.530189932108805],[98.34224772755066,2.5410223003162136],[98.35294340421477,2.5394851682848665],[98.35602837560911,2.5041575491492596],[98.34383658499046,2.504845345253389],[98.33857542421651,2.5116759677810703],[98.33902462478665,2.528641078313962],[98.33671118897023,2.530189932108805]]]}},{"type":"Feature","properties":{"code":"1215052001","desa":"Kecupak I","kecamatan":"Pergetteng Getteng Sengkut","kecCode":"121505","kabCode":"1215","province":"Sumatera Utara"},"geometry":{"type":"Polygon","coordinates":[[[98.28747558133306,2.5815984042757707],[98.28966146090777,2.579279689441518],[98.2905100324121,2.562424523726641],[98.29423626898868,2.559212251501575],[98.29377032394136,2.5507874727302977],[98.29620489663874,2.549167237946028],[98.29307431073089,2.547892060439983],[98.28249264202185,2.5506673781636553],[98.28068800125033,2.5492642064461966],[98.28155901623568,2.5458632411676083],[98.27667166676405,2.5434371877506137],[98.26135961625334,2.5463512285977457],[98.25367865324735,2.5700193550547055],[98.26556941829409,2.580231473438134],[98.27354061230947,2.581480690214701],[98.2808007690403,2.57967593433186],[98.28747558133306,2.5815984042757707]]]}},{"type":"Feature","properties":{"code":"1215052002","desa":"Kecupak Ii","kecamatan":"Pergetteng Getteng Sengkut","kecCode":"121505","kabCode":"1215","province":"Sumatera Utara"},"geometry":{"type":"Polygon","coordinates":[[[98.30974401737255,2.5794646503085668],[98.3074597339796,2.5756575125235854],[98.30783066385413,2.564831431476624],[98.31079636356138,2.5627727493163657],[98.30818346609414,2.5582041735422774],[98.30922192585125,2.5512812365058655],[98.29506614898365,2.5497653779375575],[98.29452180373829,2.558369921293114],[98.29058141699885,2.5622389252402473],[98.28894762223501,2.568393655090389],[98.28966146090777,2.579279689441518],[98.28747558133306,2.5815984042757707],[98.29637144568572,2.583319377518228],[98.30312911521658,2.5782749191886567],[98.30974401737255,2.5794646503085668]]]}},{"type":"Feature","properties":{"code":"1215052003","desa":"Aornakan I","kecamatan":"Pergetteng Getteng Sengkut","kecCode":"121505","kabCode":"1215","province":"Sumatera Utara"},"geometry":{"type":"Polygon","coordinates":[[[98.29718007020413,2.542640828187156],[98.32337940423615,2.532205384757632],[98.32141764470862,2.516622809199268],[98.31488348728315,2.5167563306439944],[98.29403798196734,2.5105782975609974],[98.28936234099926,2.514433024770684],[98.27587079620035,2.517823755764375],[98.26951763543059,2.52474798692511],[98.26083488342316,2.5280938021786143],[98.26135961625334,2.5463512285977457],[98.27692069893118,2.543469559746955],[98.28155901623568,2.5458632411676083],[98.28068800125033,2.5492642064461966],[98.28249264202185,2.5506673781636553],[98.29505397755906,2.5482243680295342],[98.29718007020413,2.542640828187156]]]}},{"type":"Feature","properties":{"code":"1215052004","desa":"Simerpara","kecamatan":"Pergetteng Getteng Sengkut","kecCode":"121505","kabCode":"1215","province":"Sumatera Utara"},"geometry":{"type":"Polygon","coordinates":[[[98.22450646540115,2.529604772032375],[98.21683270326666,2.558872142293219],[98.2212941922732,2.567021795967909],[98.24259036855074,2.5721971245407946],[98.25367865324735,2.5700193550547055],[98.26135961625334,2.5463512285977457],[98.26223281928922,2.538123242174328],[98.25890157394855,2.5218477290877024],[98.24662355543278,2.5167080946067344],[98.23467866109138,2.5185402780133317],[98.22450646540115,2.529604772032375]]]}},{"type":"Feature","properties":{"code":"1215052005","desa":"Aornakan Ii","kecamatan":"Pergetteng Getteng Sengkut","kecCode":"121505","kabCode":"1215","province":"Sumatera Utara"},"geometry":{"type":"Polygon","coordinates":[[[98.30854935796656,2.5499786161876403],[98.30836689271796,2.5371781032683156],[98.2965019247241,2.5432475899791385],[98.29531576301213,2.5500906825063203],[98.30854935796656,2.5499786161876403]]]}},{"type":"Feature","properties":{"code":"1215062001","desa":"Sibagindar","kecamatan":"Pagindar","kecCode":"121506","kabCode":"1215","province":"Sumatera Utara"},"geometry":{"type":"MultiPolygon","coordinates":[[[[98.16259751616252,2.5261573495755787],[98.16260941329386,2.5261573495755787],[98.16260941329386,2.526145451544866],[98.16259751616252,2.5261573495755787]]],[[[98.13585204363699,2.5471099254533383],[98.15351632042189,2.5482115499924247],[98.15831325205498,2.555001474600365],[98.16260241566901,2.5556967242856206],[98.15097792369227,2.5283151271325974],[98.15875402327957,2.5242014806095265],[98.17524435114592,2.5306664271025],[98.17911335509733,2.530842507164393],[98.18525236390553,2.52560293462189],[98.19263345157258,2.5301572228667],[98.19601704644958,2.5265166476183274],[98.19515566230405,2.520616333276757],[98.18723459470083,2.505422132641556],[98.17537781863149,2.4989390468228683],[98.1660973789909,2.496860847575695],[98.14649794462451,2.5030649124345845],[98.12898616857689,2.519075234335897],[98.13101628197592,2.5201503900285975],[98.12945999798058,2.5341368784989444],[98.13585204363699,2.5471099254533383]]]]}},{"type":"Feature","properties":{"code":"1215062002","desa":"Napatalun Perlambuken","kecamatan":"Pagindar","kecCode":"121506","kabCode":"1215","province":"Sumatera Utara"},"geometry":{"type":"Polygon","coordinates":[[[98.08244965842505,2.5109399958943017],[98.08119827068371,2.5490668556193357],[98.098386059669,2.5530890860565023],[98.11066651444816,2.5534569213635074],[98.13551102791166,2.5471096952268413],[98.12945999798058,2.5341368784989444],[98.13101628197592,2.5201503900285975],[98.11529180867007,2.5149593215212427],[98.10756056366915,2.509773429511674],[98.10162954466779,2.5108053907664964],[98.09492776620353,2.5082105453935246],[98.08874495861299,2.5004354629479297],[98.0861262901962,2.5006602880633255],[98.08244965842505,2.5109399958943017]]]}},{"type":"Feature","properties":{"code":"1215062003","desa":"Lae Mbentar","kecamatan":"Pagindar","kecCode":"121506","kabCode":"1215","province":"Sumatera Utara"},"geometry":{"type":"Polygon","coordinates":[[[98.18380796816324,2.331399421053613],[98.14705071381945,2.424009463971118],[98.21932947487545,2.474330197131218],[98.2347142175871,2.4161442110006486],[98.2417193346796,2.359281098820201],[98.24714021055233,2.3590916134639652],[98.26176943820906,2.341761147954385],[98.26361111126384,2.2761111081090966],[98.26611111143869,2.2636111081477797],[98.2516527783531,2.2766083306773046],[98.19704836199236,2.3115964287611157],[98.18380796816324,2.331399421053613]]]}},{"type":"Feature","properties":{"code":"1215062004","desa":"Pagindar","kecamatan":"Pagindar","kecCode":"121506","kabCode":"1215","province":"Sumatera Utara"},"geometry":{"type":"Polygon","coordinates":[[[98.14705071381945,2.424009463971118],[98.13719637900975,2.430729393444905],[98.10431156492683,2.4711531252703622],[98.08653590081121,2.5000338239239865],[98.09492776620353,2.5082105453935246],[98.10162954466779,2.5108053907664964],[98.10756056366915,2.509773429511674],[98.11529180867007,2.5149593215212427],[98.12898616857689,2.519075234335897],[98.14649794462451,2.5030649124345845],[98.1660973789909,2.496860847575695],[98.17537781863149,2.4989390468228683],[98.18723459470083,2.505422132641556],[98.19264381356123,2.514232543403763],[98.19601704644958,2.5265166476183274],[98.2006141640125,2.529300616820094],[98.20042856642527,2.5314278551991247],[98.20398348125268,2.5329697455433884],[98.20609644289658,2.531299364561931],[98.2057966296108,2.534811448273798],[98.20943720576246,2.5391730001131183],[98.22063575723445,2.5404211700788695],[98.22555452901838,2.5269450999291276],[98.21932947487545,2.474330197131218],[98.14705071381945,2.424009463971118]]]}},{"type":"Feature","properties":{"code":"1215072001","desa":"Kuta Babo","kecamatan":"Tinada","kecCode":"121507","kabCode":"1215","province":"Sumatera Utara"},"geometry":{"type":"Polygon","coordinates":[[[98.39432291127338,2.646929290915471],[98.39704220033734,2.643354642268258],[98.40646389289441,2.6408572429355255],[98.39903875823217,2.6356370489843948],[98.38085886504467,2.6316279513470118],[98.36212774769744,2.6138676539666674],[98.35736386165296,2.612881309923129],[98.34769590504202,2.6172515528107736],[98.32352825102798,2.6091698465138937],[98.31589719859686,2.6128183115145904],[98.32982279758407,2.628958889422312],[98.35422575921147,2.6302724589864592],[98.35917755230223,2.632443461973429],[98.37770890863929,2.651513891709166],[98.39432291127338,2.646929290915471]]]}},{"type":"Feature","properties":{"code":"1215072002","desa":"Tinada","kecamatan":"Tinada","kecCode":"121507","kabCode":"1215","province":"Sumatera Utara"},"geometry":{"type":"Polygon","coordinates":[[[98.2871554478657,2.5911865703263577],[98.29919830535755,2.590498976569674],[98.31589719859686,2.6128183115145904],[98.32413157201448,2.6092456314833004],[98.32786789358845,2.597389957995763],[98.3189009755996,2.5839518383369793],[98.32294803632287,2.5805671660758516],[98.31765334522578,2.5803088834824783],[98.31455052768477,2.5776086699414],[98.30974401737255,2.5794646503085668],[98.30312911521658,2.5782749191886567],[98.29637144568572,2.583319377518228],[98.28522428237476,2.5811415549721395],[98.2871554478657,2.5911865703263577]]]}},{"type":"Feature","properties":{"code":"1215072003","desa":"Silima Kuta","kecamatan":"Tinada","kecCode":"121507","kabCode":"1215","province":"Sumatera Utara"},"geometry":{"type":"Polygon","coordinates":[[[98.3251060719877,2.5791648720966958],[98.31882959191222,2.583494980939434],[98.32786789358845,2.597389957995763],[98.35039867625794,2.5927707449945308],[98.35757523470936,2.5839439971480798],[98.35115623367328,2.5788555107091518],[98.33490971291297,2.5896976941172656],[98.33399270390021,2.584875518519659],[98.3251060719877,2.5791648720966958]]]}},{"type":"Feature","properties":{"code":"1215072004","desa":"Mahala","kecamatan":"Tinada","kecCode":"121507","kabCode":"1215","province":"Sumatera Utara"},"geometry":{"type":"Polygon","coordinates":[[[98.22976450372892,2.582737171714697],[98.2436954815613,2.5970847253956935],[98.25480240290862,2.5991857431411276],[98.25750605186289,2.6018417055409766],[98.26444901321145,2.614243943800118],[98.26144143297579,2.614326128345217],[98.26184439040634,2.6162524617766607],[98.26984070428512,2.6266141401141203],[98.28254597811446,2.6227658763319517],[98.28109506858259,2.616307427440732],[98.27376632955253,2.6114913969106124],[98.27096808271091,2.6022971599961506],[98.27926764258767,2.5928935303326397],[98.2871554478657,2.5911865703263577],[98.28522428237476,2.5811415549721395],[98.26556941829409,2.580231473438134],[98.25367865324735,2.5700193550547055],[98.24070796340185,2.571765739540891],[98.22976450372892,2.582737171714697]]]}},{"type":"Feature","properties":{"code":"1215072005","desa":"Prongil","kecamatan":"Tinada","kecCode":"121507","kabCode":"1215","province":"Sumatera Utara"},"geometry":{"type":"Polygon","coordinates":[[[98.32413157201448,2.6092456314833004],[98.34926634886295,2.6173943201854106],[98.36155344873272,2.609758841299547],[98.36439114883251,2.607113615006297],[98.35747417879037,2.5929629184243637],[98.35746109185595,2.584007817536967],[98.35039867625794,2.5927707449945308],[98.32632548972965,2.5979446058738396],[98.32413157201448,2.6092456314833004]]]}},{"type":"Feature","properties":{"code":"1215072006","desa":"Buluh Tellang","kecamatan":"Tinada","kecCode":"121507","kabCode":"1215","province":"Sumatera Utara"},"geometry":{"type":"Polygon","coordinates":[[[98.3044096787637,2.6226501920407275],[98.31589719859686,2.6128183115145904],[98.31160881739305,2.6059982722086974],[98.30396386773839,2.609053164874474],[98.29854207006052,2.615119352872034],[98.3044096787637,2.6226501920407275]]]}},{"type":"Feature","properties":{"code":"1215082001","desa":"Siempat Rube Ii","kecamatan":"Siempat Rube","kecCode":"121508","kabCode":"1215","province":"Sumatera Utara"},"geometry":{"type":"Polygon","coordinates":[[[98.35569053898722,2.541041735564872],[98.35012260057759,2.543682937391974],[98.34234233533056,2.5547403357601506],[98.34277801369443,2.5615279293252593],[98.33796882430187,2.5709927605519125],[98.34181046458133,2.5708404738534325],[98.35115623367328,2.5788555107091518],[98.35588846627974,2.569795097411608],[98.3751087446729,2.5673500170381174],[98.37320656073427,2.5612899831013305],[98.36328420839953,2.5550891072383752],[98.3690310453465,2.5485850887998063],[98.3607349973223,2.542088698410805],[98.35569053898722,2.541041735564872]]]}},{"type":"Feature","properties":{"code":"1215082002","desa":"Siempat Rube I","kecamatan":"Siempat Rube","kecCode":"121508","kabCode":"1215","province":"Sumatera Utara"},"geometry":{"type":"Polygon","coordinates":[[[98.40646389289441,2.6408572429355255],[98.42220435075022,2.6356831689168367],[98.43076552520886,2.6144568969651103],[98.42116141057068,2.6114309157044455],[98.40478721755608,2.6154617319691598],[98.40170948480494,2.6134159910532455],[98.39174793641818,2.6172952859425043],[98.37879414933059,2.6105518931565403],[98.36980930425602,2.610037931507071],[98.36439114883251,2.607113615006297],[98.35736386165296,2.612881309923129],[98.36309856764483,2.614552938264311],[98.38085886504467,2.6316279513470118],[98.39903875823217,2.6356370489843948],[98.40646389289441,2.6408572429355255]]]}},{"type":"Feature","properties":{"code":"1215082003","desa":"Mungkur","kecamatan":"Siempat Rube","kecCode":"121508","kabCode":"1215","province":"Sumatera Utara"},"geometry":{"type":"Polygon","coordinates":[[[98.43076552520886,2.6144568969651103],[98.44145807403095,2.5860708928853486],[98.43765261797398,2.5882220181571953],[98.43185682193484,2.580297261543646],[98.42246723337615,2.5742085518241318],[98.41128043244605,2.5735193662674307],[98.39100823594138,2.5672230777314415],[98.37604404229876,2.566931118225433],[98.37199102806356,2.5692221420346026],[98.36144525669329,2.5678706093890002],[98.35588846627974,2.569795097411608],[98.35217042072838,2.5758142094973664],[98.35115623367328,2.5788555107091518],[98.35537532391216,2.5831364680047306],[98.36396907181529,2.5803548469328774],[98.37615992264237,2.5893057048188375],[98.38402017089423,2.6007402662622177],[98.39903497028767,2.6146342765473385],[98.40217585882884,2.613406473527972],[98.40478721755608,2.6154617319691598],[98.42116141057068,2.6114309157044455],[98.43076552520886,2.6144568969651103]]]}},{"type":"Feature","properties":{"code":"1215082004","desa":"Siempat Rube Iv","kecamatan":"Siempat Rube","kecCode":"121508","kabCode":"1215","province":"Sumatera Utara"},"geometry":{"type":"Polygon","coordinates":[[[98.44145807403095,2.5860708928853486],[98.45308076916223,2.5699130039276166],[98.46507948882743,2.561684057927614],[98.46750805585214,2.549219163901637],[98.45893873983103,2.551004605944145],[98.45466606168947,2.5484206657502697],[98.45104662680046,2.553860559580384],[98.4377562171757,2.5537466253697683],[98.40088392875037,2.546810485386519],[98.38654741692983,2.5472312206148193],[98.38348292939372,2.544291230729392],[98.3794531986063,2.5442253994563617],[98.370700773422,2.547106440580386],[98.36322834970859,2.554723354761263],[98.37320656073427,2.5612899831013305],[98.3751087446729,2.5673500170381174],[98.39100823594138,2.5672230777314415],[98.41128043244605,2.5735193662674307],[98.42246723337615,2.5742085518241318],[98.43185682193484,2.580297261543646],[98.43765261797398,2.5882220181571953],[98.44145807403095,2.5860708928853486]]]}},{"type":"Feature","properties":{"code":"1215082005","desa":"Kuta Jungak","kecamatan":"Siempat Rube","kecCode":"121508","kabCode":"1215","province":"Sumatera Utara"},"geometry":{"type":"Polygon","coordinates":[[[98.35933887538886,2.5807079648345144],[98.35747417879037,2.5929629184243637],[98.3663638459148,2.6088006100632226],[98.37879414933059,2.6105518931565403],[98.39174793641818,2.6172952859425043],[98.39869596184921,2.6157010469613264],[98.3967541573785,2.6108564845399926],[98.38402017089423,2.6007402662622177],[98.37615992264237,2.5893057048188375],[98.36396907181529,2.5803548469328774],[98.35933887538886,2.5807079648345144]]]}},{"type":"Feature","properties":{"code":"1215082006","desa":"Traju","kecamatan":"Siempat Rube","kecCode":"121508","kabCode":"1215","province":"Sumatera Utara"},"geometry":{"type":"Polygon","coordinates":[[[98.34181046458133,2.5708404738534325],[98.33045581238588,2.572149982079196],[98.32513437095452,2.5789668674626993],[98.33399270390021,2.584875518519659],[98.33490971291297,2.5896976941172656],[98.35123634438185,2.5787334412313445],[98.34181046458133,2.5708404738534325]]]}}]}