{"type":"FeatureCollection","features":[{"type":"Feature","properties":{"code":"1217011016","desa":"Tuktuk Siadong","kecamatan":"Simanindo","kecCode":"121701","kabCode":"1217","province":"Sumatera Utara"},"geometry":{"type":"Polygon","coordinates":[[[98.84791518124068,2.7081567527265444],[98.86624717676584,2.7021503417659636],[98.89284324671854,2.673196789932643],[98.89394731111958,2.6656153126375717],[98.86934471078983,2.6608638732154186],[98.85327720637804,2.664606090740592],[98.84887715455709,2.6601783820736427],[98.84491684423705,2.665375936491569],[98.84524697456828,2.6711830873645463],[98.83999768034873,2.67621091543085],[98.8386096945818,2.6814823122825557],[98.84034538343275,2.6948261227365014],[98.84791518124068,2.7081567527265444]]]}},{"type":"Feature","properties":{"code":"1217012001","desa":"Tomok","kecamatan":"Simanindo","kecCode":"121701","kabCode":"1217","province":"Sumatera Utara"},"geometry":{"type":"Polygon","coordinates":[[[98.89394731111958,2.6656153126375717],[98.89480232806505,2.6476119339043183],[98.87320852025702,2.632759307472957],[98.87394041461852,2.6269925073814995],[98.86722931378186,2.613740255106395],[98.8622508863694,2.6113028540438603],[98.8550649147141,2.6122070504144284],[98.84197787867622,2.6041168823964322],[98.83229425857324,2.6016740269456964],[98.83148969269524,2.607317588440669],[98.83429022921075,2.6113205059369604],[98.84125729059154,2.612967092655771],[98.8385137737917,2.6164158245255007],[98.8388335376377,2.620669081802813],[98.8431596705824,2.6254657076611556],[98.84896555521624,2.6266935097812074],[98.85048185984999,2.6322527616330973],[98.84886681595083,2.635177637512227],[98.85966377606245,2.638371859444536],[98.85790335585521,2.6439140169829924],[98.86040191891351,2.6496191667496727],[98.87293434124689,2.660982128668382],[98.89394731111958,2.6656153126375717]]]}},{"type":"Feature","properties":{"code":"1217012002","desa":"Sihusapi","kecamatan":"Simanindo","kecCode":"121701","kabCode":"1217","province":"Sumatera Utara"},"geometry":{"type":"Polygon","coordinates":[[[98.76893788737367,2.704463434938172],[98.76379464480709,2.6987950557519924],[98.75316630578043,2.6971440911334668],[98.73041984859718,2.6995333083194875],[98.71922686392867,2.7051298001979815],[98.70782448741022,2.70173193038585],[98.70904381342132,2.7050306688282637],[98.7028716843808,2.7067404050417725],[98.7029937934289,2.7084150488097483],[98.70941853483761,2.707307247726771],[98.70773615599887,2.710288868128998],[98.71557004781947,2.724950526222035],[98.71150117044272,2.72743468303771],[98.71141811265583,2.7305531649666985],[98.71320158968166,2.7304546478339593],[98.71508136341424,2.73656986327216],[98.72110857480095,2.7367835529819304],[98.72341437177589,2.7408668267015988],[98.73410648082948,2.7296417200604703],[98.73966847022376,2.7291955708904774],[98.75026075003363,2.719027313342505],[98.76638423364551,2.7112505824396487],[98.76893788737367,2.704463434938172]]]}},{"type":"Feature","properties":{"code":"1217012003","desa":"Maduma","kecamatan":"Simanindo","kecCode":"121701","kabCode":"1217","province":"Sumatera Utara"},"geometry":{"type":"Polygon","coordinates":[[[98.76893788737367,2.704463434938172],[98.76638423364551,2.7112505824396487],[98.75026075003363,2.719027313342505],[98.73966847022376,2.7291955708904774],[98.73410648082948,2.7296417200604703],[98.72294525571903,2.74209548317753],[98.7293127777625,2.7473150943679765],[98.73635580937315,2.7492503220944084],[98.74088189758157,2.749377498822075],[98.74507432741831,2.7451450257765],[98.75008071295456,2.7446691342278897],[98.75701922175972,2.7356747707386053],[98.75732855077204,2.7308920537949715],[98.76391965776604,2.719021399400728],[98.77091527442042,2.7156901540637],[98.76893788737367,2.704463434938172]]]}},{"type":"Feature","properties":{"code":"1217012004","desa":"Dosroha","kecamatan":"Simanindo","kecCode":"121701","kabCode":"1217","province":"Sumatera Utara"},"geometry":{"type":"Polygon","coordinates":[[[98.6454828887244,2.7887634130077616],[98.66074367518053,2.792631955602732],[98.6706943507637,2.7817134827053795],[98.69576835592495,2.7397365542586867],[98.71551294086959,2.7251575393649956],[98.70773615599887,2.710288868128998],[98.70936499639754,2.7072287261204266],[98.69554823066635,2.7122351602145867],[98.65143775864571,2.718599316088752],[98.64542579706294,2.7434215515194764],[98.6454828887244,2.7887634130077616]]]}},{"type":"Feature","properties":{"code":"1217012005","desa":"Ambarita","kecamatan":"Simanindo","kecCode":"121701","kabCode":"1217","province":"Sumatera Utara"},"geometry":{"type":"Polygon","coordinates":[[[98.8349822368408,2.6702186139338413],[98.82292615122093,2.6597208016211336],[98.81164217404717,2.6664390259803756],[98.82512671762395,2.678552088135227],[98.8349822368408,2.6702186139338413]]]}},{"type":"Feature","properties":{"code":"1217012006","desa":"Martoba","kecamatan":"Simanindo","kecCode":"121701","kabCode":"1217","province":"Sumatera Utara"},"geometry":{"type":"Polygon","coordinates":[[[98.8128993741069,2.743889913044606],[98.83959842182973,2.713436078001418],[98.83164787265127,2.7100200616689905],[98.81955146772611,2.695531842329001],[98.80532133041515,2.6912348510206057],[98.79406116638977,2.6815746150999695],[98.77443606896946,2.6762875115887566],[98.77631679958067,2.6827469317478005],[98.77485986279247,2.7003016737863375],[98.78293694298559,2.701945881798306],[98.79324211962819,2.712470179145321],[98.7944446615919,2.7281737899611156],[98.80033683797473,2.7350139587923956],[98.8128993741069,2.743889913044606]]]}},{"type":"Feature","properties":{"code":"1217012007","desa":"Garoga","kecamatan":"Simanindo","kecCode":"121701","kabCode":"1217","province":"Sumatera Utara"},"geometry":{"type":"Polygon","coordinates":[[[98.83992149068433,2.67334864675525],[98.84598678476237,2.669413985104229],[98.8450596134105,2.664990461882017],[98.84902884680389,2.6600594089616076],[98.85327720637804,2.664606090740592],[98.85996437085907,2.662168499921134],[98.84922107329396,2.6544180229266168],[98.84922693957166,2.6489805158972826],[98.84228232257118,2.6447460310682844],[98.84160457009487,2.640828416965924],[98.8407975382758,2.640348786935578],[98.83897215284263,2.646658449289721],[98.82463507444918,2.6602512766219886],[98.82600640297316,2.664304790875831],[98.82976595043834,2.665113808397116],[98.83204071540676,2.6686087609233167],[98.83992149068433,2.67334864675525]]]}},{"type":"Feature","properties":{"code":"1217012008","desa":"Simanindo Sangkal","kecamatan":"Simanindo","kecCode":"121701","kabCode":"1217","province":"Sumatera Utara"},"geometry":{"type":"Polygon","coordinates":[[[98.77112942458336,2.7140721199205258],[98.76391965776604,2.719021399400728],[98.75471114320474,2.737697312743154],[98.7597103116816,2.7549686397344257],[98.76728248639768,2.768426891616566],[98.76971959428391,2.7434699647231264],[98.77930882244424,2.728641164030689],[98.78200118220883,2.719860953402066],[98.77112942458336,2.7140721199205258]]]}},{"type":"Feature","properties":{"code":"1217012009","desa":"Cinta Dame","kecamatan":"Simanindo","kecCode":"121701","kabCode":"1217","province":"Sumatera Utara"},"geometry":{"type":"Polygon","coordinates":[[[98.66074367518053,2.792631955602732],[98.6971340178207,2.7986278498912625],[98.71935163856733,2.795284806348291],[98.72656822224569,2.776189800838943],[98.7423393173057,2.7521097147381184],[98.73898237024024,2.748365548382037],[98.7293127777625,2.7473150943679765],[98.7227719176899,2.740795443014207],[98.72090166058325,2.7413807910489516],[98.71517638038567,2.746386978728893],[98.71066856370334,2.7470035521244274],[98.70260810927687,2.756086345950372],[98.68213844323463,2.771036145028071],[98.66074367518053,2.792631955602732]]]}},{"type":"Feature","properties":{"code":"1217012010","desa":"Huta Ginjang","kecamatan":"Simanindo","kecCode":"121701","kabCode":"1217","province":"Sumatera Utara"},"geometry":{"type":"Polygon","coordinates":[[[98.89565849344478,2.6312274904349193],[98.90277516334316,2.607215167350924],[98.88653320844088,2.5981035088846114],[98.87790528270267,2.602438886855223],[98.8625403817333,2.6045746966726067],[98.83584393484976,2.5910376309044554],[98.83229425857324,2.6016740269456964],[98.84197787867622,2.6041168823964322],[98.8550649147141,2.6122070504144284],[98.86614427993464,2.612712328210233],[98.87394041461852,2.6269925073814995],[98.87320852025702,2.632759307472957],[98.89480232806505,2.6476119339043183],[98.89565849344478,2.6312274904349193]]]}},{"type":"Feature","properties":{"code":"1217012011","desa":"Pardomuan","kecamatan":"Simanindo","kecCode":"121701","kabCode":"1217","province":"Sumatera Utara"},"geometry":{"type":"Polygon","coordinates":[[[98.9066974368373,2.5934617777586735],[98.91231704039916,2.5864996257845934],[98.90643501286557,2.5796871165022104],[98.88960087508036,2.5706967352109453],[98.88145360909687,2.583325483914933],[98.9066974368373,2.5934617777586735]]]}},{"type":"Feature","properties":{"code":"1217012012","desa":"Parmonangan","kecamatan":"Simanindo","kecCode":"121701","kabCode":"1217","province":"Sumatera Utara"},"geometry":{"type":"Polygon","coordinates":[[[98.90269279533629,2.6073627442999006],[98.9066974368373,2.5934617777586735],[98.87849717600392,2.5828549415337756],[98.87265102872203,2.57759789246603],[98.86102241425304,2.5733823068897888],[98.85588631140422,2.5680467820810375],[98.84249705369615,2.5802204963132125],[98.83584393484976,2.5910376309044554],[98.8625403817333,2.6045746966726067],[98.87790528270267,2.602438886855223],[98.88510553199478,2.598027365985057],[98.89900398314734,2.6061954467684005],[98.90269279533629,2.6073627442999006]]]}},{"type":"Feature","properties":{"code":"1217012013","desa":"Parbalohan","kecamatan":"Simanindo","kecCode":"121701","kabCode":"1217","province":"Sumatera Utara"},"geometry":{"type":"Polygon","coordinates":[[[98.91231704039916,2.5864996257845934],[98.92220145303467,2.5701255820753444],[98.90496687861861,2.566762999861619],[98.89940965563117,2.5588332133398737],[98.88960087508036,2.5706967352109453],[98.90643501286557,2.5796871165022104],[98.91231704039916,2.5864996257845934]]]}},{"type":"Feature","properties":{"code":"1217012014","desa":"Tanjungan","kecamatan":"Simanindo","kecCode":"121701","kabCode":"1217","province":"Sumatera Utara"},"geometry":{"type":"Polygon","coordinates":[[[98.88145360909687,2.583325483914933],[98.89933232292844,2.55828772145953],[98.88269540736724,2.5369956506104567],[98.86598409628907,2.5234529622808513],[98.86809318005628,2.5322064243739093],[98.86525167492493,2.545136999945357],[98.87086305778392,2.5590097907268228],[98.85588631140422,2.5680467820810375],[98.86102241425304,2.5733823068897888],[98.88145360909687,2.583325483914933]]]}},{"type":"Feature","properties":{"code":"1217012015","desa":"Simarmata","kecamatan":"Simanindo","kecCode":"121701","kabCode":"1217","province":"Sumatera Utara"},"geometry":{"type":"Polygon","coordinates":[[[98.7227719176899,2.740795443014207],[98.72110857480095,2.7367835529819304],[98.71508136341424,2.73656986327216],[98.71150117044272,2.72743468303771],[98.69968714544547,2.7354153963682877],[98.6706943507637,2.7817134827053795],[98.70260810927687,2.756086345950372],[98.71066856370334,2.7470035521244274],[98.71517638038567,2.746386978728893],[98.7227719176899,2.740795443014207]]]}},{"type":"Feature","properties":{"code":"1217012017","desa":"Tomok Parsaoran","kecamatan":"Simanindo","kecCode":"121701","kabCode":"1217","province":"Sumatera Utara"},"geometry":{"type":"Polygon","coordinates":[[[98.85996437085907,2.662168499921134],[98.87293434124689,2.660982128668382],[98.85975946392817,2.648748283965576],[98.85790335585521,2.6439140169829924],[98.85955156944941,2.638262413750266],[98.84898808862941,2.635291074397738],[98.85048185984999,2.6322527616330973],[98.84895959001311,2.629863598406413],[98.84185402044677,2.632225307129699],[98.84228232257118,2.6447460310682844],[98.84922693957166,2.6489805158972826],[98.84942875463337,2.6546301954801423],[98.85996437085907,2.662168499921134]]]}},{"type":"Feature","properties":{"code":"1217012018","desa":"Marlumba","kecamatan":"Simanindo","kecCode":"121701","kabCode":"1217","province":"Sumatera Utara"},"geometry":{"type":"Polygon","coordinates":[[[98.7808463258973,2.768505516645037],[98.79732322688544,2.7530193295240335],[98.8128993741069,2.743889913044606],[98.79761314403144,2.7330646476827196],[98.79317402925813,2.7229960826814437],[98.79324211962819,2.712470179145321],[98.78293694298559,2.701945881798306],[98.77711202240197,2.700023276956106],[98.76893788737367,2.704463434938172],[98.76888864409568,2.711702511552337],[98.78200118220883,2.719860953402066],[98.77930882244424,2.728641164030689],[98.76971959428391,2.7434699647231264],[98.76728248639768,2.768426891616566],[98.76992242288155,2.7731475148695734],[98.7808463258973,2.768505516645037]]]}},{"type":"Feature","properties":{"code":"1217012019","desa":"Simanindo","kecamatan":"Simanindo","kecCode":"121701","kabCode":"1217","province":"Sumatera Utara"},"geometry":{"type":"Polygon","coordinates":[[[98.71935163856733,2.795284806348291],[98.73800849889318,2.79155540146419],[98.76992242288155,2.7731475148695734],[98.7597103116816,2.7549686397344257],[98.75500274478088,2.7389048036747576],[98.74977733475622,2.744881831086103],[98.74507432741831,2.7451450257765],[98.73979614697463,2.7494458221164866],[98.74183545504229,2.7546562287457657],[98.7307910923351,2.768308637062886],[98.71935163856733,2.795284806348291]]]}},{"type":"Feature","properties":{"code":"1217012020","desa":"Unjur","kecamatan":"Simanindo","kecCode":"121701","kabCode":"1217","province":"Sumatera Utara"},"geometry":{"type":"Polygon","coordinates":[[[98.82512671762395,2.678552088135227],[98.81164217404717,2.6664390259803756],[98.80673629944073,2.668605708624288],[98.7881729344334,2.6673540133161677],[98.78037781958079,2.669224268622161],[98.7746528352602,2.664372547597345],[98.77372484642456,2.659482756471738],[98.76342808743634,2.6578793138287335],[98.76442314501217,2.663815030881938],[98.7671595247923,2.6642433339052607],[98.77061526238452,2.6734013038595728],[98.79406116638977,2.6815746150999695],[98.80532133041515,2.6912348510206057],[98.81856898986705,2.6949385191063713],[98.82512671762395,2.678552088135227]]]}},{"type":"Feature","properties":{"code":"1217012021","desa":"Siallagan Pindaraya","kecamatan":"Simanindo","kecCode":"121701","kabCode":"1217","province":"Sumatera Utara"},"geometry":{"type":"Polygon","coordinates":[[[98.83959842182973,2.713436078001418],[98.84791518124068,2.7081567527265444],[98.84034538343275,2.6948261227365014],[98.8386821754421,2.6856899226708424],[98.83952456590606,2.677161452067737],[98.84344309282454,2.672377826808915],[98.83992149068433,2.67334864675525],[98.8349822368408,2.6702186139338413],[98.82306560459402,2.681512192257533],[98.81856898986705,2.6949385191063713],[98.83164787265127,2.7100200616689905],[98.83959842182973,2.713436078001418]]]}},{"type":"Feature","properties":{"code":"1217022001","desa":"Pakpahan","kecamatan":"Onan Runggu","kecCode":"121702","kabCode":"1217","province":"Sumatera Utara"},"geometry":{"type":"Polygon","coordinates":[[[98.97770118676044,2.3935184455587333],[98.96122468686985,2.3973522905105864],[98.95188719423867,2.4554363160042407],[98.9542499983388,2.455976454220387],[98.95227708362057,2.459339850320566],[98.95498424172943,2.460990107172663],[98.96454015630324,2.459137300512972],[98.96922531569584,2.4553658550212902],[98.99059482808889,2.401577199358395],[98.97770118676044,2.3935184455587333]]]}},{"type":"Feature","properties":{"code":"1217022002","desa":"Huta Hotang","kecamatan":"Onan Runggu","kecCode":"121702","kabCode":"1217","province":"Sumatera Utara"},"geometry":{"type":"Polygon","coordinates":[[[98.95611334775288,2.5440574573597097],[98.97634051610197,2.528965700297299],[98.9649028780654,2.51530265479912],[98.9676705155819,2.500763723588338],[98.95671492585318,2.4967809104363705],[98.96188411026354,2.4933854624985563],[98.9630340697666,2.488481514245277],[98.94916779365883,2.4869313366483548],[98.94335040130004,2.490654844677777],[98.94315441384519,2.5020835452393313],[98.93968454970229,2.503300932310755],[98.93807311658111,2.511146865145669],[98.94406620768937,2.5290021579136464],[98.95611334775288,2.5440574573597097]]]}},{"type":"Feature","properties":{"code":"1217022003","desa":"Sitinjak","kecamatan":"Onan Runggu","kecCode":"121702","kabCode":"1217","province":"Sumatera Utara"},"geometry":{"type":"Polygon","coordinates":[[[98.96122468686985,2.3973522905105864],[98.95780483582455,2.397763026176993],[98.94645118727254,2.4284839598674477],[98.93337028191303,2.4532709994305146],[98.93479797634558,2.4630159919571826],[98.94108793006397,2.466215743820755],[98.94152425593971,2.4805859775043158],[98.94429226127892,2.4891295369326825],[98.9491792564176,2.487072127313218],[98.94704689369922,2.478425537954074],[98.9493629717238,2.4767282762366256],[98.95063277937929,2.4648227946969463],[98.95404273878141,2.4586077365253747],[98.9542499983388,2.455976454220387],[98.95188719423867,2.4554363160042407],[98.96122468686985,2.3973522905105864]]]}},{"type":"Feature","properties":{"code":"1217022004","desa":"Pardomuan","kecamatan":"Onan Runggu","kecCode":"121702","kabCode":"1217","province":"Sumatera Utara"},"geometry":{"type":"Polygon","coordinates":[[[98.96922531569584,2.4553658550212902],[98.96147541066169,2.460095430125923],[98.95329494170822,2.4602864803025195],[98.94809406968561,2.474668193832037],[98.94949014935098,2.4763673009582963],[98.94704689369922,2.478425537954074],[98.94855792470848,2.486839030233643],[98.9630340697666,2.488481514245277],[98.96188411026354,2.4933854624985563],[98.95671492585318,2.4967809104363705],[98.96776749127677,2.502495315126129],[98.97347726626286,2.498587719471418],[98.97527376007605,2.491414835657709],[98.97515374734763,2.485243202150434],[98.97005440788467,2.475165291394473],[98.97453114759445,2.469373410110542],[98.96922531569584,2.4553658550212902]]]}},{"type":"Feature","properties":{"code":"1217022005","desa":"Tambun Sungkean","kecamatan":"Onan Runggu","kecCode":"121702","kabCode":"1217","province":"Sumatera Utara"},"geometry":{"type":"Polygon","coordinates":[[[99.00859390988109,2.4993277499986175],[99.01859474155411,2.483686444214112],[99.0186824803123,2.4390239692697917],[98.98655170999348,2.4693741241722402],[98.97453114759445,2.469373410110542],[98.97005440788467,2.475165291394473],[98.97519186241459,2.4856688072075865],[98.98141006642145,2.482386976019608],[99.00859390988109,2.4993277499986175]]]}},{"type":"Feature","properties":{"code":"1217022006","desa":"Rina Bolak","kecamatan":"Onan Runggu","kecCode":"121702","kabCode":"1217","province":"Sumatera Utara"},"geometry":{"type":"Polygon","coordinates":[[[98.9382278674222,2.512397147618899],[98.93968454970229,2.503300932310755],[98.94315441384519,2.5020835452393313],[98.94451082441508,2.4896167356573686],[98.94152425593971,2.4805859775043158],[98.94108793006397,2.466215743820755],[98.93834027638268,2.4637943650797536],[98.93846137369349,2.466553616415103],[98.92520728498828,2.482287868032258],[98.92785503658075,2.495811528506028],[98.92388258541304,2.5066311847962712],[98.92521508840565,2.5143712593325867],[98.92915864255735,2.510488160311022],[98.9382278674222,2.512397147618899]]]}},{"type":"Feature","properties":{"code":"1217022007","desa":"Onan Runggu","kecamatan":"Onan Runggu","kecCode":"121702","kabCode":"1217","province":"Sumatera Utara"},"geometry":{"type":"Polygon","coordinates":[[[99.01884540239347,2.439147036995046],[98.99059482808889,2.401577199358395],[98.96935618593925,2.4546579653647034],[98.97228493789963,2.4602648345202693],[98.97282745482323,2.4688308931875187],[98.98655170999348,2.4693741241722402],[98.99181938185905,2.462362286453782],[99.01884540239347,2.439147036995046]]]}},{"type":"Feature","properties":{"code":"1217022008","desa":"Sitamiang","kecamatan":"Onan Runggu","kecCode":"121702","kabCode":"1217","province":"Sumatera Utara"},"geometry":{"type":"Polygon","coordinates":[[[98.98991966206279,2.5201511355665813],[99.00859390988109,2.4993277499986175],[98.97976586020633,2.4817744486739954],[98.97519186241459,2.4856688072075865],[98.9747264839401,2.496238001408948],[98.96776749127677,2.502495315126129],[98.9649028780654,2.51530265479912],[98.97634051610197,2.528965700297299],[98.98991966206279,2.5201511355665813]]]}},{"type":"Feature","properties":{"code":"1217022009","desa":"Janji Matogu","kecamatan":"Onan Runggu","kecCode":"121702","kabCode":"1217","province":"Sumatera Utara"},"geometry":{"type":"Polygon","coordinates":[[[98.93485128725717,2.55662637956399],[98.94297218331967,2.54931449473635],[98.95611334775288,2.5440574573597097],[98.94406620768937,2.5290021579136464],[98.93812445258145,2.5122394434043467],[98.92915864255735,2.510488160311022],[98.92521508840565,2.5143712593325867],[98.92649276962567,2.5215337433861422],[98.92202422903499,2.520910676885526],[98.91770040285137,2.5148265977752455],[98.91316462174994,2.5197594376484695],[98.90813467127809,2.519803350644623],[98.90791422855887,2.52638949607169],[98.91403359977085,2.536672937887796],[98.93485128725717,2.55662637956399]]]}},{"type":"Feature","properties":{"code":"1217022010","desa":"Silima Lombu","kecamatan":"Onan Runggu","kecCode":"121702","kabCode":"1217","province":"Sumatera Utara"},"geometry":{"type":"Polygon","coordinates":[[[98.92220145303467,2.5701255820753444],[98.93485128725717,2.55662637956399],[98.91982297285197,2.5409101719442666],[98.90790518227838,2.549031905266735],[98.9010992443347,2.5609759875072653],[98.90496687861861,2.566762999861619],[98.92220145303467,2.5701255820753444]]]}},{"type":"Feature","properties":{"code":"1217022011","desa":"Sipira","kecamatan":"Onan Runggu","kecCode":"121702","kabCode":"1217","province":"Sumatera Utara"},"geometry":{"type":"Polygon","coordinates":[[[98.89585054366773,2.551598555094944],[98.9010992443347,2.5609759875072653],[98.90790518227838,2.549031905266735],[98.91982297285197,2.5409101719442666],[98.91180285481795,2.534115017778706],[98.90791422855887,2.52638949607169],[98.90572701978618,2.506881047936698],[98.90886303759918,2.483221397590049],[98.90422811883268,2.4723052251585624],[98.89768509678986,2.472335505331789],[98.8917813767092,2.482806774154327],[98.88601118167077,2.4827606344367976],[98.89086622659516,2.486166491127983],[98.89382949003897,2.498990793813367],[98.8910883510466,2.5141812730539868],[98.8821954418662,2.520163615458606],[98.88756287192905,2.5276484471100322],[98.8862035142808,2.532733916323538],[98.89145771340281,2.5352948824363803],[98.89212885226475,2.537941437927641],[98.89279391440765,2.5431154265107],[98.88791834695422,2.5454266275093107],[98.89585054366773,2.551598555094944]]]}},{"type":"Feature","properties":{"code":"1217022012","desa":"Harian","kecamatan":"Onan Runggu","kecCode":"121702","kabCode":"1217","province":"Sumatera Utara"},"geometry":{"type":"Polygon","coordinates":[[[98.9409030906052,2.3964538273180085],[98.91231798558663,2.407997856039304],[98.91424751341208,2.427553174141303],[98.920217207758,2.4413445546939054],[98.9153256899287,2.454744335354579],[98.9117265329532,2.45592053167773],[98.90891706706907,2.4631293281185953],[98.91273368101463,2.4654373985771496],[98.92121440661963,2.4665289048439414],[98.93485256069715,2.462961572181589],[98.93343444944036,2.452953965027223],[98.94645118727254,2.4284839598674477],[98.95780483582455,2.397763026176993],[98.9409030906052,2.3964538273180085]]]}},{"type":"Feature","properties":{"code":"1217031011","desa":"Parhusip Iii","kecamatan":"Nainggolan","kecCode":"121703","kabCode":"1217","province":"Sumatera Utara"},"geometry":{"type":"Polygon","coordinates":[[[98.88935127993767,2.45110097670451],[98.88495996323178,2.4476562764955228],[98.88507908743001,2.4444369571829108],[98.88000961355289,2.443274432353529],[98.8806045006972,2.4402322435109327],[98.87634511723343,2.444812117467961],[98.87756792182222,2.4649125146614743],[98.88381518742102,2.472548193196818],[98.88586328995895,2.4686541035605813],[98.8849632169789,2.463458372967764],[98.88709878398174,2.4638882623951908],[98.88879533883387,2.4609758025562143],[98.88648220339103,2.4524378629912755],[98.88935127993767,2.45110097670451]]]}},{"type":"Feature","properties":{"code":"1217031012","desa":"Sirumahombar","kecamatan":"Nainggolan","kecCode":"121703","kabCode":"1217","province":"Sumatera Utara"},"geometry":{"type":"Polygon","coordinates":[[[98.88743117520863,2.4408394783463],[98.88495996323178,2.4476562764955228],[98.89154951529792,2.452344837118934],[98.8927586780706,2.4561216299795015],[98.89675700723018,2.4553758096169926],[98.89508072759355,2.44619117026748],[98.89215202689456,2.4457519395819745],[98.89332946338408,2.4410096741440377],[98.88970078526307,2.440393393028197],[98.89042622339154,2.435583610088359],[98.887106198892,2.4357943293374276],[98.88316917381836,2.4308719611700353],[98.88743117520863,2.4408394783463]]]}},{"type":"Feature","properties":{"code":"1217032001","desa":"Pangaloan","kecamatan":"Nainggolan","kecCode":"121703","kabCode":"1217","province":"Sumatera Utara"},"geometry":{"type":"Polygon","coordinates":[[[98.9117265329532,2.45592053167773],[98.91526856589165,2.4548448678680237],[98.920217207758,2.4413445546939054],[98.91424751341208,2.427553174141303],[98.91211128181027,2.4099903085267944],[98.90485572780966,2.4270458189115875],[98.90278448661483,2.4380656121283777],[98.90548082677878,2.4433162265469313],[98.91112279468126,2.4457427215310665],[98.91259327705812,2.4515086906488515],[98.91000595271258,2.4532306936150885],[98.9117265329532,2.45592053167773]]]}},{"type":"Feature","properties":{"code":"1217032002","desa":"Hutarihit","kecamatan":"Nainggolan","kecCode":"121703","kabCode":"1217","province":"Sumatera Utara"},"geometry":{"type":"Polygon","coordinates":[[[98.90813467127809,2.519803350644623],[98.91316462174994,2.5197594376484695],[98.91770040285137,2.5148265977752455],[98.91511104873598,2.5002682520001245],[98.9167956587927,2.4903007707967384],[98.90821033933577,2.464049717681925],[98.9122831800248,2.4568185002431515],[98.91000595271258,2.4532306936150885],[98.91251801459475,2.4489140431268153],[98.91036105541842,2.444422588714594],[98.90569557768885,2.4432541886143007],[98.90260220482791,2.4525300542928066],[98.89788414823494,2.455736158067985],[98.90231019855689,2.462791844031368],[98.90398144199003,2.4753057151358973],[98.90886303759918,2.483221397590049],[98.90572701978618,2.506881047936698],[98.90813467127809,2.519803350644623]]]}},{"type":"Feature","properties":{"code":"1217032003","desa":"Sinaga Uruk Pandiangan","kecamatan":"Nainggolan","kecCode":"121703","kabCode":"1217","province":"Sumatera Utara"},"geometry":{"type":"Polygon","coordinates":[[[98.87827878283963,2.4658919510123094],[98.8760818299126,2.4460815590979403],[98.87978386663218,2.4412557484406108],[98.87748342242207,2.43939133872794],[98.87743857143299,2.4329660352499975],[98.88096046405421,2.426328656345398],[98.8801555627291,2.423025128113755],[98.87519378806293,2.432268526467776],[98.87440325340748,2.439944352537886],[98.87209175203282,2.4386306534713555],[98.86289151573095,2.442759989566838],[98.86545986977723,2.4482802432175266],[98.8626009672609,2.459762513695315],[98.8664049682148,2.4631236174235687],[98.86554963830521,2.465612728604384],[98.87827878283963,2.4658919510123094]]]}},{"type":"Feature","properties":{"code":"1217032004","desa":"Toguan Galung","kecamatan":"Nainggolan","kecCode":"121703","kabCode":"1217","province":"Sumatera Utara"},"geometry":{"type":"Polygon","coordinates":[[[98.93834027638268,2.4637943650797536],[98.92121440661963,2.4665289048439414],[98.908221820081,2.4638760136289237],[98.9167956587927,2.4903007707967384],[98.91628672884951,2.512869313276313],[98.9249011512672,2.52210056089019],[98.92667046666877,2.520204586772309],[98.92388258541304,2.5066311847962712],[98.92785503658075,2.495811528506028],[98.92520728498828,2.482287868032258],[98.93846137369349,2.466553616415103],[98.93834027638268,2.4637943650797536]]]}},{"type":"Feature","properties":{"code":"1217032005","desa":"Pananggangan","kecamatan":"Nainggolan","kecCode":"121703","kabCode":"1217","province":"Sumatera Utara"},"geometry":{"type":"Polygon","coordinates":[[[98.88300259239577,2.5180081365687483],[98.88710870170529,2.5172060456258785],[98.89205917099399,2.512239633161311],[98.89266117357437,2.4904930251655917],[98.89048551389537,2.485633490830894],[98.88560145864045,2.4825533604905266],[98.88405734067379,2.4729787400286294],[98.87954130059062,2.466330399287567],[98.86554963830521,2.465612728604384],[98.86645028055607,2.4755173813710942],[98.87195124735221,2.478785353107032],[98.8700678403586,2.4804303291400416],[98.87416557338257,2.481623098169767],[98.87643508541095,2.4895761150792994],[98.88419698470312,2.4959537895623405],[98.88502749242491,2.504971290809157],[98.88165376041273,2.5080172379186285],[98.88300259239577,2.5180081365687483]]]}},{"type":"Feature","properties":{"code":"1217032006","desa":"Pasaran Parsaoran","kecamatan":"Nainggolan","kecCode":"121703","kabCode":"1217","province":"Sumatera Utara"},"geometry":{"type":"Polygon","coordinates":[[[98.86307207441678,2.480694963645026],[98.86205700602608,2.468516187129],[98.8553804967126,2.460079825089787],[98.85873879276112,2.45011320183967],[98.85554695133077,2.4419231380282582],[98.83904075582626,2.423261639019779],[98.8281688686984,2.4369411439099706],[98.84488487243897,2.4533901182326128],[98.84638843727663,2.4586991274302243],[98.85397653988548,2.4665977479465413],[98.85915863496308,2.4776290524855114],[98.85604475755957,2.4818668360276868],[98.86015267990234,2.4953208062375207],[98.866574581252,2.487808510190124],[98.86558828936813,2.482316918832344],[98.86307207441678,2.480694963645026]]]}},{"type":"Feature","properties":{"code":"1217032007","desa":"Sipinggan Lumban Siantar","kecamatan":"Nainggolan","kecCode":"121703","kabCode":"1217","province":"Sumatera Utara"},"geometry":{"type":"MultiPolygon","coordinates":[[[[98.89958081460297,2.406354915172087],[98.87464847424775,2.4020643791973204],[98.88096046405421,2.426328656345398],[98.88773749239141,2.436137902734224],[98.89210265141627,2.433004400328492],[98.89047431913457,2.4270725224810663],[98.89958081460297,2.406354915172087]]],[[[98.89931182558036,2.4566165583772475],[98.89278247143396,2.4563252364905503],[98.89771639679435,2.4634991491286327],[98.90046892839837,2.461291122851647],[98.89931182558036,2.4566165583772475]]]]}},{"type":"Feature","properties":{"code":"1217032008","desa":"Sibonor Ompu Ratus","kecamatan":"Nainggolan","kecCode":"121703","kabCode":"1217","province":"Sumatera Utara"},"geometry":{"type":"Polygon","coordinates":[[[98.87464847424775,2.4020643791973204],[98.85956764213302,2.396726605184117],[98.8492069242602,2.403219220219165],[98.84092521682537,2.4195919014553984],[98.85944557175576,2.4338779424078223],[98.86444162857833,2.442078844848507],[98.87209175203282,2.4386306534713555],[98.87440325340748,2.439944352537886],[98.87519378806293,2.432268526467776],[98.8801555627291,2.423025128113755],[98.87464847424775,2.4020643791973204]]]}},{"type":"Feature","properties":{"code":"1217032009","desa":"Nainggolan","kecamatan":"Nainggolan","kecCode":"121703","kabCode":"1217","province":"Sumatera Utara"},"geometry":{"type":"Polygon","coordinates":[[[98.87748342242207,2.43939133872794],[98.88171402308375,2.444790386250022],[98.88507908743001,2.4444369571829108],[98.88743117520863,2.4408394783463],[98.88096046405421,2.426328656345398],[98.87743857143299,2.4329660352499975],[98.87748342242207,2.43939133872794]]]}},{"type":"Feature","properties":{"code":"1217032010","desa":"Pasaran I","kecamatan":"Nainggolan","kecCode":"121703","kabCode":"1217","province":"Sumatera Utara"},"geometry":{"type":"Polygon","coordinates":[[[98.86586460876474,2.473127191118625],[98.8664049682148,2.4631236174235687],[98.86259524487467,2.459702457868487],[98.86543398638939,2.4491187836828687],[98.86289151573095,2.442759989566838],[98.86438893729968,2.4394425901919923],[98.84092521682537,2.4195919014553984],[98.83904075582626,2.423261639019779],[98.85422325090236,2.4398632022131514],[98.85869225374454,2.4494283375253665],[98.8553804967126,2.460079825089787],[98.86266506643972,2.469588677231181],[98.86260764023045,2.4737175501758037],[98.86586460876474,2.473127191118625]]]}},{"type":"Feature","properties":{"code":"1217032013","desa":"Pananggangan Ii","kecamatan":"Nainggolan","kecCode":"121703","kabCode":"1217","province":"Sumatera Utara"},"geometry":{"type":"Polygon","coordinates":[[[98.87914973667108,2.535349616075361],[98.88278563185149,2.5370913330801343],[98.88599532842176,2.5432770751517175],[98.89279391440765,2.5431154265107],[98.89154335943857,2.5353965076261287],[98.8862035142808,2.532733916323538],[98.88756287192905,2.5276484471100322],[98.8821954418662,2.520163615458606],[98.88165376041273,2.5080172379186285],[98.88502749242491,2.504971290809157],[98.88419698470312,2.4959537895623405],[98.87643508541095,2.4895761150792994],[98.87416557338257,2.481623098169767],[98.8700678403586,2.4804303291400416],[98.87195124735221,2.478785353107032],[98.86399179128819,2.4732722211875484],[98.86307207441678,2.480694963645026],[98.86558828936813,2.482316918832344],[98.866574581252,2.487808510190124],[98.86048115278304,2.4968618853933466],[98.86622376741299,2.5058342802436346],[98.8680505243123,2.516027888780678],[98.87297667143628,2.5228650979430673],[98.87610251971557,2.523763949642715],[98.87914973667108,2.535349616075361]]]}},{"type":"Feature","properties":{"code":"1217032014","desa":"Sipinggan","kecamatan":"Nainggolan","kecCode":"121703","kabCode":"1217","province":"Sumatera Utara"},"geometry":{"type":"Polygon","coordinates":[[[98.91231798558663,2.407997856039304],[98.89958081460297,2.406354915172087],[98.89047431913457,2.4270725224810663],[98.89212644567897,2.432828320266581],[98.88969453857213,2.4340353741277108],[98.89120698421499,2.4387444276026007],[98.88970078526307,2.440393393028197],[98.89332946338408,2.4410096741440377],[98.89215202689456,2.4457519395819745],[98.89508072759355,2.44619117026748],[98.89788414823494,2.455736158067985],[98.90235474197783,2.452910769690083],[98.90543044765705,2.4465745638458207],[98.90291023342058,2.435613629458214],[98.91231798558663,2.407997856039304]]]}},{"type":"Feature","properties":{"code":"1217032015","desa":"Janji Marapot","kecamatan":"Nainggolan","kecCode":"121703","kabCode":"1217","province":"Sumatera Utara"},"geometry":{"type":"Polygon","coordinates":[[[98.88601118167077,2.4827606344367976],[98.8917813767092,2.482806774154327],[98.89768509678986,2.472335505331789],[98.90426049532566,2.472155502427188],[98.90208051890089,2.462445430575521],[98.89677676083892,2.463348491102296],[98.88988287099778,2.4511275552681893],[98.88648220339103,2.4524378629912755],[98.88879533883387,2.4609758025562143],[98.88709878398174,2.4638882623951908],[98.8849632169789,2.463458372967764],[98.88586328995895,2.4686541035605813],[98.88297758944425,2.475221673490797],[98.88601118167077,2.4827606344367976]]]}},{"type":"Feature","properties":{"code":"1217042001","desa":"Suhutnihuta Pardomuan","kecamatan":"Palipi","kecCode":"121704","kabCode":"1217","province":"Sumatera Utara"},"geometry":{"type":"Polygon","coordinates":[[[98.8503376850362,2.4799168693122873],[98.84613498224371,2.464834346488634],[98.83949152841137,2.461745806587852],[98.8330249793194,2.4460124938628884],[98.83373280782286,2.4615594760532824],[98.8353925147528,2.461835739691674],[98.83367236888476,2.466152351509124],[98.83903415030584,2.468343527188886],[98.84203528689902,2.4775605969907617],[98.84649035924276,2.481569220685376],[98.8503376850362,2.4799168693122873]]]}},{"type":"Feature","properties":{"code":"1217042002","desa":"Gorat Pallombuan","kecamatan":"Palipi","kecCode":"121704","kabCode":"1217","province":"Sumatera Utara"},"geometry":{"type":"Polygon","coordinates":[[[98.81447410589533,2.466554638944268],[98.81517219474107,2.447458264666965],[98.79043006909244,2.457326886095888],[98.78650093107319,2.4733448000739076],[98.80035075408409,2.475123109593295],[98.81531489196874,2.4871854769644246],[98.81516487156163,2.4821779969587134],[98.8100683892448,2.4781058343629794],[98.81447410589533,2.466554638944268]]]}},{"type":"Feature","properties":{"code":"1217042003","desa":"Urat Ii","kecamatan":"Palipi","kecCode":"121704","kabCode":"1217","province":"Sumatera Utara"},"geometry":{"type":"Polygon","coordinates":[[[98.81525611857506,2.4486217472743466],[98.81480979943274,2.4710063900867967],[98.82016892335717,2.4788333085557426],[98.81971706259242,2.4836950039613384],[98.8240836947068,2.4887515842527397],[98.82306565225808,2.492118270972241],[98.82655815503489,2.4975368095010637],[98.83011640994441,2.496782218949956],[98.83752900535939,2.4907141801476875],[98.83784661442978,2.483649668237739],[98.835008434092,2.4832895823888106],[98.83170278075879,2.4725972952811666],[98.82651483199396,2.468101110435032],[98.81525611857506,2.4486217472743466]]]}},{"type":"Feature","properties":{"code":"1217042004","desa":"Palipi","kecamatan":"Palipi","kecCode":"121704","kabCode":"1217","province":"Sumatera Utara"},"geometry":{"type":"Polygon","coordinates":[[[98.80789193276655,2.4812620131741117],[98.80035075408409,2.475123109593295],[98.78650093107319,2.4733448000739076],[98.78374671863622,2.481550214413262],[98.7912044528233,2.4850521061083612],[98.79661688855862,2.4925869670452294],[98.80421034483162,2.4919683072225736],[98.8091788967887,2.498734898920063],[98.80356045784889,2.5077383194815948],[98.80720162755311,2.510343445004828],[98.81156111905045,2.4965996790578266],[98.81141484162168,2.492246616818632],[98.80476724641134,2.486083289449688],[98.80789193276655,2.4812620131741117]]]}},{"type":"Feature","properties":{"code":"1217042005","desa":"Pardomuan Nauli","kecamatan":"Palipi","kecCode":"121704","kabCode":"1217","province":"Sumatera Utara"},"geometry":{"type":"Polygon","coordinates":[[[98.84240917194579,2.580321606191388],[98.84952899936388,2.5736248423541515],[98.83721790288398,2.5531283891278913],[98.82986913595192,2.519675547089464],[98.81846540595376,2.508055704620472],[98.81628003359673,2.4982544496072454],[98.81147278224319,2.493876813393139],[98.80870068858599,2.509225099370933],[98.80113533073097,2.5123191062504895],[98.8008289146228,2.5178968922303766],[98.80513548641363,2.5245254361952325],[98.80352647156944,2.528056294154115],[98.82254149859136,2.540591877590835],[98.82642216225302,2.550474418726332],[98.82533016675387,2.5593129162153714],[98.83910338281493,2.5727385460895893],[98.84240917194579,2.580321606191388]]]}},{"type":"Feature","properties":{"code":"1217042006","desa":"Hatoguan","kecamatan":"Palipi","kecCode":"121704","kabCode":"1217","province":"Sumatera Utara"},"geometry":{"type":"Polygon","coordinates":[[[98.80489147785948,2.5099707425669755],[98.80462198791446,2.5035582265491882],[98.80900043801982,2.498138844456349],[98.80421034483162,2.4919683072225736],[98.79661688855862,2.4925869670452294],[98.7912044528233,2.4850521061083612],[98.78374671863622,2.481550214413262],[98.77761268577689,2.489881513154571],[98.79501965932984,2.509911640021497],[98.80091891967248,2.5246029343731857],[98.80440380159422,2.5242863001681988],[98.8008297240126,2.517667368157324],[98.80118100190178,2.512130825086405],[98.80489147785948,2.5099707425669755]]]}},{"type":"Feature","properties":{"code":"1217042007","desa":"Simbolon Purba","kecamatan":"Palipi","kecCode":"121704","kabCode":"1217","province":"Sumatera Utara"},"geometry":{"type":"Polygon","coordinates":[[[98.83148969269524,2.607317588440669],[98.83418923084837,2.5958641817038797],[98.82411334985132,2.588613551499393],[98.82870973626535,2.5778896568191407],[98.81393042255102,2.5696717050310705],[98.80503123880067,2.5548072120454024],[98.8062233342395,2.55344659804572],[98.8008599844008,2.539119271016896],[98.79426986756039,2.5363068364737367],[98.78903335090847,2.538861064865913],[98.7839432285972,2.5343553741857296],[98.78833252182845,2.529072268161005],[98.7775994702394,2.518425682801039],[98.77847295566244,2.510773231010195],[98.77345085087616,2.493581769212493],[98.76806831400154,2.4959506958945306],[98.75671958923772,2.495382306375579],[98.7520542140308,2.505308148068966],[98.75588700138407,2.5083100904514097],[98.75504467297333,2.511036951803995],[98.77310041834971,2.5296131465192198],[98.77753795481283,2.5382224571809884],[98.78321004730587,2.5397657522663115],[98.78903705071939,2.5458952282541203],[98.7893065937244,2.5485429708504537],[98.7832848214374,2.55578251601142],[98.78602727343996,2.5621903483599913],[98.77981511107856,2.5652588198893995],[98.78733593000925,2.5692605592737463],[98.78967969905891,2.5750426487392546],[98.79343012559987,2.574895717503551],[98.80039718787998,2.579578496385569],[98.81764352093181,2.5976338460404658],[98.83148969269524,2.607317588440669]]]}},{"type":"Feature","properties":{"code":"1217042008","desa":"Sigaol Simbolon","kecamatan":"Palipi","kecCode":"121704","kabCode":"1217","province":"Sumatera Utara"},"geometry":{"type":"Polygon","coordinates":[[[98.76086628225316,2.5188524569768473],[98.76082319393531,2.516000508021726],[98.75504467297333,2.511036951803995],[98.75588700138407,2.5083100904514097],[98.7520542140308,2.505308148068966],[98.74401283332566,2.5113887764805556],[98.7378167220641,2.5207676118353004],[98.73970821486226,2.5240502910839098],[98.73752831128257,2.5313671734441026],[98.73944139770242,2.5344699900823935],[98.74937408594535,2.52595522424796],[98.74692269232844,2.5228407613891677],[98.76086628225316,2.5188524569768473]]]}},{"type":"Feature","properties":{"code":"1217042009","desa":"Urat Timur","kecamatan":"Palipi","kecCode":"121704","kabCode":"1217","province":"Sumatera Utara"},"geometry":{"type":"Polygon","coordinates":[[[98.85692573163726,2.4827588600744215],[98.85920988103122,2.4778780792563793],[98.85397653988548,2.4665977479465413],[98.84638843727663,2.4586991274302243],[98.84488487243897,2.4533901182326128],[98.82922935465102,2.438322064601435],[98.83949152841137,2.461745806587852],[98.84613498224371,2.464834346488634],[98.84908551488468,2.477959453512304],[98.85692573163726,2.4827588600744215]]]}},{"type":"Feature","properties":{"code":"1217042010","desa":"Saor Nauli Hatoguan","kecamatan":"Palipi","kecCode":"121704","kabCode":"1217","province":"Sumatera Utara"},"geometry":{"type":"Polygon","coordinates":[[[98.83418923084837,2.5958641817038797],[98.83772661698987,2.585913180576998],[98.84240917194579,2.580321606191388],[98.83910338281493,2.5727385460895893],[98.82533016675387,2.5593129162153714],[98.82642216225302,2.550474418726332],[98.82254149859136,2.540591877590835],[98.80388299790205,2.5287480337854547],[98.80513548641363,2.5245254361952325],[98.80091891967248,2.5246029343731857],[98.79501965932984,2.509911640021497],[98.77761268577689,2.489881513154571],[98.77345085087616,2.493581769212493],[98.77847295566244,2.510773231010195],[98.7775994702394,2.518425682801039],[98.78837038958187,2.5292456079885857],[98.7839432285972,2.5343553741857296],[98.78903335090847,2.538861064865913],[98.79426986756039,2.5363068364737367],[98.8008599844008,2.539119271016896],[98.8062233342395,2.55344659804572],[98.80503123880067,2.5548072120454024],[98.81393042255102,2.5696717050310705],[98.82870973626535,2.5778896568191407],[98.82411334985132,2.588613551499393],[98.83418923084837,2.5958641817038797]]]}},{"type":"Feature","properties":{"code":"1217042011","desa":"Parsaoran Urat","kecamatan":"Palipi","kecCode":"121704","kabCode":"1217","province":"Sumatera Utara"},"geometry":{"type":"Polygon","coordinates":[[[98.8330249793194,2.4460124938628884],[98.8281688686984,2.4369411439099706],[98.81525611857506,2.4486217472743466],[98.82651483199396,2.468101110435032],[98.83170278075879,2.4725972952811666],[98.835008434092,2.4832895823888106],[98.83784661442978,2.483649668237739],[98.83717187378299,2.49003560209449],[98.84053322572781,2.4930174895953425],[98.84649035924276,2.481569220685376],[98.84203528689902,2.4775605969907617],[98.83903415030584,2.468343527188886],[98.83367236888476,2.466152351509124],[98.8353925147528,2.461835739691674],[98.83373280782286,2.4615594760532824],[98.8330249793194,2.4460124938628884]]]}},{"type":"Feature","properties":{"code":"1217042012","desa":"Hutaginjang","kecamatan":"Palipi","kecCode":"121704","kabCode":"1217","province":"Sumatera Utara"},"geometry":{"type":"Polygon","coordinates":[[[98.77963070239508,2.5648483630127523],[98.78602727343996,2.5621903483599913],[98.7832848214374,2.55578251601142],[98.7893065937244,2.5485429708504537],[98.78903705071939,2.5458952282541203],[98.78321004730587,2.5397657522663115],[98.77753795481283,2.5382224571809884],[98.77310041834971,2.5296131465192198],[98.76888496766718,2.529022845918044],[98.75992757259945,2.5349856811281293],[98.76361529840732,2.5379213066036628],[98.76111501674467,2.550191019866884],[98.76843679232415,2.549096204994293],[98.77089834558221,2.552593464281589],[98.76957482142092,2.554776099999222],[98.77963070239508,2.5648483630127523]]]}},{"type":"Feature","properties":{"code":"1217042014","desa":"Sigaol Marbun","kecamatan":"Palipi","kecCode":"121704","kabCode":"1217","province":"Sumatera Utara"},"geometry":{"type":"Polygon","coordinates":[[[98.77122903169452,2.5289247595604936],[98.76086628225316,2.5188524569768473],[98.74692269232844,2.5228407613891677],[98.74937408594535,2.52595522424796],[98.74445309733261,2.5294990189544193],[98.76295393967261,2.5443102145184326],[98.76361529840732,2.5379213066036628],[98.76045581368493,2.5338292635947868],[98.77122903169452,2.5289247595604936]]]}},{"type":"Feature","properties":{"code":"1217042018","desa":"Hutadame","kecamatan":"Palipi","kecCode":"121704","kabCode":"1217","province":"Sumatera Utara"},"geometry":{"type":"Polygon","coordinates":[[[98.84948797229212,2.573660466299019],[98.85888352605393,2.566104956028721],[98.86129260836725,2.5583232275932297],[98.84629703557975,2.5502710577302894],[98.84809626872789,2.5409310236252405],[98.84154845060056,2.5334783175558386],[98.84319912833718,2.528881867294921],[98.83928759904353,2.5197966479973903],[98.8258461239995,2.5066517100232706],[98.8203352934391,2.491075757971834],[98.80800065180868,2.4811249331120644],[98.80476724641134,2.486083289449688],[98.81628003359673,2.4982544496072454],[98.81775156638172,2.506699410963926],[98.82277401470905,2.514034099900575],[98.82986913595192,2.519675547089464],[98.83721790288398,2.5531283891278913],[98.84948797229212,2.573660466299019]]]}},{"type":"Feature","properties":{"code":"1217042019","desa":"Pallombuan","kecamatan":"Palipi","kecCode":"121704","kabCode":"1217","province":"Sumatera Utara"},"geometry":{"type":"Polygon","coordinates":[[[98.81447410589533,2.466554638944268],[98.8100683892448,2.4781058343629794],[98.81516487156163,2.4821779969587134],[98.81562804220043,2.4887128954183377],[98.8203352934391,2.491075757971834],[98.82191084181198,2.4993005697883977],[98.82496096357765,2.505166926628918],[98.82698957690751,2.5048029026488017],[98.82799188301902,2.500723913299346],[98.82306565225808,2.492118270972241],[98.8240836947068,2.4887515842527397],[98.81971706259242,2.4836950039613384],[98.82016892335717,2.4788333085557426],[98.81486320477312,2.471151349109268],[98.81447410589533,2.466554638944268]]]}},{"type":"Feature","properties":{"code":"1217042020","desa":"Pamutaran","kecamatan":"Palipi","kecCode":"121704","kabCode":"1217","province":"Sumatera Utara"},"geometry":{"type":"Polygon","coordinates":[[[98.86598409628907,2.5234529622808513],[98.87149953677424,2.5260509840593444],[98.87914973667108,2.535349616075361],[98.87610251971557,2.523763949642715],[98.87297667143628,2.5228650979430673],[98.86611513920234,2.51150388520572],[98.86622376741299,2.5058342802436346],[98.86165639582606,2.500796112671753],[98.85696046255538,2.4828202765755463],[98.8487523187646,2.480095781339262],[98.84543039309823,2.4824630469734634],[98.84042003075983,2.4945821732568376],[98.84366407873432,2.497036475278577],[98.8457436359601,2.5044116256133866],[98.85337045258439,2.5064692393790136],[98.85534254532229,2.5123769137721794],[98.86342806835073,2.5180133544352414],[98.86598409628907,2.5234529622808513]]]}},{"type":"Feature","properties":{"code":"1217042021","desa":"Sideak","kecamatan":"Palipi","kecCode":"121704","kabCode":"1217","province":"Sumatera Utara"},"geometry":{"type":"Polygon","coordinates":[[[98.85888352605393,2.566104956028721],[98.87086305778392,2.5590097907268228],[98.86525167492493,2.545136999945357],[98.86809318005628,2.5322064243739093],[98.86615537397135,2.5220022667892583],[98.85534254532229,2.5123769137721794],[98.85337045258439,2.5064692393790136],[98.8457436359601,2.5044116256133866],[98.84366407873432,2.497036475278577],[98.83752900535939,2.4907141801476875],[98.82655815503489,2.4975368095010637],[98.82775485859992,2.5030616892643787],[98.82496096357765,2.505166926628918],[98.83928759904353,2.5197966479973903],[98.84319912833718,2.528881867294921],[98.84154845060056,2.5334783175558386],[98.84809626872789,2.5409310236252405],[98.84629703557975,2.5502710577302894],[98.86129260836725,2.5583232275932297],[98.85888352605393,2.566104956028721]]]}},{"type":"Feature","properties":{"code":"1217052001","desa":"Sosor Dolok","kecamatan":"Harian","kecCode":"121705","kabCode":"1217","province":"Sumatera Utara"},"geometry":{"type":"Polygon","coordinates":[[[98.64883135338431,2.5571502625342375],[98.64866003343383,2.550697164609129],[98.65117519258114,2.5471726864408613],[98.6478072935718,2.5414222045479087],[98.6471886337485,2.5300701918751236],[98.63760302895668,2.531191915362587],[98.63207947029139,2.5380726526113446],[98.63979279270329,2.5520206393063085],[98.63615134960514,2.5540719794012823],[98.63549017703006,2.562260521559822],[98.64059412102193,2.5573350363422853],[98.64352085760157,2.559369475478099],[98.64883135338431,2.5571502625342375]]]}},{"type":"Feature","properties":{"code":"1217052002","desa":"Partungkonaginjang","kecamatan":"Harian","kecCode":"121705","kabCode":"1217","province":"Sumatera Utara"},"geometry":{"type":"Polygon","coordinates":[[[98.51031859382812,2.4284255480012735],[98.48467812189783,2.4323272944654493],[98.48385494095282,2.439947843706057],[98.48598122155617,2.4805207289919906],[98.50417376370831,2.516432273434851],[98.52023389457861,2.5286458869889614],[98.53379791933855,2.5336775155901563],[98.5534320459522,2.535838756436388],[98.57235346793823,2.5344089845714652],[98.59175427174232,2.540405811456942],[98.59292262957574,2.547781089495554],[98.59831737834439,2.5558958899443445],[98.60873477059322,2.565467146941807],[98.63979279270329,2.5520206393063085],[98.63211726430035,2.539087581605969],[98.6358700848366,2.5322637966237616],[98.64383177391727,2.5296012296028243],[98.660932043579,2.529819316997418],[98.66163828298043,2.5202065994550673],[98.6777259214142,2.5199523476230845],[98.66563846744138,2.5066673780119726],[98.6711741786455,2.5050730814741433],[98.68562426944453,2.4936735863960378],[98.6879713875695,2.4838205682045684],[98.70855930906491,2.467685490550588],[98.7123664468541,2.459500144582569],[98.72855404043668,2.444846486858512],[98.7302499999376,2.43874999710401],[98.66935799327682,2.405585050535372],[98.67220896826933,2.409000060526349],[98.66874447397832,2.4129440166707044],[98.67305248738245,2.4156090136597808],[98.67144873087432,2.424316649898599],[98.66693846264002,2.431878577731026],[98.65720646620554,2.4378986143198427],[98.65632606679463,2.4406564096528136],[98.66010465020952,2.439847392131536],[98.6613895592808,2.443625976441651],[98.6610945052073,2.449631736292983],[98.65765856439127,2.45144964386139],[98.66355913144882,2.4665748215296284],[98.65810563176956,2.467063579678768],[98.65310958304086,2.455139885068975],[98.61128612655357,2.46763786515305],[98.59843205809305,2.4766102869829565],[98.5570191996764,2.484855136594089],[98.52382263021023,2.476585449506751],[98.5138308259319,2.4665285055449457],[98.51031859382812,2.4284255480012735]]]}},{"type":"Feature","properties":{"code":"1217052003","desa":"Hariara Pohan","kecamatan":"Harian","kecCode":"121705","kabCode":"1217","province":"Sumatera Utara"},"geometry":{"type":"Polygon","coordinates":[[[98.67994299397407,2.496909803969838],[98.6711741786455,2.5050730814741433],[98.66563846744138,2.5066673780119726],[98.69409751898537,2.5402317018097187],[98.69887552888262,2.5320584184483304],[98.70377840784732,2.534127359175103],[98.70836741442469,2.5227108192462326],[98.69764174986693,2.5105702396354252],[98.69571882036733,2.5047144363391953],[98.67994299397407,2.496909803969838]]]}},{"type":"Feature","properties":{"code":"1217052004","desa":"Dolok Raja","kecamatan":"Harian","kecCode":"121705","kabCode":"1217","province":"Sumatera Utara"},"geometry":{"type":"Polygon","coordinates":[[[98.7378167220641,2.5207676118353004],[98.73756773396383,2.518084050141185],[98.72533098263881,2.506905796380039],[98.71869092194856,2.514210161076711],[98.71506600209437,2.523964471479137],[98.7263660429586,2.5269565554933218],[98.7378167220641,2.5207676118353004]]]}},{"type":"Feature","properties":{"code":"1217052006","desa":"Sampur Toba","kecamatan":"Harian","kecCode":"121705","kabCode":"1217","province":"Sumatera Utara"},"geometry":{"type":"Polygon","coordinates":[[[98.70836741442469,2.5227108192462326],[98.70377840784732,2.534127359175103],[98.69887552888262,2.5320584184483304],[98.69409751898537,2.5402317018097187],[98.69587516840436,2.555490490854893],[98.70192146340486,2.561342236410131],[98.71464729303818,2.5563106509762923],[98.7263660429586,2.5269565554933218],[98.70836741442469,2.5227108192462326]]]}},{"type":"Feature","properties":{"code":"1217052007","desa":"Siparmahan","kecamatan":"Harian","kecCode":"121705","kabCode":"1217","province":"Sumatera Utara"},"geometry":{"type":"Polygon","coordinates":[[[98.69519243368391,2.479014448203388],[98.6879713875695,2.4838205682045684],[98.68562426944453,2.4936735863960378],[98.67994299397407,2.496909803969838],[98.69529051734355,2.5043337236398666],[98.70580934142804,2.5207713476190574],[98.7153153948896,2.5238696487613113],[98.71869092194856,2.514210161076711],[98.72525365083537,2.506477493356757],[98.72356686262064,2.5033752405933876],[98.71614774622157,2.506442737257664],[98.71391980175753,2.4991106032948935],[98.70723904494605,2.4996612734715806],[98.70541161895112,2.4865894665675157],[98.69519243368391,2.479014448203388]]]}},{"type":"Feature","properties":{"code":"1217052008","desa":"Turpuk Limbong","kecamatan":"Harian","kecCode":"121705","kabCode":"1217","province":"Sumatera Utara"},"geometry":{"type":"MultiPolygon","coordinates":[[[[98.6580825084011,2.5495699264788576],[98.65648957973036,2.5494516287577187],[98.65790166822744,2.550007747027333],[98.6580825084011,2.5495699264788576]]],[[[98.66197672574538,2.551307436455031],[98.6621575650197,2.5528302917488754],[98.66265761685558,2.5515401792016634],[98.66197672574538,2.551307436455031]]],[[[98.70192146340486,2.561342236410131],[98.69587516840436,2.555490490854893],[98.68752860995743,2.55531882916224],[98.67876625086183,2.5589771237528645],[98.66584968581441,2.559736249585013],[98.65934043241508,2.5528134123734323],[98.65598877156462,2.5582543323299753],[98.65090624402802,2.5590919033261903],[98.65523322233541,2.5700262123853435],[98.67588218441534,2.567757396434702],[98.68904060503996,2.568542617894646],[98.70013618503695,2.572492595899429],[98.70192146340486,2.561342236410131]]]]}},{"type":"Feature","properties":{"code":"1217052009","desa":"Turpuk Sagala","kecamatan":"Harian","kecCode":"121705","kabCode":"1217","province":"Sumatera Utara"},"geometry":{"type":"Polygon","coordinates":[[[98.65409570135559,2.529841774867492],[98.65219955096859,2.5336707203128137],[98.65499463669317,2.543456880205495],[98.65125895004057,2.547217896259386],[98.66073763083703,2.5503691368931967],[98.66422097401879,2.5557779681398376],[98.67028236413984,2.5585727660783717],[98.66298075855525,2.5531301041350116],[98.66077651392503,2.5488557208835285],[98.6626534529945,2.546197278153449],[98.65719311666908,2.5415135747683597],[98.65409570135559,2.529841774867492]]]}},{"type":"Feature","properties":{"code":"1217052010","desa":"Turpuk Malau","kecamatan":"Harian","kecCode":"121705","kabCode":"1217","province":"Sumatera Utara"},"geometry":{"type":"Polygon","coordinates":[[[98.6471886337485,2.5300701918751236],[98.6478072935718,2.5414222045479087],[98.65117519258114,2.5471726864408613],[98.64845063978527,2.5516299135553364],[98.64949760263232,2.558216261329801],[98.65598877156462,2.5582543323299753],[98.65934043241508,2.5528134123734323],[98.66584968581441,2.559736249585013],[98.66872215280516,2.5589618649557426],[98.66073763083703,2.5503691368931967],[98.65125895004057,2.547217896259386],[98.65499463669317,2.543456880205495],[98.65286673371287,2.5297551602620545],[98.6471886337485,2.5300701918751236]]]}},{"type":"Feature","properties":{"code":"1217052011","desa":"Turpuk Sihotang","kecamatan":"Harian","kecCode":"121705","kabCode":"1217","province":"Sumatera Utara"},"geometry":{"type":"Polygon","coordinates":[[[98.660932043579,2.529819316997418],[98.65409570135559,2.529841774867492],[98.65446595673859,2.535106876464921],[98.65860651637769,2.54384544758353],[98.6626534529945,2.546197278153449],[98.66077651392503,2.5488557208835285],[98.66298075855525,2.5531301041350116],[98.67253685029543,2.5593891112756157],[98.68752860995743,2.55531882916224],[98.68490409864529,2.5518321962642765],[98.67745977964516,2.552746614329223],[98.67256760800876,2.5503671529887573],[98.67089247770576,2.5443084104784526],[98.66841069959418,2.543943163420322],[98.67022383895902,2.5383199418920044],[98.660932043579,2.529819316997418]]]}},{"type":"Feature","properties":{"code":"1217052012","desa":"Janji Martahan","kecamatan":"Harian","kecCode":"121705","kabCode":"1217","province":"Sumatera Utara"},"geometry":{"type":"Polygon","coordinates":[[[98.6777259214142,2.5199523476230845],[98.66163828298043,2.5202065994550673],[98.660932043579,2.529819316997418],[98.67022383895902,2.5383199418920044],[98.66841069959418,2.543943163420322],[98.67089247770576,2.5443084104784526],[98.67256760800876,2.5503671529887573],[98.67745977964516,2.552746614329223],[98.68490409864529,2.5518321962642765],[98.68752860995743,2.55531882916224],[98.69587516840436,2.555490490854893],[98.69409751898537,2.5402317018097187],[98.6777259214142,2.5199523476230845]]]}},{"type":"Feature","properties":{"code":"1217052014","desa":"Hutagalung","kecamatan":"Harian","kecCode":"121705","kabCode":"1217","province":"Sumatera Utara"},"geometry":{"type":"Polygon","coordinates":[[[98.53872691371616,2.441029749710018],[98.52394676183364,2.426351544091417],[98.51031859382812,2.4284255480012735],[98.5138308259319,2.4665285055449457],[98.52382263021023,2.476585449506751],[98.54131286929356,2.481977366304332],[98.5570191996764,2.484855136594089],[98.58415156324412,2.480196357020164],[98.59843205809305,2.4766102869829565],[98.61128612655357,2.46763786515305],[98.63005939332642,2.4604874724843544],[98.6442577575895,2.4590945089714538],[98.65310958304086,2.455139885068975],[98.65810563176956,2.467063579678768],[98.66218809340586,2.467436199378984],[98.66441618266077,2.4654260698173522],[98.65764904686608,2.451211698536736],[98.6610945052073,2.449631736292983],[98.66199870157885,2.44625290153127],[98.66010465020952,2.439847392131536],[98.65632606679463,2.4406564096528136],[98.65720646620554,2.4378986143198427],[98.66693846264002,2.431878577731026],[98.67121078465004,2.424822286523898],[98.67305248738245,2.4156090136597808],[98.66873376575073,2.4127905410684307],[98.67221848669386,2.408857292252373],[98.66935799327682,2.405585050535372],[98.61878056027466,2.395830553073965],[98.59490773460429,2.4173411816630157],[98.5766658781278,2.4297962164213827],[98.56328773514092,2.4366016363481497],[98.53872691371616,2.441029749710018]]]}},{"type":"Feature","properties":{"code":"1217052015","desa":"Hariara Pintu","kecamatan":"Harian","kecCode":"121705","kabCode":"1217","province":"Sumatera Utara"},"geometry":{"type":"Polygon","coordinates":[[[98.45893873983103,2.551004605944145],[98.47281766040675,2.549220307839216],[98.47744313089582,2.5526423640183955],[98.4881888890061,2.5476638862493814],[98.50503943042543,2.5566943233444506],[98.50878890278567,2.5551668671190244],[98.52593535263448,2.5588185579878364],[98.55748861071089,2.577677218965624],[98.56027777799709,2.5802138862962134],[98.56052663929302,2.5873765394222796],[98.59307261580864,2.584600929418914],[98.61048773632,2.57437291821639],[98.61672069370513,2.5804645435379627],[98.61841007556461,2.585648741224884],[98.61704679867086,2.579168820120484],[98.60890634685045,2.5693600278892457],[98.60873477059322,2.565467146941807],[98.59292262957574,2.547781089495554],[98.59175427174232,2.540405811456942],[98.57235346793823,2.5344089845714652],[98.5534320459522,2.535838756436388],[98.53379791933855,2.5336775155901563],[98.52023389457861,2.5286458869889614],[98.50417376370831,2.516432273434851],[98.48598122155617,2.4805207289919906],[98.48384420034961,2.4679533302393],[98.48467812189783,2.4323272944654493],[98.45743751502937,2.436471936122783],[98.42138888868634,2.4763888864860104],[98.43104621531063,2.467493415146851],[98.4298117609041,2.476769465186348],[98.42570090227485,2.48471375057806],[98.43868856232734,2.49438261819161],[98.4441523907203,2.505136747179688],[98.42014576301659,2.536844417018057],[98.43301937914111,2.5391954633791634],[98.45893873983103,2.551004605944145]]]}},{"type":"Feature","properties":{"code":"1217062001","desa":"Huta Ginjang","kecamatan":"Sianjar Mula Mula","kecCode":"121706","kabCode":"1217","province":"Sumatera Utara"},"geometry":{"type":"Polygon","coordinates":[[[98.66537666310256,2.6541805236657385],[98.669725417594,2.641214368216189],[98.66517829873953,2.6340274783609607],[98.66467293370897,2.6279716154798303],[98.65992371920434,2.624380987678505],[98.65368092323608,2.604798173704233],[98.6452764619392,2.6056091580427965],[98.63468978760369,2.612226603474326],[98.63668606940666,2.6213120071328535],[98.64659414320522,2.6266134458374677],[98.64968681279622,2.6370983088120785],[98.66537666310256,2.6541805236657385]]]}},{"type":"Feature","properties":{"code":"1217062002","desa":"Singkam","kecamatan":"Sianjar Mula Mula","kecCode":"121706","kabCode":"1217","province":"Sumatera Utara"},"geometry":{"type":"Polygon","coordinates":[[[98.62205998038381,2.5605508321110912],[98.60873477059322,2.565467146941807],[98.60890634685045,2.5693600278892457],[98.61368430458701,2.572981568087167],[98.61841007556461,2.585648741224884],[98.62259389709071,2.590290577571458],[98.62962403871848,2.583932142284841],[98.6334510560215,2.5835323918371738],[98.62884239206278,2.5664959902471534],[98.62205998038381,2.5605508321110912]]]}},{"type":"Feature","properties":{"code":"1217062003","desa":"Hasinggaan","kecamatan":"Sianjar Mula Mula","kecCode":"121706","kabCode":"1217","province":"Sumatera Utara"},"geometry":{"type":"Polygon","coordinates":[[[98.62894248930449,2.7949047060872307],[98.6454828887244,2.7887634130077616],[98.64542579706294,2.7434215515194764],[98.65644264231418,2.698499677023568],[98.6575222019881,2.6743488277676843],[98.63839912412034,2.658784862779709],[98.6287479398656,2.6551685296563283],[98.6222438809504,2.649534222185211],[98.60506282608861,2.6553066691197427],[98.59889126362098,2.654196295975763],[98.58375567358551,2.6590872858976526],[98.57877070360513,2.6574573546231712],[98.56695736389126,2.66624211132469],[98.5653094569659,2.6746974184821837],[98.57229722163952,2.709074997406745],[98.57229899330393,2.7243925418591837],[98.58653831359237,2.750848767204836],[98.62894248930449,2.7949047060872307]]]}},{"type":"Feature","properties":{"code":"1217062004","desa":"Aek Sipitudai","kecamatan":"Sianjar Mula Mula","kecCode":"121706","kabCode":"1217","province":"Sumatera Utara"},"geometry":{"type":"Polygon","coordinates":[[[98.64883135338431,2.5571502625342375],[98.64352085760157,2.559369475478099],[98.64059412102193,2.5573350363422853],[98.63581468659855,2.5639197473506674],[98.6391316570004,2.568685332209296],[98.63711149459986,2.5735895115882936],[98.63982288941486,2.5764365349566103],[98.64273318908545,2.57549768950629],[98.64430363380568,2.5788812834802433],[98.64191227443199,2.5817961220260757],[98.64867360690151,2.5901560192084143],[98.64648450235796,2.5994835059723194],[98.64388313959527,2.6013625728357366],[98.65368092323608,2.604798173704233],[98.65826531089544,2.582691617455824],[98.65469784333082,2.5651185742137055],[98.64883135338431,2.5571502625342375]]]}},{"type":"Feature","properties":{"code":"1217062005","desa":"Huta Gurgur","kecamatan":"Sianjar Mula Mula","kecCode":"121706","kabCode":"1217","province":"Sumatera Utara"},"geometry":{"type":"Polygon","coordinates":[[[98.56131004232462,2.6099243174551385],[98.56307810856792,2.634691580926533],[98.5932713866652,2.628405700244527],[98.6010849412171,2.6290213860091325],[98.60303610043576,2.6269750488426427],[98.61340944568938,2.639939134952188],[98.62519118142797,2.6365859173788913],[98.62371324636928,2.6298780684981278],[98.62569295906286,2.6240721820719357],[98.62345626509459,2.6195512065143283],[98.6241034783929,2.61670537115043],[98.62692076028492,2.616086711327805],[98.62651245728415,2.6123705129879924],[98.62908227542675,2.609979154516191],[98.62952247558184,2.609015473388267],[98.62940588207583,2.6085966869908113],[98.61629267306847,2.6089892995194712],[98.60609668131683,2.6050274963291526],[98.59438602709356,2.6041442919337525],[98.56131004232462,2.6099243174551385]]]}},{"type":"Feature","properties":{"code":"1217062006","desa":"Sianjur Mula Mula","kecamatan":"Sianjar Mula Mula","kecCode":"121706","kabCode":"1217","province":"Sumatera Utara"},"geometry":{"type":"Polygon","coordinates":[[[98.56052663929302,2.5873765394222796],[98.56096856075054,2.6000958777351824],[98.58916152268618,2.59889757967348],[98.62395741230478,2.6035840403799915],[98.63115202464627,2.6020697511285587],[98.63028768532847,2.599714084050776],[98.6328515535564,2.5980674973319826],[98.6380953106501,2.59755961420023],[98.63829007772493,2.593708693820759],[98.63343144090832,2.5906653484500155],[98.6223559508665,2.590231089216841],[98.61048773632,2.57437291821639],[98.59307261580864,2.584600929418914],[98.56052663929302,2.5873765394222796]]]}},{"type":"Feature","properties":{"code":"1217062007","desa":"Boho","kecamatan":"Sianjar Mula Mula","kecCode":"121706","kabCode":"1217","province":"Sumatera Utara"},"geometry":{"type":"Polygon","coordinates":[[[98.70013618503695,2.572492595899429],[98.68904060503996,2.568542617894646],[98.67588218441534,2.567757396434702],[98.65649256637892,2.5702011053420732],[98.65511937805688,2.5735657497012365],[98.65827958763293,2.585047284533652],[98.65431150986835,2.602925012688733],[98.66149986202906,2.5969741564482205],[98.6621518759084,2.5936495472084804],[98.6662069693762,2.592992282188504],[98.67086350244875,2.584498484946779],[98.676485941573,2.584261153859116],[98.68298530602709,2.578016277765795],[98.69708442740443,2.579626080414282],[98.70013618503695,2.572492595899429]]]}},{"type":"Feature","properties":{"code":"1217062008","desa":"Siboro","kecamatan":"Sianjar Mula Mula","kecCode":"121706","kabCode":"1217","province":"Sumatera Utara"},"geometry":{"type":"Polygon","coordinates":[[[98.66492652903617,2.655054089127472],[98.64968681279622,2.6370983088120785],[98.64659414320522,2.6266134458374677],[98.63668606940666,2.6213120071328535],[98.63539516905189,2.6122753323399954],[98.6241034783929,2.61670537115043],[98.62569295906286,2.6252523947673305],[98.62393215844241,2.634070677295389],[98.62700166059824,2.6412804441048108],[98.63792228738373,2.6529788936158605],[98.63839912412034,2.658784862779709],[98.6575222019881,2.6743488277676843],[98.66492652903617,2.655054089127472]]]}},{"type":"Feature","properties":{"code":"1217062009","desa":"Simarihit","kecamatan":"Sianjar Mula Mula","kecCode":"121706","kabCode":"1217","province":"Sumatera Utara"},"geometry":{"type":"Polygon","coordinates":[[[98.6334510560215,2.5835323918371738],[98.62962403871848,2.583932142284841],[98.62363922766825,2.5902029881008573],[98.63343144090832,2.5906653484500155],[98.63829007772493,2.593708693820759],[98.63755036106039,2.598875190151857],[98.64588963769665,2.600363906281585],[98.64867360690151,2.5901560192084143],[98.64699608620049,2.5870151315699883],[98.64211819130156,2.5811045505679435],[98.63687386044033,2.5796863898499924],[98.6339832109565,2.5802677718744613],[98.6334510560215,2.5835323918371738]]]}},{"type":"Feature","properties":{"code":"1217062010","desa":"Ginolat","kecamatan":"Sianjar Mula Mula","kecCode":"121706","kabCode":"1217","province":"Sumatera Utara"},"geometry":{"type":"Polygon","coordinates":[[[98.56096856075054,2.6000958777351824],[98.56131004232462,2.6099243174551385],[98.60148395871778,2.6042858695053446],[98.61629267306847,2.6089892995194712],[98.62940588207583,2.6085966869908113],[98.62651245728415,2.6123705129879924],[98.62723484940881,2.615686960880152],[98.65066246480097,2.6038362489522444],[98.6328515535564,2.5980674973319826],[98.63028768532847,2.599714084050776],[98.63115202464627,2.6020697511285587],[98.62395741230478,2.6035840403799915],[98.58916152268618,2.59889757967348],[98.56096856075054,2.6000958777351824]]]}},{"type":"Feature","properties":{"code":"1217062011","desa":"Bonan Dolok","kecamatan":"Sianjar Mula Mula","kecCode":"121706","kabCode":"1217","province":"Sumatera Utara"},"geometry":{"type":"Polygon","coordinates":[[[98.56307810856792,2.634691580926533],[98.56695736389126,2.66624211132469],[98.57877070360513,2.6574573546231712],[98.58375567358551,2.6590872858976526],[98.59889126362098,2.654196295975763],[98.60506282608861,2.6553066691197427],[98.6222438809504,2.649534222185211],[98.6287479398656,2.6551685296563283],[98.63839912412034,2.658784862779709],[98.63792228738373,2.6529788936158605],[98.62519118142797,2.6365859173788913],[98.61340944568938,2.639939134952188],[98.60303610043576,2.6269750488426427],[98.6010849412171,2.6290213860091325],[98.5932713866652,2.628405700244527],[98.56307810856792,2.634691580926533]]]}},{"type":"Feature","properties":{"code":"1217062012","desa":"Habeahan Naburahan","kecamatan":"Sianjar Mula Mula","kecCode":"121706","kabCode":"1217","province":"Sumatera Utara"},"geometry":{"type":"Polygon","coordinates":[[[98.6391316570004,2.568685332209296],[98.63587249142238,2.554871026139046],[98.62205998038381,2.5605508321110912],[98.62884239206278,2.5664959902471534],[98.6334510560215,2.5835323918371738],[98.6347804293734,2.579712420726541],[98.639976677082,2.581942118866171],[98.64430363380568,2.5788812834802433],[98.64171015809738,2.574324839560509],[98.63982288941486,2.5764365349566103],[98.63711149459986,2.5735895115882936],[98.6391316570004,2.568685332209296]]]}},{"type":"Feature","properties":{"code":"1217072001","desa":"Salaon Toba","kecamatan":"Ronggur Nihuta","kecCode":"121707","kabCode":"1217","province":"Sumatera Utara"},"geometry":{"type":"Polygon","coordinates":[[[98.71416945265814,2.6365171812957175],[98.72318676775518,2.636419485243959],[98.73266872837917,2.638612184375345],[98.74060022542012,2.6146170941003786],[98.73837452026794,2.616270227883683],[98.73562624335646,2.6137649729728043],[98.72381491542608,2.6168684946795486],[98.72068964541084,2.6149197510420636],[98.70835116187669,2.6343372192624304],[98.70988521103374,2.6387972144901535],[98.71416945265814,2.6365171812957175]]]}},{"type":"Feature","properties":{"code":"1217072002","desa":"Lintong Nihuta","kecamatan":"Ronggur Nihuta","kecCode":"121707","kabCode":"1217","province":"Sumatera Utara"},"geometry":{"type":"Polygon","coordinates":[[[98.78967969905891,2.5750426487392546],[98.78733593000925,2.5692605592737463],[98.76990925590752,2.556469645717938],[98.76378452293744,2.5675576974779712],[98.76586893020703,2.5704316105754295],[98.76071359085962,2.576311495917476],[98.75751202595927,2.574948065241176],[98.75013938472489,2.5911181678915693],[98.74601511990193,2.5917318805436445],[98.74840590730685,2.5975204649129613],[98.75166101064717,2.5954146420898145],[98.75698926084578,2.5973978432514473],[98.75669119134545,2.5998797005006393],[98.7728156075543,2.602009318485813],[98.78128173086724,2.5819136993902037],[98.78820881738307,2.5807858344324655],[98.78967969905891,2.5750426487392546]]]}},{"type":"Feature","properties":{"code":"1217072003","desa":"Salaon Tonga Tonga","kecamatan":"Ronggur Nihuta","kecCode":"121707","kabCode":"1217","province":"Sumatera Utara"},"geometry":{"type":"Polygon","coordinates":[[[98.74060022542012,2.6146170941003786],[98.73266872837917,2.638612184375345],[98.73974240258985,2.6396180149288675],[98.74051168896337,2.643135488277741],[98.7498434547117,2.643496526508688],[98.75580087870765,2.6465102356207266],[98.75632304757066,2.6406657188161464],[98.7619349673249,2.63915492343089],[98.75920144828825,2.635258016218651],[98.76122228428108,2.6321478692063898],[98.74822169467552,2.626403870526039],[98.7426960990458,2.6266548236447793],[98.74586044820119,2.619179902522224],[98.74060022542012,2.6146170941003786]]]}},{"type":"Feature","properties":{"code":"1217072004","desa":"Salaon Dolok","kecamatan":"Ronggur Nihuta","kecCode":"121707","kabCode":"1217","province":"Sumatera Utara"},"geometry":{"type":"Polygon","coordinates":[[[98.80673629944073,2.668605708624288],[98.81494543878102,2.6627331986223752],[98.81857173729588,2.66351842098167],[98.82148419803734,2.65962086445889],[98.8248249609033,2.6602347650692746],[98.83026061263722,2.65668661584541],[98.83928820338791,2.64626226465394],[98.84099546556837,2.640569405022435],[98.81927961436274,2.6353894809138847],[98.80055325622783,2.633143269422826],[98.78932220055918,2.6344662503922103],[98.76963116124915,2.63082035835188],[98.760941747064,2.633004593963487],[98.75920144828825,2.635258016218651],[98.7619349673249,2.63915492343089],[98.75621325383867,2.640837680882346],[98.75631354623322,2.647192177138389],[98.76227929974993,2.650432537888923],[98.76550227930682,2.6495563023400273],[98.77103815958343,2.6543906403690696],[98.7746528352602,2.664372547597345],[98.77979247244467,2.6690957779849636],[98.7881729344334,2.6673540133161677],[98.80673629944073,2.668605708624288]]]}},{"type":"Feature","properties":{"code":"1217072005","desa":"Ronggur Nihuta","kecamatan":"Ronggur Nihuta","kecCode":"121707","kabCode":"1217","province":"Sumatera Utara"},"geometry":{"type":"Polygon","coordinates":[[[98.83852334437687,2.619621759228098],[98.84105741626676,2.61270059385618],[98.83429022921075,2.6113205059369604],[98.7951243017452,2.575923644399729],[98.78967969905891,2.5750426487392546],[98.78820881738307,2.5807858344324655],[98.78128173086724,2.5819136993902037],[98.77346996057031,2.6014501452191974],[98.78124433435856,2.6027547305560654],[98.78726912926697,2.6106735759258166],[98.79574757509056,2.6148357813427934],[98.80695425283653,2.6139608012474445],[98.82521510839057,2.621210810919718],[98.83852334437687,2.619621759228098]]]}},{"type":"Feature","properties":{"code":"1217072006","desa":"Sabungan Nihuta","kecamatan":"Ronggur Nihuta","kecCode":"121707","kabCode":"1217","province":"Sumatera Utara"},"geometry":{"type":"Polygon","coordinates":[[[98.735371800868,2.6140746320359973],[98.73837452026794,2.616270227883683],[98.74127472774654,2.614422324327778],[98.74475547278689,2.6173032053724676],[98.75761219874401,2.597981046403114],[98.75166101064717,2.5954146420898145],[98.7484891890249,2.5975680543375974],[98.74568994573445,2.5914085526847064],[98.73405248283585,2.585349382996411],[98.73091326793302,2.586656208544518],[98.72157254943369,2.599606600677235],[98.72795435361057,2.5997898879059766],[98.74022344995232,2.6050774959368415],[98.735371800868,2.6140746320359973]]]}},{"type":"Feature","properties":{"code":"1217072007","desa":"Paraduan","kecamatan":"Ronggur Nihuta","kecCode":"121707","kabCode":"1217","province":"Sumatera Utara"},"geometry":{"type":"Polygon","coordinates":[[[98.74601511990193,2.5917318805436445],[98.75013938472489,2.5911181678915693],[98.75727645934118,2.5752835690212406],[98.76071359085962,2.576311495917476],[98.7657404395697,2.5688468891194423],[98.76001276177959,2.5679988778936345],[98.75275150967451,2.562813158553839],[98.74587732667732,2.5650953905907454],[98.73333505137157,2.5796363075046096],[98.72708647905785,2.5837052172525214],[98.74601511990193,2.5917318805436445]]]}},{"type":"Feature","properties":{"code":"1217072008","desa":"Sijambur","kecamatan":"Ronggur Nihuta","kecCode":"121707","kabCode":"1217","province":"Sumatera Utara"},"geometry":{"type":"Polygon","coordinates":[[[98.84895959001311,2.629863598406413],[98.84877281970988,2.626486496638294],[98.8431596705824,2.6254657076611556],[98.83852334437687,2.619621759228098],[98.82521510839057,2.621210810919718],[98.80695425283653,2.6139608012474445],[98.7953972109126,2.6147555411319128],[98.78487063377281,2.6090079532573154],[98.78124433435856,2.6027547305560654],[98.75669119134545,2.5998797005006393],[98.75761219874401,2.597981046403114],[98.74475547278689,2.6173032053724676],[98.74547023955995,2.622333222388655],[98.7424962238217,2.6261170650346886],[98.74831536356321,2.626437138247192],[98.7608625059999,2.6330654843612],[98.77001689486389,2.6308214699139247],[98.78932220055918,2.6344662503922103],[98.80513133963967,2.6335572975073194],[98.8407975382758,2.640348786935578],[98.84185402044677,2.632225307129699],[98.84895959001311,2.629863598406413]]]}},{"type":"Feature","properties":{"code":"1217081026","desa":"Pasar Pangururan","kecamatan":"Pangururan","kecCode":"121708","kabCode":"1217","province":"Sumatera Utara"},"geometry":{"type":"Polygon","coordinates":[[[98.69199694640201,2.6112248054808673],[98.70054088355499,2.6103157860461423],[98.69379615796639,2.5987682310830924],[98.69199694640201,2.6112248054808673]]]}},{"type":"Feature","properties":{"code":"1217081027","desa":"Pintu Sona","kecamatan":"Pangururan","kecCode":"121708","kabCode":"1217","province":"Sumatera Utara"},"geometry":{"type":"Polygon","coordinates":[[[98.69899510813781,2.5771739349668086],[98.69708442740443,2.579626080414282],[98.69706916770798,2.593210216698274],[98.70770626523198,2.602355187851785],[98.71567417941992,2.604027099479404],[98.72583206329914,2.595980956872809],[98.73209403101475,2.585619988100428],[98.69899510813781,2.5771739349668086]]]}},{"type":"Feature","properties":{"code":"1217081028","desa":"Siogung-Ogung","kecamatan":"Pangururan","kecCode":"121708","kabCode":"1217","province":"Sumatera Utara"},"geometry":{"type":"Polygon","coordinates":[[[98.65368092323608,2.604798173704233],[98.65992371920434,2.624380987678505],[98.66467293370897,2.6279716154798303],[98.66517829873953,2.6340274783609607],[98.669725417594,2.641214368216189],[98.68041801497945,2.6311817140435156],[98.69340653568315,2.6077761950196416],[98.6922626502012,2.6027431463888533],[98.68006857170728,2.605926002689121],[98.65516166957546,2.6025991028761886],[98.65368092323608,2.604798173704233]]]}},{"type":"Feature","properties":{"code":"1217082001","desa":"Lumban Ss Dolok","kecamatan":"Pangururan","kecCode":"121708","kabCode":"1217","province":"Sumatera Utara"},"geometry":{"type":"Polygon","coordinates":[[[98.72763965294769,2.674372897222833],[98.7308585154082,2.6717289587587705],[98.72936421268832,2.667464965374828],[98.7314942578538,2.660056394434158],[98.72702259571628,2.6570645262572623],[98.72096506188814,2.658140330361167],[98.72284584196211,2.6519606326330334],[98.71172931405664,2.6564616054696866],[98.70362694402831,2.6543185992772536],[98.70339465633838,2.6598769230288664],[98.6979340906858,2.664287551771565],[98.69801334883702,2.6757187200728625],[98.69990232443278,2.6765614288958757],[98.71170747042349,2.67760411636478],[98.72763965294769,2.674372897222833]]]}},{"type":"Feature","properties":{"code":"1217082002","desa":"Lumban Ss Torua","kecamatan":"Pangururan","kecCode":"121708","kabCode":"1217","province":"Sumatera Utara"},"geometry":{"type":"Polygon","coordinates":[[[98.66421699541809,2.659532543839486],[98.65755653360718,2.6772632571218864],[98.69801334883702,2.6757187200728625],[98.6979340906858,2.664287551771565],[98.70339465633838,2.6598769230288664],[98.70362694402831,2.6543185992772536],[98.69125965341031,2.651212974955546],[98.66421699541809,2.659532543839486]]]}},{"type":"Feature","properties":{"code":"1217082003","desa":"Parbaba Dolok","kecamatan":"Pangururan","kecCode":"121708","kabCode":"1217","province":"Sumatera Utara"},"geometry":{"type":"Polygon","coordinates":[[[98.70782448741022,2.70173193038585],[98.71922686392867,2.7051298001979815],[98.73041984859718,2.6995333083194875],[98.75430016741886,2.6971440911334668],[98.76379464480709,2.6987950557519924],[98.76893788737367,2.704463434938172],[98.77485986279247,2.7003016737863375],[98.77631679958067,2.6827469317478005],[98.74115263758421,2.674495794976257],[98.72209597824684,2.674309922196676],[98.70662713183673,2.6777214059459187],[98.71203260232276,2.6820164502220982],[98.7112222942735,2.686288994360058],[98.70784327964373,2.6858237309993265],[98.70786678342539,2.6902308029233444],[98.71086523104566,2.69280944161377],[98.70782448741022,2.70173193038585]]]}},{"type":"Feature","properties":{"code":"1217082004","desa":"Huta Tinggi","kecamatan":"Pangururan","kecCode":"121708","kabCode":"1217","province":"Sumatera Utara"},"geometry":{"type":"Polygon","coordinates":[[[98.71958210962673,2.6162732091362555],[98.73463638656007,2.6150070509309695],[98.74022344995232,2.6050774959368415],[98.72340764934359,2.5991078150872875],[98.71567417941992,2.604027099479404],[98.71095978756419,2.6031505536643986],[98.70708056371711,2.6142492686859677],[98.71958210962673,2.6162732091362555]]]}},{"type":"Feature","properties":{"code":"1217082005","desa":"Parhorasan","kecamatan":"Pangururan","kecCode":"121708","kabCode":"1217","province":"Sumatera Utara"},"geometry":{"type":"Polygon","coordinates":[[[98.76902315839209,2.6709568970782986],[98.76342808743634,2.6578793138287335],[98.77372484642456,2.659482756471738],[98.76642360686401,2.6502002331121517],[98.76227929974993,2.650432537888923],[98.75225719641251,2.6441061949094764],[98.74051168896337,2.643135488277741],[98.73954574873738,2.639528408278951],[98.73014801681757,2.638120811896993],[98.73216681494658,2.6419013855074853],[98.7240150883257,2.649387482505055],[98.72096506188814,2.658140330361167],[98.72711030389746,2.6570866019154695],[98.73041783681379,2.659919501431047],[98.7492017326739,2.6637436471946447],[98.76172721583839,2.671453100714633],[98.76902315839209,2.6709568970782986]]]}},{"type":"Feature","properties":{"code":"1217082006","desa":"Pardomuan Nauli","kecamatan":"Pangururan","kecCode":"121708","kabCode":"1217","province":"Sumatera Utara"},"geometry":{"type":"Polygon","coordinates":[[[98.77631679958067,2.6827469317478005],[98.77502736422154,2.675250067167346],[98.76902315839209,2.6709568970782986],[98.76520122855389,2.672571447247944],[98.74777586656307,2.663229091992615],[98.73641631486112,2.6604557734618623],[98.73025888973604,2.661335473199198],[98.7308585154082,2.6717289587587705],[98.72763965294769,2.674372897222833],[98.7472471650247,2.6750357758111503],[98.74976010284655,2.677620292470408],[98.77631679958067,2.6827469317478005]]]}},{"type":"Feature","properties":{"code":"1217082007","desa":"Parsaoran I","kecamatan":"Pangururan","kecCode":"121708","kabCode":"1217","province":"Sumatera Utara"},"geometry":{"type":"Polygon","coordinates":[[[98.69641510337435,2.611884996894815],[98.69199694640201,2.6112248054808673],[98.68550300575919,2.6233882872268337],[98.69116497458394,2.618159707097664],[98.69611384397875,2.6170848310941364],[98.69641510337435,2.611884996894815]]]}},{"type":"Feature","properties":{"code":"1217082008","desa":"Rianiate","kecamatan":"Pangururan","kecCode":"121708","kabCode":"1217","province":"Sumatera Utara"},"geometry":{"type":"Polygon","coordinates":[[[98.74051337159487,2.5349585305955973],[98.73752831128257,2.5313671734441026],[98.73970821486226,2.5240502910839098],[98.7378167220641,2.5207676118353004],[98.7263660429586,2.5269565554933218],[98.71464729303818,2.5563106509762923],[98.72793270243231,2.558277819024482],[98.73102742967224,2.5630546714890365],[98.73947325258861,2.5685284238948243],[98.7395184354275,2.57088993027066],[98.7479983318576,2.5636213684838745],[98.74928996156251,2.559701376574079],[98.74206671570641,2.554734122344137],[98.74489501429353,2.5480848193284737],[98.74037652625572,2.5428897128651555],[98.73879418440413,2.5380249049059724],[98.74051337159487,2.5349585305955973]]]}},{"type":"Feature","properties":{"code":"1217082009","desa":"Huta Bolon","kecamatan":"Pangururan","kecCode":"121708","kabCode":"1217","province":"Sumatera Utara"},"geometry":{"type":"Polygon","coordinates":[[[98.65767860398442,2.6863269781259493],[98.65644264231418,2.698499677023568],[98.69245078027932,2.6957682021489093],[98.70599200542676,2.6976693167914934],[98.71086523104566,2.69280944161377],[98.70583379759178,2.6886081804390534],[98.69478530339909,2.689811777306244],[98.69343829344255,2.692259280453324],[98.68653678904165,2.6868305184315373],[98.65767860398442,2.6863269781259493]]]}},{"type":"Feature","properties":{"code":"1217082010","desa":"Panampangan","kecamatan":"Pangururan","kecCode":"121708","kabCode":"1217","province":"Sumatera Utara"},"geometry":{"type":"Polygon","coordinates":[[[98.669725417594,2.641214368216189],[98.66537666310256,2.6541805236657385],[98.6833934777269,2.6485652890165046],[98.69288613488726,2.6485699807796497],[98.69834210590354,2.643816119483169],[98.70624970076311,2.6458490153823147],[98.71071289488424,2.6406932209836227],[98.70835116187669,2.6343372192624304],[98.69604299628729,2.641944883016829],[98.68553741741795,2.641471310819747],[98.67511940014025,2.636850354033063],[98.669725417594,2.641214368216189]]]}},{"type":"Feature","properties":{"code":"1217082011","desa":"Pardugul","kecamatan":"Pangururan","kecCode":"121708","kabCode":"1217","province":"Sumatera Utara"},"geometry":{"type":"Polygon","coordinates":[[[98.68182563834262,2.6290302254455518],[98.67511940014025,2.636850354033063],[98.68553741741795,2.641471310819747],[98.69618933307133,2.641902052804417],[98.70835116187669,2.6343372192624304],[98.70270803564738,2.637783029234852],[98.70025575889622,2.635721407190841],[98.69321742444464,2.636653194761794],[98.68182563834262,2.6290302254455518]]]}},{"type":"Feature","properties":{"code":"1217082012","desa":"Huta Namora","kecamatan":"Pangururan","kecCode":"121708","kabCode":"1217","province":"Sumatera Utara"},"geometry":{"type":"Polygon","coordinates":[[[98.71464729303818,2.5563106509762923],[98.70192146340486,2.561342236410131],[98.69899510813781,2.5771739349668086],[98.72708647905785,2.5837052172525214],[98.73515391222332,2.5774584229052864],[98.73958746109253,2.568715156426306],[98.72793270243231,2.558277819024482],[98.71464729303818,2.5563106509762923]]]}},{"type":"Feature","properties":{"code":"1217082013","desa":"Parlondut","kecamatan":"Pangururan","kecCode":"121708","kabCode":"1217","province":"Sumatera Utara"},"geometry":{"type":"Polygon","coordinates":[[[98.70270803564738,2.637783029234852],[98.70977719256341,2.632413071183577],[98.7065004173604,2.629445401064915],[98.684282302886,2.6250591250639066],[98.68195915169353,2.6270809143358393],[98.68182563834262,2.6290302254455518],[98.69271689956531,2.636548135960439],[98.70025575889622,2.635721407190841],[98.70270803564738,2.637783029234852]]]}},{"type":"Feature","properties":{"code":"1217082014","desa":"Tanjung Bunga","kecamatan":"Pangururan","kecCode":"121708","kabCode":"1217","province":"Sumatera Utara"},"geometry":{"type":"Polygon","coordinates":[[[98.69708442740443,2.579626080414282],[98.68298530602709,2.578016277765795],[98.676485941573,2.584261153859116],[98.67086350244875,2.584498484946779],[98.6662069693762,2.592992282188504],[98.6621518759084,2.5936495472084804],[98.66149986202906,2.5969741564482205],[98.65431150986835,2.602925012688733],[98.6730552177242,2.6060255270626],[98.68939399723524,2.604497907160514],[98.69721794075542,2.592844006466258],[98.69708442740443,2.579626080414282]]]}},{"type":"Feature","properties":{"code":"1217082015","desa":"Parmonangan","kecamatan":"Pangururan","kecCode":"121708","kabCode":"1217","province":"Sumatera Utara"},"geometry":{"type":"Polygon","coordinates":[[[98.74445309733261,2.5294990189544193],[98.73879418440413,2.5380249049059724],[98.74489501429353,2.5480848193284737],[98.74206671570641,2.554734122344137],[98.74922548556776,2.559358253737597],[98.74587732667732,2.5650953905907454],[98.75275150967451,2.562813158553839],[98.76316191958699,2.5685203542780783],[98.77091409630854,2.556219340111065],[98.77089834558221,2.552593464281589],[98.7675334898787,2.548597287203989],[98.76111501674467,2.550191019866884],[98.76295393967261,2.5443102145184326],[98.74445309733261,2.5294990189544193]]]}},{"type":"Feature","properties":{"code":"1217082016","desa":"Sait Nihuta","kecamatan":"Pangururan","kecCode":"121708","kabCode":"1217","province":"Sumatera Utara"},"geometry":{"type":"Polygon","coordinates":[[[98.71465435091761,2.62557845746464],[98.7157663599296,2.6227997205185054],[98.70182469005742,2.6157353830770123],[98.6962328125943,2.6151965263947203],[98.68873786895756,2.6215419736723042],[98.71465435091761,2.62557845746464]]]}},{"type":"Feature","properties":{"code":"1217082017","desa":"Situngkir","kecamatan":"Pangururan","kecCode":"121708","kabCode":"1217","province":"Sumatera Utara"},"geometry":{"type":"Polygon","coordinates":[[[98.7069218828387,2.7031777209750336],[98.7085861106605,2.6961388856087516],[98.69964677577815,2.6978596735908806],[98.69245078027932,2.6957682021489093],[98.65644264231418,2.698499677023568],[98.65492820737092,2.705018993829468],[98.69424952239763,2.7052137429176444],[98.7069218828387,2.7031777209750336]]]}},{"type":"Feature","properties":{"code":"1217082018","desa":"Sianting-Anting","kecamatan":"Pangururan","kecCode":"121708","kabCode":"1217","province":"Sumatera Utara"},"geometry":{"type":"Polygon","coordinates":[[[98.70977719256341,2.632413071183577],[98.71465435091761,2.62557845746464],[98.70249485855093,2.624694994963782],[98.69273627096219,2.620715184648121],[98.684282302886,2.6250591250639066],[98.70872515843938,2.6300790184118217],[98.70977719256341,2.632413071183577]]]}},{"type":"Feature","properties":{"code":"1217082019","desa":"Sialanguan","kecamatan":"Pangururan","kecCode":"121708","kabCode":"1217","province":"Sumatera Utara"},"geometry":{"type":"Polygon","coordinates":[[[98.7029937934289,2.7084150488097483],[98.70317749884252,2.706333331414651],[98.70881758806132,2.703873697312544],[98.65492820737092,2.705018993829468],[98.65143775864571,2.718599316088752],[98.69554823066635,2.7122351602145867],[98.7029937934289,2.7084150488097483]]]}},{"type":"Feature","properties":{"code":"1217082020","desa":"Lumban Pinggol","kecamatan":"Pangururan","kecCode":"121708","kabCode":"1217","province":"Sumatera Utara"},"geometry":{"type":"Polygon","coordinates":[[[98.7158189855578,2.622857570308383],[98.71945912104167,2.6161347135412885],[98.6970055487671,2.6106314139097337],[98.69596812502904,2.6151526062039676],[98.70182469005742,2.6157353830770123],[98.7158189855578,2.622857570308383]]]}},{"type":"Feature","properties":{"code":"1217082021","desa":"Pardomuan I","kecamatan":"Pangururan","kecCode":"121708","kabCode":"1217","province":"Sumatera Utara"},"geometry":{"type":"Polygon","coordinates":[[[98.69379615796639,2.5987682310830924],[98.69955561779756,2.611271393060775],[98.70708056371711,2.6142492686859677],[98.71095978756419,2.6031505536643986],[98.705713066305,2.6015731823674577],[98.69706916770798,2.593210216698274],[98.69379615796639,2.5987682310830924]]]}},{"type":"Feature","properties":{"code":"1217082022","desa":"Sitolu Huta","kecamatan":"Pangururan","kecCode":"121708","kabCode":"1217","province":"Sumatera Utara"},"geometry":{"type":"Polygon","coordinates":[[[98.66537666310256,2.6541805236657385],[98.66421699541809,2.659532543839486],[98.69125965341031,2.651212974955546],[98.70362694402831,2.6543185992772536],[98.70739076237383,2.647227311852037],[98.70502604901299,2.6441413260258657],[98.69834210590354,2.643816119483169],[98.69288613488726,2.6485699807796497],[98.6833934777269,2.6485652890165046],[98.66537666310256,2.6541805236657385]]]}},{"type":"Feature","properties":{"code":"1217082023","desa":"Sinabulan","kecamatan":"Pangururan","kecCode":"121708","kabCode":"1217","province":"Sumatera Utara"},"geometry":{"type":"Polygon","coordinates":[[[98.71768897286783,2.637659095462434],[98.7091948950284,2.63823966090257],[98.71070694586894,2.6407646046709483],[98.7065238114248,2.645271637139583],[98.70729558442372,2.6479173562613156],[98.70362694402831,2.6543185992772536],[98.71172931405664,2.6564616054696866],[98.72140771359517,2.6525402241073555],[98.71768897286783,2.637659095462434]]]}},{"type":"Feature","properties":{"code":"1217082024","desa":"Aek Nauli","kecamatan":"Pangururan","kecCode":"121708","kabCode":"1217","province":"Sumatera Utara"},"geometry":{"type":"Polygon","coordinates":[[[98.73014801681757,2.638120811896993],[98.71768897286783,2.637659095462434],[98.72199430809093,2.651764548051589],[98.73154220520865,2.6430911148287217],[98.73265265659488,2.640287447776165],[98.73014801681757,2.638120811896993]]]}},{"type":"Feature","properties":{"code":"1217082025","desa":"Siopat Sosor","kecamatan":"Pangururan","kecCode":"121708","kabCode":"1217","province":"Sumatera Utara"},"geometry":{"type":"Polygon","coordinates":[[[98.65755653360718,2.6772632571218864],[98.65767860398442,2.6863269781259493],[98.68653678904165,2.6868305184315373],[98.69343829344255,2.692259280453324],[98.69702143708967,2.689480005712654],[98.70786678342539,2.6902308029233444],[98.70784327964373,2.6858237309993265],[98.7112222942735,2.686288994360058],[98.71203260232276,2.6820164502220982],[98.70432611475843,2.6763616112286113],[98.69545320560104,2.6748099074821856],[98.65755653360718,2.6772632571218864]]]}},{"type":"Feature","properties":{"code":"1217092001","desa":"Holbung","kecamatan":"Sitio-Tio","kecCode":"121709","kabCode":"1217","province":"Sumatera Utara"},"geometry":{"type":"Polygon","coordinates":[[[98.79986068382357,2.3868767867805407],[98.79638520521308,2.3925358426950254],[98.78846770522046,2.3941792206327444],[98.78344184576463,2.4041467405069668],[98.77957522231873,2.40533647072755],[98.78784313325404,2.41150374612021],[98.79458655662432,2.4232196505727637],[98.82521629279775,2.4397258730388756],[98.83904075582626,2.423261639019779],[98.8492069242602,2.403219220219165],[98.81540107669836,2.398672101369687],[98.81180449538125,2.3930197750820805],[98.8078926612174,2.392981704081961],[98.79986068382357,2.3868767867805407]]]}},{"type":"Feature","properties":{"code":"1217092002","desa":"Janji Raja","kecamatan":"Sitio-Tio","kecCode":"121709","kabCode":"1217","province":"Sumatera Utara"},"geometry":{"type":"Polygon","coordinates":[[[98.86234684403165,2.3725960356404605],[98.84978294362799,2.3558979005478875],[98.83829988173422,2.357452786095734],[98.82331110962008,2.368116664519288],[98.80774999996258,2.3740305532277732],[98.79986068382357,2.3868767867805407],[98.8078926612174,2.392981704081961],[98.81180449538125,2.3930197750820805],[98.81540107669836,2.398672101369687],[98.8492069242602,2.403219220219165],[98.8603007083111,2.396384923061546],[98.86234684403165,2.3725960356404605]]]}},{"type":"Feature","properties":{"code":"1217092003","desa":"Sabulan","kecamatan":"Sitio-Tio","kecCode":"121709","kabCode":"1217","province":"Sumatera Utara"},"geometry":{"type":"Polygon","coordinates":[[[98.77957522231873,2.40533647072755],[98.76580833029027,2.4159472190032885],[98.76415060096951,2.4281129472557135],[98.74230536430115,2.4363270112745017],[98.75741437397426,2.4478038795248214],[98.78353691129944,2.452157971487779],[98.79043006909244,2.457326886095888],[98.81517219474107,2.447458264666965],[98.82521629279775,2.4397258730388756],[98.79458655662432,2.4232196505727637],[98.78784313325404,2.41150374612021],[98.77957522231873,2.40533647072755]]]}},{"type":"Feature","properties":{"code":"1217092004","desa":"Buntu Mauli","kecamatan":"Sitio-Tio","kecCode":"121709","kabCode":"1217","province":"Sumatera Utara"},"geometry":{"type":"Polygon","coordinates":[[[98.73106505101134,2.4385861828955426],[98.74790978370957,2.468454721165168],[98.7577369580942,2.4777822079290552],[98.76424716297623,2.4799998659451816],[98.77502632100794,2.4917468995310146],[98.78161430375717,2.4859600040884824],[98.79043006909244,2.457326886095888],[98.78699302660698,2.4531803099968212],[98.76002381804483,2.4488974767154015],[98.74230536430115,2.4363270112745017],[98.73106505101134,2.4385861828955426]]]}},{"type":"Feature","properties":{"code":"1217092005","desa":"Tamba Dolok","kecamatan":"Sitio-Tio","kecCode":"121709","kabCode":"1217","province":"Sumatera Utara"},"geometry":{"type":"Polygon","coordinates":[[[98.706345640439,2.469991889169432],[98.69519243368391,2.479014448203388],[98.70541161895112,2.4865894665675157],[98.70723904494605,2.4996612734715806],[98.71391980175753,2.4991106032948935],[98.71614774622157,2.506442737257664],[98.72356686262064,2.5033752405933876],[98.7274215133922,2.5096924842323163],[98.73272081441411,2.501375006272214],[98.72898089555194,2.500190233114754],[98.73259350998256,2.4960430769530046],[98.728277167957,2.491812395356905],[98.72524812989734,2.4816481263022507],[98.71816411797971,2.472545428680857],[98.706345640439,2.469991889169432]]]}},{"type":"Feature","properties":{"code":"1217092006","desa":"Cinta Maju","kecamatan":"Sitio-Tio","kecCode":"121709","kabCode":"1217","province":"Sumatera Utara"},"geometry":{"type":"Polygon","coordinates":[[[98.7520542140308,2.505308148068966],[98.75511741643567,2.496942516809227],[98.74569482275793,2.49714238843583],[98.74017447287365,2.500311830448445],[98.73258422987834,2.4961434673735075],[98.72900231200713,2.4999046983654005],[98.73272081441411,2.501375006272214],[98.7274215133922,2.5096924842323163],[98.73827552829306,2.5203647578271875],[98.74401283332566,2.5113887764805556],[98.7520542140308,2.505308148068966]]]}},{"type":"Feature","properties":{"code":"1217092007","desa":"Parsaoran","kecamatan":"Sitio-Tio","kecCode":"121709","kabCode":"1217","province":"Sumatera Utara"},"geometry":{"type":"Polygon","coordinates":[[[98.73030674536005,2.438738591901856],[98.73801972872758,2.464314014941121],[98.73387150956256,2.488769630948199],[98.7280534975709,2.4896661219274945],[98.72956683534123,2.4939253569984583],[98.74017447287365,2.500311830448445],[98.74569482275793,2.49714238843583],[98.76806831400154,2.4959506958945306],[98.77345085087616,2.493581769212493],[98.77502632100794,2.4917468995310146],[98.76455649288789,2.4802520898059366],[98.75784446934681,2.4778665904172836],[98.74790978370957,2.468454721165168],[98.74573079204248,2.46180349360038],[98.73030674536005,2.438738591901856]]]}},{"type":"Feature","properties":{"code":"1217092008","desa":"Janji Maria","kecamatan":"Sitio-Tio","kecCode":"121709","kabCode":"1217","province":"Sumatera Utara"},"geometry":{"type":"Polygon","coordinates":[[[98.73027272040979,2.438745431245966],[98.72855404043668,2.444846486858512],[98.7123664468541,2.459500144582569],[98.706345640439,2.469991889169432],[98.720962363922,2.4747440489485943],[98.7297493329654,2.489287640446178],[98.73387150956256,2.488769630948199],[98.73801972872758,2.464314014941121],[98.73027272040979,2.438745431245966]]]}}]}