{"type":"FeatureCollection","features":[{"type":"Feature","properties":{"code":"1222032001","desa":"Bangai","kecamatan":"Torgamba","kecCode":"122203"},"geometry":{"type":"Polygon","coordinates":[[[100.05732455428483,1.72802761185772],[100.04231742880637,1.7031525214721908],[100.04414579009618,1.7215218262514163],[100.05471059741619,1.7303734214665765],[100.04935162457787,1.7544158142820971],[100.07106346480714,1.7587151510223096],[100.07263734044095,1.746996210458684],[100.0825483469287,1.741076352949797],[100.0749708554207,1.7307894154689907],[100.07019166831087,1.7333051330924976],[100.07018752423492,1.7259097408171793],[100.05732455428483,1.72802761185772]]]}},{"type":"Feature","properties":{"code":"1222032002","desa":"Rasau","kecamatan":"Torgamba","kecCode":"122203"},"geometry":{"type":"Polygon","coordinates":[[[100.10834613996245,1.6919286900699295],[100.070175139671,1.7239707296428812],[100.05019963490531,1.7211419769012974],[100.05732455428483,1.72802761185772],[100.07018752423492,1.7259097408171793],[100.07019166831087,1.7333051330924976],[100.0749708554207,1.7307894154689907],[100.0825483469287,1.741076352949797],[100.06992475402421,1.7539680301446838],[100.07110789581282,1.7743003768825525],[100.07921753506126,1.780478291254933],[100.1002226187789,1.7802576605776281],[100.1308298835923,1.7594084257964022],[100.13380062759693,1.7672454940137825],[100.13451709678661,1.7382897586270176],[100.16776189959204,1.7017413511844601],[100.13738772196585,1.6970947448337874],[100.12399752086895,1.6870945768715053],[100.10834613996245,1.6919286900699295]]]}},{"type":"Feature","properties":{"code":"1222032003","desa":"Teluk Rampah","kecamatan":"Torgamba","kecCode":"122203"},"geometry":{"type":"Polygon","coordinates":[[[100.07106346480714,1.7587151510223096],[100.04392618734373,1.757172823607553],[100.04789300605745,1.7791041640422591],[100.07407421425364,1.7918491519191038],[100.10439096567056,1.7971627602495714],[100.11181211903413,1.7930538747374787],[100.10940291980899,1.7757100300140123],[100.07921753506126,1.780478291254933],[100.06763237133691,1.7686969890027493],[100.07106346480714,1.7587151510223096]]]}},{"type":"Feature","properties":{"code":"1222032004","desa":"Pangarungan","kecamatan":"Torgamba","kecCode":"122203"},"geometry":{"type":"Polygon","coordinates":[[[100.22274121543478,1.9375886627276793],[100.23482184355328,1.9386317800725479],[100.23805232885195,1.9260771552902667],[100.31877801899043,1.9309922272578757],[100.31809754786359,1.9017566947963171],[100.31043401461812,1.8835824430760895],[100.29046238682973,1.87763075766067],[100.26853809885426,1.883273059205393],[100.26354123084319,1.8787758779105497],[100.23741474909143,1.8810601595023264],[100.23869965726344,1.8855573416965707],[100.20740472494818,1.8713995314774337],[100.20065339024183,1.885558633123006],[100.16935116892135,1.90755432994262],[100.18829419801887,1.9250166288692574],[100.19492337601304,1.943689448543535],[100.18853063428139,1.9715139222333218],[100.17693790096341,1.9713235645346665],[100.17681930196925,1.9749165755393758],[100.20038184984251,1.9759449898680832],[100.20708717073637,1.9705563052339277],[100.20809844129006,1.945369711275611],[100.1984665097217,1.9450994119410798],[100.19441989056553,1.9269363109148394],[100.22747872256508,1.9274236049677271],[100.22274121543478,1.9375886627276793]]]}},{"type":"Feature","properties":{"code":"1222032005","desa":"Bunut","kecamatan":"Torgamba","kecCode":"122203"},"geometry":{"type":"Polygon","coordinates":[[[100.17681930196925,1.9749165755393758],[100.18853063428139,1.9715139222333218],[100.19501347459226,1.9470494928704005],[100.18047227887264,1.9157019007873723],[100.13954807608292,1.9090589388914927],[100.12911809782202,1.9191613471798878],[100.1233534650904,1.912418737703469],[100.12348993721086,1.9269213120218032],[100.1295365505714,1.9302106417569436],[100.12280927183046,1.9292499760558202],[100.12337109539982,1.9342897758971722],[100.13078867755547,1.938468664637279],[100.123005124387,1.9437900359156495],[100.13479158786157,1.9455683067642338],[100.1301082585893,1.951408860256485],[100.1369964584199,1.952837087985427],[100.15023098776992,1.98400441006529],[100.16746788333619,1.9879024585171576],[100.17666212026069,2.0015510492120026],[100.18591346593375,1.9971157331798695],[100.18894214966052,2.0042994061600696],[100.17681930196925,1.9749165755393758]]]}},{"type":"Feature","properties":{"code":"1222032006","desa":"Aek Batu","kecamatan":"Torgamba","kecCode":"122203"},"geometry":{"type":"Polygon","coordinates":[[[100.16776189959204,1.7017413511844601],[100.13451709678661,1.7382897586270176],[100.13380062759693,1.7672454940137825],[100.15091306058935,1.8257225996829909],[100.16277987938798,1.8348763868904072],[100.16502172827016,1.8569601651097816],[100.17230109541929,1.8601123545282874],[100.18676558886091,1.8566175279071682],[100.2373145727094,1.8101684498959778],[100.24884172926244,1.791437746257723],[100.2249425777378,1.7523039246324459],[100.209347473707,1.7414285490463652],[100.21393586784608,1.7282820264669603],[100.17372713959587,1.7205937906520496],[100.16776189959204,1.7017413511844601]]]}},{"type":"Feature","properties":{"code":"1222032007","desa":"Pinang Damai","kecamatan":"Torgamba","kecCode":"122203"},"geometry":{"type":"Polygon","coordinates":[[[100.20740472494818,1.8713995314774337],[100.23869965726344,1.8855573416965707],[100.23741474909143,1.8810601595023264],[100.26354123084319,1.8787758779105497],[100.26853809885426,1.883273059205393],[100.29046238682973,1.87763075766067],[100.28080977355229,1.824346904951947],[100.26367144098428,1.817307982351611],[100.24884172926244,1.791437746257723],[100.2373145727094,1.8101684498959778],[100.19400005465882,1.85007677036448],[100.20740472494818,1.8713995314774337]]]}},{"type":"Feature","properties":{"code":"1222032008","desa":"Aek Raso","kecamatan":"Torgamba","kecCode":"122203"},"geometry":{"type":"Polygon","coordinates":[[[100.16776189959204,1.7017413511844601],[100.17372713959587,1.7205937906520496],[100.21393586784608,1.7282820264669603],[100.209347473707,1.7414285490463652],[100.2249425777378,1.7523039246324459],[100.23196691873837,1.7356848903098638],[100.25173548140742,1.7220458198382649],[100.25453372555103,1.7047423789563831],[100.2719716070041,1.6754393173018478],[100.28407715443716,1.666991657079838],[100.24694872200598,1.6795361878714432],[100.20843999840723,1.6554518452797882],[100.19024837356362,1.6936395459393425],[100.16776189959204,1.7017413511844601]]]}},{"type":"Feature","properties":{"code":"1222032009","desa":"Torgamba","kecamatan":"Torgamba","kecCode":"122203"},"geometry":{"type":"Polygon","coordinates":[[[100.2249425777378,1.7523039246324459],[100.2358246793655,1.7686621564612937],[100.25216167821894,1.7660832884438173],[100.25020293142022,1.750823396829961],[100.26032991729193,1.7448747439285683],[100.29221469425278,1.7401063046217795],[100.31429371328431,1.7512921504595245],[100.34738359527677,1.745682677766732],[100.36744083492663,1.6996754537635237],[100.3661457086576,1.6856631097845376],[100.4011077156486,1.6663522175220968],[100.40856461076822,1.6732173578284706],[100.41435473208526,1.670983596551894],[100.41764863307799,1.6617802135323818],[100.41146304208576,1.6400822165914264],[100.30267480429882,1.6408776939199672],[100.30264149700753,1.6467842072883274],[100.29069692192546,1.6501581641271743],[100.29348089023097,1.658866991068306],[100.28830362091541,1.6666045654893153],[100.2719716070041,1.6754393173018478],[100.25453372555103,1.7047423789563831],[100.25173548140742,1.7220458198382649],[100.23196691873837,1.7356848903098638],[100.2249425777378,1.7523039246324459]]]}},{"type":"Feature","properties":{"code":"1222032010","desa":"Asam Jawa","kecamatan":"Torgamba","kecCode":"122203"},"geometry":{"type":"Polygon","coordinates":[[[100.17430601341187,1.915348039146319],[100.16935116892135,1.90755432994262],[100.17348784978451,1.9016450196827395],[100.20065339024183,1.885558633123006],[100.20740472494818,1.8713995314774337],[100.19400005465882,1.85007677036448],[100.17300065555588,1.8599981406285613],[100.16502172827016,1.8569601651097816],[100.16277987938798,1.8348763868904072],[100.14706829876305,1.8259367516442522],[100.13408558498185,1.8544600633142645],[100.12632927767406,1.8460474919404746],[100.11076962132103,1.857593100770513],[100.1076739425984,1.8657189601823898],[100.11545477981429,1.8679794475115128],[100.10534207068008,1.8763551511780152],[100.11307673580278,1.8767959215028476],[100.11829130270148,1.8881430148839733],[100.11099260822236,1.8837117934651693],[100.10751156370775,1.8897529740144468],[100.10315262709213,1.8829148826172324],[100.10400648840879,1.8960092822895518],[100.09453488257883,1.9035260227864446],[100.10263948742248,1.9031158509948847],[100.10797959158492,1.910816769049315],[100.11491121967708,1.9051460992899765],[100.11023822541382,1.9147210650914417],[100.11714424621003,1.912107251217911],[100.11632278476878,1.9234290934346405],[100.1232275528094,1.9250466077696613],[100.1233534650904,1.912418737703469],[100.12911809782202,1.9191613471798878],[100.13915546355382,1.9090946311848234],[100.17430601341187,1.915348039146319]]]}},{"type":"Feature","properties":{"code":"1222032011","desa":"Torganda","kecamatan":"Torgamba","kecCode":"122203"},"geometry":{"type":"Polygon","coordinates":[[[100.20160221996655,1.5842372493819348],[100.16827088978977,1.5986744600746028],[100.16203049501136,1.6095880595455159],[100.17569814055678,1.6119309427604138],[100.18169438288953,1.6335840374509203],[100.21432602522593,1.6409914365749323],[100.24694872200598,1.6795361878714432],[100.28830362091541,1.6666045654893153],[100.29348089023097,1.658866991068306],[100.29069692192546,1.6501581641271743],[100.30264149700753,1.6467842072883274],[100.29816005564207,1.6214981150370176],[100.31303944141717,1.6099519153524544],[100.31280253480918,1.5640427974918276],[100.26774283106685,1.5629814320034146],[100.26650551142029,1.584491759319251],[100.20160221996655,1.5842372493819348]]]}},{"type":"Feature","properties":{"code":"1222032012","desa":"Beringin Jaya","kecamatan":"Torgamba","kecCode":"122203"},"geometry":{"type":"Polygon","coordinates":[[[100.2358246793655,1.7686621564612937],[100.26367144098428,1.817307982351611],[100.28080977355229,1.824346904951947],[100.28041285596856,1.8124573216275566],[100.28911357193384,1.7988746809162623],[100.37594518032584,1.7756928736473137],[100.38711035166148,1.777791861622946],[100.3903161029059,1.7596400704708066],[100.36977091809347,1.7472965462501895],[100.36809802170636,1.7359546428566393],[100.35253098731528,1.7336678611495562],[100.34773703783408,1.7454267792760814],[100.33173904022458,1.751281783074982],[100.31394869197861,1.7512802533282008],[100.29221469425278,1.7401063046217795],[100.26032991729193,1.7448747439285683],[100.25020293142022,1.750823396829961],[100.25216167821894,1.7660832884438173],[100.2358246793655,1.7686621564612937]]]}},{"type":"Feature","properties":{"code":"1222032013","desa":"Bukit Tujuh","kecamatan":"Torgamba","kecCode":"122203"},"geometry":{"type":"Polygon","coordinates":[[[100.23906585670396,1.5501235342438784],[100.20914741232325,1.5703423766471245],[100.20160221996655,1.5842372493819348],[100.26650551142029,1.584491759319251],[100.26734778227437,1.5467931495580873],[100.23906585670396,1.5501235342438784]]]}},{"type":"Feature","properties":{"code":"1222032013","desa":"Bukit Tujuh","kecamatan":"Torgamba","kecCode":"122203"},"geometry":{"type":"Polygon","coordinates":[[[100.16175249478187,1.6115069951537981],[100.16425428190962,1.6224565459227718],[100.14551900519798,1.630732531861591],[100.13932635542703,1.6513490733589942],[100.12571919108785,1.6588948115958033],[100.10534241242242,1.6939789887499714],[100.10710215723884,1.695275164526442],[100.12486007593179,1.687005347037495],[100.13738772196585,1.6970947448337874],[100.18222890573945,1.6992164155099863],[100.19787519108722,1.6817210943772487],[100.20843999840723,1.6554518452797882],[100.21805302083031,1.6650648685914868],[100.23867605455632,1.6697620285322743],[100.21432602522593,1.6409914365749323],[100.18169438288953,1.6335840374509203],[100.17569814055678,1.6119309427604138],[100.16175249478187,1.6115069951537981]]]}},{"type":"Feature","properties":{"code":"1222032014","desa":"Sei Meranti","kecamatan":"Torgamba","kecCode":"122203"},"geometry":{"type":"Polygon","coordinates":[[[100.31809199634857,1.4708520155662912],[100.31832181000357,1.4999999990265607],[100.30785597307475,1.5139118743439168],[100.24484011487948,1.5462908206393293],[100.26734778227437,1.5467931495580873],[100.26670356821518,1.5637667514893898],[100.31280253480918,1.5640427974918276],[100.31303944141717,1.6099519153524544],[100.29816005564207,1.6214981150370176],[100.30267480429882,1.6408776939199672],[100.409518000955,1.6388974650176718],[100.4082416363425,1.6247005046120175],[100.42100136502101,1.6077958024405317],[100.40407974388512,1.5782689381999204],[100.40579202608119,1.5680521739190072],[100.41441274735047,1.5544002431421746],[100.41576874782952,1.5353835721806706],[100.43445603581743,1.5204334799243313],[100.42184269968088,1.4853602673045845],[100.37657599358725,1.4497909742556563],[100.34852464969286,1.4541473945633887],[100.31893683836444,1.4476778111660424],[100.32215196773916,1.4738400004705474],[100.31809199634857,1.4708520155662912]]]}},{"type":"Feature","properties":{"code":"1222041001","desa":"Langga Payung","kecamatan":"Sungai Kanan","kecCode":"122204"},"geometry":{"type":"Polygon","coordinates":[[[99.99182797917796,1.6627403909015925],[99.96228883286341,1.679861000511032],[99.93649130782767,1.683835769227264],[99.93037539810621,1.6916038999132972],[99.93686479987069,1.7097919490323126],[99.9267827045582,1.7354783286266342],[99.93433632086459,1.7580951673976895],[99.9452586950328,1.7556213833625083],[99.95080180855665,1.771723259845133],[99.9301697654224,1.7854792601690057],[99.93011027886632,1.7918740622403917],[99.9386977539982,1.792587900012993],[99.94040275888028,1.8056828320840073],[99.95184566334677,1.8043703956656256],[99.96690606556251,1.7916150565921338],[99.95822944423354,1.7774756518979533],[99.96364949183065,1.737279429664641],[99.98610421164011,1.741682041850536],[100.0056881120168,1.7319169521741882],[100.01230400432638,1.7350507027928366],[100.00995666676681,1.7395883364926363],[100.036744101659,1.7403103473039736],[99.99182797917796,1.6627403909015925]]]}},{"type":"Feature","properties":{"code":"1222042002","desa":"Batang Nadenggan","kecamatan":"Sungai Kanan","kecCode":"122204"},"geometry":{"type":"Polygon","coordinates":[[[99.81591101638035,1.672835846531161],[99.78314705139536,1.6887750149713672],[99.78851749778435,1.6988094345130562],[99.79517818442571,1.6973113978097167],[99.80760614330892,1.7131264625056795],[99.83136175673972,1.7060188676739303],[99.84047562934688,1.7277908176653278],[99.86453027005597,1.7125902435349114],[99.89786981104298,1.7143515639615732],[99.84679267244394,1.636452540226975],[99.82935129892338,1.6495708375839162],[99.81591101638035,1.672835846531161]]]}},{"type":"Feature","properties":{"code":"1222042003","desa":"Sabungan","kecamatan":"Sungai Kanan","kecCode":"122204"},"geometry":{"type":"Polygon","coordinates":[[[100.04587067988801,1.755326570307631],[100.036744101659,1.7403103473039736],[100.00995666676681,1.7395883364926363],[100.01230400432638,1.7350507027928366],[100.0056881120168,1.7319169521741882],[99.98610421164011,1.741682041850536],[99.96364949183065,1.737279429664641],[99.95923179261318,1.7814161384577916],[99.96690606556251,1.7916150565921338],[99.97347777328064,1.7893387609800377],[100.00134553586787,1.802206082735359],[100.026297161285,1.7813308125808232],[100.04625587840609,1.7769550307687934],[100.04587067988801,1.755326570307631]]]}},{"type":"Feature","properties":{"code":"1222042004","desa":"Hajoran","kecamatan":"Sungai Kanan","kecCode":"122204"},"geometry":{"type":"Polygon","coordinates":[[[99.93037539810621,1.6916038999132972],[99.90528635807902,1.7191666259217726],[99.89889617761656,1.7358451899677956],[99.89184345581087,1.7371024970454692],[99.89302592940315,1.7437024668509364],[99.8786098590578,1.7548001161757278],[99.89274005740776,1.7929932928072128],[99.90882090506081,1.7872807641032653],[99.93011027886632,1.7918740622403917],[99.93052668475876,1.7847059349410876],[99.95077433696616,1.77211015358481],[99.9452586950328,1.7556213833625083],[99.93298952944325,1.7560560266062142],[99.9267827045582,1.7354783286266342],[99.93686479987069,1.7097919490323126],[99.93037539810621,1.6916038999132972]]]}},{"type":"Feature","properties":{"code":"1222042005","desa":"Ujung Gading","kecamatan":"Sungai Kanan","kecCode":"122204"},"geometry":{"type":"Polygon","coordinates":[[[99.9103109593833,1.7167632084407167],[99.8623422770745,1.7131656693495443],[99.84163964255549,1.7271786572431307],[99.84114153865112,1.7367451703166445],[99.8501732482968,1.7467515328091723],[99.86716795373813,1.7441409672868833],[99.8786098590578,1.7548001161757278],[99.9103109593833,1.7167632084407167]]]}},{"type":"Feature","properties":{"code":"1222042006","desa":"Huta Godang","kecamatan":"Sungai Kanan","kecCode":"122204"},"geometry":{"type":"Polygon","coordinates":[[[99.81649555682452,1.8096553542937204],[99.85089631761103,1.7937003775705957],[99.86122222182814,1.7950361091278464],[99.86918170667047,1.8048897343615646],[99.89274005740776,1.7929932928072128],[99.88958181464908,1.778555591983952],[99.88146606990324,1.7730844359210343],[99.882742764567,1.7595542229870167],[99.86369354442161,1.7432867408464285],[99.80759010659817,1.764821913732493],[99.80718959082701,1.7945893511168776],[99.81649555682452,1.8096553542937204]]]}},{"type":"Feature","properties":{"code":"1222042007","desa":"Parimburan","kecamatan":"Sungai Kanan","kecCode":"122204"},"geometry":{"type":"Polygon","coordinates":[[[99.7452806505816,1.7200177362113547],[99.70299174187544,1.7598347314254406],[99.70133326162079,1.7734626817799433],[99.71406620399216,1.767876368428428],[99.74743533087586,1.773212761982237],[99.77123390582015,1.7694468680055933],[99.80441079092532,1.7558524722558901],[99.82454443427825,1.7576631231946853],[99.85708397794325,1.7480746684619233],[99.84129370843795,1.7372384088881536],[99.83170129577825,1.7062611504287852],[99.80760614330892,1.7131264625056795],[99.78314705139536,1.6887750149713672],[99.76617546662453,1.7089361577715427],[99.7452806505816,1.7200177362113547]]]}},{"type":"Feature","properties":{"code":"1222042008","desa":"Sampean","kecamatan":"Sungai Kanan","kecCode":"122204"},"geometry":{"type":"Polygon","coordinates":[[[99.70040675216994,1.7724885820060992],[99.693892420299,1.783365513419362],[99.69800323396215,1.7888781857852025],[99.6935850086413,1.8041372985860853],[99.7841637529549,1.7808306501288893],[99.78394093962271,1.7950865314169742],[99.79486247562284,1.802850124124006],[99.7909868418693,1.809554843364003],[99.7979926892113,1.8150630398040024],[99.81649555682452,1.8096553542937204],[99.80948418494722,1.8051154623962191],[99.80546166042734,1.781434998140426],[99.80759010659817,1.764821913732493],[99.82283922075351,1.756751412988415],[99.80441079092532,1.7558524722558901],[99.78633753484938,1.7659312139852565],[99.7485298822483,1.7731175831329438],[99.71406620399216,1.767876368428428],[99.70040675216994,1.7724885820060992]]]}},{"type":"Feature","properties":{"code":"1222042009","desa":"Marsonja","kecamatan":"Sungai Kanan","kecCode":"122204"},"geometry":{"type":"Polygon","coordinates":[[[99.70954616912047,1.8271141017975547],[99.73578606617404,1.8346146697861074],[99.7842122039301,1.8145208205566024],[99.7979926892113,1.8150630398040024],[99.7909868418693,1.809554843364003],[99.79486247562284,1.802850124124006],[99.78394093962271,1.7950865314169742],[99.78446576957963,1.7812023633124259],[99.69561783079831,1.8031161741619008],[99.6759671485651,1.8208858631621583],[99.67658256633246,1.826805262016801],[99.68920055915855,1.832081541287849],[99.70954616912047,1.8271141017975547]]]}},{"type":"Feature","properties":{"code":"1222052001","desa":"Mandalasena","kecamatan":"Silangkitang","kecCode":"122205"},"geometry":{"type":"Polygon","coordinates":[[[99.97347777328064,1.7893387609800377],[99.95184566334677,1.8043703956656256],[99.93947001442967,1.8061305829464636],[99.94181717662144,1.8248358438648509],[99.92963530102837,1.8447655452374483],[99.94149815201814,1.856573942264245],[99.96424579900446,1.8505420076448393],[99.97066601592394,1.8370296273676732],[100.00123700658264,1.8350279100644658],[100.00134553586787,1.802206082735359],[99.97347777328064,1.7893387609800377]]]}},{"type":"Feature","properties":{"code":"1222052002","desa":"Binangadua","kecamatan":"Silangkitang","kecCode":"122205"},"geometry":{"type":"Polygon","coordinates":[[[99.94181717662144,1.8248358438648509],[99.93611841743109,1.7905653580085465],[99.92152960530711,1.7937528979780337],[99.91992108958668,1.7872093804159714],[99.90882090506081,1.7872807641032653],[99.86271984484499,1.8090655941850216],[99.88184249463545,1.8211803677495848],[99.87718622686292,1.8466719928597728],[99.8836555009007,1.848650299910784],[99.92963530102837,1.8447655452374483],[99.94181717662144,1.8248358438648509]]]}},{"type":"Feature","properties":{"code":"1222052003","desa":"Aek Goti","kecamatan":"Silangkitang","kecCode":"122205"},"geometry":{"type":"Polygon","coordinates":[[[99.91617826771295,1.8428146621128374],[99.87810521258551,1.8485352865137918],[99.86850833299324,1.861174997953323],[99.86912499991887,1.8670777755379482],[99.874336110723,1.8636416647538383],[99.87311139957148,1.8826101815164875],[99.86507500021116,1.8869416645232278],[99.87402273386215,1.8936865726667667],[99.87055277798838,1.900344441724841],[99.88350222674643,1.9175828508310773],[99.93059489743659,1.8906274531873821],[99.91617826771295,1.8428146621128374]]]}},{"type":"Feature","properties":{"code":"1222052004","desa":"Ulu Mahuam","kecamatan":"Silangkitang","kecCode":"122205"},"geometry":{"type":"Polygon","coordinates":[[[99.99640837384742,1.8364078424009298],[99.97066601592394,1.8370296273676732],[99.96424579900446,1.8505420076448393],[99.94264029281533,1.8569308607009112],[99.92963530102837,1.8447655452374483],[99.91617826771295,1.8428146621128374],[99.9315823728283,1.8857614563244944],[99.91485910886085,1.8987938225607845],[99.92319160640754,1.9171562286407111],[99.9540107254147,1.915781391862872],[99.9463114396213,1.9361346946031304],[99.92250898320303,1.967492794364974],[99.95310493994111,1.9681601308926233],[99.94853637495379,1.9605220610599798],[99.95274802060469,1.955096890031169],[99.94346812325533,1.9469472354572843],[99.94822704504213,1.9367452965002285],[99.9595294852976,1.9318674016066923],[99.95726724338863,1.915408764068818],[99.98970995435097,1.909857692450284],[100.00001761941763,1.8704765671551484],[99.99640837384742,1.8364078424009298]]]}},{"type":"Feature","properties":{"code":"1222052005","desa":"Rintis","kecamatan":"Silangkitang","kecCode":"122205"},"geometry":{"type":"Polygon","coordinates":[[[99.91485910886085,1.8987938225607845],[99.88350222674643,1.9175828508310773],[99.88829235231024,1.9363564494330319],[99.88295833296074,1.9675333304068428],[99.91026022413011,1.9848391221167112],[99.91264999979774,1.9658972198906208],[99.9246139408807,1.9654737651124596],[99.9540107254147,1.915781391862872],[99.9250329116396,1.9185598248381688],[99.91485910886085,1.8987938225607845]]]}},{"type":"Feature","properties":{"code":"1222052006","desa":"Sukadame","kecamatan":"Silangkitang","kecCode":"122205"},"geometry":{"type":"Polygon","coordinates":[[[99.98970995435097,1.909857692450284],[99.95726724338863,1.915408764068818],[99.96726666672333,1.9381916644541708],[99.95592747027659,1.952021967664808],[99.96908069281977,1.9613571742090024],[99.96324166726919,1.9484333309624995],[99.99809166729663,1.9484305538561018],[99.99777424438592,1.9363381446321537],[99.98845805939196,1.9362604611938499],[99.98970995435097,1.909857692450284]]]}},{"type":"Feature","properties":{"code":"1222011001","desa":"Kotapinang","kecamatan":"Kota Pinang","kecCode":"122201"},"geometry":{"type":"Polygon","coordinates":[[[100.12380737630939,1.927382693009208],[100.11632278476878,1.9234290934346405],[100.11714424621003,1.912107251217911],[100.11023822541382,1.9147210650914417],[100.11491121967708,1.9051460992899765],[100.10797959158492,1.910816769049315],[100.10263948742248,1.9031158509948847],[100.09445864974697,1.9032117178256074],[100.10400648840879,1.8960092822895518],[100.10315262709213,1.8829148826172324],[100.10751156370775,1.8897529740144468],[100.11099260822236,1.8837117934651693],[100.11798914758116,1.8886298808595057],[100.11428964065446,1.8780924318271275],[100.07637071673525,1.8678870187890178],[100.07491495086435,1.8867504389788574],[100.06975342328188,1.8942828609541773],[100.06314989844911,1.891302192934103],[100.06316972670157,1.9006835904571966],[100.08772607220054,1.9105553828955575],[100.09164711632144,1.9365462720350408],[100.12380737630939,1.927382693009208]]]}},{"type":"Feature","properties":{"code":"1222012002","desa":"Simatahari","kecamatan":"Kota Pinang","kecCode":"122201"},"geometry":{"type":"Polygon","coordinates":[[[100.108321449975,1.7972239986849268],[100.06857766043072,1.7906356274358817],[100.04478943578391,1.7769076221078937],[100.026297161285,1.7813308125808232],[100.00134553586787,1.802206082735359],[100.00781281071272,1.809231236715176],[100.04514818793858,1.815934963103657],[100.05076929336826,1.8274687881169014],[100.10929549758917,1.8265414998542175],[100.108321449975,1.7972239986849268]]]}},{"type":"Feature","properties":{"code":"1222012003","desa":"Mampang","kecamatan":"Kota Pinang","kecCode":"122201"},"geometry":{"type":"Polygon","coordinates":[[[100.00134553586787,1.802206082735359],[100.00217618658176,1.8319027281862943],[100.02014112381386,1.8368033885180608],[100.04500274058408,1.8225725542482136],[100.04514818793858,1.815934963103657],[100.00781281071272,1.809231236715176],[100.00134553586787,1.802206082735359]]]}},{"type":"Feature","properties":{"code":"1222012004","desa":"Pasir Tuntung","kecamatan":"Kota Pinang","kecCode":"122201"},"geometry":{"type":"Polygon","coordinates":[[[100.15178394157572,1.823725387983214],[100.1308298835923,1.7594084257964022],[100.10940291980899,1.7757100300140123],[100.10929549758917,1.8265414998542175],[100.05036814537367,1.827505552402106],[100.05876977200745,1.8389834135037864],[100.0443431463192,1.8605584650273597],[100.10522368302661,1.8783004243317223],[100.11545477981429,1.8679794475115128],[100.10822121873434,1.866670745078244],[100.10959178733115,1.8595204648249677],[100.12040643890612,1.8491698103772898],[100.12722359409366,1.8462787642955725],[100.13408558498185,1.8544600633142645],[100.15178394157572,1.823725387983214]]]}},{"type":"Feature","properties":{"code":"1222012005","desa":"Sisumut","kecamatan":"Kota Pinang","kecCode":"122201"},"geometry":{"type":"Polygon","coordinates":[[[100.15023098776992,1.98400441006529],[100.1369964584199,1.952837087985427],[100.1301082585893,1.951408860256485],[100.13479158786157,1.9455683067642338],[100.12313449186337,1.9441002309747621],[100.13078867755547,1.938468664637279],[100.12366565484614,1.9348379855287026],[100.12280927183046,1.9292499760558202],[100.1295365505714,1.9302106417569436],[100.12380737630939,1.927382693009208],[100.03729449934173,1.9480074219345065],[100.04214722221661,1.948391664472836],[100.08405086135821,2.0293846366313577],[100.09827884839018,2.024835371999542],[100.09935014958978,2.0079262847336357],[100.1342090016442,2.000793956746994],[100.15023098776992,1.98400441006529]]]}},{"type":"Feature","properties":{"code":"1222012006","desa":"Hadundung","kecamatan":"Kota Pinang","kecCode":"122201"},"geometry":{"type":"Polygon","coordinates":[[[100.05860701270353,1.8365282904011186],[100.04600795330447,1.8190238519413822],[100.02403039758484,1.8345302639155792],[100.0342784888612,1.8601802092758648],[100.05597133900612,1.847535443646426],[100.05860701270353,1.8365282904011186]]]}},{"type":"Feature","properties":{"code":"1222012007","desa":"Sosopan","kecamatan":"Kota Pinang","kecCode":"122201"},"geometry":{"type":"Polygon","coordinates":[[[100.06322842095494,1.885363058457189],[100.06975342328188,1.8942828609541773],[100.07434387956647,1.8879877586240594],[100.07637071673525,1.8678870187890178],[100.04410910225333,1.857156801874883],[100.0342784888612,1.8601802092758648],[100.03445426675108,1.870323541213889],[100.00094176994678,1.8704944708583762],[100.0050974975515,1.889392452893708],[100.06322842095494,1.885363058457189]]]}},{"type":"Feature","properties":{"code":"1222012008","desa":"Perkebunan Nomark","kecamatan":"Kota Pinang","kecCode":"122201"},"geometry":{"type":"Polygon","coordinates":[[[100.00217618658176,1.8319027281862943],[99.99640837384742,1.8364078424009298],[99.9987684026397,1.8690488907105371],[100.03445426675108,1.870323541213889],[100.0236707955708,1.8354511229249937],[100.00217618658176,1.8319027281862943]]]}},{"type":"Feature","properties":{"code":"1222012009","desa":"Perkebunan Nagodang","kecamatan":"Kota Pinang","kecCode":"122201"},"geometry":{"type":"Polygon","coordinates":[[[100.0050974975515,1.889392452893708],[99.99591782784552,1.8706236548728774],[99.99663166741759,1.896559779796442],[99.98995846760926,1.8981659168082825],[99.98845805939196,1.9362604611938499],[100.03710608687645,1.9363413938826561],[100.06334003041813,1.908275914475334],[100.06322842095494,1.885363058457189],[100.0050974975515,1.889392452893708]]]}},{"type":"Feature","properties":{"code":"1222012010","desa":"Perk. Sei Rumbia","kecamatan":"Kota Pinang","kecCode":"122201"},"geometry":{"type":"Polygon","coordinates":[[[100.03723578800128,1.9480027724395668],[100.09164711632144,1.9365462720350408],[100.08772607220054,1.9105553828955575],[100.06316972670157,1.9006835904571966],[100.056354087771,1.919106769123609],[100.03713907940504,1.9354024818825404],[100.03723578800128,1.9480027724395668]]]}},{"type":"Feature","properties":{"code":"1222022001","desa":"Perk. Perlabian","kecamatan":"Kampung Rakyat","kecCode":"122202"},"geometry":{"type":"Polygon","coordinates":[[[100.05813523465343,1.9833125697099132],[100.05984722187183,1.9875666651553567],[100.02921171564822,1.9996359150380116],[100.03897862466386,2.0170213399163],[100.04541535943133,2.0133629706819334],[100.04877187392293,2.019316267682426],[100.03849432175559,2.066616712290079],[100.04961304670479,2.0789985125563204],[100.06991853431298,2.06909190466358],[100.08632253895404,2.087045415089958],[100.10853480693584,2.0740610915366036],[100.10138452667461,2.06373423045217],[100.12102045283171,2.0535280916611987],[100.10154286041472,2.040379996167451],[100.08805240559411,2.0427388585364925],[100.05813523465343,1.9833125697099132]]]}},{"type":"Feature","properties":{"code":"1222022002","desa":"Perk. Teluk Panji","kecamatan":"Kampung Rakyat","kecCode":"122202"},"geometry":{"type":"Polygon","coordinates":[[[100.31877801899043,1.9309922272578757],[100.23805232885195,1.9260771552902667],[100.23482184355328,1.9386317800725479],[100.2280507957077,1.9415154310290579],[100.2305465456866,2.027673713312835],[100.22551497643506,2.0351267548292387],[100.26002774688305,2.033961647146951],[100.26105191101692,1.973032948213904],[100.32312652077233,1.9740722101651498],[100.31877801899043,1.9309922272578757]]]}},{"type":"Feature","properties":{"code":"1222022003","desa":"Perk. Tolan I/II","kecamatan":"Kampung Rakyat","kecCode":"122202"},"geometry":{"type":"Polygon","coordinates":[[[100.10154286041472,2.040379996167451],[100.11623030298612,2.0485018158247543],[100.11287331635054,2.0381574089673085],[100.1265989726645,2.0422533100677427],[100.14949909160985,2.0284445690024313],[100.13919491501338,2.0106698761742496],[100.13695822194443,2.017570312172945],[100.11881428994758,2.0147870219593016],[100.09722778193662,2.0272668249460977],[100.10154286041472,2.040379996167451]]]}},{"type":"Feature","properties":{"code":"1222022004","desa":"Perk. Batang Saponggol","kecamatan":"Kampung Rakyat","kecCode":"122202"},"geometry":{"type":"Polygon","coordinates":[[[100.2280507957077,1.9415154310290579],[100.22274121543478,1.9375886627276793],[100.22747872256508,1.9274236049677271],[100.19441989056553,1.9269363109148394],[100.1984665097217,1.9450994119410798],[100.20809844129006,1.945369711275611],[100.20708717073637,1.9705563052339277],[100.20038184984251,1.9759449898680832],[100.17681930196925,1.9749165755393758],[100.19417542695447,2.0159582944942374],[100.22933912220275,2.0157022107432816],[100.2280507957077,1.9415154310290579]]]}},{"type":"Feature","properties":{"code":"1222022005","desa":"Perk. Tolan","kecamatan":"Kampung Rakyat","kecCode":"122202"},"geometry":{"type":"Polygon","coordinates":[[[100.12126070042105,2.0133865482080195],[100.09935014958978,2.0079262847336357],[100.09827884839018,2.024835371999542],[100.0799146499412,2.030663093964908],[100.08805240559411,2.0427388585364925],[100.10402757481278,2.038968341145156],[100.09722778193662,2.0272668249460977],[100.12126070042105,2.0133865482080195]]]}},{"type":"Feature","properties":{"code":"1222022005","desa":"Perk. Tolan","kecamatan":"Kampung Rakyat","kecCode":"122202"},"geometry":{"type":"Polygon","coordinates":[[[100.11767419690669,2.048094541648877],[100.1263293244388,2.0486350584796806],[100.1293702749183,2.044287782478436],[100.11287331635054,2.0381574089673085],[100.11767419690669,2.048094541648877]]]}},{"type":"Feature","properties":{"code":"1222022006","desa":"Air Merah","kecamatan":"Kampung Rakyat","kecCode":"122202"},"geometry":{"type":"Polygon","coordinates":[[[100.19830883968125,2.030776792553107],[100.18591346593375,1.9971157331798695],[100.17487276706457,2.000770583367066],[100.16784859783455,1.988168959115378],[100.15300578478916,1.981093050996531],[100.1342090016442,2.000793956746994],[100.1119309149798,2.008092190765228],[100.12114998938056,2.0106498590641464],[100.12487055932887,2.019664237864755],[100.13695822194443,2.017570312172945],[100.13919491501338,2.0106698761742496],[100.15020193966785,2.029198665825697],[100.16899016486427,2.0339242749200412],[100.19830883968125,2.030776792553107]]]}},{"type":"Feature","properties":{"code":"1222022007","desa":"Teluk Panji","kecamatan":"Kampung Rakyat","kecCode":"122202"},"geometry":{"type":"Polygon","coordinates":[[[100.32320575464195,1.9757032628942424],[100.31576238172856,1.9740465983726225],[100.31528669522487,1.9995861303682332],[100.30644997208861,1.9995311044496036],[100.3058328590992,2.017359165745877],[100.28759843641878,2.0227893343073378],[100.28705156587709,2.051613055513307],[100.25080070269036,2.05100749251765],[100.25084829121575,2.0423462550010933],[100.26003301241364,2.042512816638395],[100.26002774688305,2.033961647146951],[100.22551497643506,2.0351267548292387],[100.22886809868385,2.0157669979033788],[100.19417542695447,2.0159582944942374],[100.20251782064099,2.0385893857211657],[100.20139475176643,2.0678333870984273],[100.21918954176402,2.0720657324402425],[100.21426405744035,2.080560410118113],[100.22216386776834,2.0841058056177815],[100.21490651242566,2.089626155495948],[100.24990056136186,2.092553089023925],[100.25044168973227,2.076727075981289],[100.32983930693854,2.0782447997435365],[100.32106375209052,2.0493382599704293],[100.32320575464195,1.9757032628942424]]]}},{"type":"Feature","properties":{"code":"1222022012","desa":"Teluk Panji I","kecamatan":"Kampung Rakyat","kecCode":"122202"},"geometry":{"type":"Polygon","coordinates":[[[100.31576238172856,1.9740465983726225],[100.26105191101692,1.973032948213904],[100.25998903286762,1.9903792813615204],[100.31550084628707,1.9885311547737623],[100.31576238172856,1.9740465983726225]]]}},{"type":"Feature","properties":{"code":"1222022013","desa":"Teluk Panji Ii","kecamatan":"Kampung Rakyat","kecCode":"122202"},"geometry":{"type":"Polygon","coordinates":[[[100.25998903286762,1.9903792813615204],[100.2600485688864,2.004971319337543],[100.26955153677409,2.0079974013223607],[100.3098882934101,2.0058485738183007],[100.30644997208861,1.9995311044496036],[100.31528669522487,1.9995861303682332],[100.31550084628707,1.9885311547737623],[100.25998903286762,1.9903792813615204]]]}},{"type":"Feature","properties":{"code":"1222022014","desa":"Teluk Panji Iii","kecamatan":"Kampung Rakyat","kecCode":"122202"},"geometry":{"type":"Polygon","coordinates":[[[100.2600485688864,2.004971319337543],[100.26008297964584,2.025190341605304],[100.27833187331737,2.0254559177004596],[100.27845003883829,2.016732546923159],[100.3058328590992,2.017359165745877],[100.30606826743667,2.0058690010192772],[100.2600485688864,2.004971319337543]]]}},{"type":"Feature","properties":{"code":"1222022015","desa":"Teluk Panji Iv","kecamatan":"Kampung Rakyat","kecCode":"122202"},"geometry":{"type":"Polygon","coordinates":[[[100.26008297964584,2.025190341605304],[100.26003301241364,2.042512816638395],[100.25084829121575,2.0423462550010933],[100.25080070269036,2.05100749251765],[100.28705156587709,2.051613055513307],[100.28759843641878,2.0227893343073378],[100.29671086471467,2.0229413341220805],[100.29683417525705,2.0172218311757204],[100.27845003883829,2.016732546923159],[100.27833187331737,2.0254559177004596],[100.26008297964584,2.025190341605304]]]}},{"type":"Feature","properties":{"code":"1222022008","desa":"Tanjung Medan","kecamatan":"Kampung Rakyat","kecCode":"122202"},"geometry":{"type":"Polygon","coordinates":[[[100.11791846086834,2.0483857798985903],[100.1210775597816,2.053851698309923],[100.11022877893504,2.063056188394952],[100.14365736899242,2.085480254787737],[100.16596481582364,2.119090141837371],[100.18208566442195,2.1271208223999727],[100.19031597740047,2.1144705969863264],[100.16651661285147,2.0619846704599154],[100.17006676756733,2.054560752588642],[100.20188967926534,2.0540896211515394],[100.19830883968125,2.030776792553107],[100.16899016486427,2.0339242749200412],[100.15144877773893,2.027847133180074],[100.1265989726645,2.0422533100677427],[100.12728110843648,2.0481591660317062],[100.11791846086834,2.0483857798985903]]]}},{"type":"Feature","properties":{"code":"1222022009","desa":"Kampung Perlabian","kecamatan":"Kampung Rakyat","kecCode":"122202"},"geometry":{"type":"Polygon","coordinates":[[[100.05201160155423,2.0956525664793775],[100.07782439617898,2.0940038960314213],[100.08492327478933,2.1009117586315846],[100.09018979911997,2.09642161453166],[100.06991853431298,2.06909190466358],[100.04961304670479,2.0789985125563204],[100.03849432175559,2.066616712290079],[100.03565277795336,2.076161108336632],[100.04510555557698,2.078788886882847],[100.05201160155423,2.0956525664793775]]]}},{"type":"Feature","properties":{"code":"1222022010","desa":"Tanjung Selamat","kecamatan":"Kampung Rakyat","kecCode":"122202"},"geometry":{"type":"Polygon","coordinates":[[[100.1250028343134,2.170630142551057],[100.15818102793213,2.1694920972677534],[100.16605704399747,2.133776387394958],[100.19302823376603,2.134847145402854],[100.19340114484703,2.114563049990539],[100.18208566442195,2.1271208223999727],[100.17459036195572,2.1261690375040874],[100.14365736899242,2.085480254787737],[100.1119153594064,2.0637081869850746],[100.10138452667461,2.06373423045217],[100.10853480693584,2.0740610915366036],[100.0874624602244,2.0863905647496273],[100.09018979911997,2.09642161453166],[100.08492327478933,2.1009117586315846],[100.10058574613532,2.1084657652353656],[100.10806734743022,2.1336875658531484],[100.12419034360954,2.1284379271991023],[100.1250028343134,2.170630142551057]]]}},{"type":"Feature","properties":{"code":"1222022011","desa":"Tanjung Mulia","kecamatan":"Kampung Rakyat","kecCode":"122202"},"geometry":{"type":"Polygon","coordinates":[[[100.16605704399747,2.133776387394958],[100.15676317568004,2.193883320916928],[100.2047597468649,2.193883407251814],[100.20267663282037,2.203595840723191],[100.21076679994792,2.2021681633793446],[100.21118055643755,2.2140027756438605],[100.23795277839803,2.2196472193737082],[100.36023729231727,2.2193833987551654],[100.34714142223889,2.2425012363478927],[100.36258476567446,2.247977340480779],[100.37265053289582,2.224099238514209],[100.37139361432389,2.1868005743532195],[100.34385640564864,2.1372517005263316],[100.32983930693854,2.0782447997435365],[100.25044168973227,2.076727075981289],[100.24990056136186,2.092553089023925],[100.21828534629172,2.0913869570137846],[100.21424026227835,2.086865980556881],[100.22194971670613,2.083320583258523],[100.21416887859095,2.079941748496848],[100.21883262242766,2.0711615378682913],[100.20139475176643,2.0678333870984273],[100.20188967926534,2.0540896211515394],[100.17006676756733,2.054560752588642],[100.16642143400202,2.0676763420869952],[100.19340114484703,2.114563049990539],[100.19302823376603,2.134847145402854],[100.16605704399747,2.133776387394958]]]}}]}