{"type":"FeatureCollection","features":[{"type":"Feature","properties":{"code":"1223011001","desa":"Aek Kanopan","kecamatan":"Kualuh Hulu","kecCode":"122301","kabCode":"1223","province":"Sumatera Utara"},"geometry":{"type":"Polygon","coordinates":[[[99.63743303170912,2.5778878689669416],[99.64597199021523,2.575509848340343],[99.64815601988447,2.5761639657332336],[99.64708896798157,2.5785210204649736],[99.65284686479106,2.578940954397304],[99.65331671379538,2.568372812402699],[99.6561911026373,2.56437531871769],[99.65238396484817,2.564337245918922],[99.65308527686408,2.56093025608194],[99.65064692971207,2.5642666725207426],[99.64342914543873,2.5647709880419347],[99.64341962701421,2.567350323706918],[99.63968506271556,2.567348936053011],[99.63968506271556,2.5720507508847565],[99.62565576020523,2.570756324289653],[99.6286059717882,2.5765549253079443],[99.63743303170912,2.5778878689669416]]]}},{"type":"Feature","properties":{"code":"1223011002","desa":"Aek Kanopan Timur","kecamatan":"Kualuh Hulu","kecCode":"122301","kabCode":"1223","province":"Sumatera Utara"},"geometry":{"type":"Polygon","coordinates":[[[99.65284686479106,2.578940954397304],[99.65726797243906,2.5812178453605505],[99.66908577728685,2.5791959823442028],[99.68510937409836,2.582027989732343],[99.69476463138267,2.5780745160628067],[99.71101222683285,2.563641330735327],[99.7076167743947,2.5611135460086163],[99.70306974097582,2.563773769396316],[99.68451232498387,2.58045973935958],[99.66860724532819,2.577322694524242],[99.65982923623034,2.573100823586324],[99.66145423382589,2.565200706598121],[99.65668167292091,2.5637751174800827],[99.65331671379538,2.568372812402699],[99.65284686479106,2.578940954397304]]]}},{"type":"Feature","properties":{"code":"1223012003","desa":"Kuala Beringin","kecamatan":"Kualuh Hulu","kecCode":"122301","kabCode":"1223","province":"Sumatera Utara"},"geometry":{"type":"Polygon","coordinates":[[[99.49935913141881,2.3985464543887747],[99.41874694831309,2.460396287524244],[99.45047760036101,2.5017511809925104],[99.45254516602664,2.5408527826073106],[99.46523017633164,2.547195343960469],[99.47511504762139,2.538207638152353],[99.47850193401712,2.5382669160656377],[99.48049771489768,2.5420690374322263],[99.49083349726816,2.5464487321945746],[99.5336423795922,2.548683046554252],[99.53967820108818,2.5333719430463817],[99.53094341520647,2.5327252702413734],[99.53107939090125,2.5104941992585745],[99.5242722883355,2.5016666905856453],[99.52219883660706,2.4945866905514613],[99.51474257281153,2.489591403554026],[99.51435038835979,2.4731435542832005],[99.52293717640964,2.4670696141296844],[99.5240230079555,2.4602531091593844],[99.51583862335383,2.4495828122744583],[99.5123748781981,2.4384646395211615],[99.5182724001512,2.423019644947251],[99.51593780508567,2.416826007727418],[99.51129913344828,2.415524718405872],[99.51115417532498,2.4135289159437354],[99.51789856007055,2.406531093259993],[99.51949310302432,2.400058982767619],[99.51637268125427,2.396813628081813],[99.50926208537697,2.3973295664411043],[99.50176238972256,2.3945114580752125],[99.49935913141881,2.3985464543887747]]]}},{"type":"Feature","properties":{"code":"1223012004","desa":"Parpaudangan","kecamatan":"Kualuh Hulu","kecCode":"122301","kabCode":"1223","province":"Sumatera Utara"},"geometry":{"type":"Polygon","coordinates":[[[99.64907322584877,2.563866793470023],[99.65629612096927,2.5565601813675207],[99.65934007068779,2.5338321576130904],[99.65059589228666,2.5320150450454295],[99.64190056865634,2.5349349755525914],[99.6257471708953,2.530361296125854],[99.61099229985477,2.538859533320425],[99.603568381076,2.535718643883367],[99.59939242681912,2.538573996772514],[99.59225404368924,2.5363967902619997],[99.59682531293787,2.5439449710576265],[99.59236382393141,2.55593150759396],[99.58591353727996,2.5640831514682825],[99.60256508481085,2.566476774432975],[99.62016079188707,2.556833503323459],[99.64690593256279,2.5507896724719523],[99.64890468030683,2.5517414564685756],[99.64907322584877,2.563866793470023]]]}},{"type":"Feature","properties":{"code":"1223012005","desa":"Pulo Dogom","kecamatan":"Kualuh Hulu","kecCode":"122301","kabCode":"1223","province":"Sumatera Utara"},"geometry":{"type":"MultiPolygon","coordinates":[[[[99.58605825168699,2.5630104023613716],[99.59236382393141,2.55593150759396],[99.59661710999171,2.5447182962855663],[99.59469507621684,2.539696407342038],[99.5921375464107,2.5385840152200454],[99.58978208437577,2.542071506071258],[99.57874843888942,2.5428638807387514],[99.56099349425442,2.5386450962740383],[99.54979907156996,2.5461589886180933],[99.54738986874753,2.5601085779048867],[99.54997753303678,2.565462365246475],[99.57109762835289,2.571251594429705],[99.58266862685569,2.5709311938640416],[99.58258058682469,2.5638511083942177],[99.58605825168699,2.5630104023613716]]],[[[99.54414112990928,2.5838325603547934],[99.5491082546423,2.578865434727869],[99.54869184874984,2.5760695683947805],[99.53740780592557,2.5789811864683116],[99.53735966521646,2.5839515334667844],[99.54414112990928,2.5838325603547934]]],[[[99.57808100703288,2.5865679059115596],[99.58272401520122,2.5915479278166083],[99.59123222858453,2.5857104940724196],[99.58115873079083,2.5827269635102152],[99.57808100703288,2.5865679059115596]]]]}},{"type":"Feature","properties":{"code":"1223012006","desa":"Londut","kecamatan":"Kualuh Hulu","kecCode":"122301","kabCode":"1223","province":"Sumatera Utara"},"geometry":{"type":"Polygon","coordinates":[[[99.532869036377,2.5922528901799757],[99.53757200684271,2.5893730235704924],[99.54168898355984,2.596587992058665],[99.53964997406712,2.607185908807525],[99.5421569781621,2.6151319280922105],[99.55081701419391,2.6144138644052797],[99.55518063178079,2.610250122047041],[99.55998402414343,2.61017688845423],[99.56052401756942,2.5985788860210572],[99.5676310188565,2.58714989048183],[99.57058603281921,2.58458389446075],[99.57767601263795,2.5859089043006622],[99.58115873079083,2.5827269635102152],[99.57682942863526,2.5814079611415477],[99.5768234814186,2.5777197973678336],[99.57439405104469,2.577724556580113],[99.57439405104469,2.570799496244404],[99.54923395108602,2.5650162160764807],[99.54786576029665,2.553654290176804],[99.55174334108239,2.5434795665033834],[99.5480394058939,2.542474217087128],[99.54747678372667,2.533312502355811],[99.54455206792362,2.530334624032614],[99.53967820108818,2.5333719430463817],[99.53487970103741,2.5475884942836813],[99.53207193667059,2.5490637601528654],[99.49083349726816,2.5464487321945746],[99.48049771489768,2.5420690374322263],[99.47850193401712,2.5382669160656377],[99.47511504762139,2.538207638152353],[99.46523017633164,2.547195343960469],[99.47444700782319,2.552260903083158],[99.50118103287843,2.5839498877074027],[99.51320399826596,2.5880968631054624],[99.51682197355528,2.5921049085360903],[99.52121901174802,2.5906019129709508],[99.532869036377,2.5922528901799757]]]}},{"type":"Feature","properties":{"code":"1223012007","desa":"Perkebunan Kanopan Ulu","kecamatan":"Kualuh Hulu","kecCode":"122301","kabCode":"1223","province":"Sumatera Utara"},"geometry":{"type":"Polygon","coordinates":[[[99.57682942863526,2.5814079611415477],[99.59516497828116,2.586305898326267],[99.60149601932591,2.5807179221282475],[99.60505798124092,2.580363929186202],[99.60911875212878,2.5742556780979444],[99.62562914207132,2.5733978183964625],[99.62565576020523,2.570756324289653],[99.63968506271556,2.5720507508847565],[99.63968506271556,2.567348936053011],[99.64907322584877,2.563866793470023],[99.6487381186693,2.551384537132609],[99.6262046227452,2.5547871661569492],[99.60256508481085,2.566476774432975],[99.58258058682469,2.5638511083942177],[99.58266862685569,2.5709311938640416],[99.57439405104469,2.570799496244404],[99.57439405104469,2.577724556580113],[99.5768234814186,2.5777197973678336],[99.57682942863526,2.5814079611415477]]]}},{"type":"Feature","properties":{"code":"1223012008","desa":"Perkebunan Membang Muda","kecamatan":"Kualuh Hulu","kecCode":"122301","kabCode":"1223","province":"Sumatera Utara"},"geometry":{"type":"Polygon","coordinates":[[[99.65629612096927,2.5565601813675207],[99.65238396484817,2.564337245918922],[99.66145423382589,2.565200706598121],[99.65982923623034,2.573100823586324],[99.66860724532819,2.577322694524242],[99.68451232498387,2.58045973935958],[99.70997651630323,2.5582213478953495],[99.69883270656418,2.551977246118309],[99.69913519083643,2.536366670168025],[99.70131493793411,2.533991721625601],[99.6940763586371,2.52616129040475],[99.68846782842756,2.5244278372703013],[99.65934007068779,2.5338321576130904],[99.65629612096927,2.5565601813675207]]]}},{"type":"Feature","properties":{"code":"1223012009","desa":"Perkebunan Labuhan Haji","kecamatan":"Kualuh Hulu","kecCode":"122301","kabCode":"1223","province":"Sumatera Utara"},"geometry":{"type":"Polygon","coordinates":[[[99.76704342841157,2.54541284360033],[99.7685031530981,2.541816953865714],[99.78188762101695,2.54138865174176],[99.7820196810635,2.521118021878295],[99.77048305644797,2.5179061975156087],[99.74687004941329,2.5175556822518956],[99.7389385137015,2.5137802716492934],[99.73922233704126,2.535220902406329],[99.74531753357736,2.547013412010088],[99.74845887987344,2.549380063407339],[99.75065931137816,2.546476300911874],[99.75071507833826,2.549705269050668],[99.76704342841157,2.54541284360033]]]}},{"type":"Feature","properties":{"code":"1223012010","desa":"Perkebunan Hanna","kecamatan":"Kualuh Hulu","kecCode":"122301","kabCode":"1223","province":"Sumatera Utara"},"geometry":{"type":"Polygon","coordinates":[[[99.70131493793411,2.533991721625601],[99.69913519083643,2.536366670168025],[99.69883270656418,2.551977246118309],[99.70997651630323,2.5582213478953495],[99.72672652341038,2.5542765985489777],[99.74468939759764,2.5457981437414094],[99.73340509037268,2.5263557948773676],[99.71401635367187,2.527450283296088],[99.70311000092585,2.5353944418833776],[99.70131493793411,2.533991721625601]]]}},{"type":"Feature","properties":{"code":"1223012011","desa":"Sonomartani","kecamatan":"Kualuh Hulu","kecCode":"122301","kabCode":"1223","province":"Sumatera Utara"},"geometry":{"type":"Polygon","coordinates":[[[99.90306356133435,2.6013227112853783],[99.90753414608405,2.5728986011319037],[99.9078315788643,2.5446187071609447],[99.90771260575224,2.5372780701081945],[99.90346526780792,2.533459035191876],[99.88385131658504,2.54284777927686],[99.87372896222189,2.5406842649444963],[99.87196584404852,2.5367156673761255],[99.87102472601038,2.539305463055812],[99.86768011494541,2.5399163779170033],[99.86390208191561,2.5369770733149895],[99.85684697960447,2.538226290091537],[99.84235286429332,2.534426921549675],[99.84194612341491,2.530958011591245],[99.83314347828895,2.532673422526875],[99.82059194985868,2.527516266554512],[99.82287052165731,2.564137062227623],[99.81888492509925,2.5640180891156006],[99.81762669531582,2.5889158478130003],[99.806862868027,2.588871323277826],[99.80680338237029,2.592083595502903],[99.78407952874733,2.5874733892119997],[99.78570055493672,2.600429657514952],[99.79905783994741,2.6171999964765487],[99.81487570335109,2.617847208874818],[99.83314624640222,2.612438105133613],[99.84077241821255,2.613408925079875],[99.84249752743898,2.6159073595323448],[99.84767285601752,2.613349438523907],[99.85058769456651,2.6156694133083986],[99.85707172557971,2.6146581418564776],[99.86373421805978,2.6192386039700866],[99.87057516840933,2.620606795657297],[99.87372795408184,2.6322066668817055],[99.88062839098751,2.637917372659916],[99.88532782621826,2.6383932660071503],[99.90275737725118,2.620130902309988],[99.90306356133435,2.6013227112853783]]]}},{"type":"Feature","properties":{"code":"1223012012","desa":"Sukarame","kecamatan":"Kualuh Hulu","kecCode":"122301","kabCode":"1223","province":"Sumatera Utara"},"geometry":{"type":"Polygon","coordinates":[[[99.70626198260446,2.6083639784184314],[99.7634947593757,2.658262262242637],[99.77392137237347,2.646609077408764],[99.75070890808966,2.625274055838074],[99.75206765240029,2.6129608099919386],[99.75841898934492,2.6014799973151437],[99.7584117578964,2.5893471968400394],[99.75058294364798,2.5834494239825467],[99.75065931137816,2.546476300911874],[99.74845887987344,2.549380063407339],[99.74468939759764,2.5457981437414094],[99.72672652341038,2.5542765985489777],[99.70997651630323,2.5582213478953495],[99.7076167743947,2.5611135460086163],[99.71101222683285,2.563641330735327],[99.69068623558138,2.579962618414758],[99.68271365301273,2.5825241079330725],[99.66908577728685,2.5791959823442028],[99.65726797243906,2.5812178453605505],[99.67075155823788,2.587046311964651],[99.67575997983927,2.5917248658316883],[99.69393603382098,2.5958368908771003],[99.70144301937988,2.6078568974819505],[99.70626198260446,2.6083639784184314]]]}},{"type":"Feature","properties":{"code":"1223012013","desa":"Sukarame Baru","kecamatan":"Kualuh Hulu","kecCode":"122301","kabCode":"1223","province":"Sumatera Utara"},"geometry":{"type":"Polygon","coordinates":[[[99.76704342841157,2.54541284360033],[99.75071507833826,2.549705269050668],[99.75058294364798,2.5834494239825467],[99.7584117578964,2.5893471968400394],[99.75841898934492,2.6014799973151437],[99.75206765240029,2.6129608099919386],[99.75070890808966,2.625274055838074],[99.77392137237347,2.646609077408764],[99.7742231992413,2.6446753686372118],[99.78274520732548,2.64140863167048],[99.78229310913974,2.618970315519667],[99.79614537920594,2.6198459557173113],[99.79957180339606,2.617390353275934],[99.78570055493672,2.600429657514952],[99.78407952874733,2.5874733892119997],[99.80680338237029,2.592083595502903],[99.806862868027,2.588871323277826],[99.81762669531582,2.5889158478130003],[99.81888492509925,2.5640180891156006],[99.82287052165731,2.564137062227623],[99.82120025668655,2.5300549051989716],[99.8156895817089,2.5362445836031964],[99.81707747844291,2.5381677127501474],[99.80500932841782,2.5428816351545773],[99.79274030042463,2.553863637060406],[99.77728027186708,2.5513581582183886],[99.76704342841157,2.54541284360033]]]}},{"type":"Feature","properties":{"code":"1223021001","desa":"Tanjung Leidong","kecamatan":"Kualuh Leidong","kecCode":"122302","kabCode":"1223","province":"Sumatera Utara"},"geometry":{"type":"Polygon","coordinates":[[[99.99322993591288,2.7886404792814514],[99.9848622371026,2.7580471432012397],[99.99950846374469,2.7468881196432813],[99.98349375942949,2.7320978450079876],[99.9757415314466,2.739940544780236],[99.9629255717578,2.746571069052256],[99.9632086252779,2.7532722440641755],[99.96053694902105,2.759355076714144],[99.96075579544367,2.784873750733856],[99.9668585606741,2.7990031666582724],[99.99322993591288,2.7886404792814514]]]}},{"type":"Feature","properties":{"code":"1223022002","desa":"Teluk Pulai Dalam","kecamatan":"Kualuh Leidong","kecCode":"122302","kabCode":"1223","province":"Sumatera Utara"},"geometry":{"type":"Polygon","coordinates":[[[99.90306356133435,2.6013227112853783],[99.90275737725118,2.620130902309988],[99.88532782621826,2.6383932660071503],[99.88062839098751,2.637917372659916],[99.87372795408184,2.6322066668817055],[99.87128900708204,2.621974984646517],[99.86831467927908,2.6189411720894125],[99.86373421805978,2.6192386039700866],[99.85707172557971,2.6146581418564776],[99.85058769456651,2.6156694133083986],[99.84767285601752,2.613349438523907],[99.84249752743898,2.6159073595323448],[99.84077241821255,2.613408925079875],[99.83428838809867,2.612438105133613],[99.82301160909854,2.6139098978210806],[99.81487570335109,2.617847208874818],[99.78229310913974,2.618970315519667],[99.78229310913974,2.632033556381203],[99.82878754630825,2.6329526841957405],[99.8284921693782,2.631176859503093],[99.96973039184417,2.6736751366304423],[99.97498555593869,2.6715083100950467],[99.9889520542939,2.675049153226561],[99.98145665380162,2.6330585631787327],[99.97579664459953,2.61529572431424],[99.93329102985722,2.6028618586974015],[99.90306356133435,2.6013227112853783]]]}},{"type":"Feature","properties":{"code":"1223022003","desa":"Teluk Pulai Luar","kecamatan":"Kualuh Leidong","kecCode":"122302","kabCode":"1223","province":"Sumatera Utara"},"geometry":{"type":"Polygon","coordinates":[[[99.9629255717578,2.746571069052256],[99.9757415314466,2.739940544780236],[99.98349375942949,2.7320978450079876],[99.96087386293844,2.7128045560748664],[99.95802121340836,2.7052335765660636],[99.95860629344575,2.6984014944386536],[99.96302336673506,2.6920308787342386],[99.97049572569722,2.687815766201423],[99.989770666683,2.6889623244672096],[99.9889520542939,2.675049153226561],[99.97498555593869,2.6715083100950467],[99.96973039184417,2.6736751366304423],[99.9147354268985,2.655632756998057],[99.9629255717578,2.746571069052256]]]}},{"type":"Feature","properties":{"code":"1223022004","desa":"Kelapa Sebatang","kecamatan":"Kualuh Leidong","kecCode":"122302","kabCode":"1223","province":"Sumatera Utara"},"geometry":{"type":"Polygon","coordinates":[[[99.89420419956423,2.7719683795619927],[99.89813183841368,2.778255039056928],[99.91093641898061,2.7893602300965097],[99.91536682112195,2.7829479146275666],[99.90915325581817,2.776266851154529],[99.92293102244878,2.7666775168846223],[99.96291973066108,2.7465720385214163],[99.92089447979644,2.668812306280422],[99.91180950420532,2.6914837635775863],[99.91107258263366,2.700783571007618],[99.91660526492107,2.714066669129614],[99.93576078133502,2.7329805349911864],[99.89650718256046,2.762668671956729],[99.89420419956423,2.7719683795619927]]]}},{"type":"Feature","properties":{"code":"1223022005","desa":"Simandulang","kecamatan":"Kualuh Leidong","kecCode":"122302","kabCode":"1223","province":"Sumatera Utara"},"geometry":{"type":"Polygon","coordinates":[[[99.93534895568979,2.8092549658283335],[99.95241646574736,2.8256306247200214],[99.98701059696158,2.8563800165575266],[99.99458088669859,2.8291529831862956],[99.99322993591288,2.7886404792814514],[99.94095400732164,2.809116727439479],[99.93534895568979,2.8092549658283335]]]}},{"type":"Feature","properties":{"code":"1223022006","desa":"Air Hitam","kecamatan":"Kualuh Leidong","kecCode":"122302","kabCode":"1223","province":"Sumatera Utara"},"geometry":{"type":"Polygon","coordinates":[[[99.7634947593757,2.658262262242637],[99.89420419956423,2.7719683795619927],[99.89650718256046,2.762668671956729],[99.93576078133502,2.7329805349911864],[99.91660526492107,2.714066669129614],[99.91107258263366,2.700783571007618],[99.91180950420532,2.6914837635775863],[99.92089447979644,2.668812306280422],[99.9147354268985,2.655632756998057],[99.8284921693782,2.631176859503093],[99.82878754630825,2.6329526841957405],[99.78229310913974,2.632033556381203],[99.78274520732548,2.64140863167048],[99.7742231992413,2.6446753686372118],[99.7634947593757,2.658262262242637]]]}},{"type":"Feature","properties":{"code":"1223022007","desa":"Pangkalan Lunang","kecamatan":"Kualuh Leidong","kecCode":"122302","kabCode":"1223","province":"Sumatera Utara"},"geometry":{"type":"Polygon","coordinates":[[[99.91093641898061,2.7893602300965097],[99.93534895568979,2.8092549658283335],[99.94095400732164,2.809116727439479],[99.9668585606741,2.7990031666582724],[99.96075579544367,2.784873750733856],[99.96053694902105,2.759355076714144],[99.9632086252779,2.7532722440641755],[99.9629255717578,2.746571069052256],[99.92293102244878,2.7666775168846223],[99.90915325581817,2.776266851154529],[99.91536682112195,2.7829479146275666],[99.91093641898061,2.7893602300965097]]]}},{"type":"Feature","properties":{"code":"1223031001","desa":"Kampung Mesjid","kecamatan":"Kualuh Hilir","kecCode":"122303","kabCode":"1223","province":"Sumatera Utara"},"geometry":{"type":"Polygon","coordinates":[[[100.071144104317,2.5731596923080273],[100.07298278802529,2.546743152245671],[100.06991338299628,2.54008902436729],[100.04617565438298,2.5593536573026574],[100.03856137970399,2.561376199307135],[100.01653941366305,2.5805971602647135],[100.00516194386869,2.57570114403189],[100.00270582431438,2.5766343543302828],[100.00540255928075,2.5809642464364098],[100.0039161553064,2.587770888541806],[100.00723164902142,2.597887156282292],[100.01486966939979,2.6068199386945117],[100.02992141833886,2.61047569270032],[100.06132082039959,2.578237420157391],[100.071144104317,2.5731596923080273]]]}},{"type":"Feature","properties":{"code":"1223032002","desa":"Kuala Bangka","kecamatan":"Kualuh Hilir","kecCode":"122303","kabCode":"1223","province":"Sumatera Utara"},"geometry":{"type":"Polygon","coordinates":[[[100.02024476888101,2.4511229138671293],[100.02047083326238,2.446114718900436],[100.01443111140674,2.445497497093731],[100.01472861073688,2.4275324969288437],[100.00872055580908,2.427175553311188],[100.00909638968669,2.409346107958096],[99.9832418314454,2.408413055041056],[99.98054333290855,2.3832019365704076],[99.97219156378969,2.382419681074564],[99.97311920368838,2.39181681673351],[99.84415444736993,2.4477421887305013],[99.84068189965,2.4532800241272446],[99.83491372089156,2.4797075871798127],[99.85058560544137,2.4826020506853417],[99.85735890069274,2.48552869103428],[99.8593973454112,2.4889319540807597],[99.86374457555176,2.4874756099474005],[99.86658071532781,2.4891539409357093],[99.86893592555259,2.486170893309442],[99.86986283789969,2.491876792211312],[99.8757796718944,2.488807109295108],[99.8770328717697,2.4965729026432957],[99.88242756028374,2.4954106368186824],[99.8844380109055,2.497813384304873],[99.88168670687605,2.5041398414981124],[99.89108413842227,2.503363852478305],[99.89251589059592,2.5093764714589346],[99.89835006070678,2.504033593793104],[99.89738695604323,2.5111568701034424],[99.90618739962882,2.511182647371233],[99.90526792287642,2.518002251405252],[99.91047325373772,2.519521109212631],[99.90450783207086,2.5253441079386296],[99.90785533625483,2.528839283496708],[99.91223025022593,2.5268092231599257],[99.9170141470853,2.518731916346547],[99.92344538609575,2.5162558795096426],[99.91539139060022,2.5095306179554187],[99.91618856135307,2.5045978581218122],[99.91967401344503,2.501373500807103],[99.9250417034119,2.5016445465789574],[99.92884841042587,2.510018782551992],[99.94698241840393,2.508017799095572],[99.94378421696807,2.522451301883665],[99.94893518740899,2.5361994790053237],[99.96000895075252,2.545135368575141],[99.97031549256597,2.5453876086237024],[99.97418843734658,2.539107648178767],[99.99942817407106,2.517533075094287],[99.99405059156163,2.501971399780314],[100.00594710327623,2.493640114528822],[100.00778097830953,2.45469775856658],[100.02024476888101,2.4511229138671293]]]}},{"type":"Feature","properties":{"code":"1223032003","desa":"Sei Sentang","kecamatan":"Kualuh Hilir","kecCode":"122303","kabCode":"1223","province":"Sumatera Utara"},"geometry":{"type":"Polygon","coordinates":[[[100.02657097606975,2.46038001339249],[100.02284666674034,2.4603877754410926],[100.0230566674313,2.454836941243524],[100.02008249970766,2.4547177756766394],[100.02024476888101,2.4511229138671293],[100.00778097830953,2.45469775856658],[100.00594710327623,2.493640114528822],[99.99405059156163,2.501971399780314],[99.99942817407106,2.517533075094287],[99.97418843734658,2.539107648178767],[99.97031549256597,2.5453876086237024],[99.96761398130025,2.575198269224606],[99.96363764056473,2.5817409297328298],[99.96442789193372,2.5866723585698],[99.96812159283729,2.589908479016878],[99.97838269640435,2.589110394553729],[99.99130073544062,2.5809555329051057],[100.00516194386869,2.57570114403189],[100.01653941366305,2.5805971602647135],[100.03856137970399,2.561376199307135],[100.04617565438298,2.5593536573026574],[100.06991338299628,2.54008902436729],[100.0584619439636,2.52573277424216],[100.05515521144389,2.514452220799756],[100.03868461919988,2.510419602293568],[100.04064767465053,2.507350098342501],[100.03204592278114,2.503209836383546],[100.02378681441,2.4941012589945957],[100.01544918263374,2.4942725798441514],[100.01585585876091,2.485577248129534],[100.03741997904889,2.483398675548828],[100.02657097606975,2.46038001339249]]]}},{"type":"Feature","properties":{"code":"1223032004","desa":"Teluk Piai","kecamatan":"Kualuh Hilir","kecCode":"122303","kabCode":"1223","province":"Sumatera Utara"},"geometry":{"type":"Polygon","coordinates":[[[100.05994746480371,2.6497188152295403],[100.06148698633541,2.6180094636588747],[100.06606972194014,2.603082497468686],[100.06691215737021,2.5827458519710755],[100.071144104317,2.5731596923080273],[100.06132082039959,2.578237420157391],[100.02992141833886,2.61047569270032],[100.03456422326035,2.6152125505149044],[100.03266124522035,2.624817613028041],[100.03467660074459,2.6284733373562084],[100.05270101733815,2.6457244305008416],[100.05994746480371,2.6497188152295403]]]}},{"type":"Feature","properties":{"code":"1223032005","desa":"Tanjung Mangedar","kecamatan":"Kualuh Hilir","kecCode":"122303","kabCode":"1223","province":"Sumatera Utara"},"geometry":{"type":"MultiPolygon","coordinates":[[[[100.05941717326397,2.7337251475641566],[100.05235302916901,2.712999926594632],[100.06294638906466,2.7021828972239934],[100.06449303862291,2.6966506511138033],[100.06366022683807,2.6896312411036796],[100.05764007602873,2.6791253061142486],[100.06196287788457,2.663171634307182],[100.05994746480371,2.6497188152295403],[100.04192252660339,2.636111425175389],[100.03266893532316,2.624801401848836],[100.01947002901869,2.6258629193227376],[99.9758037042776,2.6153178782134585],[99.98145665380162,2.6330585631787327],[99.989770666683,2.6889623244672096],[99.97373255571296,2.6873396875938327],[99.96339194398308,2.6917202627924035],[99.95798033742267,2.7021193718127106],[99.96087386293844,2.7128045560748664],[99.99950846374469,2.7468881196432813],[100.01514508407841,2.7349745118295345],[100.03701778514271,2.7426855463577726],[100.04996347293599,2.740568081810708],[100.05941717326397,2.7337251475641566]]],[[[100.02213989044365,2.7487117028331163],[100.02622304455794,2.753139880046882],[100.02576856766534,2.756097549704446],[100.02994095341234,2.7529316771009285],[100.02213989044365,2.7487117028331163]]],[[[100.03193704276038,2.753979200224481],[100.02476824276027,2.759616024898037],[100.030548905008,2.7685278540059883],[100.03716380716399,2.760639940817894],[100.03505798433855,2.7551790783950185],[100.03193704276038,2.753979200224481]]]]}},{"type":"Feature","properties":{"code":"1223032006","desa":"Teluk Binjai","kecamatan":"Kualuh Hilir","kecCode":"122303","kabCode":"1223","province":"Sumatera Utara"},"geometry":{"type":"Polygon","coordinates":[[[99.86245132436919,2.520325464648401],[99.87372896222189,2.5406842649444963],[99.88385131658504,2.54284777927686],[99.90308455330954,2.533459035191876],[99.90636820922553,2.535445884903035],[99.90731183457358,2.56667319895813],[99.96318597495286,2.563833128248549],[99.96633252022967,2.560168489840251],[99.97026335886697,2.545368887436737],[99.96000895075252,2.545135368575141],[99.94893518740899,2.5361994790053237],[99.94378421696807,2.522451301883665],[99.94698241840393,2.508017799095572],[99.92884841042587,2.510018782551992],[99.9250417034119,2.5016445465789574],[99.91967401344503,2.501373500807103],[99.91618856135307,2.5045978581218122],[99.91539139060022,2.5095306179554187],[99.92344538609575,2.5162558795096426],[99.9170141470853,2.518731916346547],[99.91223025022593,2.5268092231599257],[99.90785533625483,2.528839283496708],[99.90450783207086,2.5253441079386296],[99.91047325373772,2.519521109212631],[99.90526792287642,2.518002251405252],[99.90618739962882,2.511182647371233],[99.89738695604323,2.5111568701034424],[99.89835006070678,2.504033593793104],[99.89251589059592,2.5093764714589346],[99.89108413842227,2.503363852478305],[99.88168670687605,2.5041398414981124],[99.8844380109055,2.497813384304873],[99.88242756028374,2.4954106368186824],[99.8770328717697,2.4965729026432957],[99.8757796718944,2.488807109295108],[99.86986283789969,2.491876792211312],[99.86893592555259,2.486170893309442],[99.86658071532781,2.4891539409357093],[99.86374457555176,2.4874756099474005],[99.8593973454112,2.4889319540807597],[99.85735890069274,2.48552869103428],[99.85058560544137,2.4826020506853417],[99.83491372089156,2.4797075871798127],[99.83485035555952,2.504050287908223],[99.84523229563398,2.510153554953667],[99.84966746688012,2.518679134236414],[99.86245132436919,2.520325464648401]]]}},{"type":"Feature","properties":{"code":"1223032007","desa":"Sei Apung","kecamatan":"Kualuh Hilir","kecCode":"122303","kabCode":"1223","province":"Sumatera Utara"},"geometry":{"type":"Polygon","coordinates":[[[99.90731183457358,2.56667319895813],[99.90306356133435,2.6013227112853783],[99.93329102985722,2.6028618586974015],[100.01947002901869,2.6258629193227376],[100.03332453300084,2.6235155359002604],[100.03479775741063,2.6165174695002977],[100.03286663958379,2.611988891074112],[100.01684389173226,2.608134506506108],[100.00723164902142,2.597887156282292],[100.0039161553064,2.587770888541806],[100.00524801168643,2.5799482445504633],[100.00270582431438,2.5766343543302828],[99.97592727382471,2.589946475373295],[99.9693599745832,2.590240370220302],[99.96482108542483,2.5873279715352555],[99.96374245924716,2.580410098581357],[99.96761398130025,2.575198269224606],[99.97031549256597,2.5453876086237024],[99.96633252022967,2.560168489840251],[99.96318597495286,2.563833128248549],[99.90731183457358,2.56667319895813]]]}},{"type":"Feature","properties":{"code":"1223042001","desa":"Aek Korsik","kecamatan":"Aek Kuo","kecCode":"122304","kabCode":"1223","province":"Sumatera Utara"},"geometry":{"type":"Polygon","coordinates":[[[99.98407694369604,2.3675747195651065],[99.98571500124638,2.3003868947806088],[99.95096372969243,2.299717516791904],[99.95156267637645,2.306404879116505],[99.9553103276096,2.306404879116505],[99.9547343262282,2.3201432788088314],[99.93495615520247,2.318150777757915],[99.93476486400732,2.3363495431985886],[99.90109099555302,2.334404954428945],[99.90023318621262,2.3518874026661702],[99.86243095472486,2.349944674593841],[99.84153267809067,2.335639635463321],[99.82223879108739,2.3340128626077776],[99.82259033607524,2.3570857484874677],[99.81473811427263,2.3645810509454432],[99.81730077471104,2.378183682686567],[99.83390660340704,2.409473157881422],[99.85664904062075,2.442612552012761],[99.87162797055446,2.434409133268984],[99.97311920368838,2.39181681673351],[99.97219156378969,2.382419681074564],[99.98054333290855,2.3832019365704076],[99.97935361078054,2.3680327757588966],[99.98407694369604,2.3675747195651065]]]}},{"type":"Feature","properties":{"code":"1223042002","desa":"Bandar Selamat","kecamatan":"Aek Kuo","kecCode":"122304","kabCode":"1223","province":"Sumatera Utara"},"geometry":{"type":"Polygon","coordinates":[[[99.83567772734528,2.47236834857288],[99.84415444736993,2.4477421887305013],[99.85664904062075,2.442612552012761],[99.83390660340704,2.409473157881422],[99.81730077471104,2.378183682686567],[99.81473811427263,2.3645810509454432],[99.79570242622606,2.364818996270114],[99.79058658600218,2.3614877509330636],[99.77571495328253,2.3618446702690106],[99.75959829192773,2.367070111764263],[99.75276775392877,2.3772695685925322],[99.75513085390583,2.387958214345193],[99.76261153339561,2.4009082872185243],[99.76723571785413,2.4058265616719416],[99.77480240400779,2.405683793397963],[99.78231347158948,2.4113874332028207],[99.78883636770426,2.429845266345067],[99.79948314283287,2.448375210726182],[99.82754557356941,2.4642441250277414],[99.83567772734528,2.47236834857288]]]}},{"type":"Feature","properties":{"code":"1223042003","desa":"Perk. Padang Halaban","kecamatan":"Aek Kuo","kecCode":"122304","kabCode":"1223","province":"Sumatera Utara"},"geometry":{"type":"Polygon","coordinates":[[[99.86724568304192,2.3261910891603557],[99.86718657060378,2.306864871550706],[99.84279183777318,2.3067217408499516],[99.84093585830327,2.309648476527071],[99.83505542256977,2.3096708354717523],[99.83492868291243,2.3204106814270604],[99.86176229439444,2.3221922896596916],[99.86375718764413,2.3261357161034],[99.86724568304192,2.3261910891603557]]]}},{"type":"Feature","properties":{"code":"1223042004","desa":"Perkebunan Panigoran","kecamatan":"Aek Kuo","kecCode":"122304","kabCode":"1223","province":"Sumatera Utara"},"geometry":{"type":"Polygon","coordinates":[[[99.81934695539773,2.308402600731904],[99.81395277140335,2.3085063357311415],[99.8124537103705,2.3125752140027527],[99.79112041277686,2.312860462767684],[99.7865554297893,2.3318631978350006],[99.81827931623752,2.333821309710165],[99.81934695539773,2.308402600731904]]]}},{"type":"Feature","properties":{"code":"1223042005","desa":"Sidomulyo","kecamatan":"Aek Kuo","kecCode":"122304","kabCode":"1223","province":"Sumatera Utara"},"geometry":{"type":"Polygon","coordinates":[[[99.81827931623752,2.333821309710165],[99.83551345538172,2.3346550576883214],[99.83790253227606,2.3212466947974235],[99.83492868291243,2.3204106814270604],[99.83505542256977,2.3096708354717523],[99.81934695539773,2.308402600731904],[99.81827931623752,2.333821309710165]]]}},{"type":"Feature","properties":{"code":"1223042006","desa":"Karang Anyar","kecamatan":"Aek Kuo","kecCode":"122304","kabCode":"1223","province":"Sumatera Utara"},"geometry":{"type":"Polygon","coordinates":[[[99.83551345538172,2.3346550576883214],[99.84153267809067,2.335639635463321],[99.86243095472486,2.349944674593841],[99.90023318621262,2.3518874026661702],[99.90104785057792,2.3352842710551585],[99.88974824498557,2.3374727082993267],[99.88753534707865,2.3411846672350314],[99.88521537229167,2.341077592153704],[99.88510829631086,2.344825243382702],[99.87697053975864,2.335259809495562],[99.87686346377791,2.3307626282006266],[99.86723822676282,2.323517635846056],[99.86724568304192,2.3261910891603557],[99.86375718764413,2.3261357161034],[99.86176229439444,2.3221922896596916],[99.83790253227606,2.3212466947974235],[99.83551345538172,2.3346550576883214]]]}},{"type":"Feature","properties":{"code":"1223042007","desa":"Padang Maninjau","kecamatan":"Aek Kuo","kecCode":"122304","kabCode":"1223","province":"Sumatera Utara"},"geometry":{"type":"Polygon","coordinates":[[[99.7865554297893,2.3318631978350006],[99.7922504738803,2.3125138055955583],[99.78507083165363,2.315684690120786],[99.78128142489788,2.312836859161294],[99.76701509796844,2.3113164293390085],[99.75943091730306,2.3058252687563905],[99.74782975284084,2.3044328133604304],[99.74500873966167,2.3077236971241164],[99.74830873176262,2.3166831543274427],[99.75438819735747,2.3220221496199382],[99.7865554297893,2.3318631978350006]]]}},{"type":"Feature","properties":{"code":"1223042008","desa":"Purworejo","kecamatan":"Aek Kuo","kecCode":"122304","kabCode":"1223","province":"Sumatera Utara"},"geometry":{"type":"Polygon","coordinates":[[[99.81473811427263,2.3645810509454432],[99.82259033607524,2.3570857484874677],[99.82223879108739,2.3340128626077776],[99.78708213303406,2.3323120413737928],[99.77207362439832,2.334105088982864],[99.77090267202078,2.348095147761725],[99.76430400082903,2.350944099276461],[99.77571495328253,2.3618446702690106],[99.79058658600218,2.3614877509330636],[99.79570242622606,2.364818996270114],[99.81473811427263,2.3645810509454432]]]}},{"type":"Feature","properties":{"code":"1223051001","desa":"Marbau","kecamatan":"Marbau","kecCode":"122305","kabCode":"1223","province":"Sumatera Utara"},"geometry":{"type":"Polygon","coordinates":[[[99.85132091632727,2.265883051041137],[99.85749837834754,2.2598472142633046],[99.85656562940032,2.255316720281221],[99.8604425806606,2.2532832092457764],[99.87824727758984,2.2566301837253184],[99.85500142057913,2.22988306007396],[99.85345477192025,2.233809170071605],[99.8467922803395,2.234047116295548],[99.8432534184106,2.239101177585942],[99.8410622562182,2.237269759502451],[99.83949181239727,2.240196496078888],[99.83563708608273,2.237698062525729],[99.83349557096386,2.241053103924092],[99.80979059655886,2.2211211092801593],[99.80856881270063,2.2381535862286634],[99.81303030260642,2.24023561478918],[99.81868152183483,2.2475227134018976],[99.81951061672162,2.2605438731862266],[99.82644499494062,2.2620078444698906],[99.82949007420761,2.2662736778666495],[99.83451825841098,2.26422169475641],[99.83953297166937,2.265958702910922],[99.84469640221725,2.2635078578831296],[99.84517229466569,2.2608190657320533],[99.8462430517755,2.263769597470445],[99.85132091632727,2.265883051041137]]]}},{"type":"Feature","properties":{"code":"1223052002","desa":"Perkebunan Pernantian","kecamatan":"Marbau","kecCode":"122305","kabCode":"1223","province":"Sumatera Utara"},"geometry":{"type":"Polygon","coordinates":[[[99.80856881270063,2.2381535862286634],[99.80979059655886,2.2211211092801593],[99.80289122355117,2.2158442409532175],[99.80289122355117,2.213345805601411],[99.80931576980697,2.2101335333763745],[99.80945503522173,2.1877246025735344],[99.79405870024885,2.1877326416132976],[99.78827487418613,2.185406136851467],[99.78244470515908,2.1906329228330836],[99.77748325424886,2.1879620406805365],[99.75530460202582,2.1881228025899615],[99.75517333608065,2.197457756424797],[99.76951156290835,2.197292974545746],[99.77168272058117,2.2503416941101517],[99.77562882341151,2.2503328888480163],[99.77555799100854,2.244994698448708],[99.80239831143297,2.245089876398682],[99.80856881270063,2.2381535862286634]]]}},{"type":"Feature","properties":{"code":"1223052003","desa":"Perk. Marbau Selatan","kecamatan":"Marbau","kecCode":"122305","kabCode":"1223","province":"Sumatera Utara"},"geometry":{"type":"Polygon","coordinates":[[[99.80289122355117,2.2158442409532175],[99.83349557096386,2.241053103924092],[99.83563708608273,2.237698062525729],[99.826804807396,2.228812302965335],[99.82882734940272,2.2252431105050396],[99.83834519387567,2.231667655854454],[99.84108157365573,2.2277415449574636],[99.8432230887746,2.228931274278692],[99.84667330722743,2.226789760960915],[99.84667330722743,2.21667705093843],[99.83989184343386,2.216558077826464],[99.8383013276442,2.2125022613082095],[99.84272163489561,2.211265426397575],[99.8401678606583,2.2019243922464504],[99.82779466329316,2.203637604339612],[99.83001708142325,2.2121560744815127],[99.8204992369503,2.212394020705527],[99.81979967501508,2.204399031536912],[99.80943474291911,2.2044228266989],[99.80931576980697,2.2101335333763745],[99.80610349757843,2.2103714796003584],[99.80289122355117,2.2158442409532175]]]}},{"type":"Feature","properties":{"code":"1223052004","desa":"Perkebunan Milano","kecamatan":"Marbau","kecCode":"122305","kabCode":"1223","province":"Sumatera Utara"},"geometry":{"type":"Polygon","coordinates":[[[99.88110014205797,2.1940497341661427],[99.86234371059385,2.189538297717459],[99.86416457693372,2.1809814669937335],[99.85773915743624,2.1809311067578565],[99.86501778084595,2.1990233519988482],[99.88129446486772,2.221316999608026],[99.88110014205797,2.1940497341661427]]]}},{"type":"Feature","properties":{"code":"1223052005","desa":"Perkebunan Brussel","kecamatan":"Marbau","kecCode":"122305","kabCode":"1223","province":"Sumatera Utara"},"geometry":{"type":"Polygon","coordinates":[[[99.81395277140335,2.3085063357311415],[99.84093585830327,2.309648476527071],[99.84279183777318,2.3067217408499516],[99.86718657060378,2.306864871550706],[99.86724125208217,2.298931385218125],[99.87198632520881,2.29802856840755],[99.87200969139423,2.2788800640286224],[99.86647744437863,2.2790228323025605],[99.8661205259416,2.273454893899056],[99.83474431020181,2.2732058410478677],[99.83328688957833,2.269696136042803],[99.82802233386364,2.2700233138994537],[99.82296597839724,2.274276599055754],[99.82058651795346,2.280159816385874],[99.81937299256958,2.275091564693007],[99.7884209636566,2.2860442235191476],[99.78851666141486,2.31255485964689],[99.8124537103705,2.3125752140027527],[99.81395277140335,2.3085063357311415]]]}},{"type":"Feature","properties":{"code":"1223052006","desa":"Pulo Bargot","kecamatan":"Marbau","kecCode":"122305","kabCode":"1223","province":"Sumatera Utara"},"geometry":{"type":"Polygon","coordinates":[[[99.8944772490259,2.195071691362583],[99.8838253090908,2.192562243812337],[99.88280074026204,2.196193651371765],[99.88110014205797,2.1940497341661427],[99.88129446486772,2.221316999608026],[99.86501778084595,2.1990233519988482],[99.85773915743624,2.1809311067578565],[99.85928445081679,2.2284553827300773],[99.85500142057913,2.22988306007396],[99.87862799298756,2.2566301837253184],[99.88256243071169,2.265188707872508],[99.9001115277249,2.2676590834771027],[99.90090746190992,2.2656334100333027],[99.90594002131502,2.2653478752839744],[99.89908717383406,2.263389579047781],[99.89269832167025,2.255465973566462],[99.89426876459186,2.2536099958972624],[99.8944772490259,2.195071691362583]]]}},{"type":"Feature","properties":{"code":"1223052007","desa":"Sipare Pare Tengah","kecamatan":"Marbau","kecCode":"122305","kabCode":"1223","province":"Sumatera Utara"},"geometry":{"type":"Polygon","coordinates":[[[99.89481009261173,2.2258496150909077],[99.89269832167025,2.255465973566462],[99.89908717383406,2.263389579047781],[99.90594002131502,2.2653478752839744],[99.90701077932407,2.2527010403144194],[99.9048692642052,2.2526058614651054],[99.91112730278284,2.2331159915249907],[99.89481009261173,2.2258496150909077]]]}},{"type":"Feature","properties":{"code":"1223052008","desa":"Sipare Pare Hilir","kecamatan":"Marbau","kecCode":"122305","kabCode":"1223","province":"Sumatera Utara"},"geometry":{"type":"Polygon","coordinates":[[[99.96292904134226,2.197265057790862],[99.96151152363795,2.208232517659149],[99.9464651346583,2.208603528472276],[99.9398502334016,2.2035590719413545],[99.93737559410846,2.2061288891818265],[99.93366363516866,2.1964365519609057],[99.92787493567981,2.189836581256091],[99.93165723689201,2.2089570294851364],[99.91880814707837,2.2091949757091336],[99.9048692642052,2.2526058614651054],[99.90701077932407,2.2527010403144194],[99.90594002131502,2.2653478752839744],[99.91981227971297,2.270649314887915],[99.93183916614464,2.266589169033317],[99.94484371366649,2.265640934660853],[99.95050683092556,2.2676872709280302],[99.96097645939612,2.2589784430874382],[99.97173162261633,2.2584549612147984],[99.97954735892351,2.2524923499359293],[99.98398505366735,2.252171122893296],[99.9852580656073,2.256192411740233],[99.98911279192184,2.2561091309215673],[99.99144466384023,2.258976381841309],[99.99827876675177,2.2580420078202104],[99.9928336919214,2.234374057630487],[99.99313112380234,2.2189373044438927],[99.98985936501775,2.1984739408730287],[99.96292904134226,2.197265057790862]]]}},{"type":"Feature","properties":{"code":"1223052009","desa":"Tubiran","kecamatan":"Marbau","kecCode":"122305","kabCode":"1223","province":"Sumatera Utara"},"geometry":{"type":"Polygon","coordinates":[[[99.90594002131502,2.2653478752839744],[99.89476131338398,2.2677368550489403],[99.88345472905257,2.265426653197182],[99.88732135159917,2.2706317250479944],[99.89930788724928,2.277680878336061],[99.90813687801455,2.278429218598934],[99.91018321967988,2.284118967475491],[99.91482316835457,2.282976825780258],[99.91963394055396,2.2770315408398627],[99.91729956941963,2.272762276529469],[99.91981227971297,2.270649314887915],[99.90594002131502,2.2653478752839744]]]}},{"type":"Feature","properties":{"code":"1223052010","desa":"Belongkut","kecamatan":"Marbau","kecCode":"122305","kabCode":"1223","province":"Sumatera Utara"},"geometry":{"type":"Polygon","coordinates":[[[99.98571500124638,2.3003868947806088],[99.98678093798998,2.2745915092603837],[100.020454875692,2.276790199675122],[100.0236671479206,2.2642385426555816],[100.02244059495756,2.253725720658041],[100.01895238464488,2.252878258917988],[100.017850300551,2.255473133069239],[100.01494302979705,2.253780162916706],[100.00747146583551,2.2596737260476254],[100.00461902404878,2.257879322260896],[100.00575480573973,2.259950245093444],[100.00270082408383,2.262290803560888],[99.99752594336763,2.255348576066735],[99.99827876675177,2.2580420078202104],[99.99144466384023,2.258976381841309],[99.98911279192184,2.2561091309215673],[99.9852580656073,2.256192411740233],[99.98398505366735,2.252171122893296],[99.97954735892351,2.2524923499359293],[99.97173162261633,2.2584549612147984],[99.95969155032486,2.2596922817593583],[99.95364771856742,2.266973432256042],[99.93183916614464,2.266589169033317],[99.9215456177361,2.2696586738837254],[99.91729956941963,2.272762276529469],[99.91889204663073,2.278051341462042],[99.91482316835457,2.282976825780258],[99.91018321967988,2.284118967475491],[99.90779423541566,2.2782198258498805],[99.90088428098483,2.2784542026647046],[99.88732135159917,2.2706317250479944],[99.87862799298756,2.2566301837253184],[99.86214151601821,2.2527977992726],[99.85683212999885,2.2550311855319136],[99.85749837834754,2.2598472142633046],[99.85155924386406,2.2637304940485787],[99.85132437332122,2.273600668606656],[99.87308059059683,2.2735270698891354],[99.87431791204203,2.2709096614253794],[99.89519054360873,2.284063322823307],[99.89331076987615,2.2858479177044595],[99.90415635273352,2.285471963318062],[99.89958778774626,2.2883749056318314],[99.89968224623874,2.2985056164843267],[99.98571500124638,2.3003868947806088]]]}},{"type":"Feature","properties":{"code":"1223052011","desa":"Simpang Empat","kecamatan":"Marbau","kecCode":"122305","kabCode":"1223","province":"Sumatera Utara"},"geometry":{"type":"Polygon","coordinates":[[[99.85132091632727,2.265883051041137],[99.8462430517755,2.263769597470445],[99.84517229466569,2.2608190657320533],[99.84469640221725,2.2635078578831296],[99.83953297166937,2.265958702910922],[99.83451825841098,2.26422169475641],[99.82961061933469,2.2655006557103223],[99.82950949686585,2.270112542834129],[99.83328688957833,2.269696136042803],[99.83474431020181,2.2732058410478677],[99.85132437332122,2.273600668606656],[99.85132091632727,2.265883051041137]]]}},{"type":"Feature","properties":{"code":"1223052012","desa":"Babussalam","kecamatan":"Marbau","kecCode":"122305","kabCode":"1223","province":"Sumatera Utara"},"geometry":{"type":"Polygon","coordinates":[[[99.826804807396,2.228812302965335],[99.83949181239727,2.240196496078888],[99.8410622562182,2.237269759502451],[99.8432534184106,2.239101177585942],[99.8467922803395,2.234047116295548],[99.85345477192025,2.233809170071605],[99.85500142057913,2.22988306007396],[99.85928445081679,2.2284553827300773],[99.85811819379967,2.2165594465946383],[99.84667330722743,2.21667705093843],[99.84667330722743,2.226789760960915],[99.8432230887746,2.228931274278692],[99.84108157365573,2.2277415449574636],[99.83834519387567,2.231667655854454],[99.82882734940272,2.2252431105050396],[99.826804807396,2.228812302965335]]]}},{"type":"Feature","properties":{"code":"1223052013","desa":"Marbau Selatan","kecamatan":"Marbau","kecCode":"122305","kabCode":"1223","province":"Sumatera Utara"},"geometry":{"type":"Polygon","coordinates":[[[99.80945503522173,2.1877246025735344],[99.80943474291911,2.2044228266989],[99.81979967501508,2.204399031536912],[99.8204992369503,2.212394020705527],[99.83001708142325,2.2121560744815127],[99.82779466329316,2.203637604339612],[99.8401678606583,2.2019243922464504],[99.84272163489561,2.211265426397575],[99.8383013276442,2.2125022613082095],[99.83989184343386,2.216558077826464],[99.85811819379967,2.2165594465946383],[99.85773915743624,2.1809311067578565],[99.81287834326098,2.180979002851321],[99.81282320222908,2.1877952650045787],[99.80945503522173,2.1877246025735344]]]}},{"type":"Feature","properties":{"code":"1223052014","desa":"Aek Tapa","kecamatan":"Marbau","kecCode":"122305","kabCode":"1223","province":"Sumatera Utara"},"geometry":{"type":"Polygon","coordinates":[[[99.82949007420761,2.2662736778666495],[99.82644499494062,2.2620078444698906],[99.81951061672162,2.2605438731862266],[99.81868152183483,2.2475227134018976],[99.81303030260642,2.24023561478918],[99.80856881270063,2.2381535862286634],[99.80239831143297,2.245089876398682],[99.77555799100854,2.244994698448708],[99.77562882341151,2.2503328888480163],[99.77168272058117,2.2503416941101517],[99.77163657996425,2.2561965369304944],[99.77973670438546,2.2577315150854878],[99.7804069619118,2.2608349432627746],[99.77451190859777,2.263935651890124],[99.77902080986256,2.2650619942956753],[99.78605079680688,2.2785009413306367],[99.79664278073976,2.2748298062199193],[99.79666657590182,2.2728310593774075],[99.79816563693464,2.274758422532594],[99.80152067743741,2.275210520717881],[99.80256763938513,2.273021416176704],[99.80706919228946,2.2743106096168626],[99.80931778159038,2.2683143672906847],[99.81363650502071,2.2695635840673285],[99.81534971621649,2.2676362218114114],[99.81859768073843,2.2714552567277444],[99.81913305974297,2.2689211308813153],[99.82023950824676,2.270705726661828],[99.82652128532914,2.270384498719867],[99.82637851885363,2.2666725397842016],[99.82949007420761,2.2662736778666495]]]}},{"type":"Feature","properties":{"code":"1223052015","desa":"Lobu Rampah","kecamatan":"Marbau","kecCode":"122305","kabCode":"1223","province":"Sumatera Utara"},"geometry":{"type":"Polygon","coordinates":[[[99.7884209636566,2.2860442235191476],[99.81937299256958,2.275091564693007],[99.82058651795346,2.280159816385874],[99.82359058723584,2.2734735305498566],[99.82950949686585,2.270112542834129],[99.82949007420761,2.2662736778666495],[99.82637851885363,2.2666725397842016],[99.82652128532914,2.270384498719867],[99.82023950824676,2.270705726661828],[99.81913305974297,2.2689211308813153],[99.81859768073843,2.2714552567277444],[99.81534971621649,2.2676362218114114],[99.81363650502071,2.2695635840673285],[99.80931778159038,2.2683143672906847],[99.80706919228946,2.2743106096168626],[99.80256763938513,2.273021416176704],[99.80152067743741,2.275210520717881],[99.79816563693464,2.274758422532594],[99.79666657590182,2.2728310593774075],[99.79664278073976,2.2748298062199193],[99.78605079680688,2.2785009413306367],[99.7884209636566,2.2860442235191476]]]}},{"type":"Feature","properties":{"code":"1223052016","desa":"Bulungihit","kecamatan":"Marbau","kecCode":"122305","kabCode":"1223","province":"Sumatera Utara"},"geometry":{"type":"Polygon","coordinates":[[[99.8661205259416,2.273454893899056],[99.86647744437863,2.2790228323025605],[99.87200969139423,2.2788800640286224],[99.87198632520881,2.29802856840755],[99.89968224623874,2.2985056164843267],[99.89958778774626,2.2883749056318314],[99.90415635273352,2.285471963318062],[99.89331076987615,2.2858479177044595],[99.89519054360873,2.284063322823307],[99.87431791204203,2.2709096614253794],[99.87308059059683,2.2735270698891354],[99.8661205259416,2.273454893899056]]]}},{"type":"Feature","properties":{"code":"1223052017","desa":"Aek Hitetoras","kecamatan":"Marbau","kecCode":"122305","kabCode":"1223","province":"Sumatera Utara"},"geometry":{"type":"Polygon","coordinates":[[[99.90104785057792,2.3352842710551585],[99.93476486400732,2.3363495431985886],[99.93495615520247,2.318150777757915],[99.9547343262282,2.3201432788088314],[99.9553103276096,2.306404879116505],[99.95156267637645,2.306404879116505],[99.95096372969243,2.299717516791904],[99.94770003692724,2.2993326986874814],[99.86724125208217,2.298931385218125],[99.86723822676282,2.323517635846056],[99.87686346377791,2.3307626282006266],[99.87697053975864,2.335259809495562],[99.88510829631086,2.344825243382702],[99.88521537229167,2.341077592153704],[99.88753534707865,2.3411846672350314],[99.88974824498557,2.3374727082993267],[99.90104785057792,2.3352842710551585]]]}},{"type":"Feature","properties":{"code":"1223052018","desa":"Sumber Mulyo","kecamatan":"Marbau","kecCode":"122305","kabCode":"1223","province":"Sumatera Utara"},"geometry":{"type":"Polygon","coordinates":[[[99.92787493567981,2.189836581256091],[99.91438339537744,2.1883784177941834],[99.90975772344022,2.1923402191858345],[99.90204826901248,2.191519305432556],[99.8944772490259,2.195071691362583],[99.89481009261173,2.2258496150909077],[99.91112730278284,2.2331159915249907],[99.91880814707837,2.2091949757091336],[99.93165723689201,2.2089570294851364],[99.92787493567981,2.189836581256091]]]}},{"type":"Feature","properties":{"code":"1223071001","desa":"Bandar Durian","kecamatan":"Aek Natas","kecCode":"122307","kabCode":"1223","province":"Sumatera Utara"},"geometry":{"type":"Polygon","coordinates":[[[99.72178559682787,2.3898109274753114],[99.72157739388166,2.3796089885182217],[99.71536105237071,2.3794602712289397],[99.7155395111396,2.3705075490483845],[99.71791897158334,2.3704778066697187],[99.71357645568895,2.366551695772705],[99.71383050877101,2.354938151255979],[99.73587967120993,2.3528758781028483],[99.71336888766409,2.339907353839082],[99.70622248707814,2.330530267665825],[99.6992195967071,2.331080138345238],[99.69799179638436,2.333107438662634],[99.69092479604255,2.3312942894071815],[99.68301335028593,2.3358734241215044],[99.67577978920598,2.343963591240102],[99.67951554330773,2.346890328715855],[99.67739782155229,2.356646118502986],[99.67147636684092,2.355801548083358],[99.66142314426274,2.369542936222815],[99.6559503838032,2.371565477327932],[99.65315451656771,2.376205425997537],[99.65398732925189,2.382213565455074],[99.65000173089521,2.385068919243431],[99.64643254022961,2.3960144392511644],[99.64054337387768,2.400951821600108],[99.63796432059694,2.4116690487066648],[99.68036585769822,2.423168191365406],[99.67455184589103,2.4073054688960975],[99.67778791238231,2.3997863721753876],[99.70500894640581,2.38893603011768],[99.72178559682787,2.3898109274753114]]]}},{"type":"Feature","properties":{"code":"1223072002","desa":"Poldung","kecamatan":"Aek Natas","kecCode":"122307","kabCode":"1223","province":"Sumatera Utara"},"geometry":{"type":"Polygon","coordinates":[[[99.39460694125738,2.170900553401517],[99.40303039623585,2.179632184451815],[99.42749786443493,2.2180089927526776],[99.46203613336093,2.2281320072070687],[99.47285461424912,2.2344779940779143],[99.4815063477398,2.2430453270844803],[99.49533081076834,2.2433626627605947],[99.50174713092541,2.247343060333575],[99.52169028527851,2.2421936852955944],[99.51533680524943,2.2106323459459785],[99.52056735669822,2.192924139996543],[99.53144025556338,2.1803940361291194],[99.5348408476271,2.153333461872845],[99.54622103697135,2.1422163053535277],[99.55148331380393,2.133046039868283],[99.55101369592539,2.1080426054348917],[99.54710910040473,2.1001930618219555],[99.5430581833885,2.0973144947328883],[99.54202874563013,2.087655407246708],[99.53480552675369,2.0940010982405424],[99.52082807735393,2.0915548145741996],[99.51598825435451,2.1018911922844397],[99.51164149995532,2.123155108957397],[99.49505877664133,2.116887104999109],[99.48906253520788,2.1118616835186463],[99.47819077758237,2.11553081224189],[99.47432653284329,2.11959255259444],[99.46185429943642,2.1221337830850633],[99.45732941631957,2.126068317931597],[99.45052333268569,2.122379164903696],[99.44420949477244,2.12249607137359],[99.43863828283052,2.1179167433051247],[99.43145084797827,2.1175557167653634],[99.42283638868842,2.1122766648844564],[99.41452027768872,2.112674164329049],[99.38755805595956,2.1357236084802143],[99.39481406141988,2.1493491819266164],[99.39460694125738,2.170900553401517]]]}},{"type":"Feature","properties":{"code":"1223072003","desa":"Rombisan","kecamatan":"Aek Natas","kecCode":"122307","kabCode":"1223","province":"Sumatera Utara"},"geometry":{"type":"Polygon","coordinates":[[[99.52169028527851,2.2421936852955944],[99.53823852498799,2.2498652917466044],[99.53570556555944,2.2564852211055872],[99.541992188189,2.260148284800979],[99.54349517835986,2.2664537401265465],[99.54758453419896,2.2681360218366713],[99.54631404036074,2.2872215323036147],[99.62274621956242,2.2964815195520205],[99.63052874930241,2.2756493404131746],[99.62199209396003,2.260853627577553],[99.61642903257386,2.2388385566629583],[99.6059831758829,2.2279704206193407],[99.59388742656353,2.2234451481009687],[99.59162136343525,2.2141327483637516],[99.5802599195597,2.1995297278668584],[99.58030240263382,2.2162410946845417],[99.57730763863667,2.219827593698329],[99.57681445222522,2.2299713582102605],[99.57015942142021,2.2327209823031366],[99.55992730839866,2.2436476965875705],[99.5492554889497,2.2385788594360094],[99.54602304402833,2.239391787209517],[99.54293320730176,2.2343707544206493],[99.54688859473293,2.2053026199657593],[99.54112750443085,2.1858051804320304],[99.53144025556338,2.1803940361291194],[99.52056735669822,2.192924139996543],[99.51533680524943,2.2106323459459785],[99.52169028527851,2.2421936852955944]]]}},{"type":"Feature","properties":{"code":"1223072004","desa":"Sibito","kecamatan":"Aek Natas","kecCode":"122307","kabCode":"1223","province":"Sumatera Utara"},"geometry":{"type":"Polygon","coordinates":[[[99.54631404036074,2.2872215323036147],[99.54490661574776,2.2919018245601106],[99.54665374757246,2.2993390532970728],[99.55185699470461,2.3087148642316504],[99.55725306098003,2.30997458958636],[99.56205005376705,2.3016940656684013],[99.56470489471519,2.3065562224261833],[99.57551574665445,2.306824681747834],[99.58264923117713,2.310202834823458],[99.58227690105821,2.313655853761286],[99.5864562988192,2.314833161646434],[99.58281227916342,2.3188311814348546],[99.58490753225686,2.325015065507054],[99.58045678295422,2.3323873775814516],[99.58188446029965,2.337443732143018],[99.57743784158315,2.3363194374937675],[99.5750107917147,2.3403526234721443],[99.57030654690963,2.3420472007131994],[99.57437274430674,2.3712284545929325],[99.60244093789902,2.343844867240335],[99.63463467065363,2.297921443863474],[99.54631404036074,2.2872215323036147]]]}},{"type":"Feature","properties":{"code":"1223072005","desa":"Simonis","kecamatan":"Aek Natas","kecCode":"122307","kabCode":"1223","province":"Sumatera Utara"},"geometry":{"type":"Polygon","coordinates":[[[99.63052874930241,2.2756493404131746],[99.62274621956242,2.2964815195520205],[99.64133707864335,2.29681917540978],[99.65273563664039,2.302770500197085],[99.66264014282835,2.2977438898128293],[99.67749049489049,2.3033746683442087],[99.67801127969686,2.292464433236954],[99.66453683640594,2.2870056158723866],[99.64048176042496,2.2837900008672936],[99.63052874930241,2.2756493404131746]]]}},{"type":"Feature","properties":{"code":"1223072006","desa":"Perk. Aek Pamienke","kecamatan":"Aek Natas","kecCode":"122307","kabCode":"1223","province":"Sumatera Utara"},"geometry":{"type":"Polygon","coordinates":[[[99.75959829192773,2.367070111764263],[99.77571495328253,2.3618446702690106],[99.76430400082903,2.350944099276461],[99.77090267202078,2.348095147761725],[99.77207362439832,2.334105088982864],[99.78715858889778,2.332199817673721],[99.75438819735747,2.3220221496199382],[99.74830873176262,2.3166831543274427],[99.74198545366579,2.3261410832573386],[99.7235603387387,2.327887015384443],[99.71893649242526,2.3330398555102705],[99.71869888074882,2.34276270672822],[99.73587967120993,2.3528758781028483],[99.74764819860552,2.352304808604239],[99.75959829192773,2.367070111764263]]]}},{"type":"Feature","properties":{"code":"1223072007","desa":"Pangkalan","kecamatan":"Aek Natas","kecCode":"122307","kabCode":"1223","province":"Sumatera Utara"},"geometry":{"type":"Polygon","coordinates":[[[99.76723571785413,2.4058265616719416],[99.75513085390583,2.387958214345193],[99.75276775392877,2.3772695685925322],[99.75959829192773,2.367070111764263],[99.74898069620222,2.353351771450169],[99.71383050877101,2.354938151255979],[99.71357645568895,2.366551695772705],[99.71791897158334,2.3704778066697187],[99.7155395111396,2.3705075490483845],[99.71536105237071,2.3794602712289397],[99.72157739388166,2.3796089885182217],[99.72178559682787,2.3898109274753114],[99.72461120734141,2.389870413132041],[99.72388171776714,2.401937027101862],[99.73283875940126,2.4140966813331306],[99.7344340308059,2.410500234918234],[99.73769389155989,2.411559094895483],[99.73558806873444,2.413343691575291],[99.73640898338795,2.4159492011090826],[99.74022801740914,2.4153424384178193],[99.73922864488611,2.4182334836002286],[99.74126308402418,2.4171270341983107],[99.74140585139901,2.4195540840641274],[99.74326183086885,2.4193399330021617],[99.74126308402418,2.4215885231999663],[99.74319044628214,2.4201965390487348],[99.74361874930588,2.424015574864398],[99.74772332077468,2.426656774892838],[99.74925807230227,2.425300483034944],[99.74854355644004,2.4283926723845735],[99.75415427559936,2.432690842704193],[99.75242357258988,2.4220306901718707],[99.75399401641079,2.413892933628549],[99.75977610678194,2.408146535557066],[99.76723571785413,2.4058265616719416]]]}},{"type":"Feature","properties":{"code":"1223072008","desa":"Adian Torop","kecamatan":"Aek Natas","kecCode":"122307","kabCode":"1223","province":"Sumatera Utara"},"geometry":{"type":"Polygon","coordinates":[[[99.75415427559936,2.432690842704193],[99.74854355644004,2.4283926723845735],[99.74925807230227,2.425300483034944],[99.74772332077468,2.426656774892838],[99.74361874930588,2.424015574864398],[99.74319044628214,2.4201965390487348],[99.74126308402418,2.4215885231999663],[99.74297629521992,2.418554711542173],[99.73922864488611,2.4182334836002286],[99.74022801740914,2.4153424384178193],[99.73640898338795,2.4159492011090826],[99.73558806873444,2.413343691575291],[99.73769389155989,2.411559094895483],[99.7344340308059,2.410500234918234],[99.7313784222764,2.436957211197661],[99.74920952869684,2.4585461500524275],[99.7560918262768,2.4439883456692235],[99.75415427559936,2.432690842704193]]]}},{"type":"Feature","properties":{"code":"1223072009","desa":"Ujung Padang","kecamatan":"Aek Natas","kecCode":"122307","kabCode":"1223","province":"Sumatera Utara"},"geometry":{"type":"Polygon","coordinates":[[[99.83460285403855,2.483276396529017],[99.83567772734528,2.47236834857288],[99.82754557356941,2.4642441250277414],[99.79948314283287,2.448375210726182],[99.78883636770426,2.429845266345067],[99.78231347158948,2.4113874332028207],[99.77680115085245,2.4064690157572444],[99.76723571785413,2.4058265616719416],[99.7555644602317,2.4113944991761556],[99.75242357258988,2.4220306901718707],[99.7560918262768,2.4439883456692235],[99.74920952869684,2.4585461500524275],[99.76104188097808,2.4707414525103197],[99.76241795072791,2.4866790948011377],[99.77539490255275,2.4862593443305143],[99.79357928155865,2.4819304306868526],[99.79946619331025,2.4790512034954357],[99.80204529785225,2.4738553038300726],[99.81506099157156,2.482537817507637],[99.82250866234493,2.4808350420467695],[99.83460285403855,2.483276396529017]]]}},{"type":"Feature","properties":{"code":"1223072010","desa":"Kampung Yaman","kecamatan":"Aek Natas","kecCode":"122307","kabCode":"1223","province":"Sumatera Utara"},"geometry":{"type":"Polygon","coordinates":[[[99.70202874962717,2.3303369520969657],[99.70622248707814,2.330530267665825],[99.71336888766409,2.339907353839082],[99.71869888074882,2.34276270672822],[99.71893649242526,2.3330398555102705],[99.7235603387387,2.327887015384443],[99.7326844618185,2.3271476413623757],[99.73072656487913,2.324527281323678],[99.7328252767652,2.3187534377420325],[99.73021261402096,2.321080605304197],[99.72406265057093,2.3208116378655834],[99.69650383658283,2.311160622693978],[99.68985599226028,2.3048186566920332],[99.68678304570106,2.2969329504403286],[99.67801127969686,2.292464433236954],[99.67749049489049,2.3033746683442087],[99.68992317881174,2.310721254412208],[99.68900113809212,2.3151827443131885],[99.69251084220167,2.316372474533768],[99.69444415437431,2.3231241968404452],[99.70202874962717,2.3303369520969657]]]}},{"type":"Feature","properties":{"code":"1223072011","desa":"Terang Bulan","kecamatan":"Aek Natas","kecCode":"122307","kabCode":"1223","province":"Sumatera Utara"},"geometry":{"type":"Polygon","coordinates":[[[99.72461120734141,2.389870413132041],[99.70500894640581,2.38893603011768],[99.69073217924671,2.393599775747929],[99.67778791238231,2.3997863721753876],[99.67455184589103,2.4073054688960975],[99.68036585769822,2.423168191365406],[99.70569461741275,2.4325742635874996],[99.71184642357366,2.4410899620188697],[99.71335397600524,2.450295116702946],[99.7170415417338,2.4486443094657764],[99.72386667480724,2.438747676853127],[99.7313784222764,2.436957211197661],[99.731874250896,2.43343112234356],[99.73283875940126,2.4140966813331306],[99.72388171776714,2.401937027101862],[99.72461120734141,2.389870413132041]]]}},{"type":"Feature","properties":{"code":"1223072012","desa":"Perkebunan Halimbe","kecamatan":"Aek Natas","kecCode":"122307","kabCode":"1223","province":"Sumatera Utara"},"geometry":{"type":"Polygon","coordinates":[[[99.65389838810016,2.3792996334258865],[99.65315451656771,2.376205425997537],[99.6559503838032,2.371565477327932],[99.66142314426274,2.369542936222815],[99.67147636684092,2.355801548083358],[99.67739782155229,2.356646118502986],[99.67953933667108,2.347318631739159],[99.67575599404393,2.344510867375367],[99.67727884933947,2.3411558277756597],[99.68742698906435,2.3326934123768446],[99.69125316190394,2.3312371824573472],[99.69799179638436,2.333107438662634],[99.70202874962717,2.3303369520969657],[99.69444415437431,2.3231241968404452],[99.69251084220167,2.316372474533768],[99.68900113809212,2.3151827443131885],[99.68992317881174,2.310721254412208],[99.67462667757917,2.301610513254458],[99.6599037630483,2.2977438898128293],[99.65612636943642,2.3019971758684585],[99.65157564969654,2.302711014540385],[99.64133707864335,2.29681917540978],[99.63463467065363,2.297921443863474],[99.60244093789902,2.343844867240335],[99.5803733717338,2.366629333345533],[99.58426379124101,2.3673788643107594],[99.59924963696125,2.3574398556434284],[99.61469233918018,2.357868158666693],[99.61849947607004,2.3622225725869628],[99.61764287002251,2.3660059152099793],[99.62349634408103,2.369646490458337],[99.64143747985588,2.3696940789836547],[99.6430555140008,2.367100467480508],[99.64931349592113,2.365886942097973],[99.6515739841521,2.3772369717656594],[99.65389838810016,2.3792996334258865]]]}},{"type":"Feature","properties":{"code":"1223081001","desa":"Gunting Saga","kecamatan":"Kualuh Selatan","kecCode":"122308","kabCode":"1223","province":"Sumatera Utara"},"geometry":{"type":"Polygon","coordinates":[[[99.6575029922693,2.5340300003691243],[99.68846782842756,2.5244278372703013],[99.6940763586371,2.52616129040475],[99.70311000092585,2.5353944418833776],[99.71641639959721,2.526993701990409],[99.71756336255919,2.502947466371478],[99.70996176292509,2.5047741989870587],[99.6819146017775,2.501173850413776],[99.67809418729694,2.498916262498873],[99.65645032142525,2.512519984218406],[99.6575029922693,2.5340300003691243]]]}},{"type":"Feature","properties":{"code":"1223082002","desa":"Damuli Pekan","kecamatan":"Kualuh Selatan","kecCode":"122308","kabCode":"1223","province":"Sumatera Utara"},"geometry":{"type":"Polygon","coordinates":[[[99.65645032142525,2.512519984218406],[99.67809418729694,2.498916262498873],[99.6768185610278,2.4939458453533145],[99.68075991273986,2.4840453321660068],[99.68042925180855,2.4680573656120997],[99.67645423577443,2.464268463380255],[99.65748975155081,2.481421834392705],[99.65052916079217,2.484590766489744],[99.63460286792808,2.4864211044874662],[99.61410129034232,2.4941047771423914],[99.59429485991988,2.505645186991814],[99.60550240641099,2.515796511204959],[99.6114488937515,2.5141752071267573],[99.62861630589786,2.517588819571282],[99.65645032142525,2.512519984218406]]]}},{"type":"Feature","properties":{"code":"1223082003","desa":"Siamporik","kecamatan":"Kualuh Selatan","kecCode":"122308","kabCode":"1223","province":"Sumatera Utara"},"geometry":{"type":"Polygon","coordinates":[[[99.69790572676794,2.428181447716576],[99.63364044944721,2.410304789754768],[99.63749907342354,2.420199787399962],[99.63072422774098,2.4273702781176727],[99.63866262258205,2.4306296901063624],[99.64393754658056,2.436920398349037],[99.63973793205997,2.4485225772337613],[99.66520189764951,2.448556949322349],[99.67103054142642,2.4598823888273342],[99.68042925180855,2.4680573656120997],[99.68075991273986,2.4840453321660068],[99.6931212102757,2.450214573420581],[99.69843372593577,2.4419643620515004],[99.70715060901347,2.434483184345466],[99.69790572676794,2.428181447716576]]]}},{"type":"Feature","properties":{"code":"1223082004","desa":"Lobu Huala","kecamatan":"Kualuh Selatan","kecCode":"122308","kabCode":"1223","province":"Sumatera Utara"},"geometry":{"type":"Polygon","coordinates":[[[99.57030654690963,2.3420472007131994],[99.5608639837859,2.337787504290043],[99.56069703723851,2.3340153267502166],[99.52191162102457,2.3492093061521264],[99.52104186958667,2.3640160536692805],[99.51795959525919,2.367904422718031],[99.51880645805164,2.3743407707699316],[99.52419280985038,2.378370044697365],[99.52307315570164,2.3819451672873364],[99.58392822900464,2.4682975664364784],[99.59991794655603,2.4597248321016543],[99.620954634249,2.473292265277256],[99.63048723839539,2.4665866772921428],[99.64399603488913,2.4380857821232182],[99.63866262258205,2.4306296901063624],[99.63072422774098,2.4273702781176727],[99.63749907342354,2.420199787399962],[99.63364044944721,2.410304789754768],[99.63796432059694,2.4116690487066648],[99.64054337387768,2.400951821600108],[99.64643254022961,2.3960144392511644],[99.65000173089521,2.385068919243431],[99.65398732925189,2.382213565455074],[99.64986077205702,2.3663866288086077],[99.64733854423848,2.3651255140013876],[99.64143747985588,2.3696940789836547],[99.62349634408103,2.369646490458337],[99.61764287002251,2.3660059152099793],[99.61849947607004,2.3622225725869628],[99.61495407876775,2.357963336616718],[99.6038419962112,2.356749811234153],[99.58935107888924,2.362246365950279],[99.58406153731016,2.3674621451294584],[99.58033847983705,2.3656784100001698],[99.57437274430674,2.3712284545929325],[99.57030654690963,2.3420472007131994]]]}},{"type":"Feature","properties":{"code":"1223082005","desa":"Gunung Melayu","kecamatan":"Kualuh Selatan","kecCode":"122308","kabCode":"1223","province":"Sumatera Utara"},"geometry":{"type":"Polygon","coordinates":[[[99.63463910790858,2.4864169388277153],[99.65052916079217,2.484590766489744],[99.65748975155081,2.481421834392705],[99.67645423577443,2.464268463380255],[99.67103054142642,2.4598823888273342],[99.66520189764951,2.448556949322349],[99.63973793205997,2.4485225772337613],[99.63048723839539,2.4665866772921428],[99.63621980669875,2.473230817299898],[99.63463910790858,2.4864169388277153]]]}},{"type":"Feature","properties":{"code":"1223082006","desa":"Damuli Kebun","kecamatan":"Kualuh Selatan","kecCode":"122308","kabCode":"1223","province":"Sumatera Utara"},"geometry":{"type":"Polygon","coordinates":[[[99.59429485991988,2.505645186991814],[99.61410129034232,2.4941047771423914],[99.63463910790858,2.4864169388277153],[99.63621980669875,2.473230817299898],[99.63048723839539,2.4665866772921428],[99.620954634249,2.473292265277256],[99.59991794655603,2.4597248321016543],[99.58392822900464,2.4682975664364784],[99.57436137957403,2.482837360097093],[99.57744901386097,2.4903863826581407],[99.59429485991988,2.505645186991814]]]}},{"type":"Feature","properties":{"code":"1223082007","desa":"Hasang","kecamatan":"Kualuh Selatan","kecCode":"122308","kabCode":"1223","province":"Sumatera Utara"},"geometry":{"type":"Polygon","coordinates":[[[99.52307315570164,2.3819451672873364],[99.52195739741603,2.386753556277952],[99.52493286106272,2.3897836186621357],[99.52766418485429,2.413648841437728],[99.52648162762506,2.418238398395192],[99.53023529082606,2.422674414099864],[99.5270919804106,2.4249560804631947],[99.5278244017748,2.431521412880148],[99.5206603996578,2.4422287915110332],[99.52243804907677,2.4460346675472255],[99.528236389298,2.44916963314991],[99.52330022822304,2.4601747943971017],[99.52293717640964,2.4670696141296844],[99.51435038835979,2.4731435542832005],[99.51391013064806,2.478762207255537],[99.51474257281153,2.489591403554026],[99.52219883660706,2.4945866905514613],[99.5242722883355,2.5016666905856453],[99.53107939090125,2.5104941992585745],[99.53145245576626,2.5245193522816547],[99.55817406568063,2.500439767103246],[99.57843707381198,2.4899189006699465],[99.57436137957403,2.482837360097093],[99.58392822900464,2.4682975664364784],[99.52307315570164,2.3819451672873364]]]}},{"type":"Feature","properties":{"code":"1223082008","desa":"Bandar Lama","kecamatan":"Kualuh Selatan","kecCode":"122308","kabCode":"1223","province":"Sumatera Utara"},"geometry":{"type":"Polygon","coordinates":[[[99.53145245576626,2.5245193522816547],[99.53094341520647,2.5327252702413734],[99.53967820108818,2.5333719430463817],[99.54455206792362,2.530334624032614],[99.54747678372667,2.533312502355811],[99.5480394058939,2.542474217087128],[99.55268281336123,2.5434061557441225],[99.56099349425442,2.5386450962740383],[99.57874843888942,2.5428638807387514],[99.58978208437577,2.542071506071258],[99.59378879521675,2.5359327967439937],[99.59857151306494,2.538573996772514],[99.60289023469663,2.535647260196081],[99.61164626436369,2.538243823274107],[99.6045338266748,2.522846154623514],[99.60690532542047,2.5170671930000195],[99.57744901386097,2.4903863826581407],[99.55817406568063,2.500439767103246],[99.53145245576626,2.5245193522816547]]]}},{"type":"Feature","properties":{"code":"1223082009","desa":"Sidua Dua","kecamatan":"Kualuh Selatan","kecCode":"122308","kabCode":"1223","province":"Sumatera Utara"},"geometry":{"type":"Polygon","coordinates":[[[99.61164626436369,2.538243823274107],[99.6257471708953,2.530361296125854],[99.64190056865634,2.5349349755525914],[99.65059589228666,2.5320150450454295],[99.6575029922693,2.5340300003691243],[99.65645032142525,2.512519984218406],[99.62861630589786,2.517588819571282],[99.6114488937515,2.5141752071267573],[99.60550240641099,2.515796511204959],[99.60690532542047,2.5170671930000195],[99.6045338266748,2.522846154623514],[99.61164626436369,2.538243823274107]]]}},{"type":"Feature","properties":{"code":"1223082010","desa":"Simangalam","kecamatan":"Kualuh Selatan","kecCode":"122308","kabCode":"1223","province":"Sumatera Utara"},"geometry":{"type":"Polygon","coordinates":[[[99.76104188097808,2.4707414525103197],[99.7313784222764,2.436957211197661],[99.72386667480724,2.438747676853127],[99.7170415417338,2.4486443094657764],[99.71335397600524,2.450295116702946],[99.71184642357366,2.4410899620188697],[99.70715060901347,2.434483184345466],[99.69843372593577,2.4419643620515004],[99.6931212102757,2.450214573420581],[99.6768185610278,2.4939458453533145],[99.67809418729694,2.498916262498873],[99.6819146017775,2.501173850413776],[99.70996176292509,2.5047741989870587],[99.76241795072791,2.4866790948011377],[99.76104188097808,2.4707414525103197]]]}},{"type":"Feature","properties":{"code":"1223082011","desa":"Tanjung Pasir","kecamatan":"Kualuh Selatan","kecCode":"122308","kabCode":"1223","province":"Sumatera Utara"},"geometry":{"type":"Polygon","coordinates":[[[99.73922233704126,2.535220902406329],[99.7389385137015,2.5137802716492934],[99.74687004941329,2.5175556822518956],[99.77048305644797,2.5179061975156087],[99.77148479778526,2.5128799387662255],[99.80863239207126,2.517239593935434],[99.80927982930075,2.507269585637058],[99.83532578575648,2.5045278494978827],[99.83460285403855,2.483276396529017],[99.82250866234493,2.4808350420467695],[99.81506099157156,2.482537817507637],[99.80204529785225,2.4738553038300726],[99.79946619331025,2.4790512034954357],[99.79357928155865,2.4819304306868526],[99.77539490255275,2.4862593443305143],[99.76241795072791,2.4866790948011377],[99.71756336255919,2.502947466371478],[99.71641639959721,2.526993701990409],[99.73340509037268,2.5263557948773676],[99.73922233704126,2.535220902406329]]]}},{"type":"Feature","properties":{"code":"1223082012","desa":"Sialang Taji","kecamatan":"Kualuh Selatan","kecCode":"122308","kabCode":"1223","province":"Sumatera Utara"},"geometry":{"type":"Polygon","coordinates":[[[99.77048305644797,2.5179061975156087],[99.7820196810635,2.521118021878295],[99.78188762101695,2.54138865174176],[99.76751448970201,2.5421547805946774],[99.76704342841157,2.54541284360033],[99.77728027186708,2.5513581582183886],[99.79274030042463,2.553863637060406],[99.80500932841782,2.5428816351545773],[99.81707747844291,2.5381677127501474],[99.8156895817089,2.5362445836031964],[99.82194348340511,2.527021338156842],[99.83314347828895,2.532673422526875],[99.84194612341491,2.530958011591245],[99.84235286429332,2.534426921549675],[99.8565971353496,2.5381786997675886],[99.86390208191561,2.5369770733149895],[99.86768011494541,2.5399163779170033],[99.87102472601038,2.539305463055812],[99.87196584404852,2.5367156673761255],[99.86245132436919,2.520325464648401],[99.84966746688012,2.518679134236414],[99.84523229563398,2.510153554953667],[99.83532578575648,2.5045278494978827],[99.80927982930075,2.507269585637058],[99.80863239207126,2.517239593935434],[99.77148479778526,2.5128799387662255],[99.77048305644797,2.5179061975156087]]]}},{"type":"Feature","properties":{"code":"1223062002","desa":"Pematang","kecamatan":"Na IX-X","kecCode":"122306","kabCode":"1223","province":"Sumatera Utara"},"geometry":{"type":"Polygon","coordinates":[[[99.58944955375398,2.01670175953229],[99.57731202373098,2.0238114470864703],[99.57326919431789,2.0294095811269233],[99.56757526988285,2.02823248458248],[99.56318754416985,2.0302121963745527],[99.56179972207957,2.0362848585914253],[99.55856187133338,2.0367509556236882],[99.55317516789972,2.0426674856409863],[99.5537224440356,2.0497463813077084],[99.54956179623997,2.057350937904312],[99.56004464564394,2.059868208656968],[99.58650324522864,2.09260248788451],[99.59894943157104,2.116191822938241],[99.61967589272831,2.1117157478324056],[99.65163268470069,2.125926793420068],[99.65981021556904,2.12629977644639],[99.67096244386175,2.122227216350271],[99.68294507195759,2.1042678882096086],[99.68953807202443,2.087708774815472],[99.6976245366431,2.08533901446193],[99.70691312144343,2.0869333955359815],[99.67296600297873,2.0757570249553288],[99.66761971597718,2.064736073411793],[99.65053979167811,2.058102023797394],[99.64911709837543,2.059636985764595],[99.63719596771976,2.0461273718020254],[99.63055698082006,2.047438262285818],[99.63064250005141,2.0426847193493587],[99.61605802086103,2.040690881905938],[99.61725802134066,2.0217908808925116],[99.62385802083105,2.0132908819261437],[99.62685801978182,2.0023908820030925],[99.62555802098592,1.9972908815441008],[99.61445802082108,1.9950908817163413],[99.60545802127074,1.9968908819842117],[99.59745802017153,2.003590881582129],[99.59675802116578,2.009190880816505],[99.5928580211808,2.0109908819836533],[99.58944955375398,2.01670175953229]]]}},{"type":"Feature","properties":{"code":"1223061001","desa":"Aek Kota Batu","kecamatan":"Na IX-X","kecCode":"122306","kabCode":"1223","province":"Sumatera Utara"},"geometry":{"type":"Polygon","coordinates":[[[99.76758296228394,2.271570326782039],[99.76134619357202,2.258526022045568],[99.76153095568911,2.251212467176934],[99.75724772400332,2.238966946576119],[99.75652957757802,2.2409901585755327],[99.7161707920485,2.2420255966094307],[99.72507565861478,2.2496175042414985],[99.72393956036247,2.2767131601514965],[99.74059902822262,2.290418460295918],[99.74894237878783,2.292386392767845],[99.76106209503973,2.281342223427025],[99.76758296228394,2.271570326782039]]]}},{"type":"Feature","properties":{"code":"1223062003","desa":"Batu Tunggal","kecamatan":"Na IX-X","kecCode":"122306","kabCode":"1223","province":"Sumatera Utara"},"geometry":{"type":"Polygon","coordinates":[[[99.75530460202582,2.1881228025899615],[99.77112283055425,2.1880413159188037],[99.77201425655277,2.1854098537494386],[99.77117837897906,2.159853258017357],[99.77006022669815,2.1535102964658397],[99.76243075887248,2.144475019219554],[99.76349556696692,2.134717643028327],[99.75818993741574,2.1344926290554036],[99.73188781716907,2.1182911373677507],[99.72357177721581,2.0984060738448225],[99.71520996087105,2.0888326144077554],[99.6988604713337,2.0852911921128725],[99.68953807202443,2.087708774815472],[99.68294507195759,2.1042678882096086],[99.67096244386175,2.122227216350271],[99.65981021556904,2.12629977644639],[99.65163268470069,2.125926793420068],[99.61967589272831,2.1117157478324056],[99.59894943157104,2.116191822938241],[99.61611606760249,2.1178760291974967],[99.63180292856237,2.1291383479861063],[99.64173794155283,2.1475099757143026],[99.64083475961648,2.153009525172852],[99.6450654583043,2.158700340645358],[99.64777430444063,2.1711212245483638],[99.65656417559626,2.1822572749245133],[99.65637827673612,2.189410420417915],[99.65825888773752,2.189915556120765],[99.65835524020223,2.1856537256064064],[99.66123710780636,2.1828741253111557],[99.66039176576743,2.1686013601508773],[99.6732585524403,2.1496185477648884],[99.68446277503712,2.1532147720472974],[99.6874337708519,2.151756197595251],[99.68776652270691,2.1539081916122034],[99.69539604179397,2.154003835410978],[99.70032553259732,2.1508721037703395],[99.70409828840536,2.1537806659475818],[99.713525855334,2.154464523021102],[99.72158319720683,2.1660804471439103],[99.71835035658376,2.1729009963653843],[99.7200546590953,2.1754936896607084],[99.72836719978648,2.1763371116461103],[99.7292958730062,2.1789180642921537],[99.73543307687504,2.1834034293946925],[99.73181653060846,2.1805389546820924],[99.73126988579666,2.1766926882942266],[99.75020701803952,2.174798963380834],[99.75303421765504,2.178777696308631],[99.75624289259548,2.1768050684763067],[99.76212546781612,2.1814676395919705],[99.75530460202582,2.1881228025899615]]]}},{"type":"Feature","properties":{"code":"1223062004","desa":"Sungai Raja","kecamatan":"Na IX-X","kecCode":"122306","kabCode":"1223","province":"Sumatera Utara"},"geometry":{"type":"Polygon","coordinates":[[[99.73544162762909,2.185550568871212],[99.72836719978648,2.1763371116461103],[99.71852861840107,2.174156308746811],[99.72158319720683,2.1660804471439103],[99.713525855334,2.154464523021102],[99.70409828840536,2.1537806659475818],[99.70032553259732,2.1508721037703395],[99.69539604179397,2.154003835410978],[99.68776652270691,2.1539081916122034],[99.6874337708519,2.151756197595251],[99.68446277503712,2.1532147720472974],[99.6732585524403,2.1496185477648884],[99.66039176576743,2.1686013601508773],[99.66144507692883,2.1811704963936918],[99.6580581410704,2.1864308162957196],[99.65823640108907,2.19121291000914],[99.66150449693504,2.194590253694888],[99.67118994535974,2.1924980942715955],[99.67897395628313,2.196772073727434],[99.68524275974562,2.1903461569119242],[99.69477490523775,2.1936003645239297],[99.69494603543126,2.1958383759964937],[99.70196234098933,2.1991093074012955],[99.72669291574549,2.2002856934813297],[99.74658908591765,2.2052255489658013],[99.74436440329464,2.1983393959998483],[99.7464749997215,2.1963883123263863],[99.74305241203922,2.194265072333222],[99.74122703200196,2.188354415788144],[99.73742415520063,2.189399302998751],[99.73004280403222,2.186506728968881],[99.73544162762909,2.185550568871212]]]}},{"type":"Feature","properties":{"code":"1223062005","desa":"Perkebunan Berangir","kecamatan":"Na IX-X","kecCode":"122306","kabCode":"1223","province":"Sumatera Utara"},"geometry":{"type":"MultiPolygon","coordinates":[[[[99.76986808294572,2.2385377109558604],[99.76951156290835,2.197292974545746],[99.75517333608065,2.197457756424797],[99.75526246609002,2.186369301768527],[99.76212546781612,2.1814676395919705],[99.7600502030545,2.1784424389428363],[99.75591608435985,2.1768050684763067],[99.75270740941949,2.1787179201709894],[99.75020701803952,2.174798963380834],[99.73126988579666,2.1766926882942266],[99.73544162762909,2.185550568871212],[99.73004280403222,2.186506728968881],[99.73742415520063,2.189399302998751],[99.74122703200196,2.188354415788144],[99.74305241203922,2.194265072333222],[99.7464749997215,2.1963883123263863],[99.74436440329464,2.1983393959998483],[99.74658908591765,2.2052255489658013],[99.72669291574549,2.2002856934813297],[99.70772914198636,2.199766305322668],[99.70717634041586,2.226403867267257],[99.71046894728414,2.225979408845721],[99.71302400485398,2.2313591173465346],[99.70912605802123,2.239069997191273],[99.72361810489167,2.2389410344100553],[99.72429803732462,2.241799593382169],[99.75652957757802,2.2409901585755327],[99.75515273620987,2.2350775603941506],[99.74657665728694,2.228510444621603],[99.74333232962339,2.221017088296525],[99.74363418257155,2.2128422563025922],[99.74129158264049,2.2107430677782007],[99.744324641569,2.2057827904886826],[99.75710111562402,2.2205826447022954],[99.75411531606902,2.227618121100709],[99.75831350156692,2.236928807629372],[99.75724772400332,2.238966946576119],[99.76986808294572,2.2385377109558604]]],[[[99.77727315103515,2.2258382719419654],[99.77919360290251,2.220731115577391],[99.77071318936225,2.220635475375837],[99.77158785199782,2.2252070503890096],[99.77727315103515,2.2258382719419654]]]]}},{"type":"Feature","properties":{"code":"1223062006","desa":"Silumajang","kecamatan":"Na IX-X","kecCode":"122306","kabCode":"1223","province":"Sumatera Utara"},"geometry":{"type":"Polygon","coordinates":[[[99.72276750631546,2.273442771037895],[99.72562602841855,2.2650065717760106],[99.72507565861478,2.2496175042414985],[99.7161707920485,2.2420255966094307],[99.72429803732462,2.241799593382169],[99.72361810489167,2.2389410344100553],[99.70912605802123,2.239069997191273],[99.71302400485398,2.2313591173465346],[99.71046894728414,2.225979408845721],[99.70717634041586,2.226403867267257],[99.70772914198636,2.199766305322668],[99.70196234098933,2.1991093074012955],[99.69494603543126,2.1958383759964937],[99.69477490523775,2.1936003645239297],[99.68524275974562,2.1903461569119242],[99.68289567309688,2.194769583007288],[99.67689425966239,2.1968019617962713],[99.67118994535974,2.1924980942715955],[99.66073203775339,2.1943212628739324],[99.65637827673612,2.189410420417915],[99.65251170455156,2.197961540446646],[99.63572727859109,2.2121798912272186],[99.65668780539795,2.233875529246685],[99.67140908855866,2.2443447395209484],[99.69283684194674,2.2740346922174624],[99.69829056735584,2.2715790888767575],[99.70220002101422,2.273194742514486],[99.71353639179108,2.271050749765758],[99.72276750631546,2.273442771037895]]]}},{"type":"Feature","properties":{"code":"1223062007","desa":"Pulo Jantan","kecamatan":"Na IX-X","kecCode":"122306","kabCode":"1223","province":"Sumatera Utara"},"geometry":{"type":"Polygon","coordinates":[[[99.74782975284084,2.3044328133604304],[99.75943091730306,2.3058252687563905],[99.76701509796844,2.3113164293390085],[99.78128142489788,2.312836859161294],[99.78243900975258,2.3152896143490755],[99.78853542307137,2.313783799409368],[99.7888319349459,2.2857534556148162],[99.7781152510181,2.264147705733119],[99.77108867700088,2.263912231745437],[99.76867095939728,2.2707518888624194],[99.75668774584284,2.2853093577984747],[99.74782975284084,2.3044328133604304]]]}},{"type":"Feature","properties":{"code":"1223062008","desa":"Kampung Pajak","kecamatan":"Na IX-X","kecCode":"122306","kabCode":"1223","province":"Sumatera Utara"},"geometry":{"type":"Polygon","coordinates":[[[99.74830873176262,2.3166831543274427],[99.74500873966167,2.3077236971241164],[99.75008008592725,2.3024630966335806],[99.74914513094308,2.2999320977298696],[99.75668774584284,2.2853093577984747],[99.74894237878783,2.292386392767845],[99.74353710525325,2.2917658533621266],[99.73075344291708,2.283012475805472],[99.72276750631546,2.273442771037895],[99.70699322225947,2.271675112189468],[99.71126695710444,2.2782784607479276],[99.71018571929557,2.2888644488890844],[99.72075058327283,2.2904364512334308],[99.73688428408252,2.2988116746620735],[99.7359751594261,2.301018441888167],[99.74052197161177,2.3103666733135775],[99.7336886798887,2.313677989674104],[99.73118290966362,2.3262677977334407],[99.74198545366579,2.3261410832573386],[99.74830873176262,2.3166831543274427]]]}},{"type":"Feature","properties":{"code":"1223062009","desa":"Meranti Omas","kecamatan":"Na IX-X","kecCode":"122306","kabCode":"1223","province":"Sumatera Utara"},"geometry":{"type":"Polygon","coordinates":[[[99.58007222565277,2.1995704959337847],[99.59162136343525,2.2141327483637516],[99.59388742656353,2.2234451481009687],[99.6059831758829,2.2279704206193407],[99.61642903257386,2.2388385566629583],[99.62199209396003,2.260853627577553],[99.63052874930241,2.2756493404131746],[99.6385214856781,2.2825981680318],[99.66817744763112,2.287935998702299],[99.67605503121477,2.2856810772772596],[99.69236943100451,2.2889409488195804],[99.69613884762975,2.2859953885334168],[99.71018571929557,2.2888644488890844],[99.70979645044588,2.2736670655532554],[99.70699322225947,2.271675112189468],[99.69904485573556,2.2732232950901134],[99.69916144924157,2.2715362577650633],[99.69212930302494,2.2734764425546268],[99.66966222383263,2.242526376895641],[99.65668780539795,2.233875529246685],[99.64165229461776,2.2173214025932624],[99.60977735174345,2.192619044992725],[99.59867532001005,2.1864131949795844],[99.58466553098954,2.1829873139837503],[99.58311713944447,2.195231531466922],[99.58007222565277,2.1995704959337847]]]}},{"type":"Feature","properties":{"code":"1223062010","desa":"Hatapang","kecamatan":"Na IX-X","kecCode":"122306","kabCode":"1223","province":"Sumatera Utara"},"geometry":{"type":"Polygon","coordinates":[[[99.54044080280083,2.0892206430919096],[99.54202874563013,2.087655407246708],[99.5430581833885,2.0973144947328883],[99.54710910040473,2.1001930618219555],[99.55101369592539,2.1080426054348917],[99.55148331380393,2.133046039868283],[99.54622103697135,2.1422163053535277],[99.5348408476271,2.153333461872845],[99.53132030488818,2.1766377226301743],[99.53147220487841,2.1813944599584985],[99.54112750443085,2.1858051804320304],[99.54688859473293,2.2053026199657593],[99.54293320730176,2.2343707544206493],[99.5452149330228,2.2389614139468885],[99.5492554889497,2.2385788594360094],[99.55992730839866,2.2436476965875705],[99.57015942142021,2.2327209823031366],[99.57681445222522,2.2299713582102605],[99.57730763863667,2.219827593698329],[99.58030240263382,2.2162410946845417],[99.57887632428297,2.203473089559273],[99.58311713944447,2.195231531466922],[99.58466553098954,2.1829873139837503],[99.59867532001005,2.1864131949795844],[99.60977735174345,2.192619044992725],[99.63572727859109,2.2121798912272186],[99.6467876384388,2.203676258100467],[99.65251170455156,2.197961540446646],[99.65697142998755,2.183706361528971],[99.64777430444063,2.1711212245483638],[99.6450654583043,2.158700340645358],[99.64083475961648,2.153009525172852],[99.64173794155283,2.1475099757143026],[99.63180292856237,2.1291383479861063],[99.61611606760249,2.1178760291974967],[99.59894943157104,2.116191822938241],[99.58650324522864,2.09260248788451],[99.56004464564394,2.059868208656968],[99.54964045274478,2.057338966129244],[99.54747980904602,2.058877564055516],[99.54615327755175,2.063180525962961],[99.55061305964506,2.0787369258537227],[99.54071716356627,2.083675877519577],[99.54044080280083,2.0892206430919096]]]}},{"type":"Feature","properties":{"code":"1223062011","desa":"Pasang Lela","kecamatan":"Na IX-X","kecCode":"122306","kabCode":"1223","province":"Sumatera Utara"},"geometry":{"type":"Polygon","coordinates":[[[99.75599419857349,2.2391758195170266],[99.75831350156692,2.236928807629372],[99.75421272703579,2.2243189105141954],[99.75710111562402,2.2205826447022954],[99.74378273258706,2.2059262512406383],[99.74129158264049,2.2107430677782007],[99.74363418257155,2.2128422563025922],[99.74362705274632,2.221820462571944],[99.74657665728694,2.228510444621603],[99.75515273620987,2.2350775603941506],[99.75599419857349,2.2391758195170266]]]}},{"type":"Feature","properties":{"code":"1223062012","desa":"Simpang Marbau","kecamatan":"Na IX-X","kecCode":"122306","kabCode":"1223","province":"Sumatera Utara"},"geometry":{"type":"Polygon","coordinates":[[[99.77163657996425,2.2561965369304944],[99.7716900572504,2.23857881536923],[99.75724772400332,2.238966946576119],[99.76153095568911,2.251212467176934],[99.76134619357202,2.258526022045568],[99.76758296228394,2.271570326782039],[99.77157948560483,2.2634507833088526],[99.78054006157464,2.260337630762299],[99.7783819305817,2.2561534980753666],[99.77163657996425,2.2561965369304944]]]}},{"type":"Feature","properties":{"code":"1223062013","desa":"Bangun Rejo","kecamatan":"Na IX-X","kecCode":"122306","kabCode":"1223","province":"Sumatera Utara"},"geometry":{"type":"Polygon","coordinates":[[[99.66817744763112,2.287935998702299],[99.68581102785669,2.29602998344302],[99.68985599226028,2.3048186566920332],[99.69650383658283,2.311160622693978],[99.7177344280015,2.3193173693215403],[99.73021261402096,2.321080605304197],[99.7336886798887,2.313677989674104],[99.74052197161177,2.3103666733135775],[99.73468099273366,2.2960107748234413],[99.7206020332573,2.2903886342802635],[99.69613884762975,2.2859953885334168],[99.69236943100451,2.2889409488195804],[99.67605503121477,2.2856810772772596],[99.66817744763112,2.287935998702299]]]}}]}