{"type":"FeatureCollection","features":[{"type":"Feature","properties":{"code":"1224012001","desa":"Hilidundra","kecamatan":"Lotu","kecCode":"122401","kabCode":"1224","province":"Sumatera Utara"},"geometry":{"type":"Polygon","coordinates":[[[97.35074171655702,1.3879194764530451],[97.3538789340656,1.386850000878411],[97.35760977157376,1.3890991936219463],[97.35939257320877,1.3859026730225235],[97.36064892880506,1.3868877697063187],[97.36233974868054,1.3825303214735476],[97.35912025759386,1.3751317950608948],[97.33631503601013,1.3673254737648806],[97.32839203486458,1.36910975478263],[97.3251556149397,1.3735006694866951],[97.33249719628861,1.3932792200044457],[97.33349193100786,1.391009552395865],[97.33411463328378,1.3935914430347578],[97.33498432176906,1.3905425992090241],[97.33892322732514,1.3912672630204348],[97.33825603288965,1.386642123486998],[97.34276874368264,1.3843233816731078],[97.35074171655702,1.3879194764530451]]]}},{"type":"Feature","properties":{"code":"1224012002","desa":"Lawira Satua","kecamatan":"Lotu","kecCode":"122401","kabCode":"1224","province":"Sumatera Utara"},"geometry":{"type":"Polygon","coordinates":[[[97.35760977157376,1.3890991936219463],[97.3515553898694,1.3872125706547642],[97.34648986581469,1.394978611316351],[97.37574186579451,1.4129563638676441],[97.37129769683128,1.4006343667189023],[97.35760977157376,1.3890991936219463]]]}},{"type":"Feature","properties":{"code":"1224012003","desa":"Fadoro Fulolo","kecamatan":"Lotu","kecCode":"122401","kabCode":"1224","province":"Sumatera Utara"},"geometry":{"type":"Polygon","coordinates":[[[97.36288839808117,1.3799421238891245],[97.35740751764291,1.3898546727032113],[97.36919069679328,1.3987263965442918],[97.37323746163958,1.398032873557418],[97.37652072455187,1.393649913356812],[97.38012078534604,1.395015092315116],[97.38456996443239,1.3906239267002152],[97.39064371483562,1.3923110800377823],[97.39270708606323,1.3953782178725473],[97.40186386262724,1.394310454607043],[97.40528482163727,1.3789794823775574],[97.39266981366103,1.3753629918728811],[97.38342552496805,1.3808456313789894],[97.37318174773952,1.3760954078403411],[97.37164917706791,1.3791831545390174],[97.36920784956266,1.3776912323262578],[97.36288839808117,1.3799421238891245]]]}},{"type":"Feature","properties":{"code":"1224012004","desa":"Lawira I","kecamatan":"Lotu","kecCode":"122401","kabCode":"1224","province":"Sumatera Utara"},"geometry":{"type":"Polygon","coordinates":[[[97.35074171655702,1.3879194764530451],[97.3450588762662,1.3841115994253919],[97.33833943871417,1.386537107853171],[97.33892322732514,1.3912672630204348],[97.33498432176906,1.3905425992090241],[97.3352526866622,1.3925673067810034],[97.33411463328378,1.3935914430347578],[97.33349193100786,1.391009552395865],[97.33186931391776,1.3989232968108622],[97.35518235298326,1.4033160919973084],[97.355850774094,1.40648958725438],[97.37631435172601,1.4180869196924015],[97.38093256558551,1.417969234409603],[97.38099831322165,1.4140243753460136],[97.37574186579451,1.4129563638676441],[97.34648986581469,1.394978611316351],[97.35074171655702,1.3879194764530451]]]}},{"type":"Feature","properties":{"code":"1224012005","desa":"Hiligodu","kecamatan":"Lotu","kecCode":"122401","kabCode":"1224","province":"Sumatera Utara"},"geometry":{"type":"Polygon","coordinates":[[[97.36730032185244,1.3985944633023308],[97.37129769683128,1.4006343667189023],[97.37574186579451,1.4129563638676441],[97.38099831322165,1.4140243753460136],[97.38264200502458,1.401203583614106],[97.39000574207141,1.4030445183234186],[97.39216666006335,1.4016688856456543],[97.39270708606323,1.3953782178725473],[97.39064371483562,1.3923110800377823],[97.38456996443239,1.3906239267002152],[97.38012078534604,1.395015092315116],[97.37677325058512,1.3935761851368769],[97.37323746163958,1.398032873557418],[97.36730032185244,1.3985944633023308]]]}},{"type":"Feature","properties":{"code":"1224012006","desa":"Lombuza'Ua","kecamatan":"Lotu","kecCode":"122401","kabCode":"1224","province":"Sumatera Utara"},"geometry":{"type":"Polygon","coordinates":[[[97.38264200502458,1.401203583614106],[97.38161996598869,1.4277911792255802],[97.39373300837171,1.436106480826264],[97.4077357880762,1.4241625928394983],[97.39216666006335,1.4016688856456543],[97.38954550771905,1.4030445183234186],[97.38264200502458,1.401203583614106]]]}},{"type":"Feature","properties":{"code":"1224012007","desa":"Maziaya","kecamatan":"Lotu","kecCode":"122401","kabCode":"1224","province":"Sumatera Utara"},"geometry":{"type":"Polygon","coordinates":[[[97.40528482163727,1.3789794823775574],[97.40186386262724,1.394310454607043],[97.39207267731229,1.3955136090077729],[97.39222958832488,1.4025105116849215],[97.39589940143628,1.406629328410355],[97.40426729270142,1.3947697851402394],[97.41063009060628,1.3960932013814513],[97.42114674642526,1.3817967894474268],[97.42479620787871,1.3813322608328276],[97.42463758455693,1.3744353169017303],[97.41192657934822,1.3679954578965698],[97.41082518863162,1.3639153039251997],[97.40341339271396,1.3668632060459505],[97.39962722171894,1.3660460730425406],[97.40121653871233,1.3710529558983338],[97.40425341256497,1.3712779087173423],[97.40528482163727,1.3789794823775574]]]}},{"type":"Feature","properties":{"code":"1224012008","desa":"Baho","kecamatan":"Lotu","kecCode":"122401","kabCode":"1224","province":"Sumatera Utara"},"geometry":{"type":"Polygon","coordinates":[[[97.35912025759386,1.3751317950608948],[97.36216876687513,1.3825206852378005],[97.36505837584342,1.378784232366954],[97.37164917706791,1.3791831545390174],[97.37318174773952,1.3760954078403411],[97.38342552496805,1.3808456313789894],[97.39266981366103,1.3753629918728811],[97.40528482163727,1.3789794823775574],[97.40425341256497,1.3712779087173423],[97.40121653871233,1.3710529558983338],[97.39238785821317,1.3578145882564816],[97.38263782857297,1.356750310763283],[97.37831964923247,1.3572104353977803],[97.35912025759386,1.3751317950608948]]]}},{"type":"Feature","properties":{"code":"1224012009","desa":"Lolofaoso","kecamatan":"Lotu","kecCode":"122401","kabCode":"1224","province":"Sumatera Utara"},"geometry":{"type":"Polygon","coordinates":[[[97.35327540893303,1.404149383119857],[97.33186931391776,1.3989232968108622],[97.32781722058832,1.4101416657309749],[97.3192188888407,1.423655554171145],[97.30437944375637,1.4401305539742209],[97.29880031598184,1.4500315491980091],[97.31495716534096,1.4580764732230431],[97.35601420609078,1.4323679703066],[97.3578773882309,1.4269047399687984],[97.35040925698166,1.4197839637738265],[97.35336177442639,1.4137920903543122],[97.35327540893303,1.404149383119857]]]}},{"type":"Feature","properties":{"code":"1224012010","desa":"Lawira Ii","kecamatan":"Lotu","kecCode":"122401","kabCode":"1224","province":"Sumatera Utara"},"geometry":{"type":"Polygon","coordinates":[[[97.38093256558551,1.417969234409603],[97.37631435172601,1.4180869196924015],[97.355850774094,1.40648958725438],[97.35518235298326,1.4033160919973084],[97.35327540893303,1.404149383119857],[97.35336177442639,1.4137920903543122],[97.35040925698166,1.4197839637738265],[97.3578773882309,1.4269047399687984],[97.35581846055356,1.430253646192107],[97.35789207505928,1.4321156394264445],[97.37305492264665,1.4240748702692245],[97.38066957504094,1.424938486531169],[97.38093256558551,1.417969234409603]]]}},{"type":"Feature","properties":{"code":"1224012011","desa":"Dahadano","kecamatan":"Lotu","kecCode":"122401","kabCode":"1224","province":"Sumatera Utara"},"geometry":{"type":"Polygon","coordinates":[[[97.38027508922403,1.4845058583017587],[97.38998888877626,1.4813649985424235],[97.39160666661444,1.4756833327724719],[97.38451888743674,1.4536422201896615],[97.38843332423856,1.4423636938192628],[97.36324644786531,1.4420328755070324],[97.35857836479977,1.4465037156591973],[97.3554151712732,1.4548609724319148],[97.36120827024553,1.4521580132606802],[97.37435780107171,1.4790488036085454],[97.38027508922403,1.4845058583017587]]]}},{"type":"Feature","properties":{"code":"1224012012","desa":"Lolomboli","kecamatan":"Lotu","kecCode":"122401","kabCode":"1224","province":"Sumatera Utara"},"geometry":{"type":"Polygon","coordinates":[[[97.39373300837171,1.436106480826264],[97.38161996598869,1.4277911792255802],[97.38066957504094,1.424938486531169],[97.37305492264665,1.4240748702692245],[97.35789207505928,1.4321156394264445],[97.35594046258232,1.4303040172199],[97.34843059559557,1.4382565206163886],[97.31495716534096,1.4580764732230431],[97.32987248083036,1.474934241575657],[97.33310854822099,1.4714840231266484],[97.3398067302964,1.4744226577337012],[97.33826233983517,1.4700413756681014],[97.34286467526458,1.4695153936801602],[97.34352215162608,1.4718823094780835],[97.34680953343326,1.4695811413162159],[97.3487162166801,1.463335116788782],[97.35252957957647,1.4616914231890112],[97.35857836479977,1.4465037156591973],[97.36324644786531,1.4420328755070324],[97.38843332423856,1.4423636938192628],[97.39373300837171,1.436106480826264]]]}},{"type":"Feature","properties":{"code":"1224012013","desa":"Hiligeo Afia","kecamatan":"Lotu","kecCode":"122401","kabCode":"1224","province":"Sumatera Utara"},"geometry":{"type":"Polygon","coordinates":[[[97.38308699856617,1.4839499531714369],[97.38027508922403,1.4845058583017587],[97.37435780107171,1.4790488036085454],[97.36120827024553,1.4521580132606802],[97.35252957957647,1.4580753023057533],[97.35252957957647,1.4616914231890112],[97.3487162166801,1.463335116788782],[97.34595481506271,1.4705016082212379],[97.33806509692675,1.470633103493396],[97.34849938204093,1.4879802343395117],[97.37136666943633,1.4882362524400035],[97.37457608092141,1.4909936331854239],[97.38308699856617,1.4839499531714369]]]}},{"type":"Feature","properties":{"code":"1224022001","desa":"Seriwa'U","kecamatan":"Sawo","kecCode":"122402","kabCode":"1224","province":"Sumatera Utara"},"geometry":{"type":"MultiPolygon","coordinates":[[[[97.41784379105815,1.5198560854937513],[97.4169401360785,1.504442658922517],[97.41152864642993,1.5050252397432344],[97.41085164578685,1.5163644640564105],[97.41362133915356,1.5223987773826395],[97.41784379105815,1.5198560854937513]]],[[[97.45125045024814,1.7043268481047502],[97.45216445012932,1.6988608478551037],[97.444108450045,1.693462848043243],[97.43915745015626,1.700964847752392],[97.43909422511847,1.7052098483540101],[97.44861100929067,1.7062722768411465],[97.45125045024814,1.7043268481047502]]]]}},{"type":"Feature","properties":{"code":"1224022002","desa":"Ombolata Sawo","kecamatan":"Sawo","kecCode":"122402","kabCode":"1224","province":"Sumatera Utara"},"geometry":{"type":"Polygon","coordinates":[[[97.39380388843875,1.4360377762192904],[97.386151666866,1.446242776468506],[97.38451888743674,1.4536422201896615],[97.38813526642946,1.4637259261766984],[97.3975275385651,1.4523702397735052],[97.40737939034663,1.4461634220898598],[97.41108506482395,1.4284317986938708],[97.40780329298764,1.424114562746961],[97.39380388843875,1.4360377762192904]]]}},{"type":"Feature","properties":{"code":"1224022003","desa":"Sanawuyu","kecamatan":"Sawo","kecCode":"122402","kabCode":"1224","province":"Sumatera Utara"},"geometry":{"type":"MultiPolygon","coordinates":[[[[97.38972944156052,1.4680944423658937],[97.39502806359434,1.4677516297955462],[97.40026025090991,1.4579268341286655],[97.4048656970943,1.459174267549632],[97.41495937027877,1.4551122897760622],[97.42288666658646,1.4559972199704547],[97.41764555439885,1.454194998377204],[97.40734013044272,1.442751989602083],[97.40721282870913,1.4463894711825611],[97.3975275385651,1.4523702397735052],[97.38813526642946,1.4637259261766984],[97.38972944156052,1.4680944423658937]]],[[[97.40748465329413,1.4765396501366217],[97.40625817137754,1.4756149726058228],[97.40602058038553,1.4760516249349842],[97.40748465329413,1.4765396501366217]]]]}},{"type":"Feature","properties":{"code":"1224022004","desa":"Onozitoli Sawo","kecamatan":"Sawo","kecCode":"122402","kabCode":"1224","province":"Sumatera Utara"},"geometry":{"type":"Polygon","coordinates":[[[97.39160666661444,1.4756833327724719],[97.389999720211,1.4813269563205371],[97.40257303291916,1.4783949272339054],[97.40149294983985,1.4910007872923539],[97.40358581972986,1.4914132307713375],[97.40726908579973,1.4779417993249289],[97.4138994437044,1.4739083327581786],[97.41686722174494,1.4669966651264528],[97.42278777803357,1.4641188876422697],[97.4228783874277,1.4561147685562839],[97.41541622677748,1.455055182826189],[97.40944853881905,1.458389045190331],[97.40026025090991,1.4579268341286655],[97.39502806359434,1.4677516297955462],[97.38996037667009,1.4690371602969743],[97.39160666661444,1.4756833327724719]]]}},{"type":"Feature","properties":{"code":"1224022005","desa":"Sifahandro","kecamatan":"Sawo","kecCode":"122402","kabCode":"1224","province":"Sumatera Utara"},"geometry":{"type":"Polygon","coordinates":[[[97.37136666943633,1.4882362524400035],[97.34849938204093,1.4879802343395117],[97.34899800035748,1.4932659987601677],[97.35197700013849,1.4960339987003282],[97.35007399961545,1.4996049978986388],[97.35165299958635,1.5041919980834135],[97.34347500017115,1.5101319986073973],[97.3346709997669,1.522790998706129],[97.3363089997606,1.5323059986128995],[97.34567099981683,1.5401349981129355],[97.35307083205332,1.5410331564352984],[97.36049728602096,1.5371156565469442],[97.36480125157658,1.4982582946123413],[97.37136666943633,1.4882362524400035]]]}},{"type":"Feature","properties":{"code":"1224022006","desa":"Sisarahili Teluk Siabang","kecamatan":"Sawo","kecCode":"122402","kabCode":"1224","province":"Sumatera Utara"},"geometry":{"type":"Polygon","coordinates":[[[97.37466698439385,1.490871509748369],[97.37136666943633,1.4882362524400035],[97.36480125157658,1.4982582946123413],[97.36049728602096,1.5371156565469442],[97.37860527031705,1.5214890303964201],[97.37674928994784,1.5162280422981438],[97.37365429560928,1.5161400859041487],[97.3770887093765,1.5089306707298038],[97.37874089887343,1.5133798273281618],[97.38053956994524,1.5110000880972403],[97.37710296542957,1.501844346663072],[97.3723526762351,1.497414894210746],[97.37466698439385,1.490871509748369]]]}},{"type":"Feature","properties":{"code":"1224022007","desa":"Lasara Sawo","kecamatan":"Sawo","kecCode":"122402","kabCode":"1224","province":"Sumatera Utara"},"geometry":{"type":"Polygon","coordinates":[[[97.40257303291916,1.4783949272339054],[97.37786610943346,1.4865777766837944],[97.37304549505359,1.4930027429158357],[97.3723526762351,1.497414894210746],[97.37837970056277,1.5044074180888238],[97.38006903565753,1.5135273350293248],[97.38898447915044,1.5098820194544984],[97.38294540660529,1.5080831469365696],[97.38628617037051,1.5065769479863125],[97.38638444198847,1.5034341564831442],[97.38970616890462,1.5050617072522154],[97.3955556814496,1.4995666013439135],[97.39628394165067,1.4917265743569557],[97.40230672567492,1.4903440564696018],[97.40257303291916,1.4783949272339054]]]}},{"type":"Feature","properties":{"code":"1224022008","desa":"Sawo","kecamatan":"Sawo","kecCode":"122402","kabCode":"1224","province":"Sumatera Utara"},"geometry":{"type":"Polygon","coordinates":[[[97.40358581972986,1.4914132307713375],[97.39628394165067,1.4917265743569557],[97.3955556814496,1.4995666013439135],[97.40494106477837,1.499489327097162],[97.41063731935685,1.5031536741251086],[97.4100849548568,1.498128514347406],[97.40358581972986,1.4914132307713375]]]}},{"type":"Feature","properties":{"code":"1224022009","desa":"Hiliduruwa","kecamatan":"Sawo","kecCode":"122402","kabCode":"1224","province":"Sumatera Utara"},"geometry":{"type":"Polygon","coordinates":[[[97.41152864642993,1.5050252397432344],[97.42177875308704,1.5021731630844088],[97.42612521520658,1.5059500224947469],[97.43353266829808,1.4963865104589102],[97.42312411008965,1.4910273820438813],[97.41610696996075,1.4841795545862164],[97.41261531524462,1.4747091952271034],[97.40726908579973,1.4779417993249289],[97.40358581972986,1.4914132307713375],[97.4100849548568,1.498128514347406],[97.41152864642993,1.5050252397432344]]]}},{"type":"Feature","properties":{"code":"1224022010","desa":"Teluk Bengkuang","kecamatan":"Sawo","kecCode":"122402","kabCode":"1224","province":"Sumatera Utara"},"geometry":{"type":"Polygon","coordinates":[[[97.4169401360785,1.504442658922517],[97.41797196963073,1.509601824879498],[97.41784423172594,1.5201728950665254],[97.4237007347012,1.5169164994039848],[97.42444312684887,1.5106823117532657],[97.42968814029551,1.5037516540372937],[97.42480641878124,1.5058970200507429],[97.4213504500633,1.5021874407211997],[97.4169401360785,1.504442658922517]]]}},{"type":"Feature","properties":{"code":"1224032001","desa":"Botolakha","kecamatan":"Tuhemberua","kecCode":"122403","kabCode":"1224","province":"Sumatera Utara"},"geometry":{"type":"Polygon","coordinates":[[[97.51275583861108,1.4328106399995169],[97.48650833059502,1.4123438877834409],[97.46888593343913,1.4096855844483078],[97.45685980333728,1.4165018897690107],[97.45634343600085,1.4239294777734952],[97.509187112895,1.4447842137076319],[97.51275583861108,1.4328106399995169]]]}},{"type":"Feature","properties":{"code":"1224032002","desa":"Siofa Banua","kecamatan":"Tuhemberua","kecCode":"122403","kabCode":"1224","province":"Sumatera Utara"},"geometry":{"type":"Polygon","coordinates":[[[97.509187112895,1.4447842137076319],[97.45671914757064,1.4235125107045925],[97.43630571074004,1.4326392373116483],[97.49485153007413,1.451230802339672],[97.49770599983208,1.4479219986850045],[97.509187112895,1.4447842137076319]]]}},{"type":"Feature","properties":{"code":"1224032003","desa":"La'Aya","kecamatan":"Tuhemberua","kecCode":"122403","kabCode":"1224","province":"Sumatera Utara"},"geometry":{"type":"Polygon","coordinates":[[[97.49216064070104,1.4635353499427703],[97.46043064785619,1.4492056244222848],[97.45704104101128,1.4488034673887964],[97.45431419224622,1.4580306887377579],[97.46873516299745,1.4629542107352287],[97.4847905589372,1.4723659945515635],[97.48659683197825,1.4756554061249632],[97.49216064070104,1.4635353499427703]]]}},{"type":"Feature","properties":{"code":"1224032004","desa":"Alo'Oa","kecamatan":"Tuhemberua","kecCode":"122403","kabCode":"1224","province":"Sumatera Utara"},"geometry":{"type":"Polygon","coordinates":[[[97.49485153007413,1.451230802339672],[97.47937294040895,1.4450848651612433],[97.46158962306272,1.441389858446179],[97.45704104101128,1.4488034673887964],[97.49216064070104,1.4635353499427703],[97.49485153007413,1.451230802339672]]]}},{"type":"Feature","properties":{"code":"1224032005","desa":"Ladara","kecamatan":"Tuhemberua","kecCode":"122403","kabCode":"1224","province":"Sumatera Utara"},"geometry":{"type":"Polygon","coordinates":[[[97.48659683197825,1.4756554061249632],[97.4847905589372,1.4723659945515635],[97.46873516299745,1.4629542107352287],[97.45431419224622,1.4580306887377579],[97.4532182109517,1.4706906070442338],[97.46671729566674,1.4720024984734248],[97.4731010001111,1.4794889983671917],[97.48183154299136,1.4796011339336788],[97.48659683197825,1.4756554061249632]]]}},{"type":"Feature","properties":{"code":"1224032006","desa":"Banua Gea","kecamatan":"Tuhemberua","kecCode":"122403","kabCode":"1224","province":"Sumatera Utara"},"geometry":{"type":"Polygon","coordinates":[[[97.46158962306272,1.441389858446179],[97.43598666455301,1.4327272206852308],[97.43311265522493,1.4449203863537727],[97.4393291397281,1.4526374004740938],[97.44309492758889,1.4725176346374502],[97.4532182109517,1.4706906070442338],[97.45664747969748,1.4497592587644337],[97.46158962306272,1.441389858446179]]]}},{"type":"Feature","properties":{"code":"1224032007","desa":"Silima Banua","kecamatan":"Tuhemberua","kecCode":"122403","kabCode":"1224","province":"Sumatera Utara"},"geometry":{"type":"Polygon","coordinates":[[[97.42288666658646,1.4559972199704547],[97.42278777803357,1.4641188876422697],[97.41686722174494,1.4669966651264528],[97.41260999755342,1.4746961091920185],[97.41610696996075,1.4841795545862164],[97.43399011025542,1.4854860842573525],[97.43847242935918,1.4760278414641512],[97.44309492758889,1.4725176346374502],[97.4393291397281,1.4526374004740938],[97.43307295555252,1.4432928068063793],[97.42723555597621,1.4463716655053667],[97.42288666658646,1.4559972199704547]]]}},{"type":"Feature","properties":{"code":"1224032008","desa":"Fino","kecamatan":"Tuhemberua","kecCode":"122403","kabCode":"1224","province":"Sumatera Utara"},"geometry":{"type":"Polygon","coordinates":[[[97.41610696996075,1.4841795545862164],[97.42312411008965,1.4910273820438813],[97.43353266829808,1.4963865104589102],[97.43397166695893,1.484932220588091],[97.41610696996075,1.4841795545862164]]]}},{"type":"Feature","properties":{"code":"1224042001","desa":"Tetehosi Maziaya","kecamatan":"Sitolu Ori","kecCode":"122404","kabCode":"1224","province":"Sumatera Utara"},"geometry":{"type":"Polygon","coordinates":[[[97.4621873439708,1.3890476130060283],[97.46061320933222,1.3848128358974887],[97.45894792570624,1.386562225018563],[97.45832554628696,1.3843586665735268],[97.45518896369975,1.3845698264903838],[97.45480871774816,1.3815658822171268],[97.4525643489656,1.381975375020517],[97.4515021767841,1.3777003757334536],[97.45437625895725,1.3707791339193194],[97.45171287085236,1.3636859804009651],[97.43744892083112,1.3776474677182742],[97.4301099996768,1.3951599982776286],[97.43751510373907,1.3938004742563097],[97.44312876098358,1.3978675215081986],[97.44555779025988,1.3949949286155905],[97.44701044627514,1.3980145822463441],[97.4621873439708,1.3890476130060283]]]}},{"type":"Feature","properties":{"code":"1224042002","desa":"Umbubalodano","kecamatan":"Sitolu Ori","kecCode":"122404","kabCode":"1224","province":"Sumatera Utara"},"geometry":{"type":"Polygon","coordinates":[[[97.45685980333728,1.4165018897690107],[97.48240986642224,1.3988709661603886],[97.48623636661505,1.3920974946493816],[97.50248697119683,1.3774370173664636],[97.50935051521418,1.368134814142699],[97.50934100038694,1.3610489981929572],[97.50611700009955,1.3591129988482245],[97.50557999961732,1.3539199985972399],[97.50752999960986,1.34886999864533],[97.49961000040126,1.342879998513555],[97.49929000003351,1.3390799986477389],[97.49252679607486,1.3386536867233811],[97.4900407605727,1.3429506393608803],[97.48460801724627,1.3436972466301782],[97.48290035666615,1.3468107499122688],[97.4850051488686,1.3483675006540032],[97.4805652301013,1.3475891266320614],[97.4775788100141,1.3500831067424302],[97.47902436498254,1.3526565113784546],[97.47567258362288,1.350734401163377],[97.47461621656521,1.3521640714049263],[97.47278147368608,1.350805885574789],[97.47436999567883,1.3489870274229958],[97.47143917257984,1.3494079865825084],[97.47060262141387,1.3467378994306693],[97.46093032557411,1.3503314347401068],[97.4489599966066,1.359126166721566],[97.45437625895725,1.3707791339193194],[97.4515021767841,1.3777003757334536],[97.4525643489656,1.381975375020517],[97.45480871774816,1.3815658822171268],[97.45518896369975,1.3845698264903838],[97.45832554628696,1.3843586665735268],[97.45894792570624,1.386562225018563],[97.46061320933222,1.3848128358974887],[97.46390132588556,1.3896227978023632],[97.45068503298796,1.3990531346324826],[97.4508848884269,1.4098702512370915],[97.45354587444261,1.416098146331482],[97.45685980333728,1.4165018897690107]]]}},{"type":"Feature","properties":{"code":"1224042003","desa":"Hilimbosi","kecamatan":"Sitolu Ori","kecCode":"122404","kabCode":"1224","province":"Sumatera Utara"},"geometry":{"type":"Polygon","coordinates":[[[97.46888593343913,1.4096855844483078],[97.48650833059502,1.4123438877834409],[97.51275583861108,1.4328106399995169],[97.52280999378625,1.4227375613010718],[97.53915797875777,1.420825912000024],[97.53377027887535,1.4168656925158782],[97.53464148811423,1.4124938488350685],[97.53214829220995,1.4152417264445258],[97.5275462283758,1.4141028178120694],[97.52995044265883,1.4099529573889582],[97.52852023911782,1.4079233287267574],[97.52615223783555,1.409140180701546],[97.52458499829908,1.4032779670378335],[97.5237151857073,1.4055047675618033],[97.52066415292836,1.4030599291059878],[97.51668461510297,1.406569953370299],[97.50622000035281,1.390289998532353],[97.49761934295837,1.3824011950156276],[97.46888593343913,1.4096855844483078]]]}},{"type":"Feature","properties":{"code":"1224042004","desa":"Hilisalo'O","kecamatan":"Sitolu Ori","kecCode":"122404","kabCode":"1224","province":"Sumatera Utara"},"geometry":{"type":"Polygon","coordinates":[[[97.45634343600085,1.4239294777734952],[97.45753926542481,1.4189596110131082],[97.45685980333728,1.4165018897690107],[97.45354587444261,1.416098146331482],[97.4508848884269,1.4098702512370915],[97.45068503298796,1.3990531346324826],[97.46293282259177,1.3890081705398194],[97.44701044627514,1.3980145822463441],[97.44555779025988,1.3949949286155905],[97.44312876098358,1.3978675215081986],[97.43751510373907,1.3938004742563097],[97.4301099996768,1.3951599982776286],[97.41783556585874,1.407158709835562],[97.41775213035656,1.4259429222361981],[97.43630571074004,1.4326392373116483],[97.45634343600085,1.4239294777734952]]]}},{"type":"Feature","properties":{"code":"1224042005","desa":"Fulolo Salo'O","kecamatan":"Sitolu Ori","kecCode":"122404","kabCode":"1224","province":"Sumatera Utara"},"geometry":{"type":"Polygon","coordinates":[[[97.41775213035656,1.4259429222361981],[97.40734013044272,1.442751989602083],[97.41764555439885,1.454194998377204],[97.42288666658646,1.4559972199704547],[97.42723555597621,1.4463716655053667],[97.43360611143294,1.4430799984322702],[97.43630571074004,1.4326392373116483],[97.41775213035656,1.4259429222361981]]]}},{"type":"Feature","properties":{"code":"1224042006","desa":"Botombawo","kecamatan":"Sitolu Ori","kecCode":"122404","kabCode":"1224","province":"Sumatera Utara"},"geometry":{"type":"Polygon","coordinates":[[[97.39589940143628,1.406629328410355],[97.4077357880762,1.4241625928394983],[97.39380388843875,1.4360377762192904],[97.40780329298764,1.424114562746961],[97.41108506482395,1.4284317986938708],[97.40946698391421,1.4374491794314337],[97.41775213035656,1.4259429222361981],[97.41783556585874,1.407158709835562],[97.42483786627456,1.4018285998448932],[97.43461998192667,1.3865730006952635],[97.42495732771856,1.3842381574194769],[97.42476612555627,1.3813623422559096],[97.42114674642526,1.3817967894474268],[97.41063009060628,1.3960932013814513],[97.40426729270142,1.3947697851402394],[97.39589940143628,1.406629328410355]]]}},{"type":"Feature","properties":{"code":"1224052001","desa":"Berua","kecamatan":"Namohalu Esiwa","kecCode":"122405","kabCode":"1224","province":"Sumatera Utara"},"geometry":{"type":"Polygon","coordinates":[[[97.3795027109814,1.3566350410594408],[97.39238785821317,1.3578145882564816],[97.39712475020713,1.3549745463252658],[97.40513390100881,1.3414084864146152],[97.39881603143476,1.3273859009562032],[97.40297657940567,1.323071256855497],[97.40220610772576,1.3167533863892205],[97.40467161800079,1.311668272408051],[97.40010723755904,1.3087823542606098],[97.3945964060993,1.309372460608321],[97.39173153478254,1.306662254700036],[97.38820438022805,1.3108021209572496],[97.38509788985579,1.3099735458794595],[97.39163886324303,1.330963484091212],[97.3889024825636,1.3298034989472887],[97.38229947933756,1.318233368303178],[97.37764868124168,1.3172817111109858],[97.37716447186294,1.322426444747851],[97.37379338475692,1.322801010580929],[97.36523004742877,1.3324395035922785],[97.36777667025717,1.3356227690840656],[97.36966438140615,1.3337350579372158],[97.37745119461697,1.334914877628818],[97.37532751755093,1.3419937975771374],[97.3795027109814,1.3566350410594408]]]}},{"type":"Feature","properties":{"code":"1224052002","desa":"Esiwa","kecamatan":"Namohalu Esiwa","kecCode":"122405","kabCode":"1224","province":"Sumatera Utara"},"geometry":{"type":"Polygon","coordinates":[[[97.41082518863162,1.3639153039251997],[97.41192657934822,1.3679954578965698],[97.4245874968156,1.3743415472900393],[97.42495732771856,1.3842381574194769],[97.43461998192667,1.3865730006952635],[97.43744892083112,1.3776474677182742],[97.45171287085236,1.3636859804009651],[97.4489599966066,1.359126166721566],[97.46100968624808,1.3502974853328706],[97.45403508585059,1.341514413061669],[97.44671828801864,1.3549225763029178],[97.43733347126278,1.3559047088212643],[97.43311777866262,1.3525715110560566],[97.42914903989633,1.358851104577503],[97.42495056841403,1.3608957788975116],[97.4163813234394,1.3494662887313664],[97.41663800344115,1.3533038856546569],[97.41082518863162,1.3639153039251997]]]}},{"type":"Feature","properties":{"code":"1224052003","desa":"Dahana Hiligodu","kecamatan":"Namohalu Esiwa","kecCode":"122405","kabCode":"1224","province":"Sumatera Utara"},"geometry":{"type":"Polygon","coordinates":[[[97.33631503601013,1.3673254737648806],[97.35912025759386,1.3751317950608948],[97.36395962643564,1.3688090214907718],[97.36802498566458,1.3685710294013538],[97.37007798591036,1.3638549747044364],[97.3795027109814,1.3566350410594408],[97.37532751755093,1.3419937975771374],[97.37745119461697,1.334914877628818],[97.36966438140615,1.3337350579372158],[97.36777667025717,1.3356227690840656],[97.36523004742877,1.3324395035922785],[97.35490215840791,1.3412692560735482],[97.351531783565,1.3412088656988874],[97.34971050893289,1.3383672958195292],[97.34884982266122,1.341520893576344],[97.34357413963487,1.3407532340772832],[97.34224892564748,1.342608532758326],[97.34569448021614,1.3447288733372427],[97.33631503601013,1.3673254737648806]]]}},{"type":"Feature","properties":{"code":"1224052004","desa":"Hilibanua","kecamatan":"Namohalu Esiwa","kecCode":"122405","kabCode":"1224","province":"Sumatera Utara"},"geometry":{"type":"Polygon","coordinates":[[[97.45719493389915,1.2891366938635989],[97.44052923643515,1.2740401919783217],[97.43671440764388,1.2888452559643357],[97.42153642176851,1.302013786752747],[97.44020929002674,1.3065893124875847],[97.44646102255818,1.300023682395186],[97.45448171076241,1.2994749799351373],[97.45758690790956,1.2945138024242762],[97.45518404890481,1.291794078990854],[97.45719493389915,1.2891366938635989]]]}},{"type":"Feature","properties":{"code":"1224052005","desa":"Sisarahili","kecamatan":"Namohalu Esiwa","kecCode":"122405","kabCode":"1224","province":"Sumatera Utara"},"geometry":{"type":"Polygon","coordinates":[[[97.46100968624808,1.3502974853328706],[97.47099438588225,1.3461832866261727],[97.4637706723787,1.3335027162881823],[97.46462624330655,1.3298497241004508],[97.46765436855434,1.3291479822093561],[97.46870966272081,1.3217494782797299],[97.46352365559225,1.319565828126876],[97.45697610995956,1.3218574697702408],[97.45169563174807,1.315699058095744],[97.44626253768602,1.32023030391102],[97.44815589927536,1.3350530899373314],[97.46100968624808,1.3502974853328706]]]}},{"type":"Feature","properties":{"code":"1224052006","desa":"Sisobahili","kecamatan":"Namohalu Esiwa","kecCode":"122405","kabCode":"1224","province":"Sumatera Utara"},"geometry":{"type":"Polygon","coordinates":[[[97.45719493389915,1.2891366938635989],[97.45537400820399,1.2985112979078788],[97.44531246959485,1.300940841593664],[97.43953818084242,1.3071987884335141],[97.4381818880837,1.3143863473841637],[97.44345477331922,1.3182315579679222],[97.45169563174807,1.315699058095744],[97.45697610995956,1.3218574697702408],[97.46352365559225,1.319565828126876],[97.46859567455078,1.3215292612905682],[97.46765436855434,1.3291479822093561],[97.46462624330655,1.3298497241004508],[97.4637706723787,1.3335027162881823],[97.46867336068709,1.3393955527668706],[97.47027875036412,1.345961302469148],[97.49009000025336,1.3171699982258704],[97.48294804141904,1.309417132632212],[97.47127158481584,1.3146551691325932],[97.46587302382108,1.3128650092466545],[97.4629316022117,1.304647824580417],[97.46552234577968,1.2941199461332704],[97.45719493389915,1.2891366938635989]]]}},{"type":"Feature","properties":{"code":"1224052007","desa":"Lasara","kecamatan":"Namohalu Esiwa","kecCode":"122405","kabCode":"1224","province":"Sumatera Utara"},"geometry":{"type":"Polygon","coordinates":[[[97.39962722171894,1.3660460730425406],[97.40341339271396,1.3668632060459505],[97.41082518863162,1.3639153039251997],[97.41663800344115,1.3533038856546569],[97.4163813234394,1.3494662887313664],[97.40513390100881,1.3400419926474696],[97.39859763557247,1.3530233889074645],[97.39236841307188,1.357778937331979],[97.39962722171894,1.3660460730425406]]]}},{"type":"Feature","properties":{"code":"1224052008","desa":"Namohalu","kecamatan":"Namohalu Esiwa","kecCode":"122405","kabCode":"1224","province":"Sumatera Utara"},"geometry":{"type":"Polygon","coordinates":[[[97.4042273430175,1.3111351426084732],[97.40297657940567,1.323071256855497],[97.39881603143476,1.3273859009562032],[97.40513390100881,1.3400419926474696],[97.4163813234394,1.3494662887313664],[97.42495056841403,1.3608957788975116],[97.42914903989633,1.358851104577503],[97.43311777866262,1.3525715110560566],[97.42859620774885,1.349488919271305],[97.43031128144054,1.34577006163627],[97.42849428488341,1.33964496984356],[97.43202901083025,1.3321366425044618],[97.44082549560021,1.3388810892957494],[97.44819576262438,1.3345348726959227],[97.44708356385547,1.3183893404234235],[97.43998075970437,1.3169466470993676],[97.4381818880837,1.3143863473841637],[97.44020929002674,1.3065893124875847],[97.42193850685669,1.302327780548216],[97.41725433042308,1.3051612277508404],[97.4088516470859,1.304288221667447],[97.4042273430175,1.3111351426084732]]]}},{"type":"Feature","properties":{"code":"1224052009","desa":"Tuhenakhe I","kecamatan":"Namohalu Esiwa","kecCode":"122405","kabCode":"1224","province":"Sumatera Utara"},"geometry":{"type":"Polygon","coordinates":[[[97.42859620774885,1.349488919271305],[97.43733347126278,1.3559047088212643],[97.44671828801864,1.3549225763029178],[97.45403508585059,1.341514413061669],[97.44819576262438,1.3345348726959227],[97.44082549560021,1.3388810892957494],[97.43202901083025,1.3321366425044618],[97.42849428488341,1.33964496984356],[97.43031128144054,1.34577006163627],[97.42859620774885,1.349488919271305]]]}},{"type":"Feature","properties":{"code":"1224052010","desa":"Orahili","kecamatan":"Namohalu Esiwa","kecCode":"122405","kabCode":"1224","province":"Sumatera Utara"},"geometry":{"type":"Polygon","coordinates":[[[97.38509788985579,1.3099735458794595],[97.38820438022805,1.3108021209572496],[97.39173153478254,1.306662254700036],[97.3945964060993,1.309372460608321],[97.40010723755904,1.3087823542606098],[97.4042273430175,1.3111351426084732],[97.4088516470859,1.304288221667447],[97.41725433042308,1.3051612277508404],[97.42193850685669,1.302327780548216],[97.43671440764388,1.2888452559643357],[97.44052923643515,1.2740401919783217],[97.42188925458548,1.2746355009040373],[97.41130999965678,1.278239998949174],[97.39946332836996,1.2759763927712326],[97.39134770773057,1.278116267524272],[97.38864088956548,1.2840324468058884],[97.38430075327722,1.283004519909736],[97.3862995010212,1.2889436534872665],[97.38069479832632,1.2909063528041875],[97.37958863041104,1.294636828780721],[97.38209063607405,1.300868179969727],[97.38621764472855,1.3040014701354596],[97.38509788985579,1.3099735458794595]]]}},{"type":"Feature","properties":{"code":"1224052011","desa":"Banua Sibohou","kecamatan":"Namohalu Esiwa","kecCode":"122405","kabCode":"1224","province":"Sumatera Utara"},"geometry":{"type":"Polygon","coordinates":[[[97.46552234577968,1.2941199461332704],[97.4629316022117,1.304647824580417],[97.46587302382108,1.3128650092466545],[97.47127158481584,1.3146551691325932],[97.4757457416727,1.3111631447990078],[97.48459421355216,1.3098744037179026],[97.48479943344717,1.302051496225431],[97.46552234577968,1.2941199461332704]]]}},{"type":"Feature","properties":{"code":"1224062001","desa":"Banua Sibohou Iii","kecamatan":"Alasa Talumuzoi","kecCode":"122406","kabCode":"1224","province":"Sumatera Utara"},"geometry":{"type":"Polygon","coordinates":[[[97.49212222166324,1.2267833312153815],[97.48587606762645,1.2101814217832827],[97.48352063077253,1.2142312650044906],[97.48769323865213,1.2194199125368201],[97.48140888681075,1.2267786880156921],[97.47944582956143,1.2276352940622937],[97.47222319164705,1.2204811782004845],[97.4715352966167,1.2311705631956713],[97.47424402044525,1.238248657566367],[97.47672903971346,1.2361778075789411],[97.47976628678475,1.2379725450141446],[97.48087074059224,1.2350733537726688],[97.48114685404413,1.2374203172116562],[97.48238936367822,1.2328644479587623],[97.49003905905539,1.2339862532845423],[97.49212222166324,1.2267833312153815]]]}},{"type":"Feature","properties":{"code":"1224062002","desa":"Harefanaese","kecamatan":"Alasa Talumuzoi","kecCode":"122406","kabCode":"1224","province":"Sumatera Utara"},"geometry":{"type":"Polygon","coordinates":[[[97.44321398703595,1.2146215500876538],[97.44274925067742,1.2093579638479817],[97.44767482043663,1.205165351453498],[97.44379231496343,1.1970661353566099],[97.44656038055717,1.1880632804687452],[97.43785899459698,1.1859915860179029],[97.42129734689512,1.1877981801149922],[97.41784469757475,1.197124472579017],[97.41905478485052,1.1988458936837958],[97.4350999995654,1.2125999982367244],[97.44032406420428,1.2138426508616793],[97.43848734191738,1.2174021000669153],[97.44321398703595,1.2146215500876538]]]}},{"type":"Feature","properties":{"code":"1224062003","desa":"Hilimbowo Kare","kecamatan":"Alasa Talumuzoi","kecCode":"122406","kabCode":"1224","province":"Sumatera Utara"},"geometry":{"type":"Polygon","coordinates":[[[97.49472222195305,1.2615916656137711],[97.4890499999576,1.2374061097219982],[97.49003905905539,1.2339862532845423],[97.48238936367822,1.2328644479587623],[97.48114685404413,1.2374203172116562],[97.48087074059224,1.2350733537726688],[97.47976628678475,1.2379725450141446],[97.47672903971346,1.2361778075789411],[97.47424402044525,1.238248657566367],[97.4715352966167,1.2311705631956713],[97.47222319164705,1.2204811782004845],[97.46548430805443,1.220440920948459],[97.46136082744026,1.2308877399023053],[97.45120744556719,1.2369766537678275],[97.44725231084557,1.2441701158684517],[97.44705138341465,1.2534787420502334],[97.44167965729042,1.2561217991786549],[97.44582772806723,1.2636725133643765],[97.4416951004486,1.2740389680010542],[97.4629634750844,1.2667506013443632],[97.46361365704466,1.2629608015890879],[97.47521041662748,1.2521923814746225],[97.48846385692148,1.2635130284922242],[97.49472222195305,1.2615916656137711]]]}},{"type":"Feature","properties":{"code":"1224062004","desa":"Laehuwa","kecamatan":"Alasa Talumuzoi","kecCode":"122406","kabCode":"1224","province":"Sumatera Utara"},"geometry":{"type":"Polygon","coordinates":[[[97.506888889111,1.2614722203576978],[97.48846385692148,1.2635130284922242],[97.47521041662748,1.2521923814746225],[97.46361365704466,1.2629608015890879],[97.4629634750844,1.2667506013443632],[97.4416951004486,1.2740389680010542],[97.44380898389754,1.2786053098591306],[97.45882343705205,1.2904179175116977],[97.48479943344717,1.302051496225431],[97.49525422760057,1.2979286999999762],[97.49792653967813,1.2933850543322967],[97.49301387069362,1.2881536197550616],[97.48818857624182,1.2924428831890316],[97.48574365234775,1.2912894999683207],[97.48268212358118,1.293930117236003],[97.48079723270621,1.291705211583618],[97.48701479639578,1.2863866632771797],[97.49071777200764,1.2863656793959248],[97.49363354585152,1.2775805153016537],[97.49676121795592,1.2770093198979562],[97.49824022500643,1.2709276482728398],[97.50234237280232,1.2699518209013767],[97.506888889111,1.2614722203576978]]]}},{"type":"Feature","properties":{"code":"1224062005","desa":"Mazingo","kecamatan":"Alasa Talumuzoi","kecCode":"122406","kabCode":"1224","province":"Sumatera Utara"},"geometry":{"type":"Polygon","coordinates":[[[97.44052923643515,1.2740401919783217],[97.44582772806723,1.2636725133643765],[97.42871652444808,1.2346196574921007],[97.4257219906774,1.2444483984848058],[97.41427902505698,1.2463137641767883],[97.41210181764482,1.2514890918502846],[97.40126061268717,1.2552110224687376],[97.39946332836996,1.2759763927712326],[97.41130999965678,1.278239998949174],[97.42188925458548,1.2746355009040373],[97.44052923643515,1.2740401919783217]]]}},{"type":"Feature","properties":{"code":"1224062006","desa":"Hilina'A","kecamatan":"Alasa Talumuzoi","kecCode":"122406","kabCode":"1224","province":"Sumatera Utara"},"geometry":{"type":"Polygon","coordinates":[[[97.44321398703595,1.2146215500876538],[97.43513683939368,1.2181732696199234],[97.4363146715849,1.221034571524277],[97.43445869391364,1.2231403943474017],[97.44091283505935,1.223610514047142],[97.43917538263786,1.2289650963892937],[97.42871652444808,1.2346196574921007],[97.44167965729042,1.2561217991786549],[97.44705138341465,1.2534787420502334],[97.44725231084557,1.2441701158684517],[97.45120744556719,1.2369766537678275],[97.46136082744026,1.2308877399023053],[97.46563662263208,1.2238274035447878],[97.46548430805443,1.220440920948459],[97.45797999977725,1.2213499988390601],[97.44321398703595,1.2146215500876538]]]}},{"type":"Feature","properties":{"code":"1224072001","desa":"Bitaya","kecamatan":"Alasa","kecCode":"122407","kabCode":"1224","province":"Sumatera Utara"},"geometry":{"type":"Polygon","coordinates":[[[97.39286001487783,1.1884162535796519],[97.39208437299548,1.1767942167649759],[97.388277234307,1.1724160085821103],[97.39018080320159,1.168513692847196],[97.38466045421664,1.1648969118615515],[97.3854980243144,1.1602997925051235],[97.3826648792808,1.1602577554947324],[97.38352148532834,1.1536904436700623],[97.38046149889914,1.140827473734278],[97.3720758819964,1.1393313876604236],[97.37457431555225,1.1338586281063285],[97.36879222608042,1.1356670181494861],[97.36880104033582,1.1261568718838444],[97.3644624805591,1.1257381925057517],[97.3654371855777,1.122889312037499],[97.36203747125234,1.122425753791367],[97.36066928136226,1.12890978479737],[97.36697485270736,1.1611514819580673],[97.36693202159556,1.1820986699970313],[97.37231105201352,1.1780136902635465],[97.37628241230355,1.1891376564492147],[97.38257614407381,1.1914507208431042],[97.39286001487783,1.1884162535796519]]]}},{"type":"Feature","properties":{"code":"1224072002","desa":"Lahemboho","kecamatan":"Alasa","kecCode":"122407","kabCode":"1224","province":"Sumatera Utara"},"geometry":{"type":"Polygon","coordinates":[[[97.37945680059096,1.1368411954945605],[97.38352148532834,1.1536904436700623],[97.3826648792808,1.1602577554947324],[97.3854980243144,1.1602997925051235],[97.38466045421664,1.1648969118615515],[97.39018080320159,1.168513692847196],[97.388277234307,1.1724160085821103],[97.39208437299548,1.1767942167649759],[97.39286001487783,1.1884162535796519],[97.39646489873614,1.1864531990304432],[97.40629152543364,1.1925121960487821],[97.40729089975524,1.1809480144200195],[97.41390580101198,1.1798534630487534],[97.41528588893271,1.1705735648104258],[97.42056829169336,1.163720719135727],[97.42104418324254,1.1532034994535199],[97.40750931000674,1.1364964511804634],[97.40744540058483,1.1283215859117746],[97.40499218943806,1.1280618068465158],[97.40133792740346,1.13219462331822],[97.39766682106698,1.129438877540187],[97.40003870921912,1.1266616595490666],[97.39608465368389,1.1235105196394561],[97.3938732000882,1.1245834531073164],[97.39430662025438,1.1319923702869028],[97.38824630931974,1.129854604444023],[97.38671415773223,1.1344855284168458],[97.38267308739313,1.131533627910333],[97.37945680059096,1.1368411954945605]]]}},{"type":"Feature","properties":{"code":"1224072003","desa":"Anaoma","kecamatan":"Alasa","kecCode":"122407","kabCode":"1224","province":"Sumatera Utara"},"geometry":{"type":"Polygon","coordinates":[[[97.48587606762645,1.2101814217832827],[97.48821666656596,1.1879666654021668],[97.50183999891686,1.1915299987793189],[97.49515088380626,1.1839729632589455],[97.49400140094393,1.1793894128734932],[97.49079119355876,1.1776044879411889],[97.48938419342583,1.1800978106470814],[97.47218820442212,1.1817513509239053],[97.46857540742917,1.1765818652464488],[97.45351791002359,1.1671415648273744],[97.45176786889208,1.1594859366312529],[97.44189644156756,1.1838276624941066],[97.44155497797993,1.1869791828170022],[97.44656038055717,1.1880632804687452],[97.44379231496343,1.1970661353566099],[97.44528363733008,1.2013273930027553],[97.45382884162778,1.1980768456315198],[97.45472113996868,1.2024193615210703],[97.47078250021228,1.2131269362039945],[97.47233703232826,1.2205252458799813],[97.47944582956143,1.2276352940622937],[97.48769323865213,1.2194199125368201],[97.48352063077253,1.2142312650044906],[97.48587606762645,1.2101814217832827]]]}},{"type":"Feature","properties":{"code":"1224072004","desa":"Dahana Tugala Oyo","kecamatan":"Alasa","kecCode":"122407","kabCode":"1224","province":"Sumatera Utara"},"geometry":{"type":"Polygon","coordinates":[[[97.47222319164705,1.2204811782004845],[97.47078250021228,1.2131269362039945],[97.45472113996868,1.2024193615210703],[97.45382884162778,1.1980768456315198],[97.44534926085976,1.20142388306362],[97.44767482043663,1.205165351453498],[97.44274925067742,1.2093579638479817],[97.4424684886299,1.2142974200334677],[97.45797999977725,1.2213499988390601],[97.47222319164705,1.2204811782004845]]]}},{"type":"Feature","properties":{"code":"1224072005","desa":"Fulolo","kecamatan":"Alasa","kecCode":"122407","kabCode":"1224","province":"Sumatera Utara"},"geometry":{"type":"Polygon","coordinates":[[[97.39882056491717,1.187309805077034],[97.38453919862518,1.1918076410783658],[97.37628241230355,1.1891376564492147],[97.3761514278462,1.201040831227696],[97.38310706783697,1.2038214684412376],[97.39070230656625,1.2123304219571598],[97.39252973256117,1.222019586369765],[97.3954802643028,1.225141439857059],[97.41135512224116,1.2268092559720263],[97.41603790202758,1.2371741880563847],[97.4194018674023,1.2185152754983868],[97.41610349677897,1.1991508996547247],[97.39882056491717,1.187309805077034]]]}},{"type":"Feature","properties":{"code":"1224072006","desa":"Hiligawoni","kecamatan":"Alasa","kecCode":"122407","kabCode":"1224","province":"Sumatera Utara"},"geometry":{"type":"Polygon","coordinates":[[[97.37628241230355,1.1891376564492147],[97.37231105201352,1.1780136902635465],[97.36263003274983,1.1850904437450802],[97.35829838696105,1.1807959939208041],[97.35414670270823,1.1924553526003505],[97.3419107796588,1.1987526456789241],[97.33957226534784,1.2146988594079489],[97.35927619194274,1.2186137314772199],[97.36375930964446,1.2214718344930864],[97.37049318491262,1.214257309370889],[97.36549631600225,1.2081064025388901],[97.37600251270584,1.2006087609443483],[97.37628241230355,1.1891376564492147]]]}},{"type":"Feature","properties":{"code":"1224072007","desa":"Ononamolo Tumula","kecamatan":"Alasa","kecCode":"122407","kabCode":"1224","province":"Sumatera Utara"},"geometry":{"type":"Polygon","coordinates":[[[97.36693202159556,1.1820986699970313],[97.36697485270736,1.1611514819580673],[97.36066928136226,1.12890978479737],[97.36201850724837,1.1224689931952774],[97.35520434500455,1.1242947815227604],[97.35747730503368,1.1194267737758195],[97.35499005005084,1.1142510009379467],[97.35206021800472,1.1178079563231365],[97.34847692237213,1.1177834246163671],[97.34799036396419,1.121306073563542],[97.34482472877828,1.1188707841092427],[97.34190163984886,1.120688711462661],[97.32156699801862,1.1557809546360804],[97.32694211098969,1.1713869476408307],[97.34256818407447,1.1980952430626195],[97.35414670270823,1.1924553526003505],[97.35829838696105,1.1807959939208041],[97.3616772208271,1.1850028803548245],[97.36693202159556,1.1820986699970313]]]}},{"type":"Feature","properties":{"code":"1224072008","desa":"Banua Sibohou I","kecamatan":"Alasa","kecCode":"122407","kabCode":"1224","province":"Sumatera Utara"},"geometry":{"type":"Polygon","coordinates":[[[97.40671594158749,1.2260461902099427],[97.3954802643028,1.225141439857059],[97.39252973256117,1.222019586369765],[97.39070230656625,1.2123304219571598],[97.38310706783697,1.2038214684412376],[97.37600251270584,1.2006087609443483],[97.36549631600225,1.2081064025388901],[97.37049318491262,1.214257309370889],[97.35811469143994,1.2273236519939703],[97.39326920461018,1.241435508655122],[97.40332753443822,1.2347815606412609],[97.40671594158749,1.2260461902099427]]]}},{"type":"Feature","properties":{"code":"1224072009","desa":"Ombolata","kecamatan":"Alasa","kecCode":"122407","kabCode":"1224","province":"Sumatera Utara"},"geometry":{"type":"Polygon","coordinates":[[[97.40160839491152,1.2550225920172293],[97.41210181764482,1.2514890918502846],[97.41427902505698,1.2463137641767883],[97.4239233996452,1.244568034397087],[97.41509563465586,1.2361748146351996],[97.41135512224116,1.2268092559720263],[97.40671594158749,1.2260461902099427],[97.40332753443822,1.2347815606412609],[97.39326920461018,1.241435508655122],[97.39068809008336,1.2468395761927906],[97.3990710297043,1.249823321692913],[97.40298524257496,1.2475866277271304],[97.40160839491152,1.2550225920172293]]]}},{"type":"Feature","properties":{"code":"1224072010","desa":"Banua Sibohou Ii","kecamatan":"Alasa","kecCode":"122407","kabCode":"1224","province":"Sumatera Utara"},"geometry":{"type":"MultiPolygon","coordinates":[[[[97.35695377459706,1.2339329171920494],[97.35992475242544,1.2242475209387946],[97.34295308941358,1.2227242510575198],[97.33767068575361,1.2198332058751584],[97.32969284305032,1.2365884560111775],[97.35695377459706,1.2339329171920494]]],[[[97.40022990058952,1.2698967176410936],[97.40298524257496,1.2475866277271304],[97.3990710297043,1.249823321692913],[97.39068809008336,1.2468395761927906],[97.38816176855086,1.2600228279837455],[97.39430097341125,1.2679226832690706],[97.40022990058952,1.2698967176410936]]]]}},{"type":"Feature","properties":{"code":"1224072011","desa":"Dahana Alasa","kecamatan":"Alasa","kecCode":"122407","kabCode":"1224","province":"Sumatera Utara"},"geometry":{"type":"Polygon","coordinates":[[[97.38865409790832,1.2827347673629579],[97.39134770773057,1.278116267524272],[97.39946332836996,1.2759763927712326],[97.40022990058952,1.2698967176410936],[97.39273049181877,1.266923314344439],[97.38816176855086,1.2600228279837455],[97.39326920461018,1.241435508655122],[97.35811469143994,1.2273236519939703],[97.35695377459706,1.2339329171920494],[97.32966069498514,1.2365928087298554],[97.32743629025265,1.2399087368137722],[97.3287610635723,1.2533601394589184],[97.36766024762238,1.2530765877147103],[97.37672599390952,1.2643552327955536],[97.37843920600459,1.2718505361527992],[97.38865409790832,1.2827347673629579]]]}},{"type":"Feature","properties":{"code":"1224072012","desa":"Ononamolo Alasa","kecamatan":"Alasa","kecCode":"122407","kabCode":"1224","province":"Sumatera Utara"},"geometry":{"type":"Polygon","coordinates":[[[97.37958863041104,1.294636828780721],[97.38069479832632,1.2909063528041875],[97.3862995010212,1.2889436534872665],[97.38430075327722,1.283004519909736],[97.3862423940713,1.2846606241537037],[97.38892642521442,1.283118733809468],[97.37843920600459,1.2718505361527992],[97.37672599390952,1.2643552327955536],[97.37051560141396,1.2550753345572032],[97.36330583369732,1.252648284691457],[97.3287610635723,1.2533601394589184],[97.32814193879949,1.2663391480189046],[97.37134550029462,1.2787482984669987],[97.36988213155517,1.2821747217540116],[97.37163103594361,1.2906693976331667],[97.37958863041104,1.294636828780721]]]}},{"type":"Feature","properties":{"code":"1224072013","desa":"Loloana'A","kecamatan":"Alasa","kecCode":"122407","kabCode":"1224","province":"Sumatera Utara"},"geometry":{"type":"MultiPolygon","coordinates":[[[[97.36276401644623,1.2216742601942405],[97.33957226534784,1.2146988594079489],[97.33767068575361,1.2198332058751584],[97.34295308941358,1.2227242510575198],[97.35992475242544,1.2242475209387946],[97.36276401644623,1.2216742601942405]]],[[[97.43605239779997,1.2164894266867807],[97.44032406420428,1.2138426508616793],[97.4350999995654,1.2125999982367244],[97.41784469757475,1.197124472579017],[97.41610349677897,1.1991508996547247],[97.4194018674023,1.2185152754983868],[97.41603790202758,1.2371741880563847],[97.4239233996452,1.244568034397087],[97.4257219906774,1.2444483984848058],[97.42871652444808,1.2346196574921007],[97.43917538263786,1.2289650963892937],[97.44091283505935,1.223610514047142],[97.43445869391364,1.2231403943474017],[97.43605239779997,1.2164894266867807]]]]}},{"type":"Feature","properties":{"code":"1224072014","desa":"Hilisebua Siwalubanua","kecamatan":"Alasa","kecCode":"122407","kabCode":"1224","province":"Sumatera Utara"},"geometry":{"type":"Polygon","coordinates":[[[97.41610349677897,1.1991508996547247],[97.42129734689512,1.1877981801149922],[97.44155497797993,1.1869791828170022],[97.45176786889208,1.1594859366312529],[97.44591887525593,1.1535211031276262],[97.4472883017138,1.1491955601430128],[97.44089231073161,1.1468541707020878],[97.44281491467659,1.143656174315221],[97.4411588104308,1.1419239271716746],[97.43876031403732,1.1476346338490904],[97.42880840368497,1.1403092492983424],[97.42583486188943,1.1452173209430978],[97.41991498279025,1.1476727048492357],[97.42013650829328,1.1449102807057105],[97.4239886193793,1.1435800314156046],[97.42414090427934,1.1394302519315096],[97.42075255288808,1.1377170398383265],[97.42435029792796,1.1374124691393204],[97.4230939423316,1.1360038277451971],[97.411805779713,1.1413147848742262],[97.42104418324254,1.1532034994535199],[97.42056829169336,1.163720719135727],[97.41528588893271,1.1705735648104258],[97.41390580101198,1.1798534630487534],[97.40729089975524,1.1809480144200195],[97.40591081183452,1.1860876506994786],[97.40629152543364,1.1925121960487821],[97.40997325366277,1.1962395549751241],[97.41610349677897,1.1991508996547247]]]}},{"type":"Feature","properties":{"code":"1224082001","desa":"Te'Olo","kecamatan":"Tugala Oyo","kecCode":"122408","kabCode":"1224","province":"Sumatera Utara"},"geometry":{"type":"Polygon","coordinates":[[[97.44608435590834,1.1508579200711238],[97.4481165332515,1.1560826915713234],[97.46423320539816,1.1591174762955014],[97.46423836840603,1.149498029126418],[97.46993059402178,1.1479792162852183],[97.47202532640772,1.1519429979839253],[97.47161436680966,1.1468602420252145],[97.47409688056668,1.1458421959803284],[97.47726198695118,1.1487871744050584],[97.48106174940027,1.1448226525642473],[97.4657873723894,1.1365255487451997],[97.46012875623717,1.139489585602723],[97.45198164133971,1.1343755530219288],[97.45055488490009,1.1393869459777628],[97.45756890707945,1.1492574352983702],[97.44608435590834,1.1508579200711238]]]}},{"type":"Feature","properties":{"code":"1224082002","desa":"Siwawo","kecamatan":"Tugala Oyo","kecCode":"122408","kabCode":"1224","province":"Sumatera Utara"},"geometry":{"type":"Polygon","coordinates":[[[97.4401046134372,1.1298266409243558],[97.44207507660356,1.1226484654998978],[97.44628333270968,1.1191499984231954],[97.4342499999376,1.0916666654643667],[97.39193333275716,1.085216665703901],[97.3863917049133,1.0870501153558618],[97.39324664241866,1.0905663530361616],[97.39505467093636,1.097184694192286],[97.40219530596863,1.1021696641671133],[97.4151292845889,1.101361290560451],[97.41741967797583,1.1052684293595092],[97.43170094624173,1.1102534020323234],[97.43574281607816,1.1177982238599702],[97.43291350755236,1.1250735863198609],[97.43587754441319,1.1318100345408875],[97.4401046134372,1.1298266409243558]]]}},{"type":"Feature","properties":{"code":"1224082003","desa":"Fabaliwa Oyo","kecamatan":"Tugala Oyo","kecCode":"122408","kabCode":"1224","province":"Sumatera Utara"},"geometry":{"type":"Polygon","coordinates":[[[97.40784149079222,1.1289807269176007],[97.40737873743883,1.1361733445547701],[97.41099208571625,1.1412633175729008],[97.41863959124419,1.1366320059923174],[97.42435029792796,1.1368604337917472],[97.42081184429122,1.1375154469094104],[97.42438836892813,1.140496250727152],[97.4237411556299,1.1442272456124445],[97.41993826623803,1.145109600148505],[97.42019774223205,1.1477558705546467],[97.42583486188943,1.1452173209430978],[97.42880840368497,1.1403092492983424],[97.43289831980167,1.1442926748885278],[97.44167088979981,1.1322142231428591],[97.43978468501523,1.129654371289988],[97.43587754441319,1.1318100345408875],[97.43264404998297,1.123591568340777],[97.43574281607816,1.1177982238599702],[97.43170094624173,1.1102534020323234],[97.41748859662151,1.1053010756490578],[97.42507403543844,1.1290799653066017],[97.41688076193765,1.133965697791721],[97.40784149079222,1.1289807269176007]]]}},{"type":"Feature","properties":{"code":"1224082004","desa":"Ononazara","kecamatan":"Tugala Oyo","kecCode":"122408","kabCode":"1224","province":"Sumatera Utara"},"geometry":{"type":"Polygon","coordinates":[[[97.45009181678398,1.1560441214474793],[97.45351791002359,1.1671415648273744],[97.46857540742917,1.1765818652464488],[97.47218820442212,1.1817513509239053],[97.48938419342583,1.1800978106470814],[97.49079119355876,1.1776044879411889],[97.49400140094393,1.1793894128734932],[97.49308612222683,1.1642574768003635],[97.48227810764858,1.1448046076674845],[97.47726198695118,1.1487871744050584],[97.47409688056668,1.1458421959803284],[97.47161436680966,1.1468602420252145],[97.47202532640772,1.1519429979839253],[97.46993059402178,1.1479792162852183],[97.46423836840603,1.149498029126418],[97.46423320539816,1.1591174762955014],[97.45009181678398,1.1560441214474793]]]}},{"type":"Feature","properties":{"code":"1224082005","desa":"Humene Siheneasi","kecamatan":"Tugala Oyo","kecCode":"122408","kabCode":"1224","province":"Sumatera Utara"},"geometry":{"type":"Polygon","coordinates":[[[97.35520434500455,1.1242947815227604],[97.3654371855777,1.122889312037499],[97.3644624805591,1.1257381925057517],[97.36880104033582,1.1261568718838444],[97.36879222608042,1.1356670181494861],[97.37457431555225,1.1338586281063285],[97.3720758819964,1.1393313876604236],[97.37960489285159,1.1408036785722726],[97.38290143155587,1.1313040471800417],[97.38671415773223,1.1344855284168458],[97.38824630931974,1.129854604444023],[97.39458025877201,1.1317187317695836],[97.39469923188409,1.1234382069524411],[97.39970615881225,1.1261733411684818],[97.39766682106698,1.129438877540187],[97.40190899870139,1.1323135964301883],[97.40617140388724,1.1279093160018854],[97.41876696762152,1.1338309685575174],[97.42533162555412,1.1280909385854851],[97.4151292845889,1.101361290560451],[97.40219530596863,1.1021696641671133],[97.39505467093636,1.097184694192286],[97.39324664241866,1.0905663530361616],[97.3863917049133,1.0870501153558618],[97.36508333292954,1.0940999988932667],[97.36149141729514,1.0903925644468673],[97.34269875934035,1.118214072172264],[97.34799036396419,1.121306073563542],[97.34847692237213,1.1177834246163671],[97.35206021800472,1.1178079563231365],[97.355703239413,1.1142035473109317],[97.35747730503368,1.1194267737758195],[97.35520434500455,1.1242947815227604]]]}},{"type":"Feature","properties":{"code":"1224082006","desa":"Gunung Tua","kecamatan":"Tugala Oyo","kecCode":"122408","kabCode":"1224","province":"Sumatera Utara"},"geometry":{"type":"Polygon","coordinates":[[[97.43289831980167,1.1442926748885278],[97.43876031403732,1.1476346338490904],[97.4411588104308,1.1419239271716746],[97.44281491467659,1.143656174315221],[97.44089231073161,1.1468541707020878],[97.4470218020146,1.1488909885446514],[97.44608435590834,1.1508579200711238],[97.45756890707945,1.1492574352983702],[97.45030247757732,1.1379216697778496],[97.45285553235696,1.1343069356491948],[97.45887400862864,1.1385896421261423],[97.45824255055334,1.1326184090468403],[97.45258393440109,1.1331573250843883],[97.44934157355482,1.1243471616359306],[97.44898055600794,1.1190802020392674],[97.45387271595314,1.1146495705757515],[97.45150376768481,1.1132114089355425],[97.44544330026814,1.1217053626590396],[97.44207507660356,1.1226484654998978],[97.43991941155167,1.1273639788049004],[97.4415361605654,1.1328878666159832],[97.43289831980167,1.1442926748885278]]]}},{"type":"Feature","properties":{"code":"1224082007","desa":"Botona'Ai","kecamatan":"Tugala Oyo","kecCode":"122408","kabCode":"1224","province":"Sumatera Utara"},"geometry":{"type":"Polygon","coordinates":[[[97.45150376768481,1.1132114089355425],[97.46810363387567,1.1179124737325499],[97.46975918144113,1.1131527686415794],[97.47708776758645,1.1138529627993847],[97.47783333344165,1.08544999840575],[97.46991666712057,1.0838833317391692],[97.46518333284462,1.097649998921773],[97.45150376768481,1.1132114089355425]]]}},{"type":"Feature","properties":{"code":"1224082008","desa":"Harefa","kecamatan":"Tugala Oyo","kecCode":"122408","kabCode":"1224","province":"Sumatera Utara"},"geometry":{"type":"Polygon","coordinates":[[[97.45887400862864,1.1385896421261423],[97.4657873723894,1.1365255487451997],[97.48227810764858,1.1448046076674845],[97.47744166520073,1.1391052837091873],[97.47708776758645,1.1138529627993847],[97.46975918144113,1.1131527686415794],[97.46810363387567,1.1179124737325499],[97.45387271595314,1.1146495705757515],[97.44898055600794,1.1190802020392674],[97.45258393440109,1.1331573250843883],[97.45824255055334,1.1326184090468403],[97.45887400862864,1.1385896421261423]]]}},{"type":"Feature","properties":{"code":"1224092001","desa":"Afulu","kecamatan":"Afulu","kecCode":"122409","kabCode":"1224","province":"Sumatera Utara"},"geometry":{"type":"Polygon","coordinates":[[[97.29063863656387,1.284537072593196],[97.28844980721287,1.2772313094508476],[97.29450788962747,1.269945239662663],[97.29336176573298,1.2660975388561797],[97.28083627357522,1.261431179796193],[97.27600618124035,1.2554549635734435],[97.26880197762921,1.2569285540056414],[97.24905693223171,1.2484647842279168],[97.24578999021593,1.2508505794934617],[97.2502914540874,1.255837929973782],[97.24845032782042,1.259281229038946],[97.23872043490019,1.2604438438005245],[97.24310302458497,1.2628784164951559],[97.24108886695767,1.26708984270686],[97.24468993858983,1.2703247059016392],[97.24687948559982,1.2779974365050994],[97.25546447590489,1.2869570924585314],[97.26955686405806,1.2954743431196136],[97.27707579621108,1.294608691691933],[97.28027490506287,1.291605448889826],[97.28605288463297,1.2931397138824732],[97.29063863656387,1.284537072593196]]]}},{"type":"Feature","properties":{"code":"1224092002","desa":"Lauru Fadoro","kecamatan":"Afulu","kecCode":"122409","kabCode":"1224","province":"Sumatera Utara"},"geometry":{"type":"Polygon","coordinates":[[[97.34157228203524,1.270739585644092],[97.3128616712292,1.2605256991937248],[97.29632970205414,1.2481790390372662],[97.26662887832015,1.2142694349300627],[97.25813397939969,1.214196192344047],[97.25633153657122,1.2183543004496684],[97.25818660502783,1.222499916971981],[97.25548044426715,1.228246076723057],[97.26310978888567,1.231505144271383],[97.26285994642944,1.2418676976489813],[97.25626764873306,1.2455142219125617],[97.2554876622259,1.2486419048053778],[97.24905693223171,1.2484647842279168],[97.26880197762921,1.2569285540056414],[97.27600618124035,1.2554549635734435],[97.28083627357522,1.261431179796193],[97.29336176573298,1.2660975388561797],[97.29450788962747,1.269945239662663],[97.28844980721287,1.2772313094508476],[97.28869540576841,1.2797691548932608],[97.292624971865,1.2875464208926228],[97.29778252804128,1.289674935409545],[97.29810999188264,1.2935226371153505],[97.30441367105412,1.2977796661492877],[97.30581157274595,1.302008567986949],[97.31253555457226,1.2922116656926483],[97.33772000007797,1.2924933315584872],[97.33778111080967,1.2816416656989087],[97.34157228203524,1.270739585644092]]]}},{"type":"Feature","properties":{"code":"1224092003","desa":"Lauru I","kecamatan":"Afulu","kecCode":"122409","kabCode":"1224","province":"Sumatera Utara"},"geometry":{"type":"MultiPolygon","coordinates":[[[[97.08788883390264,1.234667000502512],[97.09283493968074,1.2315510969298866],[97.09166781481787,1.2221308109230078],[97.08715699080255,1.2224655215011002],[97.08388939587898,1.2147153196993414],[97.08586461376098,1.2112348228757281],[97.08884488878067,1.2114549229530323],[97.09071204502492,1.2032050839033699],[97.09209213204633,1.2034073378340666],[97.09291304580044,1.2029028919111573],[97.09101423611816,1.2013395860110194],[97.09461911997646,1.1961785350750898],[97.09370255792675,1.200093075294536],[97.09543361616852,1.2025320222916267],[97.09572509993347,1.1996627892661618],[97.09661501866822,1.1997817623781184],[97.09897068484929,1.2060016732913514],[97.09631602736282,1.2120146753830352],[97.09344779797755,1.2123922719314548],[97.09361911882736,1.2174938354121598],[97.09819099961497,1.2149609982942724],[97.1061367886819,1.1907303126236009],[97.10204522320856,1.194140203673404],[97.10040109793236,1.1901205758743674],[97.10211431002745,1.1885644087925933],[97.08852282896542,1.197487387695062],[97.08079160285024,1.2088510987488077],[97.07901890509844,1.2162155300640876],[97.08224307355907,1.2287433928208067],[97.08032760843248,1.2310514695745514],[97.08210030708358,1.2328836547797326],[97.08600262282283,1.2319318698837722],[97.08788883390264,1.234667000502512]]],[[[97.23965584044474,1.252038149542472],[97.23661012985364,1.250144098175243],[97.23366911563721,1.2543890574079803],[97.23525859630722,1.2561688939761881],[97.23965584044474,1.252038149542472]]],[[[97.2697143542341,1.2973022448538931],[97.25546447590489,1.2869570924585314],[97.24687948559982,1.2779974365050994],[97.24468993858983,1.2703247059016392],[97.24108886695767,1.26708984270686],[97.24310302458497,1.2628784164951559],[97.23853256922274,1.2612603913452118],[97.23302997105638,1.2536659575176636],[97.22993869541455,1.2575702967271876],[97.23285101586174,1.260846986490954],[97.23220513086216,1.265102479482831],[97.22220854039186,1.272588502735871],[97.21447410189835,1.2734022776707303],[97.2077520266348,1.2663053973618235],[97.20469927615073,1.267132199875863],[97.20552792317517,1.2721100328309296],[97.2106961129353,1.2773210518983844],[97.20989209294576,1.2800631468670862],[97.21835871808041,1.2820600051332591],[97.22387913541381,1.2861013317746623],[97.2426133644153,1.2893183425275283],[97.24628883785964,1.2939319653428245],[97.2504882806097,1.2888793933298417],[97.26470947056566,1.3001098617287523],[97.2697143542341,1.2973022448538931]]]]}},{"type":"Feature","properties":{"code":"1224092004","desa":"Ombolata Afulu","kecamatan":"Afulu","kecCode":"122409","kabCode":"1224","province":"Sumatera Utara"},"geometry":{"type":"Polygon","coordinates":[[[97.25978972841331,1.2964885544552742],[97.2504882806097,1.2888793933298417],[97.24628883785964,1.2939319653428245],[97.2426133644153,1.2893183425275283],[97.22387913541381,1.2861013317746623],[97.21307118198949,1.2799073815908686],[97.20989209294576,1.2800631468670862],[97.20636602836959,1.2863458439489122],[97.24270818983115,1.2974832549991389],[97.24800802055374,1.306866787512768],[97.25508139888751,1.3066568173989699],[97.25978972841331,1.2964885544552742]]]}},{"type":"Feature","properties":{"code":"1224092005","desa":"Harewakhe","kecamatan":"Afulu","kecCode":"122409","kabCode":"1224","province":"Sumatera Utara"},"geometry":{"type":"Polygon","coordinates":[[[97.24269230600514,1.297642097755392],[97.21125020683165,1.2868914950091996],[97.20636602836959,1.2863458439489122],[97.20319362758391,1.289936602151825],[97.23591770943483,1.3101931333432415],[97.23752917942811,1.3030190876056256],[97.24269230600514,1.297642097755392]]]}},{"type":"Feature","properties":{"code":"1224092006","desa":"Sisobahili","kecamatan":"Afulu","kecCode":"122409","kabCode":"1224","province":"Sumatera Utara"},"geometry":{"type":"Polygon","coordinates":[[[97.29063863656387,1.284537072593196],[97.28605288463297,1.2931397138824732],[97.28027490506287,1.291605448889826],[97.26531982155257,1.3001098617287523],[97.25978972841331,1.2964885544552742],[97.25508139888751,1.3066568173989699],[97.25848686707529,1.3121880769527685],[97.27281340991101,1.318573620503693],[97.29726095093217,1.3133854163372027],[97.30581157274595,1.302008567986949],[97.30441367105412,1.2977796661492877],[97.29810999188264,1.2935226371153505],[97.29778252804128,1.289674935409545],[97.29063863656387,1.284537072593196]]]}},{"type":"Feature","properties":{"code":"1224092007","desa":"Lauru Lahewa","kecamatan":"Afulu","kecCode":"122409","kabCode":"1224","province":"Sumatera Utara"},"geometry":{"type":"Polygon","coordinates":[[[97.25508139888751,1.3066568173989699],[97.24800802055374,1.306866787512768],[97.24270818983115,1.2974832549991389],[97.24080381874131,1.2984345938313626],[97.23499133578154,1.3085859729029223],[97.23764958695892,1.3257076104374297],[97.25074900126543,1.330602146386061],[97.26794305223012,1.3291150751164056],[97.276205131062,1.323784602698926],[97.2769641426811,1.3185416415110878],[97.2599604539119,1.3130886004921245],[97.25508139888751,1.3066568173989699]]]}},{"type":"Feature","properties":{"code":"1224092008","desa":"Sifaoro'Asi","kecamatan":"Afulu","kecCode":"122409","kabCode":"1224","province":"Sumatera Utara"},"geometry":{"type":"Polygon","coordinates":[[[97.32822452084503,1.2663678399894243],[97.32756713081845,1.2397136936473196],[97.31836973907222,1.216081378194604],[97.30685581244585,1.2064864402492386],[97.2972608735905,1.1935768854315034],[97.29361437090654,1.1912661161075577],[97.29148914880521,1.1934646059735439],[97.28608926041106,1.192851894266946],[97.28414405110715,1.1954871479779976],[97.287034541411,1.1996147312946854],[97.28558366425477,1.2036641779148747],[97.27313075458073,1.2159255400733548],[97.2676603368551,1.2174170189203557],[97.29632970205414,1.2481790390372662],[97.3128616712292,1.2605256991937248],[97.32813804743301,1.2663851321537014],[97.32822452084503,1.2663678399894243]]]}},{"type":"Feature","properties":{"code":"1224092009","desa":"Faekhuna'A","kecamatan":"Afulu","kecCode":"122409","kabCode":"1224","province":"Sumatera Utara"},"geometry":{"type":"Polygon","coordinates":[[[97.33525107058051,1.2276923776297664],[97.34256818407447,1.1980952430626195],[97.32694211098969,1.1713869476408307],[97.32156699801862,1.1557809546360804],[97.30790005394437,1.1697052316043985],[97.30262050563185,1.1665795712868172],[97.30254555343457,1.1701344870096904],[97.29557452514427,1.1671137604877748],[97.30076472491218,1.178199371487529],[97.29361437090654,1.1912661161075577],[97.31836973907222,1.216081378194604],[97.32752595625794,1.239741994412716],[97.33525107058051,1.2276923776297664]]]}},{"type":"Feature","properties":{"code":"1224101001","desa":"Pasar Lahewa","kecamatan":"Lahewa","kecCode":"122410","kabCode":"1224","province":"Sumatera Utara"},"geometry":{"type":"Polygon","coordinates":[[[97.19443614820972,1.40976555935917],[97.19039703209738,1.404982088783772],[97.18898516843086,1.3929848898855384],[97.17988611844964,1.3866445912267082],[97.17687585373773,1.391312648206759],[97.16790936292682,1.3927055613576038],[97.16646436643741,1.3979209538281614],[97.17015597012198,1.398553430834718],[97.17253871039321,1.3956969007330893],[97.17769262161727,1.4032064790291445],[97.17994121271686,1.401600343815959],[97.17869000034328,1.3955599987368323],[97.1840219890236,1.399786004757492],[97.18322486863285,1.404360517855721],[97.18812060967844,1.406222446338865],[97.17910840183134,1.4056870673349],[97.17699068097521,1.409208669471209],[97.1856459712846,1.417917496412387],[97.19556237460397,1.4187265130342916],[97.19443614820972,1.40976555935917]]]}},{"type":"Feature","properties":{"code":"1224102002","desa":"Iraono Lase","kecamatan":"Lahewa","kecCode":"122410","kabCode":"1224","province":"Sumatera Utara"},"geometry":{"type":"Polygon","coordinates":[[[97.19330120738488,1.3479314032065266],[97.20911885764923,1.3194585515973731],[97.1906828959989,1.3100772359126112],[97.18288973087641,1.3239865652492708],[97.16978445299019,1.3374731511714597],[97.1673668630903,1.3459174047614617],[97.18848695390982,1.3499453683766325],[97.19330120738488,1.3479314032065266]]]}},{"type":"Feature","properties":{"code":"1224102003","desa":"Holi","kecamatan":"Lahewa","kecCode":"122410","kabCode":"1224","province":"Sumatera Utara"},"geometry":{"type":"Polygon","coordinates":[[[97.23597222543795,1.3101372260890307],[97.20319362758391,1.289936602151825],[97.19595654116146,1.292731155474695],[97.1906828959989,1.3100772359126112],[97.20911885764923,1.3194585515973731],[97.2252872947729,1.3161035110984063],[97.23122982509642,1.3306393684262043],[97.23986247497326,1.3267462653462405],[97.23764958695892,1.3257076104374297],[97.23443731383104,1.3145241451052356],[97.23597222543795,1.3101372260890307]]]}},{"type":"Feature","properties":{"code":"1224102004","desa":"Sifaoro'Asi","kecamatan":"Lahewa","kecCode":"122410","kabCode":"1224","province":"Sumatera Utara"},"geometry":{"type":"Polygon","coordinates":[[[97.276205131062,1.323784602698926],[97.25980026397103,1.3387742489374774],[97.25294741559082,1.3407729957799288],[97.2376512534027,1.3392161488107495],[97.23747840100748,1.3532182117400449],[97.24711623392709,1.3570144839160585],[97.28159521594654,1.3500597846238311],[97.27840913557321,1.3422244664871126],[97.276205131062,1.323784602698926]]]}},{"type":"Feature","properties":{"code":"1224102005","desa":"Hilizukhu","kecamatan":"Lahewa","kecCode":"122410","kabCode":"1224","province":"Sumatera Utara"},"geometry":{"type":"Polygon","coordinates":[[[97.27065969458931,1.3276029109629959],[97.24839040689183,1.330600462855193],[97.2379111673665,1.325829976691474],[97.23986247497326,1.3267462653462405],[97.238586197595,1.3385142747193237],[97.25294741559082,1.3407729957799288],[97.25980026397103,1.3387742489374774],[97.26522543500589,1.335633359500446],[97.27065969458931,1.3276029109629959]]]}},{"type":"Feature","properties":{"code":"1224102006","desa":"Onozalukhu","kecamatan":"Lahewa","kecCode":"122410","kabCode":"1224","province":"Sumatera Utara"},"geometry":{"type":"Polygon","coordinates":[[[97.23986247497326,1.3267462653462405],[97.23122982509642,1.3306393684262043],[97.23163597422086,1.3333531563341554],[97.22308895059466,1.3467352455313137],[97.22136046441398,1.3562420732986662],[97.23747840100748,1.3532182117400449],[97.23698500325536,1.3400727548573388],[97.23986247497326,1.3267462653462405]]]}},{"type":"Feature","properties":{"code":"1224102007","desa":"Hilina'A","kecamatan":"Lahewa","kecCode":"122410","kabCode":"1224","province":"Sumatera Utara"},"geometry":{"type":"Polygon","coordinates":[[[97.20911885764923,1.3194585515973731],[97.19546946294543,1.341515119928797],[97.20513073039893,1.3406190885030997],[97.21022659668016,1.346711971076761],[97.22208510844102,1.35035244290307],[97.23163597422086,1.3333531563341554],[97.2252872947729,1.3161035110984063],[97.20911885764923,1.3194585515973731]]]}},{"type":"Feature","properties":{"code":"1224102008","desa":"Hiligodu Hoya","kecamatan":"Lahewa","kecCode":"122410","kabCode":"1224","province":"Sumatera Utara"},"geometry":{"type":"Polygon","coordinates":[[[97.19546946294543,1.341515119928797],[97.19330120738488,1.3479314032065266],[97.18739366878287,1.3500820293546023],[97.18698368674778,1.354181850599823],[97.19061859087532,1.352694074261661],[97.19549289657999,1.354577329267771],[97.20357981355761,1.3644367218536932],[97.20304610279543,1.373652225036369],[97.21174683944514,1.3596750625359026],[97.22136046441398,1.3562420732986662],[97.22208510844102,1.35035244290307],[97.21022659668016,1.346711971076761],[97.20513073039893,1.3406190885030997],[97.19546946294543,1.341515119928797]]]}},{"type":"Feature","properties":{"code":"1224102009","desa":"Sitolubanua","kecamatan":"Lahewa","kecCode":"122410","kabCode":"1224","province":"Sumatera Utara"},"geometry":{"type":"Polygon","coordinates":[[[97.18739366878287,1.3500820293546023],[97.16792487263483,1.3447931119109486],[97.16253902265782,1.3503907908943642],[97.17509933656521,1.357389724240718],[97.18074682990232,1.365968847359186],[97.18662071227611,1.3560841514481885],[97.18739366878287,1.3500820293546023]]]}},{"type":"Feature","properties":{"code":"1224102010","desa":"Hilihati","kecamatan":"Lahewa","kecCode":"122410","kabCode":"1224","province":"Sumatera Utara"},"geometry":{"type":"MultiPolygon","coordinates":[[[[97.18074682990232,1.365968847359186],[97.17509933656521,1.357389724240718],[97.16178668760561,1.350123873910041],[97.15279880641985,1.3644537037519158],[97.15948949804198,1.3710835040695624],[97.171582297585,1.3734651660510107],[97.17879651694572,1.3716645740292865],[97.18074682990232,1.365968847359186]]],[[[97.11539331714793,1.3959114915635549],[97.11313766187368,1.3980145085018767],[97.11774389496486,1.4028052716798147],[97.12088478440533,1.402995627579781],[97.11539331714793,1.3959114915635549]]]]}},{"type":"Feature","properties":{"code":"1224102011","desa":"Fadoro Sitolu Hili","kecamatan":"Lahewa","kecCode":"122410","kabCode":"1224","province":"Sumatera Utara"},"geometry":{"type":"Polygon","coordinates":[[[97.16790936292682,1.3927055613576038],[97.17687585373773,1.391312648206759],[97.18530116581621,1.3820506923424751],[97.1819777760536,1.3736314363079996],[97.17879651694572,1.3716645740292865],[97.171582297585,1.3734651660510107],[97.15948949804198,1.3710835040695624],[97.15279880641985,1.3644537037519158],[97.1422241218458,1.37267202516114],[97.16220341455602,1.3802578084100348],[97.16790936292682,1.3927055613576038]]]}},{"type":"Feature","properties":{"code":"1224102012","desa":"Marafala","kecamatan":"Lahewa","kecCode":"122410","kabCode":"1224","province":"Sumatera Utara"},"geometry":{"type":"MultiPolygon","coordinates":[[[[97.09970967935828,1.359511101737926],[97.11115012777623,1.360158315035432],[97.11160698427493,1.3569793554976277],[97.10656252683918,1.3520300769167488],[97.10229853255127,1.3513447917198094],[97.09970967935828,1.359511101737926]]],[[[97.15402070179402,1.3782352187414972],[97.1422241218458,1.37267202516114],[97.11924121401084,1.3923472732534985],[97.134704589845,1.3941040026411016],[97.13313353178711,1.395616574187388],[97.1368514397422,1.398382698141731],[97.15232624506022,1.3992035138688594],[97.15127008035,1.3931120738077463],[97.15402070179402,1.3782352187414972]]]]}},{"type":"Feature","properties":{"code":"1224102013","desa":"Hiligawolo","kecamatan":"Lahewa","kecCode":"122410","kabCode":"1224","province":"Sumatera Utara"},"geometry":{"type":"MultiPolygon","coordinates":[[[[97.11594508000148,1.395365661538178],[97.12088478440533,1.402995627579781],[97.11774389496486,1.4028052716798147],[97.11313766187368,1.3980145085018767],[97.10092831558931,1.4065062750742932],[97.08374007604372,1.4078240687540309],[97.07800081588498,1.389016808528032],[97.07378441102179,1.3878746677321472],[97.06709336686544,1.3986107949906685],[97.05891753931301,1.4061203741860564],[97.05750889791739,1.4121832400878673],[97.06040232180975,1.4187124818116976],[97.06715999223991,1.425127508736562],[97.0620203559547,1.418208036788191],[97.06279130067804,1.4151528086752623],[97.06581797621868,1.4145436663779016],[97.08949837125287,1.4265456676558637],[97.10640206170585,1.4254511153853195],[97.11844213489667,1.4275450410771235],[97.1294352452404,1.434055245951923],[97.13037751171287,1.4311047142135438],[97.13317135727237,1.4339618855317848],[97.13700385144664,1.4259707904277035],[97.12932240280666,1.4008160648455485],[97.12969213568357,1.3979139921762598],[97.134704589845,1.3941040026411016],[97.11924121401084,1.3923472732534985],[97.11594508000148,1.395365661538178]]],[[[97.07665130491385,1.427633058624982],[97.07558411721328,1.427211893520767],[97.07468111064479,1.427183340045843],[97.07665130491385,1.427633058624982]]],[[[97.0837618288454,1.4279595889697134],[97.0838522475832,1.4282213303557205],[97.0839926362512,1.4280642853442436],[97.0837618288454,1.4279595889697134]]],[[[97.07697342498362,1.4278263894823064],[97.0820583330257,1.4283498704555884],[97.08239621641228,1.428166652474635],[97.07697342498362,1.4278263894823064]]]]}},{"type":"Feature","properties":{"code":"1224102014","desa":"Balefadoro Tuho","kecamatan":"Lahewa","kecCode":"122410","kabCode":"1224","province":"Sumatera Utara"},"geometry":{"type":"Polygon","coordinates":[[[97.12969970707586,1.4020996078452292],[97.13700385144664,1.4259707904277035],[97.13317135727237,1.4339618855317848],[97.13614532534653,1.435492440821],[97.15009848405788,1.4225957624962597],[97.15357249677339,1.4212156745770717],[97.15481933484449,1.4233096002689127],[97.14906405955878,1.4111305116883237],[97.12969970707586,1.4020996078452292]]]}},{"type":"Feature","properties":{"code":"1224102015","desa":"Ombolata","kecamatan":"Lahewa","kecCode":"122410","kabCode":"1224","province":"Sumatera Utara"},"geometry":{"type":"MultiPolygon","coordinates":[[[[97.17432139691498,1.4076813004800306],[97.16646436643741,1.3979209538281614],[97.16790936292682,1.3927055613576038],[97.16427830430035,1.3827451380338056],[97.15402070179402,1.3782352187414972],[97.15127008035,1.3931120738077463],[97.15232624506022,1.3992035138688594],[97.13917141362985,1.3988288473116863],[97.13313353178711,1.395616574187388],[97.12932240280666,1.4008160648455485],[97.13854184862747,1.4076082656374316],[97.14906405955878,1.4111305116883237],[97.15420067502117,1.4206446041791374],[97.157855527011,1.4230526180952106],[97.15941645420604,1.4210538712526801],[97.16256686027242,1.4247467951379325],[97.15922609740653,1.4193025881593748],[97.1615674859508,1.4142105413045751],[97.17432139691498,1.4076813004800306]]],[[[97.17440771924088,1.4186549207042385],[97.17351830142854,1.417821539649473],[97.17337371922184,1.4182389204065176],[97.17440771924088,1.4186549207042385]]],[[[97.17347071110446,1.4341119230258248],[97.17324228330476,1.4267355945792815],[97.16823589686918,1.422014744697173],[97.16880696816713,1.424527454987775],[97.1663323279746,1.425041418435809],[97.16913057481622,1.4280109852245908],[97.17278542680606,1.4272876290275003],[97.17320897061757,1.4304356563835263],[97.17084140730513,1.4316729760287388],[97.16869989218634,1.4297099214795976],[97.16843815080006,1.4314707220981222],[97.17347071110446,1.4341119230258248]]]]}},{"type":"Feature","properties":{"code":"1224102016","desa":"Afia","kecamatan":"Lahewa","kecCode":"122410","kabCode":"1224","province":"Sumatera Utara"},"geometry":{"type":"Polygon","coordinates":[[[97.17988611844964,1.3866445912267082],[97.18898516843086,1.3929848898855384],[97.19870550875231,1.379613539492864],[97.20391215442243,1.3762901488345958],[97.20357981355761,1.3644367218536932],[97.19216950681732,1.3529156348379672],[97.18698368674778,1.354181850599823],[97.17900643759707,1.368457348799584],[97.17879651694572,1.3716645740292865],[97.18330713141904,1.3748500122831557],[97.18530116581621,1.3820506923424751],[97.17988611844964,1.3866445912267082]]]}},{"type":"Feature","properties":{"code":"1224102017","desa":"Moawo","kecamatan":"Lahewa","kecCode":"122410","kabCode":"1224","province":"Sumatera Utara"},"geometry":{"type":"Polygon","coordinates":[[[97.18898516843086,1.3929848898855384],[97.19039703209738,1.404982088783772],[97.19443614820972,1.40976555935917],[97.19977402025489,1.4081260143319865],[97.20049380704363,1.4039262667164218],[97.20331941665778,1.4071147446787158],[97.204854169984,1.40321242714517],[97.2118044464181,1.4033189005800621],[97.21518843070157,1.3967811000083035],[97.21200820401549,1.3890889278607823],[97.21558596162288,1.39325380246543],[97.21411816462164,1.388297693533694],[97.20592420403885,1.38200273239716],[97.20270966102208,1.3820013231594956],[97.2009720737023,1.378212341787329],[97.18898516843086,1.3929848898855384]]]}},{"type":"Feature","properties":{"code":"1224102018","desa":"Lasara","kecamatan":"Lahewa","kecCode":"122410","kabCode":"1224","province":"Sumatera Utara"},"geometry":{"type":"Polygon","coordinates":[[[97.22136046441398,1.3562420732986662],[97.20908184335246,1.362292471898912],[97.20269357844597,1.3750715728594514],[97.20414272620593,1.3787199380353092],[97.22036438430892,1.389123883609375],[97.23309925932341,1.389523632258425],[97.23561197141537,1.3865350295199184],[97.23160707630556,1.3675385537343345],[97.22691113044436,1.3585313110541832],[97.22136046441398,1.3562420732986662]]]}},{"type":"Feature","properties":{"code":"1224102019","desa":"Sihene'Asi","kecamatan":"Lahewa","kecCode":"122410","kabCode":"1224","province":"Sumatera Utara"},"geometry":{"type":"MultiPolygon","coordinates":[[[[97.20391215442243,1.3762901488345958],[97.2009720737023,1.378212341787329],[97.20270966102208,1.3820013231594956],[97.20592420403885,1.38200273239716],[97.21468387596019,1.389123318835111],[97.21499731397495,1.393689552774609],[97.21172535284278,1.3893870765011138],[97.21518843070157,1.3967811000083035],[97.2118044464181,1.4033189005800621],[97.2221016928389,1.4063628341073395],[97.22831208623386,1.412294830665204],[97.23299486512097,1.413058637468559],[97.23637132028027,1.4098035341318425],[97.24534291474377,1.410238976872848],[97.25329589658844,1.4047241218524453],[97.25531005871231,1.4061279284912673],[97.25549316158019,1.401672361525335],[97.25848388672205,1.40130615039402],[97.25859414990015,1.3991344738148022],[97.2468872062796,1.3964843731961227],[97.23431396461785,1.396656406308774],[97.23468017574959,1.3886718735576289],[97.22036438430892,1.389123883609375],[97.20414272620593,1.3787199380353092],[97.20391215442243,1.3762901488345958]]],[[[97.23200490220455,1.4158549606572293],[97.23203426596865,1.4163724935145061],[97.23252977622825,1.4162073231283903],[97.23200490220455,1.4158549606572293]]],[[[97.22989606035497,1.4191320272369472],[97.22187727601556,1.411731903628314],[97.22068754579367,1.4129037886015807],[97.22560708110198,1.4152059163399882],[97.22483970488855,1.418905978144318],[97.22813525883521,1.4209582634267457],[97.22989606035497,1.4191320272369472]]],[[[97.22273516989225,1.423768669998646],[97.21584257237684,1.4194710320777297],[97.21257257356547,1.4238682312442745],[97.215719807723,1.4265802097162974],[97.22027325240873,1.4260779914141404],[97.22273516989225,1.423768669998646]]]]}},{"type":"Feature","properties":{"code":"1224102020","desa":"Fadoro Hilimbowo","kecamatan":"Lahewa","kecCode":"122410","kabCode":"1224","province":"Sumatera Utara"},"geometry":{"type":"Polygon","coordinates":[[[97.23160707630556,1.3675385537343345],[97.23477915963058,1.3770171850575648],[97.23431396461785,1.396656406308774],[97.24310302458497,1.395874021310589],[97.25199053963176,1.3991107658870712],[97.25859414990015,1.3991344738148022],[97.25848388672205,1.3933105478878347],[97.26129150360008,1.3912963857661995],[97.26031494058206,1.3867187484231904],[97.26287841760495,1.383483885228446],[97.26731999921866,1.384309998861726],[97.27671758364959,1.3735694829116294],[97.26785271443129,1.3718162536854501],[97.259286653956,1.3731011627552763],[97.25471808896867,1.369246435545686],[97.23937056559919,1.3716734854114578],[97.23160707630556,1.3675385537343345]]]}},{"type":"Feature","properties":{"code":"1224102021","desa":"Fadoro Hilihambawa","kecamatan":"Lahewa","kecCode":"122410","kabCode":"1224","province":"Sumatera Utara"},"geometry":{"type":"Polygon","coordinates":[[[97.28158966443151,1.3500460097080555],[97.24711623392709,1.3570144839160585],[97.23747840100748,1.3532182117400449],[97.22136046441398,1.3562420732986662],[97.22691113044436,1.3585313110541832],[97.23160707630556,1.3675385537343345],[97.23937056559919,1.3716734854114578],[97.25471808896867,1.369246435545686],[97.259286653956,1.3731011627552763],[97.26785271443129,1.3718162536854501],[97.27671758364959,1.3735694829116294],[97.28227224806584,1.3678187582018713],[97.28486429025486,1.3571579527618605],[97.28158966443151,1.3500460097080555]]]}},{"type":"Feature","properties":{"code":"1224112001","desa":"Laowowaga","kecamatan":"Lahewa Timur","kecCode":"122411","kabCode":"1224","province":"Sumatera Utara"},"geometry":{"type":"Polygon","coordinates":[[[97.37553087494996,1.2933372050035614],[97.37016766630484,1.2876712764700726],[97.37134550029462,1.2787482984669987],[97.34157228203524,1.270739585644092],[97.33637154491093,1.2938248219130042],[97.3391612104216,1.311169471529604],[97.34114204726772,1.315383873597924],[97.34748101673556,1.3183814983351776],[97.34499888339182,1.3240156709079076],[97.34632228974192,1.3219728267082684],[97.35022396966053,1.3251832553231082],[97.34856864242896,1.3276822644423534],[97.35268017734835,1.325939046469114],[97.35328849766609,1.322781002464113],[97.3559255482255,1.3255942670814098],[97.3610493762278,1.3247841415954074],[97.35722256127224,1.3235732413339352],[97.35961340803242,1.3211940246091258],[97.36537679880028,1.323949545556603],[97.36935510005786,1.3116054088977385],[97.37599932820649,1.3125539535363433],[97.37048784833557,1.3062094595401645],[97.37274738958041,1.3046316916422631],[97.37177178703843,1.2985773009514507],[97.37553087494996,1.2933372050035614]]]}},{"type":"Feature","properties":{"code":"1224112002","desa":"Lukhu Lase","kecamatan":"Lahewa Timur","kecCode":"122411","kabCode":"1224","province":"Sumatera Utara"},"geometry":{"type":"Polygon","coordinates":[[[97.34340209483088,1.34350754453728],[97.34357413963487,1.3407532340772832],[97.34644224041709,1.341800997319786],[97.3457404679483,1.338642420916173],[97.34260302021328,1.3392888239245522],[97.34198899099918,1.3331868860771616],[97.35037513400528,1.3254776385020488],[97.34632228974192,1.3219728267082684],[97.34499888339182,1.3240156709079076],[97.34748101673556,1.3183814983351776],[97.34071379730396,1.314860873761958],[97.33637154491093,1.2924775871274874],[97.31253555457226,1.2922116656926483],[97.29726095093217,1.3133854163372027],[97.31978477194974,1.3387424983726337],[97.34340209483088,1.34350754453728]]]}},{"type":"Feature","properties":{"code":"1224112003","desa":"Tetehosi Sorowi","kecamatan":"Lahewa Timur","kecCode":"122411","kabCode":"1224","province":"Sumatera Utara"},"geometry":{"type":"Polygon","coordinates":[[[97.34040081164818,1.3559752723268643],[97.34569448021614,1.3447288733372427],[97.31978477194974,1.3387424983726337],[97.29726095093217,1.3133854163372027],[97.2792165927716,1.317028308239],[97.29665826396774,1.3373659474870834],[97.30055681244698,1.3497355997109681],[97.31638979255496,1.3558255747765091],[97.34040081164818,1.3559752723268643]]]}},{"type":"Feature","properties":{"code":"1224112004","desa":"Tefa'O","kecamatan":"Lahewa Timur","kecCode":"122411","kabCode":"1224","province":"Sumatera Utara"},"geometry":{"type":"MultiPolygon","coordinates":[[[[97.25787353483582,1.4000854475222317],[97.25549316158019,1.401672361525335],[97.25610351526507,1.4055175766056507],[97.25329589658844,1.4047241218524453],[97.24534291474377,1.410238976872848],[97.25202579395528,1.4122805530283984],[97.26052046984387,1.420518247633181],[97.26892234738845,1.4166563825044711],[97.2809709308638,1.4236581298294488],[97.30364273442473,1.408359639313567],[97.30473519757135,1.3783873858301847],[97.29867444686828,1.372641562425531],[97.28232295544012,1.3677111714062642],[97.26731999921866,1.384309998861726],[97.26251220557388,1.383728026881965],[97.25787353483582,1.4000854475222317]]],[[[97.26607418007937,1.4228781046522991],[97.26528613294875,1.4229127834097182],[97.26528927338131,1.4235141429740876],[97.26607418007937,1.4228781046522991]]],[[[97.24360940674876,1.4269194546761261],[97.24028179017255,1.4285212875326558],[97.24025318633558,1.430046842591267],[97.24418148978401,1.430285210597259],[97.24360940674876,1.4269194546761261]]],[[[97.2582679226266,1.4291712149840918],[97.25777918965791,1.4302740904801892],[97.25881093867395,1.4299665205421732],[97.2582679226266,1.4291712149840918]]],[[[97.23082724987772,1.439370488350566],[97.22567186286625,1.4412750141216764],[97.232127378176,1.4419355229963526],[97.23082724987772,1.439370488350566]]]]}},{"type":"Feature","properties":{"code":"1224112005","desa":"Tugala Lauru","kecamatan":"Lahewa Timur","kecCode":"122411","kabCode":"1224","province":"Sumatera Utara"},"geometry":{"type":"Polygon","coordinates":[[[97.33249719628861,1.3932792200044457],[97.3251556149397,1.3735006694866951],[97.32839203486458,1.36910975478263],[97.33631503601013,1.3673254737648806],[97.34040081164818,1.3559752723268643],[97.31638979255496,1.3558255747765091],[97.30055681244698,1.3497355997109681],[97.29665826396774,1.3373659474870834],[97.27819633259475,1.3168811809511143],[97.276205131062,1.323784602698926],[97.27824177443843,1.341359763844185],[97.28486429025486,1.3571579527618605],[97.28232295544012,1.3677111714062642],[97.29867444686828,1.372641562425531],[97.30473519757135,1.3783873858301847],[97.30513313858351,1.3913204839997075],[97.31611454694882,1.4227261183274025],[97.31497666624023,1.430078887234365],[97.32781722058832,1.4101416657309749],[97.33249719628861,1.3932792200044457]]]}},{"type":"Feature","properties":{"code":"1224112006","desa":"Muzoi","kecamatan":"Lahewa Timur","kecCode":"122411","kabCode":"1224","province":"Sumatera Utara"},"geometry":{"type":"MultiPolygon","coordinates":[[[[97.29880031598184,1.4500315491980091],[97.3163257005707,1.4266024796280772],[97.30513313858351,1.3913204839997075],[97.30364273442473,1.408359639313567],[97.2809709308638,1.4236581298294488],[97.2859830819537,1.4313971431656556],[97.28978691833169,1.4494699963252518],[97.29880031598184,1.4500315491980091]]],[[[97.25477117594907,1.4542250905921723],[97.25340060555357,1.4550388664263043],[97.25463554739262,1.4551744949825782],[97.25477117594907,1.4542250905921723]]],[[[97.25366478140461,1.4658798429441409],[97.26041769082383,1.4644593044186711],[97.25598475529226,1.460618853946555],[97.24340692528943,1.4596694495560778],[97.2415833079234,1.4551707924737398],[97.23413178625299,1.4499368191103346],[97.23020091613944,1.4511836571800922],[97.23026754061459,1.4555713837874968],[97.23554042585003,1.4621101421372413],[97.24525755019586,1.4638608703488727],[97.25092066835425,1.462504577591637],[97.25366478140461,1.4658798429441409]]],[[[97.2029021950803,1.462035258288531],[97.19960426242683,1.461421357678227],[97.2025595515821,1.465418852262498],[97.2029021950803,1.462035258288531]]],[[[97.21051069431313,1.464591051501],[97.20924099997222,1.465086345922762],[97.21018424220908,1.4654894679287596],[97.21051069431313,1.464591051501]]]]}},{"type":"Feature","properties":{"code":"1224112007","desa":"Meafu","kecamatan":"Lahewa Timur","kecCode":"122411","kabCode":"1224","province":"Sumatera Utara"},"geometry":{"type":"Polygon","coordinates":[[[97.35451032199381,1.3413829357759863],[97.37379338475692,1.322801010580929],[97.37716447186294,1.322426444747851],[97.37764868124168,1.3172817111109858],[97.38229947933756,1.318233368303178],[97.3889024825636,1.3298034989472887],[97.39163886324303,1.330963484091212],[97.38460830073255,1.3099376629298873],[97.38621764472855,1.3040014701354596],[97.3784174334179,1.29399799446671],[97.37562655382249,1.2932534385510326],[97.37375655572055,1.2954057455319892],[97.37177178703843,1.2985773009514507],[97.37274738958041,1.3046316916422631],[97.37048784833557,1.3062094595401645],[97.37599932820649,1.3125539535363433],[97.36935510005786,1.3116054088977385],[97.36537679880028,1.323949545556603],[97.35961340803242,1.3211940246091258],[97.35718718374159,1.323142518235019],[97.36114475562601,1.3243535057307592],[97.35957490895493,1.3255129557780645],[97.3559255482255,1.3255942670814098],[97.3535619293396,1.3227333294024908],[97.35268017734835,1.325939046469114],[97.34893463142816,1.3276832491999198],[97.3476043425664,1.326103134071466],[97.34198899099918,1.3331868860771616],[97.34238942583141,1.3387383444041339],[97.3457404679483,1.338642420916173],[97.34828535058851,1.341586565669394],[97.34971050893289,1.3383672958195292],[97.35451032199381,1.3413829357759863]]]}}]}