{"type":"FeatureCollection","features":[{"type":"Feature","properties":{"code":"1225012001","desa":"Sisobaoho","kecamatan":"Lahomi","kecCode":"122501","kabCode":"1225","province":"Sumatera Utara"},"geometry":{"type":"Polygon","coordinates":[[[97.54591467432283,0.9802051057854302],[97.53361111056438,0.9599999987279043],[97.52628792934449,0.9538973468188408],[97.51545683636397,0.9654154175084332],[97.51530471963719,0.967807094340154],[97.52243825272325,0.9733292842311726],[97.54591467432283,0.9802051057854302]]]}},{"type":"Feature","properties":{"code":"1225012002","desa":"Bawozamaiwo","kecamatan":"Lahomi","kecCode":"122501","kabCode":"1225","province":"Sumatera Utara"},"geometry":{"type":"Polygon","coordinates":[[[97.53775680803034,0.9781024629650878],[97.52243825272325,0.9733292842311726],[97.51530471963719,0.967807094340154],[97.50983671838992,0.9719188028241317],[97.51304518378826,0.9781143241235077],[97.51182118939641,0.9813218380355714],[97.51675923095381,0.9839823258238918],[97.51683247623784,0.9870231351063931],[97.53322437240693,0.9936593637780246],[97.53529166557796,0.993984445314923],[97.53775680803034,0.9781024629650878]]]}},{"type":"Feature","properties":{"code":"1225012003","desa":"Sitolubanua","kecamatan":"Lahomi","kecCode":"122501","kabCode":"1225","province":"Sumatera Utara"},"geometry":{"type":"Polygon","coordinates":[[[97.52628792934449,0.9538973468188408],[97.5236111107642,0.9516666657203077],[97.53046671556653,0.9384828113836048],[97.51777760884964,0.9471324440483847],[97.51139696299953,0.948189957740499],[97.50368969662225,0.9662505549391538],[97.51032371566703,0.9781465513289958],[97.51256730833467,0.9771540226478616],[97.51043634226346,0.9706053402793832],[97.51530471963719,0.967807094340154],[97.52628792934449,0.9538973468188408]]]}},{"type":"Feature","properties":{"code":"1225012004","desa":"Lologundre","kecamatan":"Lahomi","kecCode":"122501","kabCode":"1225","province":"Sumatera Utara"},"geometry":{"type":"Polygon","coordinates":[[[97.50898179857118,0.9762053916743555],[97.50368969662225,0.9662505549391538],[97.49873955288813,0.9640990276703834],[97.49277943991927,0.9756807694613988],[97.49382053918657,0.9830606493307619],[97.4970090171525,0.9812284650249125],[97.49693672425047,0.9858615662564099],[97.4987361777325,0.9824881831849612],[97.50372035181285,0.9815314331320978],[97.50898179857118,0.9762053916743555]]]}},{"type":"Feature","properties":{"code":"1225012005","desa":"Iraonogaila","kecamatan":"Lahomi","kecCode":"122501","kabCode":"1225","province":"Sumatera Utara"},"geometry":{"type":"Polygon","coordinates":[[[97.50368969662225,0.9662505549391538],[97.51139696299953,0.948189957740499],[97.49391605797973,0.9464109962126194],[97.48024504357397,0.9623050438670375],[97.48509898323151,0.9685513256005895],[97.4838623632575,0.9762130952669877],[97.48875129373725,0.9809022593354452],[97.49414335083503,0.977755421782438],[97.49277943991927,0.9756807694613988],[97.49486622679501,0.9693061940421799],[97.49873955288813,0.9640990276703834],[97.50368969662225,0.9662505549391538]]]}},{"type":"Feature","properties":{"code":"1225012006","desa":"Tigaserangkai","kecamatan":"Lahomi","kecCode":"122501","kabCode":"1225","province":"Sumatera Utara"},"geometry":{"type":"Polygon","coordinates":[[[97.48095722029957,0.997426433168569],[97.48509898323151,0.9685513256005895],[97.48024504357397,0.9623050438670375],[97.46992796620276,0.9689305328348127],[97.46445158597196,0.9689695643108918],[97.46499073403521,0.973105014896879],[97.46422692633165,0.9708350100425204],[97.46069342706005,0.9712276207725457],[97.46249504341158,0.97435559864292],[97.46046452891494,0.9784628285031204],[97.46430244240383,0.9755460636095679],[97.46439110836303,0.978180406307377],[97.46785322484654,0.9781923043380313],[97.46962046641147,0.9743713250875075],[97.47294047292455,0.9739729173276414],[97.47495460986742,0.9869630585951455],[97.47015073906539,0.9940368757901937],[97.47784263243159,0.9996430605615424],[97.48095722029957,0.997426433168569]]]}},{"type":"Feature","properties":{"code":"1225012007","desa":"Onowaembo","kecamatan":"Lahomi","kecCode":"122501","kabCode":"1225","province":"Sumatera Utara"},"geometry":{"type":"Polygon","coordinates":[[[97.49693672425047,0.9858615662564099],[97.4970090171525,0.9812284650249125],[97.49401089598608,0.9832510061300905],[97.49330459093419,0.9777405505930911],[97.48875129373725,0.9809022593354452],[97.48329332083016,0.9744844157339743],[97.48095722029957,0.997426433168569],[97.47784263243159,0.9996430605615424],[97.485889621309,1.0087378594372591],[97.48908410494754,1.0058789317430639],[97.48724305602228,0.9955116299451],[97.49693672425047,0.9858615662564099]]]}},{"type":"Feature","properties":{"code":"1225012008","desa":"Onolimbu","kecamatan":"Lahomi","kecCode":"122501","kabCode":"1225","province":"Sumatera Utara"},"geometry":{"type":"Polygon","coordinates":[[[97.50307726640278,0.9847968148204411],[97.4987361777325,0.9824881831849612],[97.49629121426817,0.9882386488900144],[97.48724305602228,0.9955116299451],[97.48908410494754,1.0058789317430639],[97.485889621309,1.0087378594372591],[97.49194270888897,1.0118985654355408],[97.50300058480921,1.0089379990618055],[97.50456454271955,0.99035367987152],[97.50161817573826,0.9882787901294577],[97.50307726640278,0.9847968148204411]]]}},{"type":"Feature","properties":{"code":"1225012009","desa":"Haliadulo","kecamatan":"Lahomi","kecCode":"122501","kabCode":"1225","province":"Sumatera Utara"},"geometry":{"type":"Polygon","coordinates":[[[97.50473724942456,0.9960606246848123],[97.50234054987652,1.001685277933682],[97.50300058480921,1.0089379990618055],[97.50994656158463,1.0062422731377483],[97.5116823628508,1.007641972572791],[97.50897812394135,0.9972043006234094],[97.50473724942456,0.9960606246848123]]]}},{"type":"Feature","properties":{"code":"1225012010","desa":"Sisobambowo","kecamatan":"Lahomi","kecCode":"122501","kabCode":"1225","province":"Sumatera Utara"},"geometry":{"type":"Polygon","coordinates":[[[97.50289855132712,0.9852611060140285],[97.50127553224006,0.9876410934578195],[97.50456454271955,0.99035367987152],[97.50695617908445,0.9880587386155634],[97.50289855132712,0.9852611060140285]]]}},{"type":"Feature","properties":{"code":"1225012011","desa":"Lolowau","kecamatan":"Lahomi","kecCode":"122501","kabCode":"1225","province":"Sumatera Utara"},"geometry":{"type":"Polygon","coordinates":[[[97.53529166557796,0.993984445314923],[97.51683247623784,0.9870231351063931],[97.51675923095381,0.9839823258238918],[97.51182118939641,0.9813218380355714],[97.51256730833467,0.9771540226478616],[97.51032371566703,0.9781465513289958],[97.50898179857118,0.9762053916743555],[97.50060545457814,0.9833085528483736],[97.50695617908445,0.9880587386155634],[97.50456454271955,0.99035367987152],[97.50473724942456,0.9960606246848123],[97.50897812394135,0.9972043006234094],[97.51316792056313,1.0098936564384182],[97.51763918699895,1.007888117915859],[97.52922954340875,1.0099963850963136],[97.53529166557796,0.993984445314923]]]}},{"type":"Feature","properties":{"code":"1225022001","desa":"Bawosaloo","kecamatan":"Sirombu","kecCode":"122502","kabCode":"1225","province":"Sumatera Utara"},"geometry":{"type":"MultiPolygon","coordinates":[[[[97.32464168566531,0.8564184624846035],[97.31748814716029,0.8468013976196607],[97.31075059996027,0.8496035070463521],[97.30868928008623,0.854527952647528],[97.31152882739354,0.857936929986179],[97.32004634156543,0.8595266480754308],[97.32464168566531,0.8564184624846035]]],[[[97.28328506815143,0.871118389428228],[97.29080243818203,0.8684614944315168],[97.29081580930222,0.8631092242463909],[97.28686438518326,0.8627725558442638],[97.2826826087155,0.866529066294669],[97.28071575722646,0.8696831182090504],[97.28328506815143,0.871118389428228]]],[[[97.44390124084963,0.9607894802763619],[97.44796106205342,0.9586691163151262],[97.43707281266023,0.9581695087448759],[97.4354090353987,0.964138687772576],[97.4382019906294,0.9696845163434827],[97.44525526641746,0.9641233813113208],[97.44390124084963,0.9607894802763619]]]]}},{"type":"Feature","properties":{"code":"1225022002","desa":"Imana","kecamatan":"Sirombu","kecCode":"122502","kabCode":"1225","province":"Sumatera Utara"},"geometry":{"type":"MultiPolygon","coordinates":[[[[97.31835531934257,0.8475366104786796],[97.32464168566531,0.8564184624846035],[97.33283375587321,0.8499182886479054],[97.32830758492719,0.8455131637562244],[97.31835531934257,0.8475366104786796]]],[[[97.43365061708236,0.9808078844800743],[97.4260341435609,0.9732329560482996],[97.42488658524775,0.974973983272988],[97.43365061708236,0.9808078844800743]]]]}},{"type":"Feature","properties":{"code":"1225022003","desa":"Tuwa Tuwa","kecamatan":"Sirombu","kecCode":"122502","kabCode":"1225","province":"Sumatera Utara"},"geometry":{"type":"MultiPolygon","coordinates":[[[[97.34665682944915,0.8266090492440175],[97.34190177564646,0.8195630219995879],[97.33234100023702,0.829231999330171],[97.33812750627949,0.8409217487994592],[97.34172167201761,0.8380610638300303],[97.34665682944915,0.8266090492440175]]],[[[97.43724677032225,0.9655667230465744],[97.43462936365427,0.9655001003701791],[97.43563851720386,0.9697502271073783],[97.4382019906294,0.9696845163434827],[97.43724677032225,0.9655667230465744]]]]}},{"type":"Feature","properties":{"code":"1225022004","desa":"Kafo Kafo","kecamatan":"Sirombu","kecCode":"122502","kabCode":"1225","province":"Sumatera Utara"},"geometry":{"type":"Polygon","coordinates":[[[97.34665682944915,0.8266090492440175],[97.33904920435737,0.8411812778532434],[97.34537772370305,0.8433797317463152],[97.35057367283677,0.8415193896672782],[97.35253672918674,0.8367723650170898],[97.34665682944915,0.8266090492440175]]]}},{"type":"Feature","properties":{"code":"1225022005","desa":"Bawasawa","kecamatan":"Sirombu","kecCode":"122502","kabCode":"1225","province":"Sumatera Utara"},"geometry":{"type":"Polygon","coordinates":[[[97.34190177564646,0.8195630219995879],[97.34928739409803,0.8294158306487706],[97.35253672918674,0.8367723650170898],[97.36145403607499,0.8210261722021098],[97.359108800231,0.8118701160052941],[97.35014488507846,0.8128709274425222],[97.34190177564646,0.8195630219995879]]]}},{"type":"Feature","properties":{"code":"1225022006","desa":"Pulau Bogi","kecamatan":"Sirombu","kecCode":"122502","kabCode":"1225","province":"Sumatera Utara"},"geometry":{"type":"MultiPolygon","coordinates":[[[[97.38221697103641,0.8423270267291717],[97.3834753878789,0.8365564917533904],[97.38140638779463,0.8350104924067521],[97.3758042292818,0.8403491711377996],[97.37934724068263,0.8431987800569645],[97.38221697103641,0.8423270267291717]]],[[[97.37227941296459,0.8623596941804589],[97.37703594884998,0.8581511053298508],[97.3847314359071,0.8574165219963099],[97.38090971111431,0.8471199239982202],[97.36908854909733,0.8467487279247965],[97.36402505571179,0.8515266847567063],[97.36445335873559,0.8562760890130091],[97.37227941296459,0.8623596941804589]]]]}},{"type":"Feature","properties":{"code":"1225022007","desa":"Halamona","kecamatan":"Sirombu","kecCode":"122502","kabCode":"1225","province":"Sumatera Utara"},"geometry":{"type":"MultiPolygon","coordinates":[[[[97.33478929299154,0.8571683873529178],[97.32948071456336,0.8602188562534976],[97.33201999982322,0.8651559993826646],[97.33461750989022,0.8617017393804283],[97.33478929299154,0.8571683873529178]]],[[[97.43277161162062,0.9636072073297071],[97.43490115406506,0.9624030699699826],[97.43299411378739,0.9618081810276261],[97.43277161162062,0.9636072073297071]]]]}},{"type":"Feature","properties":{"code":"1225022008","desa":"Hanofa","kecamatan":"Sirombu","kecCode":"122502","kabCode":"1225","province":"Sumatera Utara"},"geometry":{"type":"MultiPolygon","coordinates":[[[[97.33603850976948,0.8567614998855034],[97.33201999982322,0.8651559993826646],[97.33636948186614,0.870062783198191],[97.34270575876383,0.8617298144160139],[97.33603850976948,0.8567614998855034]]],[[[97.27093383942518,0.9151845895741229],[97.2774725977822,0.9116867817004687],[97.28427407868581,0.8967191463690488],[97.27883106240364,0.8960053076971317],[97.26678504109684,0.9070698017160059],[97.26555149770354,0.9121864693104161],[97.27093383942518,0.9151845895741229]]],[[[97.43185194780919,0.9807946959222613],[97.42161553243096,0.972972368492494],[97.4206471406531,0.9796314876081106],[97.42495292643645,0.9820620960912108],[97.42829098863824,0.9795095251496608],[97.43185194780919,0.9807946959222613]]]]}},{"type":"Feature","properties":{"code":"1225022009","desa":"Lahawa","kecamatan":"Sirombu","kecCode":"122502","kabCode":"1225","province":"Sumatera Utara"},"geometry":{"type":"Polygon","coordinates":[[[97.34270575876383,0.8617298144160139],[97.33853275068594,0.8673016684676262],[97.34137235375118,0.8689486355996241],[97.34652057226668,0.8646992391119114],[97.34270575876383,0.8617298144160139]]]}},{"type":"Feature","properties":{"code":"1225022010","desa":"Hinako","kecamatan":"Sirombu","kecCode":"122502","kabCode":"1225","province":"Sumatera Utara"},"geometry":{"type":"Polygon","coordinates":[[[97.33853275068594,0.8673016684676262],[97.33636948186614,0.870062783198191],[97.34558157572917,0.8737189517914047],[97.34902513470229,0.8667221048722625],[97.34652057226668,0.8646992391119114],[97.34235350960682,0.8689849736061352],[97.33853275068594,0.8673016684676262]]]}},{"type":"Feature","properties":{"code":"1225022011","desa":"Sineneeto","kecamatan":"Sirombu","kecCode":"122502","kabCode":"1225","province":"Sumatera Utara"},"geometry":{"type":"Polygon","coordinates":[[[97.34902513470229,0.8667221048722625],[97.34827062508934,0.8696209552706514],[97.345741343888,0.8736760406400584],[97.34968132683184,0.8738369302532545],[97.35574888000683,0.8685038291174554],[97.34902513470229,0.8667221048722625]]]}},{"type":"Feature","properties":{"code":"1225022012","desa":"Balowondrate","kecamatan":"Sirombu","kecCode":"122502","kabCode":"1225","province":"Sumatera Utara"},"geometry":{"type":"MultiPolygon","coordinates":[[[[97.35574888000683,0.8685038291174554],[97.34968132683184,0.8738369302532545],[97.35437511162218,0.8747371381304988],[97.35807537218072,0.8723532152534385],[97.35574888000683,0.8685038291174554]]],[[[97.37165780156636,0.881749598179682],[97.37420450623301,0.8802229522433858],[97.37490235585908,0.8772054336031867],[97.36982439687847,0.8794873346894853],[97.37165780156636,0.881749598179682]]],[[[97.43724677032225,0.9655667230465744],[97.43459028181609,0.9639814646953497],[97.43462936365427,0.9655001003701791],[97.43724677032225,0.9655667230465744]]]]}},{"type":"Feature","properties":{"code":"1225022013","desa":"Hilimberuanaa","kecamatan":"Sirombu","kecCode":"122502","kabCode":"1225","province":"Sumatera Utara"},"geometry":{"type":"Polygon","coordinates":[[[97.53866256562496,0.9227215603202932],[97.54952421666934,0.9025304449151589],[97.54813162367554,0.8977939756078726],[97.5524260222432,0.8949345002265701],[97.54771039741694,0.8923452108652666],[97.5482381231909,0.8882485066702208],[97.53819005013075,0.8946073277658426],[97.53135861820573,0.8954020676503247],[97.52187559278444,0.9058657470938841],[97.51431485564615,0.907085220592398],[97.53866256562496,0.9227215603202932]]]}},{"type":"Feature","properties":{"code":"1225022014","desa":"Lahusa","kecamatan":"Sirombu","kecCode":"122502","kabCode":"1225","province":"Sumatera Utara"},"geometry":{"type":"Polygon","coordinates":[[[97.53239267937869,0.9347790353792621],[97.53866256562496,0.9227215603202932],[97.51306563886823,0.9053601122673276],[97.50991285319564,0.9074421399284355],[97.5071824224309,0.9118857836826091],[97.51231541542415,0.9179120660628745],[97.51094647100291,0.9208505918519325],[97.53239267937869,0.9347790353792621]]]}},{"type":"Feature","properties":{"code":"1225022015","desa":"Ombolata","kecamatan":"Sirombu","kecCode":"122502","kabCode":"1225","province":"Sumatera Utara"},"geometry":{"type":"Polygon","coordinates":[[[97.53046671556653,0.9384828113836048],[97.53239267937869,0.9347790353792621],[97.51094647100291,0.9208505918519325],[97.49639510844754,0.9316125575321629],[97.51114665289577,0.9482368636803998],[97.51777760884964,0.9471324440483847],[97.53046671556653,0.9384828113836048]]]}},{"type":"Feature","properties":{"code":"1225022016","desa":"Tetehosi","kecamatan":"Sirombu","kecCode":"122502","kabCode":"1225","province":"Sumatera Utara"},"geometry":{"type":"Polygon","coordinates":[[[97.49853886107962,0.9457798843769671],[97.51114665289577,0.9482368636803998],[97.49639510844754,0.9316125575321629],[97.49220135480873,0.9317450627429172],[97.4898180839375,0.9338108081784368],[97.49887881290691,0.9420188152631478],[97.49853886107962,0.9457798843769671]]]}},{"type":"Feature","properties":{"code":"1225022017","desa":"Togimbogi","kecamatan":"Sirombu","kecCode":"122502","kabCode":"1225","province":"Sumatera Utara"},"geometry":{"type":"Polygon","coordinates":[[[97.49200867955699,0.9481913543876199],[97.49861781526005,0.9457732959437214],[97.49887881290691,0.9420188152631478],[97.4898180839375,0.9338108081784368],[97.48518717974461,0.9389024809152624],[97.47620460995482,0.9405832085968154],[97.48021678777462,0.944619285895442],[97.49200867955699,0.9481913543876199]]]}},{"type":"Feature","properties":{"code":"1225022018","desa":"Sisobandrao","kecamatan":"Sirombu","kecCode":"122502","kabCode":"1225","province":"Sumatera Utara"},"geometry":{"type":"Polygon","coordinates":[[[97.48024504357397,0.9623050438670375],[97.49200867955699,0.9481913543876199],[97.48021678777462,0.944619285895442],[97.47620460995482,0.9405832085968154],[97.46120358008119,0.9441423385427744],[97.46065719787146,0.9483038631727405],[97.45694523893165,0.9456579021334456],[97.45812545072903,0.9484371121228489],[97.45565081233518,0.9499790033664635],[97.45983104916364,0.9495088216135114],[97.46182865656732,0.9519046569103646],[97.460263791241,0.9574673513669627],[97.46381394775557,0.9582097417151691],[97.46561757858841,0.9614112283708451],[97.46388723171042,0.9686703859468491],[97.46992796620276,0.9689305328348127],[97.48024504357397,0.9623050438670375]]]}},{"type":"Feature","properties":{"code":"1225022019","desa":"Fadoro","kecamatan":"Sirombu","kecCode":"122502","kabCode":"1225","province":"Sumatera Utara"},"geometry":{"type":"Polygon","coordinates":[[[97.44392630855236,0.9813017175034433],[97.46389855957091,0.9707136573244194],[97.4651906065613,0.9728551733401792],[97.46345075474856,0.9676523659823073],[97.46561757858841,0.9614112283708451],[97.46381394775557,0.9582097417151691],[97.460263791241,0.9574673513669627],[97.46182865656732,0.9519046569103646],[97.45983104916364,0.9495088216135114],[97.45565081233518,0.9499790033664635],[97.45812545072903,0.9484371121228489],[97.45694523893165,0.9456579021334456],[97.46065719787146,0.9483038631727405],[97.461126070212,0.9430617788238732],[97.44459618386685,0.9436286008244715],[97.44533591671922,0.9474673326922345],[97.45263467594957,0.9486913279819772],[97.44629173057893,0.9582031838587651],[97.44796106205342,0.9586691163151262],[97.44390124084963,0.9607894802763619],[97.44664789358546,0.9745452350852465],[97.44392630855236,0.9813017175034433]]]}},{"type":"Feature","properties":{"code":"1225022020","desa":"Tugala Gawu","kecamatan":"Sirombu","kecCode":"122502","kabCode":"1225","province":"Sumatera Utara"},"geometry":{"type":"Polygon","coordinates":[[[97.43474415042226,0.9563832824934949],[97.44629173057893,0.9582031838587651],[97.45263467594957,0.9486913279819772],[97.44533591671922,0.9474673326922345],[97.44459618386685,0.9436286008244715],[97.43127255868171,0.9418474611385848],[97.42810368593642,0.9446717298604846],[97.4284688826329,0.9572430919252061],[97.43474415042226,0.9563832824934949]]]}},{"type":"Feature","properties":{"code":"1225022021","desa":"Sirombu","kecamatan":"Sirombu","kecCode":"122502","kabCode":"1225","province":"Sumatera Utara"},"geometry":{"type":"MultiPolygon","coordinates":[[[[97.43261899397145,0.918097859702171],[97.42891786466775,0.919255125296238],[97.43106108669984,0.9213855032084421],[97.43261899397145,0.918097859702171]]],[[[97.42887503805264,0.9298680175555245],[97.42463037918871,0.9317118193035212],[97.42805680337881,0.9375224631431873],[97.431266823705,0.9344096748221166],[97.42887503805264,0.9298680175555245]]],[[[97.42843271459816,0.9571174557361685],[97.42810368593642,0.9446717298604846],[97.42267794563075,0.9493713170714092],[97.41581082231163,0.9498495882261879],[97.4102642976593,0.9458735091977821],[97.4122459915593,0.9423226431221329],[97.41113241502897,0.9385216782837555],[97.4061498228561,0.9389642580444842],[97.40428809312107,0.946111167638765],[97.40847594540861,0.9467655188553373],[97.41042058364307,0.9509464166808329],[97.40911909197256,0.9684722095422943],[97.42161553243096,0.972972368492494],[97.42843271459816,0.9571174557361685]]]]}},{"type":"Feature","properties":{"code":"1225022022","desa":"Togideu","kecamatan":"Sirombu","kecCode":"122502","kabCode":"1225","province":"Sumatera Utara"},"geometry":{"type":"Polygon","coordinates":[[[97.43688268968447,0.9777819328969732],[97.43610044228166,0.9567402009301679],[97.42861648206507,0.9568281222504956],[97.42161553243096,0.972972368492494],[97.42488658524775,0.974973983272988],[97.4260341435609,0.9732329560482996],[97.4336315964211,0.9807831162515801],[97.4362181536449,0.9806716587739117],[97.43688268968447,0.9777819328969732]]]}},{"type":"Feature","properties":{"code":"1225022023","desa":"Tugala","kecamatan":"Sirombu","kecCode":"122502","kabCode":"1225","province":"Sumatera Utara"},"geometry":{"type":"Polygon","coordinates":[[[97.44525526641746,0.9641233813113208],[97.43563851720386,0.9697502271073783],[97.4362181536449,0.9806716587739117],[97.44392630855236,0.9813017175034433],[97.44664789358546,0.9783760133487883],[97.44525526641746,0.9641233813113208]]]}},{"type":"Feature","properties":{"code":"1225022024","desa":"Orahili","kecamatan":"Sirombu","kecCode":"122502","kabCode":"1225","province":"Sumatera Utara"},"geometry":{"type":"Polygon","coordinates":[[[97.45764848808732,0.9882489110538727],[97.46249504341158,0.97435559864292],[97.4607933867055,0.9726306953631468],[97.44392630855236,0.9813017175034433],[97.444675447414,0.9886069968104864],[97.45937792575073,0.9906697744832299],[97.45764848808732,0.9882489110538727]]]}},{"type":"Feature","properties":{"code":"1225022025","desa":"Gunungcahaya","kecamatan":"Sirombu","kecCode":"122502","kabCode":"1225","province":"Sumatera Utara"},"geometry":{"type":"Polygon","coordinates":[[[97.47015073906539,0.9940368757901937],[97.47495460986742,0.9869630585951455],[97.47507365402593,0.9791729304919283],[97.47214601542635,0.9736226179012571],[97.46785322484654,0.9781923043380313],[97.46439110836303,0.978180406307377],[97.46430244240383,0.9755460636095679],[97.45822367198491,0.9819621733181448],[97.45937792575073,0.9906697744832299],[97.47015073906539,0.9940368757901937]]]}},{"type":"Feature","properties":{"code":"1225032001","desa":"Onolimbu Raya","kecamatan":"Mandrehe Barat","kecCode":"122503","kabCode":"1225","province":"Sumatera Utara"},"geometry":{"type":"Polygon","coordinates":[[[97.42200378504668,0.9803973106915033],[97.42161553243096,0.972972368492494],[97.40911909197256,0.9684722095422943],[97.40600130521614,0.9827489182295865],[97.41930419922947,0.9861635720889845],[97.42200378504668,0.9803973106915033]]]}},{"type":"Feature","properties":{"code":"1225032002","desa":"Ononamolo Iii","kecamatan":"Mandrehe Barat","kecCode":"122503","kabCode":"1225","province":"Sumatera Utara"},"geometry":{"type":"Polygon","coordinates":[[[97.44323900257795,0.9804579420845225],[97.42829098863824,0.9795095251496608],[97.42495292643645,0.9820620960912108],[97.42200378504668,0.9803973106915033],[97.41757433978405,0.9916492396123878],[97.41819733074225,0.9973394030762971],[97.42716030340534,1.0085435537148788],[97.43220136140377,1.0054942170606904],[97.43692229582733,1.0068246471145175],[97.44478515840837,0.9917040407005212],[97.44323900257795,0.9804579420845225]]]}},{"type":"Feature","properties":{"code":"1225032003","desa":"Sisobaoho","kecamatan":"Mandrehe Barat","kecCode":"122503","kabCode":"1225","province":"Sumatera Utara"},"geometry":{"type":"Polygon","coordinates":[[[97.46435144106619,0.9917040209154384],[97.44451438692947,0.9882214547518089],[97.43929644757303,1.0032299193040632],[97.44486334186979,0.9988667271013669],[97.45880982041693,0.9975605427699213],[97.46435144106619,0.9917040209154384]]]}},{"type":"Feature","properties":{"code":"1225032004","desa":"Iraonogeba","kecamatan":"Mandrehe Barat","kecCode":"122503","kabCode":"1225","province":"Sumatera Utara"},"geometry":{"type":"Polygon","coordinates":[[[97.47784263243159,0.9996430605615424],[97.46435144106619,0.9917040209154384],[97.45880982041693,0.9975605427699213],[97.46437821208485,1.0014313192806845],[97.46605006705697,1.0084689990180333],[97.47549269403264,1.0043111661049782],[97.47784263243159,0.9996430605615424]]]}},{"type":"Feature","properties":{"code":"1225032005","desa":"Lolohia","kecamatan":"Mandrehe Barat","kecCode":"122503","kabCode":"1225","province":"Sumatera Utara"},"geometry":{"type":"Polygon","coordinates":[[[97.48443296600863,1.0071397920421574],[97.47887394797436,1.0005539110159363],[97.47291990003343,1.0060569903134353],[97.46605006705697,1.0084689990180333],[97.4591386548251,1.0215462926855998],[97.46743242396722,1.0208108792777868],[97.48443296600863,1.0071397920421574]]]}},{"type":"Feature","properties":{"code":"1225032006","desa":"Fadorosifulubanua","kecamatan":"Mandrehe Barat","kecCode":"122503","kabCode":"1225","province":"Sumatera Utara"},"geometry":{"type":"Polygon","coordinates":[[[97.46245793108868,1.0221901730956293],[97.45742915333284,1.0229451089863477],[97.45299012399511,1.019173207538461],[97.44692522741734,1.0264608421469312],[97.4433599308162,1.0377994027604103],[97.45069768644913,1.0309096740900836],[97.45952096562013,1.0278366600850815],[97.46245793108868,1.0221901730956293]]]}},{"type":"Feature","properties":{"code":"1225032007","desa":"Hillidaura","kecamatan":"Mandrehe Barat","kecCode":"122503","kabCode":"1225","province":"Sumatera Utara"},"geometry":{"type":"Polygon","coordinates":[[[97.42927271466412,1.0284036412657116],[97.43391111200826,1.0185372816319214],[97.44613750224396,1.0115636938788564],[97.44343836608776,1.00762780105603],[97.43989296968488,1.0082464608786124],[97.43712547066399,1.0129031828036121],[97.42281063340408,1.0230682405634715],[97.41156701420641,1.019854255129991],[97.40356423690007,1.0226334192539857],[97.40527113755303,1.0308231988794574],[97.41490597123362,1.0359079675209752],[97.42927271466412,1.0284036412657116]]]}},{"type":"Feature","properties":{"code":"1225032008","desa":"Sisarahili Ii","kecamatan":"Mandrehe Barat","kecCode":"122503","kabCode":"1225","province":"Sumatera Utara"},"geometry":{"type":"Polygon","coordinates":[[[97.41930419922947,0.9861635720889845],[97.40600130521614,0.9827489182295865],[97.39547100128574,1.0134784674246236],[97.3965397592026,1.0167228805201953],[97.40341192322173,1.0209484701547338],[97.40818036343306,1.0189354456755126],[97.40708105284834,1.0141241761563904],[97.40963659335414,1.0149665045661427],[97.41602055860197,1.006960549064644],[97.41927624740093,1.0060741430827964],[97.4163122294259,0.9986995952938478],[97.41930419922947,0.9861635720889845]]]}},{"type":"Feature","properties":{"code":"1225032009","desa":"Lasara Bagawu","kecamatan":"Mandrehe Barat","kecCode":"122503","kabCode":"1225","province":"Sumatera Utara"},"geometry":{"type":"Polygon","coordinates":[[[97.42716030340534,1.0085435537148788],[97.41819733074225,0.9973394030762971],[97.41757433978405,0.9916492396123878],[97.4163122294259,0.9986995952938478],[97.41927624740093,1.0060741430827964],[97.41602055860197,1.006960549064644],[97.41476383878017,1.020042440066582],[97.41786024685297,1.019094344189661],[97.41904210890624,1.0144905482663846],[97.42060541480811,1.0155398889197875],[97.4197416708415,1.0134840351274064],[97.4219284443423,1.0143758172564563],[97.42242337274051,1.0087317350541507],[97.42716030340534,1.0085435537148788]]]}},{"type":"Feature","properties":{"code":"1225032010","desa":"Sisobandrao","kecamatan":"Mandrehe Barat","kecCode":"122503","kabCode":"1225","province":"Sumatera Utara"},"geometry":{"type":"Polygon","coordinates":[[[97.43533629373502,1.0072209162865866],[97.43668069655695,1.005938383225538],[97.43220136140377,1.0054942170606904],[97.43201100460425,1.0070944050571324],[97.4282871476338,1.0063329769605969],[97.42852509475739,1.0086470027296892],[97.42572606460624,1.0099024302242336],[97.42242337274051,1.0087317350541507],[97.42198555129221,1.014290155932375],[97.4197416708415,1.0134840351274064],[97.42060541480811,1.0155398889197875],[97.41904210890624,1.0144905482663846],[97.41786024685297,1.019094344189661],[97.41508113758447,1.0202858658597211],[97.41545756231669,1.0092777584338097],[97.40963659335414,1.0149665045661427],[97.40613878457731,1.0150378891528549],[97.40818036343306,1.0189354456755126],[97.40434406692519,1.0221112521902274],[97.41316601060299,1.019915168910067],[97.42281063340408,1.0230682405634715],[97.43946466666107,1.01010243944708],[97.43533629373502,1.0072209162865866]]]}},{"type":"Feature","properties":{"code":"1225032011","desa":"Mazingo","kecamatan":"Mandrehe Barat","kecCode":"122503","kabCode":"1225","province":"Sumatera Utara"},"geometry":{"type":"Polygon","coordinates":[[[97.44293521968471,1.034494602887474],[97.45278642755164,1.0172660098815343],[97.45449369243003,1.0174801609435609],[97.45357165081111,1.0143214271585217],[97.44663980508301,1.0137584857325135],[97.44613750224396,1.0115636938788564],[97.43391111200826,1.0185372816319214],[97.42927271466412,1.0284036412657116],[97.44293521968471,1.034494602887474]]]}},{"type":"Feature","properties":{"code":"1225032012","desa":"Onolimbu You","kecamatan":"Mandrehe Barat","kecCode":"122503","kabCode":"1225","province":"Sumatera Utara"},"geometry":{"type":"MultiPolygon","coordinates":[[[[97.46185415234731,1.0274489101907895],[97.45017420457593,1.031290387688723],[97.44361819272547,1.0398090161111473],[97.44850249889127,1.04127475995853],[97.45809436566253,1.035606039030158],[97.46185415234731,1.0274489101907895]]],[[[97.41580288129802,1.0582818031800483],[97.38479659268864,1.044631358982597],[97.38081205373334,1.0529111085841574],[97.39444261843215,1.0574895220420273],[97.41580288129802,1.0582818031800483]]]]}},{"type":"Feature","properties":{"code":"1225032013","desa":"Lasarafaga","kecamatan":"Mandrehe Barat","kecCode":"122503","kabCode":"1225","province":"Sumatera Utara"},"geometry":{"type":"Polygon","coordinates":[[[97.44361819272547,1.0398090161111473],[97.44289578890958,1.0341877766887724],[97.42927271466412,1.0284036412657116],[97.41490597123362,1.0359079675209752],[97.40527113755303,1.0308231988794574],[97.40356423690007,1.0226334192539857],[97.40613841675456,1.0209097714278694],[97.3954704446054,1.0158529321318146],[97.39116262905215,1.0240675249518192],[97.39056165889347,1.030269697637021],[97.39551225678531,1.0308872890650207],[97.39818999986863,1.0365400002623755],[97.40006999933102,1.034619998957515],[97.4010699995809,1.037219999244378],[97.42236108299767,1.0424392713902646],[97.42655136795132,1.0455590402490071],[97.44361819272547,1.0398090161111473]]]}},{"type":"Feature","properties":{"code":"1225032014","desa":"Orahili Badalu","kecamatan":"Mandrehe Barat","kecCode":"122503","kabCode":"1225","province":"Sumatera Utara"},"geometry":{"type":"Polygon","coordinates":[[[97.44821924931898,1.0412468342104082],[97.44361819272547,1.0398090161111473],[97.42655136795132,1.0455590402490071],[97.42860999975174,1.0505999984171261],[97.43014999972273,1.0496199990907074],[97.42876999993557,1.0517799988724774],[97.43380408638956,1.053587745900341],[97.43944922889887,1.044162813096441],[97.44821924931898,1.0412468342104082]]]}},{"type":"Feature","properties":{"code":"1225042001","desa":"Hiliwaloo Ii","kecamatan":"Moro'O","kecCode":"122504","kabCode":"1225","province":"Sumatera Utara"},"geometry":{"type":"Polygon","coordinates":[[[97.47587453807954,1.0830532709814176],[97.47322223142089,1.0754651207169708],[97.47123021869969,1.0752239971882014],[97.46956987325107,1.062823298568648],[97.46580439385775,1.059521760536768],[97.46420703872393,1.0671532302448357],[97.45872912694773,1.0724604488921539],[97.46574879237295,1.0751956010946182],[97.46476131698125,1.0826433141278486],[97.47587453807954,1.0830532709814176]]]}},{"type":"Feature","properties":{"code":"1225042002","desa":"Gunungbaru","kecamatan":"Moro'O","kecCode":"122504","kabCode":"1225","province":"Sumatera Utara"},"geometry":{"type":"Polygon","coordinates":[[[97.45872912694773,1.0724604488921539],[97.46420703872393,1.0671532302448357],[97.46580439385775,1.059521760536768],[97.45093802307137,1.0537151888273522],[97.44463924700369,1.0560038600100665],[97.4421501645985,1.060620184388744],[97.44732494638923,1.0607238807171535],[97.44743381741682,1.0689979484020187],[97.45201084142724,1.072367068686946],[97.45872912694773,1.0724604488921539]]]}},{"type":"Feature","properties":{"code":"1225042003","desa":"Hilisoromi","kecamatan":"Moro'O","kecCode":"122504","kabCode":"1225","province":"Sumatera Utara"},"geometry":{"type":"Polygon","coordinates":[[[97.41130653726697,1.0559652736983487],[97.41580288129802,1.0582818031800483],[97.39444261843215,1.0574895220420273],[97.38081205373334,1.0529111085841574],[97.38479659268864,1.044631358982597],[97.39606982296401,1.0487288078162282],[97.39150721958258,1.0375749994270909],[97.3880082713647,1.0353397767522396],[97.37729671716984,1.0614615478259495],[97.37444540133423,1.0634326189318524],[97.38113240483665,1.0662762158831312],[97.38722908525413,1.0594174490721064],[97.39005968790433,1.0595263174016227],[97.40138209670646,1.0703043800470693],[97.41235810284422,1.0732636460011091],[97.42184952793343,1.0687802099444088],[97.4278600290172,1.059020169062104],[97.42352501796529,1.0544167931221478],[97.41130653726697,1.0559652736983487]]]}},{"type":"Feature","properties":{"code":"1225042004","desa":"Siduahili","kecamatan":"Moro'O","kecCode":"122504","kabCode":"1225","province":"Sumatera Utara"},"geometry":{"type":"MultiPolygon","coordinates":[[[[97.44821924931898,1.0412468342104082],[97.43944922889887,1.044162813096441],[97.43214999932307,1.0542699985834112],[97.42777321386278,1.047879390950102],[97.42616000008398,1.0506305546822121],[97.43137055600641,1.0583472207649458],[97.44192999976974,1.061957776643298],[97.44463924700369,1.0560038600100665],[97.45093802307137,1.0537151888273522],[97.45622072620563,1.0570333868001394],[97.45839820701173,1.05489540871731],[97.45818496066744,1.0443005307777975],[97.44821924931898,1.0412468342104082]]],[[[97.42352501796529,1.0544167931221478],[97.4278600290172,1.059020169062104],[97.42965224205739,1.0586766118530422],[97.42458387794368,1.0527392724230318],[97.42352501796529,1.0544167931221478]]]]}},{"type":"Feature","properties":{"code":"1225042005","desa":"Sitolubanua Fadoro","kecamatan":"Moro'O","kecCode":"122504","kabCode":"1225","province":"Sumatera Utara"},"geometry":{"type":"Polygon","coordinates":[[[97.36508333292954,1.0940999988932667],[97.39193333275716,1.085216665703901],[97.40681166902333,1.087484454628715],[97.41235810284422,1.0732636460011091],[97.40138209670646,1.0703043800470693],[97.39005968790433,1.0595263174016227],[97.38722908525413,1.0594174490721064],[97.38113240483665,1.0662762158831312],[97.37444540133423,1.0634326189318524],[97.37171628627765,1.0664013088815814],[97.36944390091537,1.077513391425777],[97.36149141729514,1.0903925644468673],[97.36508333292954,1.0940999988932667]]]}},{"type":"Feature","properties":{"code":"1225042006","desa":"Halifadolo","kecamatan":"Moro'O","kecCode":"122504","kabCode":"1225","province":"Sumatera Utara"},"geometry":{"type":"Polygon","coordinates":[[[97.45201084142724,1.072367068686946],[97.44743381741682,1.0689979484020187],[97.44699833960173,1.0603972730307216],[97.44192999976974,1.061957776643298],[97.43137055600641,1.0583472207649458],[97.42684732044755,1.0592142994167069],[97.4234825672667,1.0672560389423613],[97.41237789782178,1.0732438519228882],[97.40993828892094,1.0770671550215765],[97.42783734092063,1.0792316640041257],[97.43197437341865,1.0851106068564336],[97.44079278905605,1.0885944248764068],[97.4446154770227,1.0792627463726407],[97.45201084142724,1.072367068686946]]]}},{"type":"Feature","properties":{"code":"1225042007","desa":"Lasara Bahili","kecamatan":"Moro'O","kecCode":"122504","kabCode":"1225","province":"Sumatera Utara"},"geometry":{"type":"Polygon","coordinates":[[[97.40681166902333,1.087484454628715],[97.434424802063,1.0920785549610406],[97.43480497696817,1.0853283462133905],[97.43197437341865,1.0851106068564336],[97.42783734092063,1.0792316640041257],[97.40993828892094,1.0770671550215765],[97.40681166902333,1.087484454628715]]]}},{"type":"Feature","properties":{"code":"1225042008","desa":"Hiliwaele","kecamatan":"Moro'O","kecCode":"122504","kabCode":"1225","province":"Sumatera Utara"},"geometry":{"type":"Polygon","coordinates":[[[97.43480497696817,1.0853283462133905],[97.4347333333767,1.0928055552110951],[97.44497444501467,1.116164551405785],[97.44343219583925,1.106680998992331],[97.44777278268782,1.0954034052189452],[97.4468212370105,1.0825606799217573],[97.44397302203735,1.0814042614890351],[97.44079278905605,1.0885944248764068],[97.43480497696817,1.0853283462133905]]]}},{"type":"Feature","properties":{"code":"1225042009","desa":"Sitoluewali","kecamatan":"Moro'O","kecCode":"122504","kabCode":"1225","province":"Sumatera Utara"},"geometry":{"type":"Polygon","coordinates":[[[97.44372317958113,1.1040039384973608],[97.44628333270968,1.1191499984231954],[97.46518333284462,1.097649998921773],[97.46991666712057,1.0838833317391692],[97.4768696172391,1.0852592845755995],[97.47587453807954,1.0830532709814176],[97.46476131698125,1.0826433141278486],[97.46574879237295,1.0751956010946182],[97.4616333813755,1.0724455920919738],[97.45201084142724,1.072367068686946],[97.44434421721188,1.0799480315695695],[97.44799557443628,1.0904991556929056],[97.44723526239748,1.0983353164943839],[97.44372317958113,1.1040039384973608]]]}},{"type":"Feature","properties":{"code":"1225042010","desa":"Onozalukhu You","kecamatan":"Moro'O","kecCode":"122504","kabCode":"1225","province":"Sumatera Utara"},"geometry":{"type":"Polygon","coordinates":[[[97.39606982296401,1.0487288078162282],[97.41130653726697,1.0559652736983487],[97.42458387794368,1.0527392724230318],[97.43137055600641,1.0583472207649458],[97.42616000008398,1.0506305546822121],[97.42777321386278,1.047879390950102],[97.42467368244456,1.0437919245911476],[97.4010699995809,1.037219999244378],[97.39996999921611,1.0345900002720945],[97.39818999986863,1.0365400002623755],[97.39551225678531,1.0308872890650207],[97.38993720743622,1.0294570036872805],[97.3880082713647,1.0353397767522396],[97.39150721958258,1.0375749994270909],[97.39606982296401,1.0487288078162282]]]}},{"type":"Feature","properties":{"code":"1225052001","desa":"Simaeasi","kecamatan":"Mandrehe","kecCode":"122505","kabCode":"1225","province":"Sumatera Utara"},"geometry":{"type":"MultiPolygon","coordinates":[[[[97.50994656158463,1.0062422731377483],[97.49320382279824,1.0121603068214737],[97.48730286543497,1.009167414316846],[97.47968720400132,1.0177581189046174],[97.48028996920675,1.0238690139995057],[97.47739594096997,1.0301219165419673],[97.48324985569633,1.0380145017078188],[97.48906345471471,1.035906514216572],[97.49055498842205,1.0306859146713405],[97.49604906641132,1.0249070789530865],[97.49752671188833,1.027905200116087],[97.50346933574133,1.024368687220329],[97.5047637623378,1.0265292382864393],[97.51310940257692,1.026161521690018],[97.51179313684385,1.0077495557710623],[97.50994656158463,1.0062422731377483]]],[[[97.52760376160437,1.0449708512559426],[97.51914845623632,1.0413994113898795],[97.52072050085046,1.0446246500401466],[97.51551106728198,1.04640865226803],[97.51046086857427,1.0502325345301466],[97.51694258832985,1.0516648370873136],[97.51762631140518,1.0463145687930497],[97.52303423164453,1.0508920577478655],[97.52760376160437,1.0449708512559426]]]]}},{"type":"Feature","properties":{"code":"1225052002","desa":"Lologolu","kecamatan":"Mandrehe","kecCode":"122505","kabCode":"1225","province":"Sumatera Utara"},"geometry":{"type":"Polygon","coordinates":[[[97.57079006600877,1.0609865088346409],[97.56973943302846,1.0581183055328653],[97.57223179975779,1.0532668327211332],[97.56556260373122,1.0496191654191653],[97.56431695366456,1.0378578856730023],[97.56242935672947,1.036535053991114],[97.54756765971977,1.053053029696771],[97.54324943541314,1.0654636316506134],[97.54000847121404,1.0658578098988858],[97.53912469844613,1.0715323125687732],[97.55096829764886,1.0749815885282357],[97.55666825203826,1.064623297937159],[97.56532094600493,1.067241603024915],[97.57079006600877,1.0609865088346409]]]}},{"type":"Feature","properties":{"code":"1225052003","desa":"Tuwuna","kecamatan":"Mandrehe","kecCode":"122505","kabCode":"1225","province":"Sumatera Utara"},"geometry":{"type":"Polygon","coordinates":[[[97.57079006600877,1.0609865088346409],[97.56532094600493,1.067241603024915],[97.55666825203826,1.064623297937159],[97.55096829764886,1.0749815885282357],[97.55736002224728,1.0849511507626075],[97.55488376057713,1.093669803696394],[97.55676817481145,1.0988985502000137],[97.57000590844596,1.0999117965631215],[97.57043944372542,1.0903644426464938],[97.56751129970678,1.0799776669289385],[97.5762645064019,1.0622024354070703],[97.57079006600877,1.0609865088346409]]]}},{"type":"Feature","properties":{"code":"1225052004","desa":"Tuhemberua","kecamatan":"Mandrehe","kecCode":"122505","kabCode":"1225","province":"Sumatera Utara"},"geometry":{"type":"Polygon","coordinates":[[[97.54756765971977,1.053053029696771],[97.55725633401266,1.040446408811946],[97.54163147860993,1.033621159733578],[97.52828808093022,1.041940526269855],[97.52760376160437,1.0449708512559426],[97.5319465445974,1.0481007114074234],[97.53721014793005,1.0481053195336163],[97.54117025500334,1.0541512673890094],[97.54756765971977,1.053053029696771]]]}},{"type":"Feature","properties":{"code":"1225052005","desa":"Lolozirugi","kecamatan":"Mandrehe","kecCode":"122505","kabCode":"1225","province":"Sumatera Utara"},"geometry":{"type":"MultiPolygon","coordinates":[[[[97.5264749316728,1.0455097169315184],[97.52272014341992,1.0510348251225157],[97.51762631140518,1.0463145687930497],[97.51667452740759,1.0484798790714716],[97.51841349338808,1.0560196575010614],[97.52423018157765,1.0635112862284115],[97.52525971826144,1.0601721043743417],[97.52835301827724,1.0592500627564865],[97.52769015767467,1.0647966638450546],[97.53591722589931,1.0655748804856051],[97.53727550256245,1.0613189549197977],[97.5456303068932,1.0599371196178922],[97.54756765971977,1.053053029696771],[97.54117025500334,1.0541512673890094],[97.53721014793005,1.0481053195336163],[97.5264749316728,1.0455097169315184]]],[[[97.47777396199882,1.0877117879531806],[97.47708776758645,1.1138529627993847],[97.48007554564998,1.1129556867119896],[97.47978961879589,1.1162056081550862],[97.48191986630883,1.1142333823197252],[97.49596906542006,1.1154293439427585],[97.49629866695,1.1098202516632099],[97.50261463895447,1.1030791899200771],[97.50136954376948,1.0958042663293892],[97.49454246995907,1.0964435691901566],[97.48888229258381,1.0927958263452162],[97.48268797097313,1.0949383451050576],[97.47777396199882,1.0877117879531806]]]]}},{"type":"Feature","properties":{"code":"1225052006","desa":"Lakhene","kecamatan":"Mandrehe","kecCode":"122505","kabCode":"1225","province":"Sumatera Utara"},"geometry":{"type":"MultiPolygon","coordinates":[[[[97.51666240364705,1.0511345914135721],[97.51017599302769,1.0502475289265945],[97.50835532004201,1.0535144439591222],[97.50116513955959,1.055506986378742],[97.50905657540069,1.060329717757372],[97.50813851328182,1.0675098779855376],[97.51114144402248,1.068779225186745],[97.51594528784481,1.0631707471441727],[97.52098974617991,1.0653027447353953],[97.52423018157765,1.0635112862284115],[97.51666240364705,1.0511345914135721]]],[[[97.54328100341563,1.0647183059152732],[97.54424845540193,1.0612389161571452],[97.5400594726666,1.0602910280236597],[97.53556229136672,1.063974432585004],[97.53591722589931,1.0655748804856051],[97.54328100341563,1.0647183059152732]]]]}},{"type":"Feature","properties":{"code":"1225052007","desa":"Hiliwaloo I","kecamatan":"Mandrehe","kecCode":"122505","kabCode":"1225","province":"Sumatera Utara"},"geometry":{"type":"Polygon","coordinates":[[[97.51138484463489,1.0486786688135812],[97.52080675572726,1.044139240067011],[97.51566331441052,1.0387987680877817],[97.51310940257692,1.026161521690018],[97.50825767705021,1.0258377837402903],[97.5056128203754,1.027950055601778],[97.50678988544489,1.0306058678147452],[97.50288729271442,1.03946394624248],[97.51094340161676,1.0443443061777062],[97.51138484463489,1.0486786688135812]]]}},{"type":"Feature","properties":{"code":"1225052008","desa":"Sianaa","kecamatan":"Mandrehe","kecCode":"122505","kabCode":"1225","province":"Sumatera Utara"},"geometry":{"type":"Polygon","coordinates":[[[97.50627800482611,1.0263000469626198],[97.50346933574133,1.024368687220329],[97.49752671188833,1.027905200116087],[97.49619897170521,1.0248928031149165],[97.49298669857733,1.027348405556296],[97.48847752122064,1.0372826559105992],[97.48943271724619,1.043349000390062],[97.5003607499487,1.0458580864127438],[97.50523544685842,1.041609403087432],[97.50286825766402,1.0392402767559596],[97.50678988544489,1.0306058678147452],[97.50627800482611,1.0263000469626198]]]}},{"type":"Feature","properties":{"code":"1225052009","desa":"Fadoro","kecamatan":"Mandrehe","kecCode":"122505","kabCode":"1225","province":"Sumatera Utara"},"geometry":{"type":"Polygon","coordinates":[[[97.50835532004201,1.0535144439591222],[97.51094340161676,1.0443443061777062],[97.50523544685842,1.041609403087432],[97.49752578108996,1.046143147219341],[97.49019762392129,1.042464831022091],[97.4906505359935,1.044741143721235],[97.48682793975767,1.0470809269730277],[97.49034171959477,1.0502002209897792],[97.48999239143573,1.0552384695005397],[97.5028217663115,1.0554603205578776],[97.50835532004201,1.0535144439591222]]]}},{"type":"Feature","properties":{"code":"1225052010","desa":"Iraonogambo","kecamatan":"Mandrehe","kecCode":"122505","kabCode":"1225","province":"Sumatera Utara"},"geometry":{"type":"MultiPolygon","coordinates":[[[[97.42290442999551,0.9630393942762109],[97.4100747475516,0.9613669178744282],[97.40970726657712,0.9654356963212554],[97.42257130492185,0.9672034504977777],[97.42290442999551,0.9630393942762109]]],[[[97.47163401789568,1.01816219688997],[97.46477999859809,1.0219499992509486],[97.4678945846674,1.0342355441791915],[97.46258838674468,1.0438033567729945],[97.46553677270394,1.0481771591771947],[97.47543955938822,1.0291691100162057],[97.47163401789568,1.01816219688997]]]]}},{"type":"Feature","properties":{"code":"1225052011","desa":"Tuhoowo","kecamatan":"Mandrehe","kecCode":"122505","kabCode":"1225","province":"Sumatera Utara"},"geometry":{"type":"Polygon","coordinates":[[[97.45690402659959,1.0360286772238179],[97.44850249889127,1.04127475995853],[97.45818496066744,1.0443005307777975],[97.45968512876573,1.053337450186027],[97.46414292785391,1.0478135470865584],[97.46317329681027,1.0415715452266134],[97.4606886156871,1.036117369263249],[97.45690402659959,1.0360286772238179]]]}},{"type":"Feature","properties":{"code":"1225052012","desa":"Fadoro Bahili","kecamatan":"Mandrehe","kecCode":"122505","kabCode":"1225","province":"Sumatera Utara"},"geometry":{"type":"Polygon","coordinates":[[[97.46477999859809,1.0219499992509486],[97.4617466752689,1.0231137759365807],[97.4601922312865,1.0266791480768063],[97.46169909034079,1.0280663010699924],[97.45690402659959,1.0360286772238179],[97.4606886156871,1.036117369263249],[97.46317329681027,1.0415715452266134],[97.4678945846674,1.0342355441791915],[97.46477999859809,1.0219499992509486]]]}},{"type":"Feature","properties":{"code":"1225052013","desa":"Tumori","kecamatan":"Mandrehe","kecCode":"122505","kabCode":"1225","province":"Sumatera Utara"},"geometry":{"type":"MultiPolygon","coordinates":[[[[97.46077825021615,0.9699603168310152],[97.45961710134821,0.9675786197760169],[97.45982085444892,0.9700176540073199],[97.46077825021615,0.9699603168310152]]],[[[97.45622072620563,1.0570333868001394],[97.46616174127136,1.0590764720180343],[97.4705766966573,1.0556275360022904],[97.46632459860143,1.0470863229053229],[97.46226426658266,1.0486013720837966],[97.45622072620563,1.0570333868001394]]]]}},{"type":"Feature","properties":{"code":"1225052014","desa":"Lasara Baene","kecamatan":"Mandrehe","kecCode":"122505","kabCode":"1225","province":"Sumatera Utara"},"geometry":{"type":"Polygon","coordinates":[[[97.485889621309,1.0087378594372591],[97.48443296600863,1.0071397920421574],[97.47163401789568,1.01816219688997],[97.47543955938822,1.0291691100162057],[97.46646994163454,1.046311161261777],[97.4685313613333,1.0501437552565056],[97.48324985569633,1.0380145017078188],[97.47739594096997,1.0301219165419673],[97.48028996920675,1.0238690139995057],[97.47968720400132,1.0177581189046174],[97.485889621309,1.0087378594372591]]]}},{"type":"Feature","properties":{"code":"1225052015","desa":"Tetehosi","kecamatan":"Mandrehe","kecCode":"122505","kabCode":"1225","province":"Sumatera Utara"},"geometry":{"type":"Polygon","coordinates":[[[97.46580439385775,1.059521760536768],[97.46956987325107,1.062823298568648],[97.47124938774908,1.0715129915339734],[97.4774242399368,1.0618532862135666],[97.48999239143573,1.0552384695005397],[97.49034171959477,1.0502002209897792],[97.48682793975767,1.0470809269730277],[97.4906505359935,1.044741143721235],[97.48906345471471,1.035906514216572],[97.48324985569633,1.0380145017078188],[97.46923511860592,1.0500551099818687],[97.47081395040357,1.0551413903837124],[97.46580439385775,1.059521760536768]]]}},{"type":"Feature","properties":{"code":"1225052016","desa":"Sisarahili I","kecamatan":"Mandrehe","kecCode":"122505","kabCode":"1225","province":"Sumatera Utara"},"geometry":{"type":"Polygon","coordinates":[[[97.50813851328182,1.0675098779855376],[97.50905657540069,1.060329717757372],[97.50116513955959,1.055506986378742],[97.49040098042099,1.0550320175345504],[97.4774242399368,1.0618532862135666],[97.488705526339,1.0708228266155322],[97.4896825875814,1.0809178433759221],[97.4939432498811,1.08371377176218],[97.49722285075404,1.0811474996492485],[97.50253794836765,1.0814248748496254],[97.50070206784619,1.0687318498007792],[97.50813851328182,1.0675098779855376]]]}},{"type":"Feature","properties":{"code":"1225052017","desa":"Doli-Doli","kecamatan":"Mandrehe","kecCode":"122505","kabCode":"1225","province":"Sumatera Utara"},"geometry":{"type":"Polygon","coordinates":[[[97.53912469844613,1.0715323125687732],[97.5400941316389,1.065676970624834],[97.54329588899412,1.0648594599061716],[97.52769015767467,1.0647966638450546],[97.52835301827724,1.0592500627564865],[97.52525971826144,1.0601721043743417],[97.52541581988424,1.0639306616817337],[97.52098974617991,1.0653027447353953],[97.51714453739055,1.062751961646088],[97.51114144402248,1.068779225186745],[97.51979055239211,1.0740748947403722],[97.52691840356151,1.074435716234684],[97.53251160662539,1.0807912611000936],[97.53912469844613,1.0715323125687732]]]}},{"type":"Feature","properties":{"code":"1225052018","desa":"Hayo","kecamatan":"Mandrehe","kecCode":"122505","kabCode":"1225","province":"Sumatera Utara"},"geometry":{"type":"Polygon","coordinates":[[[97.51979055239211,1.0740748947403722],[97.50519329923145,1.0672744300782326],[97.50055335055673,1.0694754317506296],[97.50253794836765,1.0814248748496254],[97.51077052224183,1.0899036669028608],[97.53251160662539,1.0807912611000936],[97.52691840356151,1.074435716234684],[97.51979055239211,1.0740748947403722]]]}},{"type":"Feature","properties":{"code":"1225052019","desa":"Zuzundrao","kecamatan":"Mandrehe","kecCode":"122505","kabCode":"1225","province":"Sumatera Utara"},"geometry":{"type":"Polygon","coordinates":[[[97.47124938774908,1.0715129915339734],[97.48268797097313,1.0949383451050576],[97.4876740048515,1.0932137547893674],[97.4939432498811,1.08371377176218],[97.4896825875814,1.0809178433759221],[97.488705526339,1.0708228266155322],[97.4774242399368,1.0618532862135666],[97.47124938774908,1.0715129915339734]]]}},{"type":"Feature","properties":{"code":"1225052020","desa":"Sisobambowo","kecamatan":"Mandrehe","kecCode":"122505","kabCode":"1225","province":"Sumatera Utara"},"geometry":{"type":"Polygon","coordinates":[[[97.44486334186979,0.9988667271013669],[97.43533629373502,1.0072209162865866],[97.43946466666107,1.01010243944708],[97.44343836608776,1.00762780105603],[97.44585386866119,1.0132564203151169],[97.45357165081111,1.0143214271585217],[97.45304618683214,1.0205037832824269],[97.45450955467224,1.018819123764909],[97.45742915333284,1.0229451089863477],[97.46607205458173,1.0084061849704098],[97.46437821208485,1.0014313192806845],[97.45914452559941,0.9976184141434785],[97.44486334186979,0.9988667271013669]]]}},{"type":"Feature","properties":{"code":"1225062001","desa":"Balodano","kecamatan":"Mandrehe Utara","kecCode":"122506","kabCode":"1225","province":"Sumatera Utara"},"geometry":{"type":"Polygon","coordinates":[[[97.55096829764886,1.0749815885282357],[97.53942999939498,1.0713599988675948],[97.53428514884058,1.0780174200632442],[97.53785828123478,1.096197306935241],[97.5435392446405,1.0965542253718925],[97.5460805084088,1.1002721333228394],[97.55715563422517,1.0983449509314136],[97.55483807501719,1.09504037409037],[97.55736002224728,1.0849511507626075],[97.55096829764886,1.0749815885282357]]]}},{"type":"Feature","properties":{"code":"1225062002","desa":"Hiambanua","kecamatan":"Mandrehe Utara","kecCode":"122506","kabCode":"1225","province":"Sumatera Utara"},"geometry":{"type":"Polygon","coordinates":[[[97.53428514884058,1.0780174200632442],[97.52891192084856,1.0826787869865653],[97.51364644622657,1.0873560422325028],[97.51552697808762,1.0877951389189904],[97.51591225124946,1.1033284226357525],[97.52609237356427,1.1050621455667453],[97.5280554299142,1.1119328400860382],[97.53019248259704,1.1057239341767249],[97.53176292641795,1.111434639954799],[97.53512250759769,1.1111925748358455],[97.53547942783337,1.1030131769840408],[97.53827529327019,1.0993844988670787],[97.53643739826738,1.096505351715379],[97.53635049677808,1.0808963963437699],[97.53428514884058,1.0780174200632442]]]}},{"type":"Feature","properties":{"code":"1225062003","desa":"Hilimayo","kecamatan":"Mandrehe Utara","kecCode":"122506","kabCode":"1225","province":"Sumatera Utara"},"geometry":{"type":"Polygon","coordinates":[[[97.50136954376948,1.0958042663293892],[97.50263224408285,1.103094142048431],[97.51591225124946,1.1033284226357525],[97.51552697808762,1.0877951389189904],[97.51077052224183,1.0899036669028608],[97.50256135322394,1.08142572920559],[97.49722285075404,1.0811474996492485],[97.4944874296512,1.0836442065040177],[97.50424718366065,1.0885608298020433],[97.50405000640272,1.0936312236800012],[97.50136954376948,1.0958042663293892]]]}},{"type":"Feature","properties":{"code":"1225062004","desa":"Sihareo","kecamatan":"Mandrehe Utara","kecCode":"122506","kabCode":"1225","province":"Sumatera Utara"},"geometry":{"type":"Polygon","coordinates":[[[97.4876740048515,1.0932137547893674],[97.49945021065878,1.0966955727170675],[97.50355507890384,1.0946097768965652],[97.50424718366065,1.0885608298020433],[97.49400565743518,1.0833241935461646],[97.4876740048515,1.0932137547893674]]]}},{"type":"Feature","properties":{"code":"1225062005","desa":"Lolomboli","kecamatan":"Mandrehe Utara","kecCode":"122506","kabCode":"1225","province":"Sumatera Utara"},"geometry":{"type":"Polygon","coordinates":[[[97.4930601489068,1.152725768791312],[97.49919444436819,1.1481666655763374],[97.49538610778274,1.142068172132454],[97.49790232093538,1.1430065724183682],[97.49882795894318,1.1394946739668883],[97.4940686045825,1.131549079162405],[97.4792306415809,1.1168322971249394],[97.48007554564998,1.1129556867119896],[97.47708776758645,1.1138529627993847],[97.47744166520073,1.1391052837091873],[97.49308612222683,1.1642574768003635],[97.4925465047175,1.1710100435704072],[97.49515088380626,1.1839729632589455],[97.50183999891686,1.1915299987793189],[97.50343730189002,1.1892753876204305],[97.50000634062019,1.1877873046135201],[97.50008962233824,1.1848843622997849],[97.49594416499126,1.1839260042590718],[97.49401928036552,1.1742064517545026],[97.49503618157455,1.1583111162709299],[97.4930601489068,1.152725768791312]]]}},{"type":"Feature","properties":{"code":"1225062006","desa":"Ononamolo I","kecamatan":"Mandrehe Utara","kecCode":"122506","kabCode":"1225","province":"Sumatera Utara"},"geometry":{"type":"Polygon","coordinates":[[[97.50256040443918,1.1157400291323878],[97.48191986630883,1.1142333823197252],[97.4792306415809,1.1168322971249394],[97.48926782025374,1.1263809082937033],[97.5012595063212,1.1233950889569968],[97.50256040443918,1.1157400291323878]]]}},{"type":"Feature","properties":{"code":"1225062007","desa":"Hilimbaruzo","kecamatan":"Mandrehe Utara","kecCode":"122506","kabCode":"1225","province":"Sumatera Utara"},"geometry":{"type":"Polygon","coordinates":[[[97.5363311145893,1.1454271156890945],[97.53707923272047,1.1424459053778122],[97.54224793599347,1.1393807037834593],[97.53929636103828,1.1377600768947993],[97.53955173522446,1.1277776354693887],[97.53324525826211,1.125876951602064],[97.53078422840946,1.1211738498405546],[97.53236683466173,1.1120476151627539],[97.53019248259704,1.1057239341767249],[97.52843168197658,1.1073419665212083],[97.52948014759077,1.1128968566610822],[97.52341252157066,1.1160734365927405],[97.52152679882278,1.1234021765140407],[97.5230139618249,1.1287262205774788],[97.53027726708228,1.136608184749997],[97.53138371558606,1.1433599061572717],[97.5363311145893,1.1454271156890945]]]}},{"type":"Feature","properties":{"code":"1225062008","desa":"Tarahoso","kecamatan":"Mandrehe Utara","kecCode":"122506","kabCode":"1225","province":"Sumatera Utara"},"geometry":{"type":"Polygon","coordinates":[[[97.55421543479451,1.099668108167905],[97.5460805084088,1.1002721333228394],[97.5435392446405,1.0965542253718925],[97.53643739826738,1.096505351715379],[97.53827529327019,1.0993844988670787],[97.53078422840946,1.1211738498405546],[97.53324525826211,1.125876951602064],[97.53955173522446,1.1277776354693887],[97.54007619556006,1.1385622559712238],[97.54185003185353,1.1386162971322564],[97.54497512290368,1.1228298740449074],[97.54895719681724,1.1162035055401314],[97.56079897579217,1.1085408905110437],[97.55336388923217,1.101181778685665],[97.55421543479451,1.099668108167905]]]}},{"type":"Feature","properties":{"code":"1225062009","desa":"Ononamolo Ii","kecamatan":"Mandrehe Utara","kecCode":"122506","kabCode":"1225","province":"Sumatera Utara"},"geometry":{"type":"Polygon","coordinates":[[[97.57196339979112,1.1305800003035884],[97.57685523957771,1.119494612335628],[97.56643731582955,1.1143008566541495],[97.56079897579217,1.1085408905110437],[97.54895719681724,1.1162035055401314],[97.54497512290368,1.1228298740449074],[97.54174913781252,1.1388279534748693],[97.54527579504196,1.1354655933937745],[97.54877392937341,1.136464866990258],[97.54796672488452,1.137953249471455],[97.55027796815374,1.1367669834394216],[97.55277381885672,1.1414389380812056],[97.55753590086117,1.1414900042849345],[97.57196339979112,1.1305800003035884]]]}},{"type":"Feature","properties":{"code":"1225062010","desa":"Taraha","kecamatan":"Mandrehe Utara","kecCode":"122506","kabCode":"1225","province":"Sumatera Utara"},"geometry":{"type":"Polygon","coordinates":[[[97.51597637201199,1.1525728129971953],[97.52054379396098,1.1563653430941512],[97.52149804030239,1.1510732321579094],[97.53348327643208,1.1443090326572196],[97.52152679882278,1.1234021765140407],[97.51838072479067,1.1218939343040908],[97.5166675126956,1.1154979424296985],[97.5135875226461,1.1272434588590683],[97.52017868989469,1.1363700604602507],[97.51597637201199,1.1525728129971953]]]}},{"type":"Feature","properties":{"code":"1225062011","desa":"Lahagu","kecamatan":"Mandrehe Utara","kecCode":"122506","kabCode":"1225","province":"Sumatera Utara"},"geometry":{"type":"Polygon","coordinates":[[[97.50261463895447,1.1030791899200771],[97.49629866695,1.1098202516632099],[97.49596906542006,1.1154293439427585],[97.50256040443918,1.1157400291323878],[97.5012595063212,1.1233950889569968],[97.5135875226461,1.1272434588590683],[97.5166675126956,1.1154979424296985],[97.51838072479067,1.1218939343040908],[97.52152679882278,1.1234021765140407],[97.52341252157066,1.1160734365927405],[97.52948014759077,1.1128968566610822],[97.52606263028622,1.1100292711935804],[97.52609237356427,1.1050621455667453],[97.51070575486675,1.1020781131828865],[97.50261463895447,1.1030791899200771]]]}},{"type":"Feature","properties":{"code":"1225062012","desa":"Hilimbowo","kecamatan":"Mandrehe Utara","kecCode":"122506","kabCode":"1225","province":"Sumatera Utara"},"geometry":{"type":"Polygon","coordinates":[[[97.49790232093538,1.1430065724183682],[97.5000897365522,1.141766481062603],[97.50276547144937,1.143718701479024],[97.50261794306367,1.1495103102683055],[97.50788067585256,1.154397406125642],[97.51256091685285,1.1521806995923711],[97.5130558443518,1.1545601609327558],[97.51597637201199,1.1525728129971953],[97.52017868989469,1.1363700604602507],[97.5135875226461,1.1272434588590683],[97.5076718964409,1.1248228139648921],[97.5012595063212,1.1233950889569968],[97.48926782025374,1.1263809082937033],[97.49882795894318,1.1394946739668883],[97.49790232093538,1.1430065724183682]]]}},{"type":"Feature","properties":{"code":"1225072001","desa":"Sisobawino Ii","kecamatan":"Lolofitu Moi","kecCode":"122507","kabCode":"1225","province":"Sumatera Utara"},"geometry":{"type":"Polygon","coordinates":[[[97.6078600622921,1.026462133573435],[97.59112232913225,1.019968318842894],[97.58959288540342,1.038219676636504],[97.58435087299443,1.043345339249998],[97.59966395502755,1.0444847982675671],[97.60019066726555,1.0315893780944085],[97.60660450529372,1.0319284512837588],[97.6078600622921,1.026462133573435]]]}},{"type":"Feature","properties":{"code":"1225072002","desa":"Duria","kecamatan":"Lolofitu Moi","kecCode":"122507","kabCode":"1225","province":"Sumatera Utara"},"geometry":{"type":"Polygon","coordinates":[[[97.62058829041734,1.0445486870049365],[97.61781920409304,1.0431612822016652],[97.62001063698136,1.0274341352288803],[97.6078600622921,1.026462133573435],[97.60660450529372,1.0319284512837588],[97.60019066726555,1.0315893780944085],[97.6000065967271,1.0378318251187626],[97.61448625183908,1.0410296317486643],[97.61975080935241,1.04864390641922],[97.62058829041734,1.0445486870049365]]]}},{"type":"Feature","properties":{"code":"1225072003","desa":"Ambukha","kecamatan":"Lolofitu Moi","kecCode":"122507","kabCode":"1225","province":"Sumatera Utara"},"geometry":{"type":"Polygon","coordinates":[[[97.618256946401,1.0587764473919365],[97.61975080935241,1.04864390641922],[97.61534880690196,1.0418921859113004],[97.6000065967271,1.0378318251187626],[97.59966395502755,1.0444847982675671],[97.5782309585919,1.0432462879199604],[97.56973943302846,1.0581183055328653],[97.57157805558285,1.062296219407861],[97.5797385182181,1.0619763872137487],[97.59009690684684,1.065919153554939],[97.59866130087839,1.064593591531387],[97.60300000005002,1.0606799991972733],[97.61460415655665,1.0610998557879245],[97.618256946401,1.0587764473919365]]]}},{"type":"Feature","properties":{"code":"1225072004","desa":"Hilimbowo Mau","kecamatan":"Lolofitu Moi","kecCode":"122507","kabCode":"1225","province":"Sumatera Utara"},"geometry":{"type":"Polygon","coordinates":[[[97.5762645064019,1.0622024354070703],[97.56784407044756,1.0782099037592188],[97.58375863165558,1.0785647879293458],[97.59918493203907,1.0833807815872114],[97.60101735826453,1.080133844094664],[97.59780032682367,1.077107170356008],[97.59666661627136,1.0653696731813276],[97.59009690684684,1.065919153554939],[97.5762645064019,1.0622024354070703]]]}},{"type":"Feature","properties":{"code":"1225072005","desa":"Hilimbuasi","kecamatan":"Lolofitu Moi","kecCode":"122507","kabCode":"1225","province":"Sumatera Utara"},"geometry":{"type":"MultiPolygon","coordinates":[[[[97.61948205055624,1.08585933922378],[97.6204494467846,1.078010374774369],[97.61102812025162,1.0640008249890591],[97.61197000001556,1.0602399986921853],[97.60300000005002,1.0606799991972733],[97.59666661627136,1.0653696731813276],[97.60009986181922,1.081759587226344],[97.61948205055624,1.08585933922378]]],[[[97.56780999963183,1.0782699991561915],[97.57043356395785,1.0911240091464178],[97.57800337255763,1.08543318378149],[97.58466297371734,1.0885243694876967],[97.58959094466644,1.083780531135523],[97.59538434760962,1.083539138709496],[97.58375863165558,1.0785647879293458],[97.56780999963183,1.0782699991561915]]]]}},{"type":"Feature","properties":{"code":"1225072006","desa":"Lolofitu","kecamatan":"Lolofitu Moi","kecCode":"122507","kabCode":"1225","province":"Sumatera Utara"},"geometry":{"type":"Polygon","coordinates":[[[97.58448829929561,1.1052561167413804],[97.58466297371734,1.0885243694876967],[97.57800337255763,1.08543318378149],[97.57043356395785,1.0911240091464178],[97.57000590844596,1.0999117965631215],[97.57598105538148,1.1030114619769387],[97.5831770490816,1.1007843574821072],[97.58448829929561,1.1052561167413804]]]}},{"type":"Feature","properties":{"code":"1225072007","desa":"Hiliuso","kecamatan":"Lolofitu Moi","kecCode":"122507","kabCode":"1225","province":"Sumatera Utara"},"geometry":{"type":"Polygon","coordinates":[[[97.57178999970874,1.116770000187539],[97.57809207179173,1.1090201823963393],[97.58448829929561,1.1052561167413804],[97.5831770490816,1.1007843574821072],[97.57598105538148,1.1030114619769387],[97.56827210457404,1.0992043961377271],[97.55441941002785,1.0994599564832508],[97.55336388923217,1.101181778685665],[97.56479331286117,1.1128810888477167],[97.57178999970874,1.116770000187539]]]}},{"type":"Feature","properties":{"code":"1225072008","desa":"Wango","kecamatan":"Lolofitu Moi","kecCode":"122507","kabCode":"1225","province":"Sumatera Utara"},"geometry":{"type":"Polygon","coordinates":[[[97.58455016995441,1.1053091488630764],[97.5988565850634,1.1015298810683012],[97.60215808622678,1.10557496507722],[97.60297128739505,1.1114772974973819],[97.61008123665981,1.103118275355487],[97.62202775787478,1.1041677527058087],[97.62436914641904,1.0973149061318597],[97.61948205055624,1.08585933922378],[97.61537034296703,1.083860589683299],[97.60009986181922,1.081759587226344],[97.58959094466644,1.083780531135523],[97.58370891803219,1.090861808206916],[97.58589878160355,1.0942956751824755],[97.58455016995441,1.1053091488630764]]]}},{"type":"Feature","properties":{"code":"1225082001","desa":"Bukit Tinggi","kecamatan":"Ulu Moro'O","kecCode":"122508","kabCode":"1225","province":"Sumatera Utara"},"geometry":{"type":"Polygon","coordinates":[[[97.52922954340875,1.0099963850963136],[97.51763918699895,1.007888117915859],[97.51316792056313,1.0098936564384182],[97.51566331441052,1.0387987680877817],[97.52760376160437,1.0449708512559426],[97.5285022328918,1.0416264362469843],[97.5326024282595,1.039306376026921],[97.53203463858777,1.0175408094236402],[97.52868435909596,1.0170458819252315],[97.52922954340875,1.0099963850963136]]]}},{"type":"Feature","properties":{"code":"1225082002","desa":"Lawelu","kecamatan":"Ulu Moro'O","kecCode":"122508","kabCode":"1225","province":"Sumatera Utara"},"geometry":{"type":"Polygon","coordinates":[[[97.56923121444903,1.0023817776766017],[97.5528612248657,0.9916128431498995],[97.54591467432283,0.9802051057854302],[97.53775680803034,0.9781024629650878],[97.53542727255063,0.9952094199664502],[97.52882952226469,1.0109507798247463],[97.52868435909596,1.0170458819252315],[97.53203463858777,1.0175408094236402],[97.5326024282595,1.039306376026921],[97.54025396095159,1.0341590226650224],[97.54321937377512,1.0347659850057744],[97.54348477000622,1.020247977421979],[97.53854597571626,1.0149041815484852],[97.53866018961611,1.0094078651527156],[97.55878781290731,1.0002461971863146],[97.56923121444903,1.0023817776766017]]]}},{"type":"Feature","properties":{"code":"1225082003","desa":"Saloo","kecamatan":"Ulu Moro'O","kecCode":"122508","kabCode":"1225","province":"Sumatera Utara"},"geometry":{"type":"Polygon","coordinates":[[[97.55725633401266,1.040446408811946],[97.56242935672947,1.036535053991114],[97.56073266428108,1.0338708672912695],[97.56325407641458,1.0289337178668854],[97.55984036683952,1.0266610986833684],[97.55855545776821,1.017987963136254],[97.56299945765892,1.0019594101787608],[97.55878781290731,1.0002461971863146],[97.53807149520338,1.0104445982103392],[97.53854597571626,1.0149041815484852],[97.54348477000622,1.020247977421979],[97.54321937377512,1.0347659850057744],[97.55725633401266,1.040446408811946]]]}},{"type":"Feature","properties":{"code":"1225082004","desa":"Hilisangawola","kecamatan":"Ulu Moro'O","kecCode":"122508","kabCode":"1225","province":"Sumatera Utara"},"geometry":{"type":"Polygon","coordinates":[[[97.58014658379784,1.0116493192300264],[97.56923121444903,1.0023817776766017],[97.56299945765892,1.0019594101787608],[97.55855545776821,1.017987963136254],[97.55984036683952,1.0266610986833684],[97.56325407641458,1.0289337178668854],[97.56073266428108,1.0338708672912695],[97.56242935672947,1.036535053991114],[97.5783119434415,1.027393686421291],[97.58014658379784,1.0116493192300264]]]}},{"type":"Feature","properties":{"code":"1225082005","desa":"Hilibadalu","kecamatan":"Ulu Moro'O","kecCode":"122508","kabCode":"1225","province":"Sumatera Utara"},"geometry":{"type":"Polygon","coordinates":[[[97.59112232913225,1.019968318842894],[97.58014658379784,1.0116493192300264],[97.5783119434415,1.027393686421291],[97.56242935672947,1.036535053991114],[97.56431695366456,1.0378578856730023],[97.56556260373122,1.0496191654191653],[97.57260863637953,1.053442110587666],[97.5782309585919,1.0432462879199604],[97.58435087299443,1.043345339249998],[97.58959288540342,1.038219676636504],[97.59112232913225,1.019968318842894]]]}}]}