{"type":"FeatureCollection","features":[{"type":"Feature","properties":{"code":"1271011001","desa":"Pasar Baru","kecamatan":"Medan Kota","kecCode":"127101"},"geometry":{"type":"Polygon","coordinates":[[[98.6857279756656,3.5871265994567425],[98.68416066867997,3.581107776952509],[98.68190213827312,3.5853596681597746],[98.6857279756656,3.5871265994567425]]]}},{"type":"Feature","properties":{"code":"1271011002","desa":"Pusat Pasar","kecamatan":"Medan Kota","kecCode":"127101"},"geometry":{"type":"Polygon","coordinates":[[[98.68743095707305,3.5831954460609534],[98.68413365034773,3.5912575444394905],[98.68884371376647,3.5930576274449813],[98.69123103698286,3.5867796176293356],[98.68743095707305,3.5831954460609534]]]}},{"type":"Feature","properties":{"code":"1271011003","desa":"Sei Rengas I","kecamatan":"Medan Kota","kecCode":"127101"},"geometry":{"type":"Polygon","coordinates":[[[98.68874752228038,3.5802035140321036],[98.69123103698286,3.5867796176293356],[98.69340228458782,3.5811946073953234],[98.68874752228038,3.5802035140321036]]]}},{"type":"Feature","properties":{"code":"1271011004","desa":"Mesjid","kecamatan":"Medan Kota","kecCode":"127101"},"geometry":{"type":"Polygon","coordinates":[[[98.68722931378186,3.5724975202037794],[98.68743095707305,3.5831954460609534],[98.68932373140512,3.572472865289902],[98.68722931378186,3.5724975202037794]]]}},{"type":"Feature","properties":{"code":"1271011005","desa":"Pandau Hulu I","kecamatan":"Medan Kota","kecCode":"127101"},"geometry":{"type":"Polygon","coordinates":[[[98.69646367306012,3.5875385249262526],[98.6896665250901,3.5908644067067814],[98.69593047041496,3.5933869654731305],[98.69646367306012,3.5875385249262526]]]}},{"type":"Feature","properties":{"code":"1271011006","desa":"Kotamatsum III","kecamatan":"Medan Kota","kecCode":"127101"},"geometry":{"type":"Polygon","coordinates":[[[98.68583174304057,3.5797810799844374],[98.69103932580428,3.580699372328777],[98.6907263914099,3.5724087670105176],[98.68583174304057,3.5797810799844374]]]}},{"type":"Feature","properties":{"code":"1271011007","desa":"Pasar Merah Barat","kecamatan":"Medan Kota","kecCode":"127101"},"geometry":{"type":"Polygon","coordinates":[[[98.68730788305243,3.5724998737296074],[98.69725984106884,3.572242094756546],[98.69729684277513,3.5686213360693944],[98.68909076742506,3.5678344481656796],[98.68730788305243,3.5724998737296074]]]}},{"type":"Feature","properties":{"code":"1271011008","desa":"Teladan Timur","kecamatan":"Medan Kota","kecCode":"127101"},"geometry":{"type":"Polygon","coordinates":[[[98.6971606710282,3.5686241383568493],[98.70649507179017,3.5684276319934054],[98.70661241982737,3.5627414956933667],[98.69724354265543,3.5629276184844714],[98.6971606710282,3.5686241383568493]]]}},{"type":"Feature","properties":{"code":"1271011009","desa":"Teladan Barat","kecamatan":"Medan Kota","kecCode":"127101"},"geometry":{"type":"Polygon","coordinates":[[[98.68909076742506,3.5678344481656796],[98.6971606710282,3.5686241383568493],[98.69607461555114,3.5595842673732916],[98.69027968286115,3.56221506224576],[98.68909076742506,3.5678344481656796]]]}},{"type":"Feature","properties":{"code":"1271011010","desa":"Sudirejo 1","kecamatan":"Medan Kota","kecCode":"127101"},"geometry":{"type":"Polygon","coordinates":[[[98.69462747237998,3.557374848046427],[98.70661241982737,3.5627414956933667],[98.70741839764099,3.5572048060327703],[98.69462747237998,3.557374848046427]]]}},{"type":"Feature","properties":{"code":"1271011011","desa":"Sudirejo II","kecamatan":"Medan Kota","kecCode":"127101"},"geometry":{"type":"Polygon","coordinates":[[[98.69691062622451,3.5524718314907107],[98.69812683608465,3.5574497444856923],[98.70964655434506,3.55716183372745],[98.69691062622451,3.5524718314907107]]]}},{"type":"Feature","properties":{"code":"1271011012","desa":"Sitirejo I","kecamatan":"Medan Kota","kecCode":"127101"},"geometry":{"type":"Polygon","coordinates":[[[98.68983213704354,3.5531586257500853],[98.69366316262489,3.560505989731879],[98.69658743506214,3.5528012369680178],[98.68983213704354,3.5531586257500853]]]}},{"type":"Feature","properties":{"code":"1271021001","desa":"Lalang","kecamatan":"Medan Sunggal","kecCode":"127102"},"geometry":{"type":"Polygon","coordinates":[[[98.60526723929172,3.584985920709746],[98.60816001567224,3.6042278934279546],[98.60890949627628,3.597968698328895],[98.62369480936803,3.59204707095401],[98.60526723929172,3.584985920709746]]]}},{"type":"Feature","properties":{"code":"1271021002","desa":"Sei Sikambing B","kecamatan":"Medan Sunggal","kecCode":"127102"},"geometry":{"type":"Polygon","coordinates":[[[98.6221307597268,3.588860768451576],[98.63345710755954,3.5912330028401938],[98.64097247300128,3.5829154987994376],[98.62648172924843,3.5783387068189856],[98.6221307597268,3.588860768451576]]]}},{"type":"Feature","properties":{"code":"1271021003","desa":"Sunggal","kecamatan":"Medan Sunggal","kecCode":"127102"},"geometry":{"type":"Polygon","coordinates":[[[98.60816961683439,3.5651947401123785],[98.61122259124966,3.583623562924579],[98.60547995143867,3.5852632986081012],[98.6221307597268,3.588860768451576],[98.62613900840857,3.567633715887933],[98.60816961683439,3.5651947401123785]]]}},{"type":"Feature","properties":{"code":"1271021004","desa":"Babura Sunggal","kecamatan":"Medan Sunggal","kecCode":"127102"},"geometry":{"type":"Polygon","coordinates":[[[98.6530986068153,3.5848978950679418],[98.65278195372423,3.5757711064073163],[98.64537728043716,3.5773028488016667],[98.64441122689664,3.5866028414921964],[98.6530986068153,3.5848978950679418]]]}},{"type":"Feature","properties":{"code":"1271021005","desa":"Tanjung Rejo","kecamatan":"Medan Sunggal","kecCode":"127102"},"geometry":{"type":"Polygon","coordinates":[[[98.62648172924843,3.5783387068189856],[98.64371031058242,3.5843056986958386],[98.64428794423331,3.562570823254905],[98.62613900840857,3.567633715887933],[98.62648172924843,3.5783387068189856]]]}},{"type":"Feature","properties":{"code":"1271021006","desa":"Simpang Tanjung","kecamatan":"Medan Sunggal","kecCode":"127102"},"geometry":{"type":"Polygon","coordinates":[[[98.64121397064827,3.5843927467745407],[98.63327326724753,3.5862371088002476],[98.63345710755954,3.5912330028401938],[98.64659067092276,3.5906165670409513],[98.64121397064827,3.5843927467745407]]]}},{"type":"Feature","properties":{"code":"1271031001","desa":"Helvetia","kecamatan":"Medan Helvetia","kecCode":"127103"},"geometry":{"type":"Polygon","coordinates":[[[98.62746527640142,3.602585341067847],[98.63278268797075,3.6158100947730785],[98.63580516277813,3.6022144462672294],[98.62746527640142,3.602585341067847]]]}},{"type":"Feature","properties":{"code":"1271031002","desa":"Helvetia Tengah","kecamatan":"Medan Helvetia","kecCode":"127103"},"geometry":{"type":"Polygon","coordinates":[[[98.63278268797075,3.6158100947730785],[98.64530743998642,3.615427183231347],[98.6452816087593,3.6019452432063237],[98.63312485842556,3.605045396952054],[98.63278268797075,3.6158100947730785]]]}},{"type":"Feature","properties":{"code":"1271031003","desa":"Helvetia Timur","kecamatan":"Medan Helvetia","kecCode":"127103"},"geometry":{"type":"Polygon","coordinates":[[[98.64530743998642,3.615427183231347],[98.66433105373522,3.6241527159791143],[98.66255856282748,3.61185076561757],[98.6452816087593,3.6019452432063237],[98.64530743998642,3.615427183231347]]]}},{"type":"Feature","properties":{"code":"1271031004","desa":"Tanjung Gusta","kecamatan":"Medan Helvetia","kecCode":"127103"},"geometry":{"type":"Polygon","coordinates":[[[98.60673756158921,3.6042448159709104],[98.60068399197269,3.6201730720380003],[98.60556192104588,3.612838545878401],[98.61316033078468,3.6182915140525105],[98.61299578542717,3.6123814033957777],[98.62709212430217,3.61055268058038],[98.62746527640142,3.6025716210106973],[98.60673756158921,3.6042448159709104]]]}},{"type":"Feature","properties":{"code":"1271031005","desa":"Cinta Damai","kecamatan":"Medan Helvetia","kecCode":"127103"},"geometry":{"type":"Polygon","coordinates":[[[98.62369480936803,3.59204707095401],[98.60890949627628,3.597968698328895],[98.60816001567224,3.6042278934279546],[98.62801392580205,3.6025267007738866],[98.62369480936803,3.59204707095401]]]}},{"type":"Feature","properties":{"code":"1271031006","desa":"Dwi Kora","kecamatan":"Medan Helvetia","kecCode":"127103"},"geometry":{"type":"Polygon","coordinates":[[[98.62801392580205,3.6025267007738866],[98.64771484056752,3.601873025847434],[98.64695967804676,3.5955060595917185],[98.62628791725363,3.5960011372768705],[98.62801392580205,3.6025267007738866]]]}},{"type":"Feature","properties":{"code":"1271031007","desa":"Sei Sikambing C Ii","kecamatan":"Medan Helvetia","kecCode":"127103"},"geometry":{"type":"Polygon","coordinates":[[[98.64659067092276,3.5906165670409513],[98.62369480936803,3.59204707095401],[98.6468633192868,3.5952852796269656],[98.64659067092276,3.5906165670409513]]]}},{"type":"Feature","properties":{"code":"1271041001","desa":"Tegal S Mandala I","kecamatan":"Medan Denai","kecCode":"127104"},"geometry":{"type":"Polygon","coordinates":[[[98.71174168063413,3.5818260798591393],[98.70603210259952,3.5820524113389127],[98.70487997842831,3.5884293843509387],[98.71140629556412,3.5891130049028357],[98.71174168063413,3.5818260798591393]]]}},{"type":"Feature","properties":{"code":"1271041002","desa":"Tegal S Mandala II","kecamatan":"Medan Denai","kecCode":"127104"},"geometry":{"type":"Polygon","coordinates":[[[98.71703382125388,3.5897066734651406],[98.71794117064853,3.582701513212776],[98.72865904168151,3.5822723909070544],[98.7265619638636,3.578415544894563],[98.71174168063413,3.5818260798591393],[98.71140629556412,3.5891130049028357],[98.71703382125388,3.5897066734651406]]]}},{"type":"Feature","properties":{"code":"1271041003","desa":"Tegal S Mandala III","kecamatan":"Medan Denai","kecCode":"127104"},"geometry":{"type":"Polygon","coordinates":[[[98.70756856643622,3.5820073678949487],[98.7244127694338,3.581314399789662],[98.72483251900557,3.5778145549514893],[98.71054953123591,3.575113206465868],[98.70756856643622,3.5820073678949487]]]}},{"type":"Feature","properties":{"code":"1271041004","desa":"Denai","kecamatan":"Medan Denai","kecCode":"127104"},"geometry":{"type":"Polygon","coordinates":[[[98.724284556687,3.571206966089397],[98.73516299267804,3.586244921210821],[98.73698970640986,3.575143957883919],[98.724284556687,3.571206966089397]]]}},{"type":"Feature","properties":{"code":"1271041005","desa":"Binjai","kecamatan":"Medan Denai","kecCode":"127104"},"geometry":{"type":"Polygon","coordinates":[[[98.70635762840185,3.5525663304525206],[98.71054953123591,3.575113206465868],[98.72462822541235,3.573923409695531],[98.71299819541042,3.5521343959668297],[98.70635762840185,3.5525663304525206]]]}},{"type":"Feature","properties":{"code":"1271041006","desa":"Medan Tenggara","kecamatan":"Medan Denai","kecCode":"127104"},"geometry":{"type":"Polygon","coordinates":[[[98.7285766448963,3.571036322429284],[98.72678842214805,3.5523808623678867],[98.71288540783536,3.5515506289402206],[98.72148343741077,3.5690539774222345],[98.7285766448963,3.571036322429284]]]}},{"type":"Feature","properties":{"code":"1271051001","desa":"Kesawan","kecamatan":"Medan Barat","kecCode":"127105"},"geometry":{"type":"Polygon","coordinates":[[[98.6707291095608,3.6012111410099794],[98.68190213827312,3.5853596681597746],[98.67869116196759,3.584065885479274],[98.6707291095608,3.6012111410099794]]]}},{"type":"Feature","properties":{"code":"1271051002","desa":"Silalas","kecamatan":"Medan Barat","kecCode":"127105"},"geometry":{"type":"Polygon","coordinates":[[[98.67713090656616,3.5976695118709276],[98.6707291095608,3.6012111410099794],[98.67331520273451,3.592196522090135],[98.66898497157922,3.5928299847536134],[98.66829448560208,3.6069115846244717],[98.67511552496154,3.6068081338109765],[98.67713090656616,3.5976695118709276]]]}},{"type":"Feature","properties":{"code":"1271051003","desa":"Glugur Kota","kecamatan":"Medan Barat","kecCode":"127105"},"geometry":{"type":"Polygon","coordinates":[[[98.67289246741346,3.6208251380772856],[98.67204166109384,3.6077981713701197],[98.66716920079801,3.619996237444945],[98.67289246741346,3.6208251380772856]]]}},{"type":"Feature","properties":{"code":"1271051004","desa":"Pulo Berayan Kota","kecamatan":"Medan Barat","kecCode":"127105"},"geometry":{"type":"Polygon","coordinates":[[[98.67289246741346,3.6208251380772856],[98.66467823880976,3.6325169505919486],[98.67043327757375,3.632638838406693],[98.67289246741346,3.6208251380772856]]]}},{"type":"Feature","properties":{"code":"1271051005","desa":"Sei Agul","kecamatan":"Medan Barat","kecCode":"127105"},"geometry":{"type":"Polygon","coordinates":[[[98.64771484056752,3.601873025847434],[98.6593714086636,3.6096614857086253],[98.67295841829643,3.6106117804279307],[98.66688130532803,3.6013212117330946],[98.64771484056752,3.601873025847434]]]}},{"type":"Feature","properties":{"code":"1271051006","desa":"Karang Berombak","kecamatan":"Medan Barat","kecCode":"127105"},"geometry":{"type":"Polygon","coordinates":[[[98.66436543211903,3.6246803023575773],[98.67252697034348,3.611499619929168],[98.6593714086636,3.6096614857086253],[98.66338695624306,3.613282444944626],[98.66436543211903,3.6246803023575773]]]}},{"type":"Feature","properties":{"code":"1271051006","desa":"Karang Berombak","kecamatan":"Medan Barat","kecCode":"127105"},"geometry":{"type":"Polygon","coordinates":[[[98.6593730912952,3.621679454450053],[98.65921897357684,3.6215451748767853],[98.65932027680941,3.6216869988626166],[98.6593730912952,3.621679454450053]]]}},{"type":"Feature","properties":{"code":"1271061001","desa":"Titipapan","kecamatan":"Medan Deli","kecCode":"127106"},"geometry":{"type":"Polygon","coordinates":[[[98.68640866892497,3.6785666846506766],[98.65895183625827,3.6769514536942993],[98.65608879955852,3.693599153907662],[98.66822252544928,3.689599266227325],[98.67185621099536,3.6942483331232543],[98.68987595201361,3.683989816916661],[98.68640866892497,3.6785666846506766]]]}},{"type":"Feature","properties":{"code":"1271061002","desa":"Tanjung Mulia Hilir","kecamatan":"Medan Deli","kecCode":"127106"},"geometry":{"type":"Polygon","coordinates":[[[98.67975691524947,3.637719176988028],[98.66996960601256,3.6385091801433],[98.66996424335518,3.6429789752834605],[98.68129551587542,3.642533276673813],[98.67975691524947,3.637719176988028]]]}},{"type":"Feature","properties":{"code":"1271061002","desa":"Tanjung Mulia Hilir","kecamatan":"Medan Deli","kecCode":"127106"},"geometry":{"type":"Polygon","coordinates":[[[98.67043327757375,3.632638838406693],[98.65932823491015,3.6389664143567857],[98.65700336421395,3.6656814483998135],[98.67043327757375,3.632638838406693]]]}},{"type":"Feature","properties":{"code":"1271061003","desa":"Tanjung Mulya","kecamatan":"Medan Deli","kecCode":"127106"},"geometry":{"type":"Polygon","coordinates":[[[98.69224564941726,3.643527017641147],[98.68127977144434,3.6376573108258543],[98.68129551587542,3.642533276673813],[98.66315366490976,3.6418438563939866],[98.66368555544409,3.6546585893938826],[98.68374797159167,3.6522788978269256],[98.69224564941726,3.643527017641147]]]}},{"type":"Feature","properties":{"code":"1271061004","desa":"Kota Bangun","kecamatan":"Medan Deli","kecCode":"127106"},"geometry":{"type":"Polygon","coordinates":[[[98.65816275670589,3.6656346422846515],[98.65895183625827,3.6769514536942993],[98.66731803679801,3.678566577631344],[98.67018060944764,3.666742220335767],[98.65816275670589,3.6656346422846515]]]}},{"type":"Feature","properties":{"code":"1271061005","desa":"Mabar","kecamatan":"Medan Deli","kecCode":"127106"},"geometry":{"type":"Polygon","coordinates":[[[98.66997529512382,3.6718325395931637],[98.6815330897803,3.667998228792446],[98.68374797159167,3.6522788978269256],[98.6614697833039,3.654757860158515],[98.66151960844326,3.666377924760313],[98.67018060944764,3.666742220335767],[98.66997529512382,3.6718325395931637]]]}},{"type":"Feature","properties":{"code":"1271061006","desa":"Mabar Hilir","kecamatan":"Medan Deli","kecCode":"127106"},"geometry":{"type":"Polygon","coordinates":[[[98.68138855793562,3.668049461370692],[98.69227845488682,3.664615393846189],[98.6897355381646,3.656637354199916],[98.70259595404013,3.6562397657223804],[98.70171104542844,3.645235564950902],[98.6853168937597,3.6476357916374496],[98.68138855793562,3.668049461370692]]]}},{"type":"Feature","properties":{"code":"1271071001","desa":"Tanjung Selamat","kecamatan":"Medan Tuntungan","kecCode":"127107"},"geometry":{"type":"Polygon","coordinates":[[[98.60013962334499,3.5303065477136792],[98.60099200527691,3.5381351164387067],[98.59374307388379,3.541700618980768],[98.60607013602798,3.550357227687053],[98.62065726641976,3.5496565281101717],[98.60878376835625,3.528772378948408],[98.60013962334499,3.5303065477136792]]]}},{"type":"Feature","properties":{"code":"1271071002","desa":"Simpang Selayang","kecamatan":"Medan Tuntungan","kecCode":"127107"},"geometry":{"type":"Polygon","coordinates":[[[98.62622718603585,3.518474200841009],[98.60661974140798,3.527436967549693],[98.61126329726339,3.5379863829616203],[98.62999619257026,3.537069284916945],[98.635287598444,3.5279619521895236],[98.62622718603585,3.518474200841009]]]}},{"type":"Feature","properties":{"code":"1271071003","desa":"Namo Gajah","kecamatan":"Medan Tuntungan","kecCode":"127107"},"geometry":{"type":"Polygon","coordinates":[[[98.60697016763919,3.507717467416062],[98.59781885085931,3.5282365808603773],[98.60013962334499,3.5303065477136792],[98.60999208396754,3.512566811532838],[98.60697016763919,3.507717467416062]]]}},{"type":"Feature","properties":{"code":"1271071004","desa":"Kemenangan Tani","kecamatan":"Medan Tuntungan","kecCode":"127107"},"geometry":{"type":"Polygon","coordinates":[[[98.60203193542553,3.52970763700315],[98.62006917455284,3.516954503066855],[98.62365714755936,3.5164719529377333],[98.60745163768298,3.5142357365119237],[98.60203193542553,3.52970763700315]]]}},{"type":"Feature","properties":{"code":"1271071005","desa":"Laucih","kecamatan":"Medan Tuntungan","kecCode":"127107"},"geometry":{"type":"Polygon","coordinates":[[[98.62441526795033,3.5095475958717905],[98.6155968873865,3.503365223559751],[98.60521116656213,3.5056677074298195],[98.60949829231242,3.513871333917227],[98.62435373094002,3.517407135449376],[98.62441526795033,3.5095475958717905]]]}},{"type":"Feature","properties":{"code":"1271071006","desa":"Sidomulyo","kecamatan":"Medan Tuntungan","kecCode":"127107"},"geometry":{"type":"Polygon","coordinates":[[[98.61943789094595,3.5056302146937286],[98.61723843340701,3.498319882995152],[98.60425245958339,3.498479855299891],[98.60579549836358,3.5048992835070383],[98.61943789094595,3.5056302146937286]]]}},{"type":"Feature","properties":{"code":"1271071007","desa":"Ladang Bambu","kecamatan":"Medan Tuntungan","kecCode":"127107"},"geometry":{"type":"Polygon","coordinates":[[[98.59293814288104,3.4952325095149632],[98.59927920776926,3.509604783760642],[98.60481140262418,3.5116197840504917],[98.60425245958339,3.498479855299891],[98.61029261940892,3.4972759211868847],[98.60012395085971,3.490768704758953],[98.59293814288104,3.4952325095149632]]]}},{"type":"Feature","properties":{"code":"1271071008","desa":"Simalingkar B","kecamatan":"Medan Tuntungan","kecCode":"127107"},"geometry":{"type":"Polygon","coordinates":[[[98.64562914097212,3.4799394805812693],[98.63799001532696,3.489798479264516],[98.64092772273625,3.5047235748651784],[98.65860835459192,3.5098091025346623],[98.65504491509078,3.4962329171566333],[98.6460587084427,3.495987899563404],[98.64562914097212,3.4799394805812693]]]}},{"type":"Feature","properties":{"code":"1271071009","desa":"Mangga","kecamatan":"Medan Tuntungan","kecCode":"127107"},"geometry":{"type":"Polygon","coordinates":[[[98.64092772273625,3.5047235748651784],[98.63145728422636,3.5049897391169407],[98.62622718603585,3.518474200841009],[98.64258842161843,3.534468752231309],[98.6492651305814,3.5309766361667436],[98.64958026741544,3.5207858937688106],[98.64092772273625,3.5047235748651784]]]}},{"type":"Feature","properties":{"code":"1271081001","desa":"Belawan I","kecamatan":"Medan Belawan","kecCode":"127108"},"geometry":{"type":"Polygon","coordinates":[[[98.67381391458055,3.775625676426131],[98.68129530003812,3.788974452037439],[98.70772359336921,3.7908956125685016],[98.70505968455683,3.7848602542298124],[98.68246652580956,3.781975917090436],[98.6806702145588,3.7680493468503107],[98.67381391458055,3.775625676426131]]]}},{"type":"Feature","properties":{"code":"1271081002","desa":"Belawan Ii","kecamatan":"Medan Belawan","kecCode":"127108"},"geometry":{"type":"Polygon","coordinates":[[[98.68176262374611,3.771312885827931],[98.68221244304988,3.7817554707741725],[98.69340147429864,3.783941542801405],[98.69525234741798,3.773071729521768],[98.68176262374611,3.771312885827931]]]}},{"type":"Feature","properties":{"code":"1271081003","desa":"Belawan Bahagia","kecamatan":"Medan Belawan","kecCode":"127108"},"geometry":{"type":"Polygon","coordinates":[[[98.67496318430358,3.7700653858571425],[98.68206499830107,3.7699703140271477],[98.68128664226481,3.761447819418804],[98.67333240586589,3.764104017441058],[98.67496318430358,3.7700653858571425]]]}},{"type":"Feature","properties":{"code":"1271081004","desa":"Belawan Bahari","kecamatan":"Medan Belawan","kecCode":"127108"},"geometry":{"type":"Polygon","coordinates":[[[98.70496076272904,3.7691564158850874],[98.69442809897765,3.7625049517983777],[98.67421581171038,3.754640014489774],[98.68611079457757,3.774707166445843],[98.70496076272904,3.7691564158850874]]]}},{"type":"Feature","properties":{"code":"1271081005","desa":"Belawan Sicanang","kecamatan":"Medan Belawan","kecCode":"127108"},"geometry":{"type":"Polygon","coordinates":[[[98.65282267502646,3.739197752955094],[98.6409416838117,3.7398548093324333],[98.62519844075547,3.7619447470093337],[98.63618075024146,3.7692733547306716],[98.63292405330247,3.7762624845676416],[98.66249776056327,3.7819229497199713],[98.67381391458055,3.775625676426131],[98.67725949073298,3.7608316129466473],[98.66099544308531,3.7452134476172843],[98.65460993639947,3.746930561868888],[98.65282267502646,3.739197752955094]]]}},{"type":"Feature","properties":{"code":"1271081006","desa":"Bagan Deli","kecamatan":"Medan Belawan","kecCode":"127108"},"geometry":{"type":"Polygon","coordinates":[[[98.70505968455683,3.7848602542298124],[98.72609102218297,3.7990845684154353],[98.70496076272904,3.7691564158850874],[98.69896975984658,3.768960387061625],[98.69340147429864,3.783941542801405],[98.70505968455683,3.7848602542298124]]]}},{"type":"Feature","properties":{"code":"1271091001","desa":"Amplas","kecamatan":"Medan Amplas","kecCode":"127109"},"geometry":{"type":"Polygon","coordinates":[[[98.72015204598017,3.5507783460265654],[98.72327770270387,3.540526203315354],[98.71227175183992,3.5407470408367336],[98.7138181253063,3.5511046578360164],[98.72015204598017,3.5507783460265654]]]}},{"type":"Feature","properties":{"code":"1271091002","desa":"Sitirejo Ii","kecamatan":"Medan Amplas","kecCode":"127109"},"geometry":{"type":"Polygon","coordinates":[[[98.68948770209583,3.5531719258238326],[98.69878129342203,3.5486972194859936],[98.68934931441935,3.548990493800881],[98.68948770209583,3.5531719258238326]]]}},{"type":"Feature","properties":{"code":"1271091003","desa":"Sitirejo Iii","kecamatan":"Medan Amplas","kecCode":"127109"},"geometry":{"type":"Polygon","coordinates":[[[98.69691062622451,3.5524718314907107],[98.71283462761602,3.5521843784874636],[98.7142044947417,3.5486655750412486],[98.69984938134394,3.5487978841998524],[98.69691062622451,3.5524718314907107]]]}},{"type":"Feature","properties":{"code":"1271091004","desa":"Harjosari I","kecamatan":"Medan Amplas","kecCode":"127109"},"geometry":{"type":"Polygon","coordinates":[[[98.7142044947417,3.5486655750412486],[98.71423676781262,3.536744876972233],[98.69908554576135,3.5412659442607786],[98.69875821142239,3.549070147653713],[98.7142044947417,3.5486655750412486]]]}},{"type":"Feature","properties":{"code":"1271091005","desa":"Harjosari Ii","kecamatan":"Medan Amplas","kecCode":"127109"},"geometry":{"type":"Polygon","coordinates":[[[98.71466883989513,3.5305370124775406],[98.69236179326218,3.5259003490312346],[98.69330462900545,3.544092373154358],[98.71423676781262,3.536744876972233],[98.71466883989513,3.5305370124775406]]]}},{"type":"Feature","properties":{"code":"1271091006","desa":"Timbang Deli","kecamatan":"Medan Amplas","kecCode":"127109"},"geometry":{"type":"Polygon","coordinates":[[[98.71475935755836,3.5299427935301213],[98.71227175183992,3.5407470408367336],[98.73266247629232,3.54125863277259],[98.73227703225926,3.529818942495359],[98.72217127488447,3.5339482309268644],[98.71475935755836,3.5299427935301213]]]}},{"type":"Feature","properties":{"code":"1271091007","desa":"Bangun Mulia","kecamatan":"Medan Amplas","kecCode":"127109"},"geometry":{"type":"Polygon","coordinates":[[[98.7467158959219,3.538699258459636],[98.74288194304727,3.5275448592154843],[98.72303496758974,3.5301939840698506],[98.73227703225926,3.529818942495359],[98.73268696303296,3.541349254757095],[98.7467158959219,3.538699258459636]]]}},{"type":"Feature","properties":{"code":"1271101001","desa":"Sukaramai I","kecamatan":"Medan Area","kecCode":"127110"},"geometry":{"type":"Polygon","coordinates":[[[98.70080688143246,3.582274489924687],[98.70335331000727,3.5733364257938987],[98.70037657292056,3.573196168427089],[98.70080688143246,3.582274489924687]]]}},{"type":"Feature","properties":{"code":"1271101002","desa":"Sukaramai Ii","kecamatan":"Medan Area","kecCode":"127110"},"geometry":{"type":"Polygon","coordinates":[[[98.7009466099981,3.5880133804559318],[98.7039454470248,3.582102946043281],[98.70065990343186,3.582278829153602],[98.7009466099981,3.5880133804559318]]]}},{"type":"Feature","properties":{"code":"1271101003","desa":"Sei Rengas Ii","kecamatan":"Medan Area","kecCode":"127110"},"geometry":{"type":"Polygon","coordinates":[[[98.70074441272452,3.5842647129929053],[98.69123103698286,3.5867796176293356],[98.7009466099981,3.5880133804559318],[98.70074441272452,3.5842647129929053]]]}},{"type":"Feature","properties":{"code":"1271101004","desa":"S. Rengas Permata","kecamatan":"Medan Area","kecCode":"127110"},"geometry":{"type":"Polygon","coordinates":[[[98.70065990343186,3.582278829153602],[98.69226633382429,3.584084560800852],[98.70074441272452,3.5842647129929053],[98.70065990343186,3.582278829153602]]]}},{"type":"Feature","properties":{"code":"1271101005","desa":"Pandau Hulu Ii","kecamatan":"Medan Area","kecCode":"127110"},"geometry":{"type":"Polygon","coordinates":[[[98.69646367306012,3.5875385249262526],[98.69815148740128,3.5943174885972398],[98.70437849037506,3.5883741443936183],[98.7009466099981,3.5880133804559318],[98.69646367306012,3.5875385249262526]]]}},{"type":"Feature","properties":{"code":"1271101006","desa":"Kota Matsum I","kecamatan":"Medan Area","kecCode":"127110"},"geometry":{"type":"Polygon","coordinates":[[[98.69096639888028,3.578024580823227],[98.70080688143246,3.582274489924687],[98.70061071141525,3.5779277966840595],[98.69096639888028,3.578024580823227]]]}},{"type":"Feature","properties":{"code":"1271101007","desa":"Kota Matsum Ii","kecamatan":"Medan Area","kecCode":"127110"},"geometry":{"type":"Polygon","coordinates":[[[98.70034571358389,3.5722332805011923],[98.69572133756975,3.577979788290139],[98.70061071141525,3.5779277966840595],[98.70034571358389,3.5722332805011923]]]}},{"type":"Feature","properties":{"code":"1271101008","desa":"Kota Matsum Iv","kecamatan":"Medan Area","kecCode":"127110"},"geometry":{"type":"Polygon","coordinates":[[[98.69543415885943,3.5722879907578196],[98.69096639888028,3.578024580823227],[98.69572133756975,3.577979788290139],[98.69543415885943,3.5722879907578196]]]}},{"type":"Feature","properties":{"code":"1271101009","desa":"Pasar Merah Timur","kecamatan":"Medan Area","kecCode":"127110"},"geometry":{"type":"Polygon","coordinates":[[[98.70622032890508,3.5684299072781505],[98.69725984106884,3.572242094756546],[98.7065305824205,3.5721399227790096],[98.70622032890508,3.5684299072781505]]]}},{"type":"Feature","properties":{"code":"1271101010","desa":"Tegal Sari I","kecamatan":"Medan Area","kecCode":"127110"},"geometry":{"type":"Polygon","coordinates":[[[98.7037924984251,3.580186300108832],[98.70751186957716,3.58537761413118],[98.70749790580379,3.579975070044816],[98.7037924984251,3.580186300108832]]]}},{"type":"Feature","properties":{"code":"1271101011","desa":"Tegal Sari Ii","kecamatan":"Medan Area","kecCode":"127110"},"geometry":{"type":"Polygon","coordinates":[[[98.70347846955575,3.5753023599723335],[98.71044732328538,3.571927681877062],[98.70328472141283,3.572264989697167],[98.70347846955575,3.5753023599723335]]]}},{"type":"Feature","properties":{"code":"1271101012","desa":"Tegal Sari Iii","kecamatan":"Medan Area","kecCode":"127110"},"geometry":{"type":"Polygon","coordinates":[[[98.7037924984251,3.580186300108832],[98.71054953123591,3.575113206465868],[98.70347846955575,3.5753023599723335],[98.7037924984251,3.580186300108832]]]}},{"type":"Feature","properties":{"code":"1271111001","desa":"Suka Maju","kecamatan":"Medan Johor","kecCode":"127111"},"geometry":{"type":"Polygon","coordinates":[[[98.68934931441935,3.548990493800881],[98.69878129342203,3.5486972194859936],[98.69297723441188,3.5429778127668916],[98.69232258461966,3.523785108507574],[98.6875013865798,3.5238824169514964],[98.68934931441935,3.548990493800881]]]}},{"type":"Feature","properties":{"code":"1271111002","desa":"Titi Kuning","kecamatan":"Medan Johor","kecCode":"127111"},"geometry":{"type":"Polygon","coordinates":[[[98.68915664726153,3.5470339728262616],[98.6872682238495,3.5218646584409043],[98.6822166177028,3.5219269463851237],[98.68023360539661,3.537821985992437],[98.68915664726153,3.5470339728262616]]]}},{"type":"Feature","properties":{"code":"1271111003","desa":"Kedai Durian","kecamatan":"Medan Johor","kecCode":"127111"},"geometry":{"type":"Polygon","coordinates":[[[98.69798004604235,3.5256922387154686],[98.69562404801144,3.5184100989642886],[98.6784518496732,3.5191523724006615],[98.68037913458943,3.5234208372138895],[98.69798004604235,3.5256922387154686]]]}},{"type":"Feature","properties":{"code":"1271111004","desa":"Pangkalan Mansur","kecamatan":"Medan Johor","kecCode":"127111"},"geometry":{"type":"Polygon","coordinates":[[[98.68302258742256,3.545372238826244],[98.6815468017436,3.526138342020022],[98.65670913841609,3.5287497609989633],[98.6564224894064,3.538845595243496],[98.68302258742256,3.545372238826244]]]}},{"type":"Feature","properties":{"code":"1271111005","desa":"Gedung Johor","kecamatan":"Medan Johor","kecCode":"127111"},"geometry":{"type":"Polygon","coordinates":[[[98.67553705609032,3.515184237083736],[98.65594345382738,3.516952344693924],[98.66223225641356,3.522202110152583],[98.65670913841609,3.5287497609989633],[98.6815468017436,3.526138342020022],[98.67553705609032,3.515184237083736]]]}},{"type":"Feature","properties":{"code":"1271111006","desa":"Kwala Bekala","kecamatan":"Medan Johor","kecCode":"127111"},"geometry":{"type":"Polygon","coordinates":[[[98.65483458704658,3.5350570662301615],[98.65753596521267,3.5086883736973022],[98.6441120386397,3.508711269537284],[98.6492651305814,3.5309766361667436],[98.64258842161843,3.534468752231309],[98.65167550791841,3.5414575924866036],[98.66145869106577,3.5420187901271523],[98.65483458704658,3.5350570662301615]]]}},{"type":"Feature","properties":{"code":"1271121001","desa":"Labuhan Deli","kecamatan":"Medan Marelan","kecCode":"127112"},"geometry":{"type":"Polygon","coordinates":[[[98.6748081195991,3.75578621842275],[98.67148827856124,3.745021551178626],[98.67686748704494,3.726892599208402],[98.6712637843962,3.7206004781305833],[98.6661116664203,3.7249838870930505],[98.66566691929296,3.751327600956261],[98.6748081195991,3.75578621842275]]]}},{"type":"Feature","properties":{"code":"1271121002","desa":"Rengas Pulau","kecamatan":"Medan Marelan","kecCode":"127112"},"geometry":{"type":"Polygon","coordinates":[[[98.67185621099536,3.6942483331232543],[98.65855868143807,3.6903107387829426],[98.64487433458294,3.6972816753349798],[98.65049839968145,3.710986575281545],[98.66072963586407,3.710813928831213],[98.67591145734792,3.723013597497975],[98.67947312788259,3.707657050347418],[98.67185621099536,3.6942483331232543]]]}},{"type":"Feature","properties":{"code":"1271121003","desa":"Terjun","kecamatan":"Medan Marelan","kecCode":"127112"},"geometry":{"type":"Polygon","coordinates":[[[98.62315009000467,3.7013215180952055],[98.61972280066674,3.7146273196024953],[98.63322922744696,3.7153720472887497],[98.64584833723103,3.729913135074234],[98.64998310343753,3.7024566972392043],[98.63739448426809,3.683904284195556],[98.63185527470125,3.7018742126458233],[98.62315009000467,3.7013215180952055]]]}},{"type":"Feature","properties":{"code":"1271121004","desa":"Tanah Enam Ratus","kecamatan":"Medan Marelan","kecCode":"127112"},"geometry":{"type":"Polygon","coordinates":[[[98.65872844286342,3.6749885673182736],[98.65170147224516,3.6748875473723035],[98.64858476197723,3.6836759076574412],[98.63739448426809,3.683904284195556],[98.64445497171965,3.6972372506245823],[98.65608879955852,3.693599153907662],[98.65872844286342,3.6749885673182736]]]}},{"type":"Feature","properties":{"code":"1271121005","desa":"Paya Pasir","kecamatan":"Medan Marelan","kecCode":"127112"},"geometry":{"type":"Polygon","coordinates":[[[98.64584833723103,3.729913135074234],[98.65268883881889,3.72836738573904],[98.65391501766402,3.7461901149555574],[98.66566691929296,3.751327600956261],[98.6661116664203,3.7249838870930505],[98.6712637843962,3.7206004781305833],[98.66072963586407,3.710813928831213],[98.64927928860835,3.7110008385291544],[98.64340487383589,3.719418474885],[98.64584833723103,3.729913135074234]]]}},{"type":"Feature","properties":{"code":"1271131001","desa":"Pekan Labuhan","kecamatan":"Medan Labuhan","kecCode":"127113"},"geometry":{"type":"Polygon","coordinates":[[[98.67492996604517,3.7537342407083205],[98.68282294062628,3.7586381502908504],[98.67918753827432,3.723061326317543],[98.67341438626498,3.730764096975661],[98.67492996604517,3.7537342407083205]]]}},{"type":"Feature","properties":{"code":"1271131002","desa":"Sei Mati","kecamatan":"Medan Labuhan","kecCode":"127113"},"geometry":{"type":"Polygon","coordinates":[[[98.73100941535226,3.7217932642474825],[98.71507943256982,3.725689710107653],[98.70695451294046,3.713873915257166],[98.68848675485991,3.715943219310111],[98.6805301874183,3.723390017733176],[98.67728618440992,3.739740977644608],[98.7097039508767,3.7416847219508953],[98.7271433746671,3.73328498570104],[98.73100941535226,3.7217932642474825]]]}},{"type":"Feature","properties":{"code":"1271131003","desa":"Besar","kecamatan":"Medan Labuhan","kecCode":"127113"},"geometry":{"type":"Polygon","coordinates":[[[98.68987595201361,3.683989816916661],[98.67185621099536,3.6942483331232543],[98.67441652959921,3.703447601744803],[98.7016910463048,3.704777590231532],[98.68987595201361,3.683989816916661]]]}},{"type":"Feature","properties":{"code":"1271131004","desa":"Martubung","kecamatan":"Medan Labuhan","kecCode":"127113"},"geometry":{"type":"Polygon","coordinates":[[[98.67552006340026,3.7220785678710264],[98.70499148806675,3.714191715882863],[98.70503861973656,3.7140104521287127],[98.70498018179,3.7137613947808723],[98.70339552058687,3.711949832828794],[98.70501833822578,3.7076849742969706],[98.70198135555516,3.704263417241376],[98.67869962638672,3.7020847520305016],[98.67552006340026,3.7220785678710264]]]}},{"type":"Feature","properties":{"code":"1271131005","desa":"Nelayan Indah","kecamatan":"Medan Labuhan","kecCode":"127113"},"geometry":{"type":"Polygon","coordinates":[[[98.7045974950784,3.767830305275036],[98.706349625335,3.7379017777274255],[98.67728618440992,3.739740977644608],[98.68282294062628,3.7586381502908504],[98.7045974950784,3.767830305275036]]]}},{"type":"Feature","properties":{"code":"1271131006","desa":"Tangkahan","kecamatan":"Medan Labuhan","kecCode":"127113"},"geometry":{"type":"Polygon","coordinates":[[[98.70501833822578,3.7076849742969706],[98.71087238065593,3.688355894144633],[98.70357502886458,3.6722775097518934],[98.69471799543919,3.672431542933843],[98.69655674839527,3.6782046607627987],[98.68640866892497,3.6785666846506766],[98.70501833822578,3.7076849742969706]]]}},{"type":"Feature","properties":{"code":"1271141001","desa":"Indra Kasih","kecamatan":"Medan Tembung","kecCode":"127114"},"geometry":{"type":"Polygon","coordinates":[[[98.69337424732373,3.626583447669459],[98.70787029707661,3.6284500319429056],[98.70954188315146,3.6183610190561115],[98.69378370955059,3.6190372255970837],[98.69337424732373,3.626583447669459]]]}},{"type":"Feature","properties":{"code":"1271141002","desa":"Sidorejo Hilir","kecamatan":"Medan Tembung","kecCode":"127114"},"geometry":{"type":"Polygon","coordinates":[[[98.70733760794427,3.6181382282072136],[98.70704609180375,3.6108982369823224],[98.6942434240948,3.6114411963718362],[98.69378370955059,3.6190372255970837],[98.70733760794427,3.6181382282072136]]]}},{"type":"Feature","properties":{"code":"1271141003","desa":"Sidorejo","kecamatan":"Medan Tembung","kecCode":"127114"},"geometry":{"type":"Polygon","coordinates":[[[98.70704609180375,3.6108982369823224],[98.70671477526672,3.603454035801339],[98.6947130176917,3.6038926108810503],[98.6942434240948,3.6114411963718362],[98.70704609180375,3.6108982369823224]]]}},{"type":"Feature","properties":{"code":"1271141004","desa":"Bantan","kecamatan":"Medan Tembung","kecCode":"127114"},"geometry":{"type":"Polygon","coordinates":[[[98.72435893511681,3.5952381308701016],[98.72435396366456,3.5904758384293283],[98.71140629556412,3.5891130049028357],[98.71166022364048,3.5955428121857773],[98.72435893511681,3.5952381308701016]]]}},{"type":"Feature","properties":{"code":"1271141005","desa":"Tembung","kecamatan":"Medan Tembung","kecCode":"127114"},"geometry":{"type":"Polygon","coordinates":[[[98.74186496,3.594573580442178],[98.72782070266332,3.5951591820857245],[98.72778859057104,3.5972577887488533],[98.74080503882152,3.5990417487087116],[98.74186496,3.594573580442178]]]}},{"type":"Feature","properties":{"code":"1271141006","desa":"Bandar Selamat","kecamatan":"Medan Tembung","kecCode":"127114"},"geometry":{"type":"Polygon","coordinates":[[[98.72782070266332,3.5951591820857245],[98.71479711559448,3.594064914000898],[98.7093294893645,3.5972612637292247],[98.72464833515261,3.599792922735389],[98.72782070266332,3.5951591820857245]]]}},{"type":"Feature","properties":{"code":"1271141007","desa":"Bantan Timur","kecamatan":"Medan Tembung","kecCode":"127114"},"geometry":{"type":"Polygon","coordinates":[[[98.70573732281923,3.596947280725624],[98.71168422744518,3.596128297816778],[98.71140629556412,3.5891130049028357],[98.70487997842831,3.5884293843509387],[98.70573732281923,3.596947280725624]]]}},{"type":"Feature","properties":{"code":"1271151001","desa":"Aur","kecamatan":"Medan Maimun","kecCode":"127115"},"geometry":{"type":"Polygon","coordinates":[[[98.68190213827312,3.5853596681597746],[98.68627029473839,3.5750636196470045],[98.6849284855612,3.574519867954768],[98.67735274143593,3.581291447292449],[98.68190213827312,3.5853596681597746]]]}},{"type":"Feature","properties":{"code":"1271151002","desa":"Hamdan","kecamatan":"Medan Maimun","kecCode":"127115"},"geometry":{"type":"Polygon","coordinates":[[[98.67719208384767,3.584201563498237],[98.68248873456754,3.578848722243333],[98.68245829791219,3.5726642850879005],[98.67692674157591,3.5785641866408118],[98.67719208384767,3.584201563498237]]]}},{"type":"Feature","properties":{"code":"1271151003","desa":"Jati","kecamatan":"Medan Maimun","kecCode":"127115"},"geometry":{"type":"Polygon","coordinates":[[[98.67728052587563,3.577979498708443],[98.6799688180066,3.5737194569454545],[98.6830427960882,3.571463118188857],[98.67114586798749,3.573504446131591],[98.67728052587563,3.577979498708443]]]}},{"type":"Feature","properties":{"code":"1271151004","desa":"Sukaraja","kecamatan":"Medan Maimun","kecCode":"127115"},"geometry":{"type":"Polygon","coordinates":[[[98.68279936939545,3.57417950333903],[98.68750198193099,3.5718942774589735],[98.68270802255728,3.571731204291838],[98.68279936939545,3.57417950333903]]]}},{"type":"Feature","properties":{"code":"1271151005","desa":"Sei Mati","kecamatan":"Medan Maimun","kecCode":"127115"},"geometry":{"type":"Polygon","coordinates":[[[98.68323155838975,3.5696241520954466],[98.68909076742506,3.5678344481656796],[98.69028616067783,3.562428729472466],[98.68323155838975,3.5696241520954466]]]}},{"type":"Feature","properties":{"code":"1271151006","desa":"Kampung Baru","kecamatan":"Medan Maimun","kecCode":"127115"},"geometry":{"type":"Polygon","coordinates":[[[98.69028616067783,3.562428729472466],[98.68915664726153,3.5470339728262616],[98.68302258742256,3.545372238826244],[98.6857142493132,3.5638142133240236],[98.69028616067783,3.562428729472466]]]}},{"type":"Feature","properties":{"code":"1271161001","desa":"Madras Hulu","kecamatan":"Medan Polonia","kecCode":"127116"},"geometry":{"type":"Polygon","coordinates":[[[98.66785896282096,3.5840911636232877],[98.67719111257985,3.577652352328116],[98.66905931403618,3.5757787857182786],[98.66785896282096,3.5840911636232877]]]}},{"type":"Feature","properties":{"code":"1271161002","desa":"Polonia","kecamatan":"Medan Polonia","kecCode":"127116"},"geometry":{"type":"Polygon","coordinates":[[[98.66981012563683,3.571171323258801],[98.66939999341501,3.557197670811659],[98.66325424868465,3.552932048755424],[98.6603987024382,3.570078131662485],[98.66981012563683,3.571171323258801]]]}},{"type":"Feature","properties":{"code":"1271161003","desa":"Sari Rejo","kecamatan":"Medan Polonia","kecCode":"127116"},"geometry":{"type":"Polygon","coordinates":[[[98.68185236799246,3.5454086910467053],[98.66151466756793,3.5413300299497568],[98.66032285541552,3.5474249207097603],[98.68017892032098,3.5566726322125373],[98.68185236799246,3.5454086910467053]]]}},{"type":"Feature","properties":{"code":"1271161004","desa":"Suka Damai","kecamatan":"Medan Polonia","kecCode":"127116"},"geometry":{"type":"Polygon","coordinates":[[[98.68302258742256,3.545372238826244],[98.68017892032098,3.5566726322125373],[98.66048101738511,3.548313749465291],[98.66939999341501,3.557197670811659],[98.6719547910808,3.572768802497334],[98.68582534526352,3.5684622540935056],[98.68302258742256,3.545372238826244]]]}},{"type":"Feature","properties":{"code":"1271161005","desa":"Anggrung","kecamatan":"Medan Polonia","kecCode":"127116"},"geometry":{"type":"Polygon","coordinates":[[[98.6685938905956,3.576418995095758],[98.67156059664426,3.571210730651509],[98.6625196239815,3.5722354316795264],[98.6685938905956,3.576418995095758]]]}},{"type":"Feature","properties":{"code":"1271171001","desa":"Petisah Hulu","kecamatan":"Medan Baru","kecCode":"127117"},"geometry":{"type":"Polygon","coordinates":[[[98.66785896282096,3.5840911636232877],[98.66919974767028,3.576687163037094],[98.66093887482924,3.576786521035968],[98.66124209834423,3.5846358128388878],[98.66785896282096,3.5840911636232877]]]}},{"type":"Feature","properties":{"code":"1271171002","desa":"Babura","kecamatan":"Medan Baru","kecCode":"127117"},"geometry":{"type":"Polygon","coordinates":[[[98.6528418980352,3.577059334874934],[98.6530986068153,3.5848978950679418],[98.66124209834423,3.5846358128388878],[98.66093887482924,3.576786521035968],[98.6528418980352,3.577059334874934]]]}},{"type":"Feature","properties":{"code":"1271171003","desa":"Merdeka","kecamatan":"Medan Baru","kecCode":"127117"},"geometry":{"type":"Polygon","coordinates":[[[98.65278195372423,3.5757711064073163],[98.66093887482924,3.576786521035968],[98.66088174899356,3.5673504510274094],[98.65240959662566,3.5674739198502903],[98.65278195372423,3.5757711064073163]]]}},{"type":"Feature","properties":{"code":"1271171004","desa":"Darat","kecamatan":"Medan Baru","kecCode":"127117"},"geometry":{"type":"Polygon","coordinates":[[[98.66846917980888,3.5766142981663323],[98.66106497956518,3.5671199934581392],[98.66093887482924,3.576786521035968],[98.66846917980888,3.5766142981663323]]]}},{"type":"Feature","properties":{"code":"1271171005","desa":"Padang Bulan","kecamatan":"Medan Baru","kecCode":"127117"},"geometry":{"type":"Polygon","coordinates":[[[98.66167406700463,3.567354886483742],[98.66320285242978,3.5550491526743504],[98.65213089492494,3.5553466852791162],[98.65240959662566,3.5674739198502903],[98.66167406700463,3.567354886483742]]]}},{"type":"Feature","properties":{"code":"1271171006","desa":"Titi Rante","kecamatan":"Medan Baru","kecCode":"127117"},"geometry":{"type":"Polygon","coordinates":[[[98.66226214538176,3.5548652808863133],[98.66182405143887,3.5472156097990566],[98.65275521328253,3.5469859517270623],[98.65213089492494,3.5553466852791162],[98.66226214538176,3.5548652808863133]]]}},{"type":"Feature","properties":{"code":"1271181001","desa":"Pandau Hilir","kecamatan":"Medan Perjuangan","kecCode":"127118"},"geometry":{"type":"Polygon","coordinates":[[[98.69796390680892,3.5942086364555577],[98.68316699606008,3.593509109594595],[98.69815148740128,3.5943174885972398],[98.69796390680892,3.5942086364555577]]]}},{"type":"Feature","properties":{"code":"1271181002","desa":"Pahlawan","kecamatan":"Medan Perjuangan","kecCode":"127118"},"geometry":{"type":"Polygon","coordinates":[[[98.70037740299482,3.59529766778811],[98.7062125533667,3.597524855919956],[98.70437849037506,3.5883741443936183],[98.70037740299482,3.59529766778811]]]}},{"type":"Feature","properties":{"code":"1271181003","desa":"Sei Kera Hilir I","kecamatan":"Medan Perjuangan","kecCode":"127118"},"geometry":{"type":"Polygon","coordinates":[[[98.70671477526672,3.603454035801339],[98.70528635418195,3.5980171717870886],[98.69485659265767,3.6010226134317045],[98.6947130176917,3.6038926108810503],[98.70671477526672,3.603454035801339]]]}},{"type":"Feature","properties":{"code":"1271181004","desa":"Sei Kera Hilir Ii","kecamatan":"Medan Perjuangan","kecCode":"127118"},"geometry":{"type":"Polygon","coordinates":[[[98.69215874433064,3.5979117217807075],[98.70133111873622,3.6008059334760936],[98.701221659552,3.5981902274289297],[98.69215874433064,3.5979117217807075]]]}},{"type":"Feature","properties":{"code":"1271181005","desa":"Sei Kera Hulu","kecamatan":"Medan Perjuangan","kecCode":"127118"},"geometry":{"type":"Polygon","coordinates":[[[98.7012311114267,3.5913827669402942],[98.69522825008374,3.596962911842136],[98.69502894862711,3.59845279259389],[98.701221659552,3.5981902274289297],[98.7012311114267,3.5913827669402942]]]}},{"type":"Feature","properties":{"code":"1271181006","desa":"Sidorame Timur","kecamatan":"Medan Perjuangan","kecCode":"127118"},"geometry":{"type":"Polygon","coordinates":[[[98.69023158621876,3.6097256748195883],[98.69485659265767,3.6010226134317045],[98.69243966286022,3.601115327239323],[98.69023158621876,3.6097256748195883]]]}},{"type":"Feature","properties":{"code":"1271181007","desa":"Sidorame Barat I","kecamatan":"Medan Perjuangan","kecCode":"127118"},"geometry":{"type":"Polygon","coordinates":[[[98.68496420843155,3.6133980815717925],[98.6882973693282,3.6024124607937638],[98.68672957940663,3.5988144693434947],[98.68250363183722,3.602763527341909],[98.68496420843155,3.6133980815717925]]]}},{"type":"Feature","properties":{"code":"1271181008","desa":"Sidorame Barat Ii","kecamatan":"Medan Perjuangan","kecCode":"127118"},"geometry":{"type":"Polygon","coordinates":[[[98.69023158621876,3.6097256748195883],[98.69152709559903,3.6015842598339964],[98.68831983259423,3.600640825143209],[98.6847742392398,3.6098644249226566],[98.69023158621876,3.6097256748195883]]]}},{"type":"Feature","properties":{"code":"1271181009","desa":"Tegalrejo","kecamatan":"Medan Perjuangan","kecCode":"127118"},"geometry":{"type":"Polygon","coordinates":[[[98.69378370955059,3.6190372255970837],[98.69439719197686,3.609575104926847],[98.68479727987062,3.6099223682420285],[98.68502369498758,3.618500241303235],[98.69378370955059,3.6190372255970837]]]}},{"type":"Feature","properties":{"code":"1271191001","desa":"Petisah Tengah","kecamatan":"Medan Petisah","kecCode":"127119"},"geometry":{"type":"Polygon","coordinates":[[[98.67278014388859,3.5914605546999305],[98.67719208384767,3.584201563498237],[98.66124209834423,3.5846358128388878],[98.66145759389292,3.5907374386217987],[98.67278014388859,3.5914605546999305]]]}},{"type":"Feature","properties":{"code":"1271191002","desa":"Sekip","kecamatan":"Medan Petisah","kecCode":"127119"},"geometry":{"type":"Polygon","coordinates":[[[98.66688130532803,3.6013212117330946],[98.6689045730876,3.593303287154141],[98.66145759389292,3.5907374386217987],[98.66157179879951,3.5938792534613353],[98.66688130532803,3.6013212117330946]]]}},{"type":"Feature","properties":{"code":"1271191003","desa":"Sei Sikambing D","kecamatan":"Medan Petisah","kecCode":"127119"},"geometry":{"type":"Polygon","coordinates":[[[98.66124209834423,3.5846358128388878],[98.64604189741566,3.590332480200118],[98.66145759389292,3.5907374386217987],[98.66124209834423,3.5846358128388878]]]}},{"type":"Feature","properties":{"code":"1271191004","desa":"Sei Putih Barat","kecamatan":"Medan Petisah","kecCode":"127119"},"geometry":{"type":"Polygon","coordinates":[[[98.65326215842191,3.5902415452515646],[98.64771484056752,3.601873025847434],[98.65364726341055,3.6017013218866314],[98.65326215842191,3.5902415452515646]]]}},{"type":"Feature","properties":{"code":"1271191005","desa":"Sei Putih Tengah","kecamatan":"Medan Petisah","kecCode":"127119"},"geometry":{"type":"Polygon","coordinates":[[[98.65364726341055,3.6017013218866314],[98.6598751045525,3.601523079854568],[98.65813615655843,3.590025734940361],[98.65326215842191,3.5902415452515646],[98.65364726341055,3.6017013218866314]]]}},{"type":"Feature","properties":{"code":"1271191006","desa":"Sei Putih Timur I","kecamatan":"Medan Petisah","kecCode":"127119"},"geometry":{"type":"Polygon","coordinates":[[[98.6598751045525,3.601523079854568],[98.66651807365025,3.6013305359040158],[98.66287629060837,3.5958546934737123],[98.6598751045525,3.601523079854568]]]}},{"type":"Feature","properties":{"code":"1271191007","desa":"Sei Putih Timur Ii","kecamatan":"Medan Petisah","kecCode":"127119"},"geometry":{"type":"Polygon","coordinates":[[[98.66287629060837,3.5958546934737123],[98.66145759389292,3.5907374386217987],[98.65813615655843,3.590025734940361],[98.65730103801256,3.5962684643520846],[98.66287629060837,3.5958546934737123]]]}},{"type":"Feature","properties":{"code":"1271201001","desa":"Gang Buntu","kecamatan":"Medan Timur","kecCode":"127120"},"geometry":{"type":"Polygon","coordinates":[[[98.68252694766056,3.595096647727339],[98.68190213827312,3.5853596681597746],[98.67831458255199,3.5935352106183442],[98.68252694766056,3.595096647727339]]]}},{"type":"Feature","properties":{"code":"1271201002","desa":"Sidodadi","kecamatan":"Medan Timur","kecCode":"127120"},"geometry":{"type":"Polygon","coordinates":[[[98.69590044744774,3.596320457756805],[98.68316699606008,3.593509109594595],[98.68252694766056,3.595096647727339],[98.69173775729172,3.5985757811788552],[98.69590044744774,3.596320457756805]]]}},{"type":"Feature","properties":{"code":"1271201003","desa":"Durian","kecamatan":"Medan Timur","kecCode":"127120"},"geometry":{"type":"Polygon","coordinates":[[[98.68246794044313,3.604497559639842],[98.67503881189172,3.609524917360837],[98.68322058576148,3.6099845914350173],[98.68246794044313,3.604497559639842]]]}},{"type":"Feature","properties":{"code":"1271201004","desa":"Glugur Darat I","kecamatan":"Medan Timur","kecCode":"127120"},"geometry":{"type":"Polygon","coordinates":[[[98.68493565405726,3.6133766669152863],[98.67289246741346,3.6208251380772856],[98.68694213327291,3.619350899233825],[98.68493565405726,3.6133766669152863]]]}},{"type":"Feature","properties":{"code":"1271201005","desa":"Glugur Darat II","kecamatan":"Medan Timur","kecCode":"127120"},"geometry":{"type":"Polygon","coordinates":[[[98.67470731099365,3.6093942035995146],[98.67370945832488,3.6156737710408544],[98.68345005857337,3.6137331302950146],[98.68322058576148,3.6099845914350173],[98.67470731099365,3.6093942035995146]]]}},{"type":"Feature","properties":{"code":"1271201006","desa":"P Berayan Darat I","kecamatan":"Medan Timur","kecCode":"127120"},"geometry":{"type":"Polygon","coordinates":[[[98.69378370955059,3.6190372255970837],[98.67220442669299,3.6251327233995347],[98.69352672827596,3.6239531932895614],[98.69378370955059,3.6190372255970837]]]}},{"type":"Feature","properties":{"code":"1271201007","desa":"P Berayan Darat II","kecamatan":"Medan Timur","kecCode":"127120"},"geometry":{"type":"Polygon","coordinates":[[[98.69329993544373,3.6293067962702352],[98.69309295287752,3.6239432782640058],[98.67133403044119,3.6293199110836003],[98.67461871787957,3.630284681290551],[98.69329993544373,3.6293067962702352]]]}},{"type":"Feature","properties":{"code":"1271201008","desa":"P Berayan Bengkel","kecamatan":"Medan Timur","kecCode":"127120"},"geometry":{"type":"Polygon","coordinates":[[[98.69289837106305,3.6398183349355704],[98.69318701476897,3.632925725736381],[98.68127263442459,3.6334290088358827],[98.66975559974122,3.6351308759814662],[98.6676454790557,3.6428703776498907],[98.67351678037517,3.6379749675600657],[98.69289837106305,3.6398183349355704]]]}},{"type":"Feature","properties":{"code":"1271201009","desa":"PB Bengkel Baru","kecamatan":"Medan Timur","kecCode":"127120"},"geometry":{"type":"Polygon","coordinates":[[[98.69318701476897,3.632925725736381],[98.67133403044119,3.6293199110836003],[98.66975559974122,3.6351308759814662],[98.68105848156375,3.6349601918519223],[98.69318701476897,3.632925725736381]]]}},{"type":"Feature","properties":{"code":"1271201010","desa":"Perintis","kecamatan":"Medan Timur","kecCode":"127120"},"geometry":{"type":"Polygon","coordinates":[[[98.69169574456303,3.5985408263295895],[98.67751165344009,3.5967309613982184],[98.69217759322139,3.601234024259407],[98.69169574456303,3.5985408263295895]]]}},{"type":"Feature","properties":{"code":"1271201011","desa":"Gaharu","kecamatan":"Medan Timur","kecCode":"127120"},"geometry":{"type":"Polygon","coordinates":[[[98.68388660927967,3.599108796764449],[98.6760671875507,3.6010175979126835],[98.67511552496154,3.6068081338109765],[98.68388660927967,3.599108796764449]]]}},{"type":"Feature","properties":{"code":"1271211001","desa":"Asam Kumbang","kecamatan":"Medan Selayang","kecCode":"127121"},"geometry":{"type":"Polygon","coordinates":[[[98.61176058638199,3.553788569366449],[98.61219487709195,3.5688455163708306],[98.63380704635817,3.5661966685076307],[98.62226417864899,3.5613146637121913],[98.62052215137622,3.5494464437825006],[98.60607013602798,3.550357227687053],[98.61176058638199,3.553788569366449]]]}},{"type":"Feature","properties":{"code":"1271211002","desa":"Tanjungsari","kecamatan":"Medan Selayang","kecCode":"127121"},"geometry":{"type":"Polygon","coordinates":[[[98.63380704635817,3.5661966685076307],[98.64428794423331,3.562570823254905],[98.64345566574644,3.55801501425643],[98.61566802735764,3.537201326976919],[98.62158113456177,3.5603573524822707],[98.63380704635817,3.5661966685076307]]]}},{"type":"Feature","properties":{"code":"1271211003","desa":"P Bulan Selayang II","kecamatan":"Medan Selayang","kecCode":"127121"},"geometry":{"type":"Polygon","coordinates":[[[98.65213279878968,3.55503069319006],[98.64953579144365,3.5426685260230806],[98.62893601958172,3.54152626921457],[98.6261162034001,3.5460659866436948],[98.63805241029058,3.5550020308971524],[98.65213279878968,3.55503069319006]]]}},{"type":"Feature","properties":{"code":"1271211004","desa":"Beringin","kecamatan":"Medan Selayang","kecCode":"127121"},"geometry":{"type":"Polygon","coordinates":[[[98.66145869106577,3.5420187901271523],[98.64954614443906,3.5405106036751217],[98.6495196845858,3.546992744306414],[98.66147280862327,3.5468096765123347],[98.66145869106577,3.5420187901271523]]]}},{"type":"Feature","properties":{"code":"1271211005","desa":"P Bulan Selayang I","kecamatan":"Medan Selayang","kecCode":"127121"},"geometry":{"type":"Polygon","coordinates":[[[98.64537728043716,3.5773028488016667],[98.65450287031128,3.575642132834208],[98.65213279878968,3.55503069319006],[98.63805241029058,3.5550020308971524],[98.64722947735855,3.5686057786972905],[98.64537728043716,3.5773028488016667]]]}},{"type":"Feature","properties":{"code":"1271211006","desa":"Sempakata","kecamatan":"Medan Selayang","kecCode":"127121"},"geometry":{"type":"Polygon","coordinates":[[[98.63492396207123,3.5285094423633905],[98.62222603930036,3.537948879433711],[98.6261162034001,3.5460659866436948],[98.62893601958172,3.54152626921457],[98.64953579144365,3.5426685260230806],[98.63492396207123,3.5285094423633905]]]}}]}