{"type":"FeatureCollection","features":[{"type":"Feature","properties":{"code":"1273011001","desa":"Huta Barangan","kecamatan":"Sibolga Utara","kecCode":"127301","kabCode":"1273","province":"Sumatera Utara"},"geometry":{"type":"Polygon","coordinates":[[[98.79527822700862,1.7584860091611725],[98.80076666714801,1.7579833313054838],[98.79693888901859,1.7460777760214796],[98.80053455932249,1.7445957031837038],[98.8013883127205,1.7413179971860002],[98.79750830376526,1.7368706356344088],[98.79414707502752,1.7415542050205062],[98.7899525128982,1.7373684562518428],[98.78330336635734,1.7479639331398307],[98.79086670973093,1.7508574424646717],[98.79527822700862,1.7584860091611725]]]}},{"type":"Feature","properties":{"code":"1273011002","desa":"Angin Nauli","kecamatan":"Sibolga Utara","kecCode":"127301","kabCode":"1273","province":"Sumatera Utara"},"geometry":{"type":"Polygon","coordinates":[[[98.76935541831794,1.7575628191089994],[98.77241666739536,1.758972220430256],[98.79527822700862,1.7584860091611725],[98.79086670973093,1.7508574424646717],[98.77867596232583,1.7454836703886658],[98.77581266482268,1.7527978574806196],[98.77390705266839,1.7522173729794963],[98.77308730443559,1.7561359034909174],[98.76935541831794,1.7575628191089994]]]}},{"type":"Feature","properties":{"code":"1273011003","desa":"Huta Tonga-Tonga","kecamatan":"Sibolga Utara","kecCode":"127301","kabCode":"1273","province":"Sumatera Utara"},"geometry":{"type":"Polygon","coordinates":[[[98.78330336635734,1.7479639331398307],[98.78568080602446,1.7435288958975914],[98.78026836489316,1.7422807690993214],[98.77867596232583,1.7454836703886658],[98.78330336635734,1.7479639331398307]]]}},{"type":"Feature","properties":{"code":"1273011004","desa":"Sibolga Ilir","kecamatan":"Sibolga Utara","kecCode":"127301","kabCode":"1273","province":"Sumatera Utara"},"geometry":{"type":"Polygon","coordinates":[[[98.76937594534364,1.756455287822717],[98.77275331421411,1.7564646200875795],[98.77390705266839,1.7522173729794963],[98.77104769869243,1.7438875491264512],[98.76848050477156,1.7457839657107141],[98.76937594534364,1.756455287822717]]]}},{"type":"Feature","properties":{"code":"1273011005","desa":"Simare-Mare","kecamatan":"Sibolga Utara","kecCode":"127301","kabCode":"1273","province":"Sumatera Utara"},"geometry":{"type":"Polygon","coordinates":[[[98.77104769869243,1.7438875491264512],[98.77581266482268,1.7527978574806196],[98.77867596232583,1.7454836703886658],[98.77374679078184,1.7427026689497058],[98.77104769869243,1.7438875491264512]]]}},{"type":"Feature","properties":{"code":"1273021001","desa":"Kota Baringin","kecamatan":"Sibolga Kota","kecCode":"127302","kabCode":"1273","province":"Sumatera Utara"},"geometry":{"type":"Polygon","coordinates":[[[98.77867596232583,1.7454836703886658],[98.78026836489316,1.7422807690993214],[98.77490868338907,1.7399038402497882],[98.77374679078184,1.7427026689497058],[98.77867596232583,1.7454836703886658]]]}},{"type":"Feature","properties":{"code":"1273021002","desa":"Pasar Baru","kecamatan":"Sibolga Kota","kecCode":"127302","kabCode":"1273","province":"Sumatera Utara"},"geometry":{"type":"Polygon","coordinates":[[[98.7749318858979,1.739806517416746],[98.78220475274718,1.7429574558782834],[98.78404769744333,1.7421294509707093],[98.77820664032424,1.7380773117803188],[98.7749318858979,1.739806517416746]]]}},{"type":"Feature","properties":{"code":"1273021003","desa":"Pasar Belakang","kecamatan":"Sibolga Kota","kecCode":"127302","kabCode":"1273","province":"Sumatera Utara"},"geometry":{"type":"MultiPolygon","coordinates":[[[[98.76302089869557,1.7171718729685177],[98.76274131206196,1.7167554679758648],[98.76270562066792,1.7174514605011573],[98.76302089869557,1.7171718729685177]]],[[[98.77781402959384,1.7386840753709265],[98.78011972764334,1.7394978512050863],[98.78399659077012,1.735014453819193],[98.77792046975395,1.734726955849832],[98.77781402959384,1.7386840753709265]]]]}},{"type":"Feature","properties":{"code":"1273021004","desa":"Pancuran Gerobak","kecamatan":"Sibolga Kota","kecCode":"127302","kabCode":"1273","province":"Sumatera Utara"},"geometry":{"type":"Polygon","coordinates":[[[98.78596028563872,1.7443899158167715],[98.78898205807559,1.7405549152362347],[98.78399659077012,1.735014453819193],[98.78011972764334,1.7394978512050863],[98.78596028563872,1.7443899158167715]]]}},{"type":"Feature","properties":{"code":"1273031001","desa":"Aek Habil","kecamatan":"Sibolga Selatan","kecCode":"127303","kabCode":"1273","province":"Sumatera Utara"},"geometry":{"type":"Polygon","coordinates":[[[98.79722725033741,1.7213249448706718],[98.79662716870894,1.725356941045831],[98.79382306907945,1.7262838884654916],[98.7960176253132,1.7289317578662708],[98.79986895488842,1.7278469128778144],[98.79722725033741,1.7213249448706718]]]}},{"type":"Feature","properties":{"code":"1273031002","desa":"Aek Manis","kecamatan":"Sibolga Selatan","kecCode":"127303","kabCode":"1273","province":"Sumatera Utara"},"geometry":{"type":"Polygon","coordinates":[[[98.7899525128982,1.7373684562518428],[98.79414707502752,1.7415542050205062],[98.79714519439527,1.738508495332089],[98.7974607116426,1.7297431549936328],[98.79382306907945,1.7262838884654916],[98.79019849456493,1.7293378593261848],[98.79257550255744,1.73388231977964],[98.7899525128982,1.7373684562518428]]]}},{"type":"Feature","properties":{"code":"1273031003","desa":"Aek Muara Pinang","kecamatan":"Sibolga Selatan","kecCode":"127303","kabCode":"1273","province":"Sumatera Utara"},"geometry":{"type":"Polygon","coordinates":[[[98.80326259519268,1.726300655425739],[98.79836111107646,1.720722220135321],[98.79722725033741,1.7213249448706718],[98.79986895488842,1.7278469128778144],[98.80326259519268,1.726300655425739]]]}},{"type":"Feature","properties":{"code":"1273031004","desa":"Aek Parombunan","kecamatan":"Sibolga Selatan","kecCode":"127303","kabCode":"1273","province":"Sumatera Utara"},"geometry":{"type":"Polygon","coordinates":[[[98.80053455932249,1.7445957031837038],[98.80568564127935,1.74153764220636],[98.81172891096053,1.7309100622193172],[98.80323402463057,1.7262726757182607],[98.79577287661702,1.7289933056683393],[98.79750830376526,1.7368706356344088],[98.8013883127205,1.7413179971860002],[98.80053455932249,1.7445957031837038]]]}},{"type":"Feature","properties":{"code":"1273041001","desa":"Pancuran Kerambil","kecamatan":"Sibolga Sambas","kecCode":"127304","kabCode":"1273","province":"Sumatera Utara"},"geometry":{"type":"Polygon","coordinates":[[[98.78850793009694,1.7386564383050966],[98.7899525128982,1.7373684562518428],[98.78563484976853,1.7329193392236593],[98.78399659077012,1.735014453819193],[98.78850793009694,1.7386564383050966]]]}},{"type":"Feature","properties":{"code":"1273041002","desa":"Pancuran Dewa","kecamatan":"Sibolga Sambas","kecCode":"127304","kabCode":"1273","province":"Sumatera Utara"},"geometry":{"type":"Polygon","coordinates":[[[98.7899525128982,1.7373684562518428],[98.79126446997934,1.7356685559235658],[98.78552268002773,1.7286825476336434],[98.78278733986387,1.7300806156985302],[98.7899525128982,1.7373684562518428]]]}},{"type":"Feature","properties":{"code":"1273041003","desa":"Pancuran Pinang","kecamatan":"Sibolga Sambas","kecCode":"127304","kabCode":"1273","province":"Sumatera Utara"},"geometry":{"type":"MultiPolygon","coordinates":[[[[98.77845967087715,1.7291724515190885],[98.78134674195864,1.7275439447706935],[98.77938510204086,1.7266364487875387],[98.77845967087715,1.7291724515190885]]],[[[98.78050731386149,1.7324646734739495],[98.78399659077012,1.735014453819193],[98.78563484976853,1.7329193392236593],[98.78278733986387,1.7300806156985302],[98.78050731386149,1.7324646734739495]]]]}},{"type":"Feature","properties":{"code":"1273041004","desa":"Pancuran Bambu","kecamatan":"Sibolga Sambas","kecCode":"127304","kabCode":"1273","province":"Sumatera Utara"},"geometry":{"type":"Polygon","coordinates":[[[98.79126446997934,1.7356685559235658],[98.79257550255744,1.73388231977964],[98.79019849456493,1.7293378593261848],[98.78621686401708,1.7297645111942213],[98.79126446997934,1.7356685559235658]]]}}]}