{"type":"FeatureCollection","features":[{"type":"Feature","properties":{"code":"1275011001","desa":"Pahlawan","kecamatan":"Binjai Utara","kecCode":"127501","kabCode":"1275","province":"Sumatera Utara"},"geometry":{"type":"Polygon","coordinates":[[[98.50322478829337,3.624037223243477],[98.50090930202269,3.6237592041284654],[98.50004870208602,3.6186247182661773],[98.49221327332394,3.609012830797815],[98.49427783795191,3.614135879082387],[98.49041269389079,3.6238567023293626],[98.49499969408066,3.627510255694238],[98.49558939843205,3.631574735381901],[98.50442931506092,3.6316710320884766],[98.50322478829337,3.624037223243477]]]}},{"type":"Feature","properties":{"code":"1275011002","desa":"Jati Negara","kecamatan":"Binjai Utara","kecCode":"127501","kabCode":"1275","province":"Sumatera Utara"},"geometry":{"type":"Polygon","coordinates":[[[98.49479331765752,3.6104730042444984],[98.49593888037509,3.6141929239790094],[98.50004870208602,3.6186247182661773],[98.49789499395888,3.6101771335868897],[98.49479331765752,3.6104730042444984]]]}},{"type":"Feature","properties":{"code":"1275011003","desa":"Nangka","kecamatan":"Binjai Utara","kecCode":"127501","kabCode":"1275","province":"Sumatera Utara"},"geometry":{"type":"Polygon","coordinates":[[[98.49874824733382,3.613009712943915],[98.50090930202269,3.6237592041284654],[98.51406361544355,3.6208176044565663],[98.51242385997323,3.613060039005577],[98.49874824733382,3.613009712943915]]]}},{"type":"Feature","properties":{"code":"1275011004","desa":"Damai","kecamatan":"Binjai Utara","kecCode":"127501","kabCode":"1275","province":"Sumatera Utara"},"geometry":{"type":"Polygon","coordinates":[[[98.49778432608582,3.646566906917366],[98.49528951859644,3.629353704908083],[98.48966537525693,3.6376796922536254],[98.49778432608582,3.646566906917366]]]}},{"type":"Feature","properties":{"code":"1275011005","desa":"Kebun Lada","kecamatan":"Binjai Utara","kecCode":"127501","kabCode":"1275","province":"Sumatera Utara"},"geometry":{"type":"Polygon","coordinates":[[[98.49528951859644,3.629353704908083],[98.49041269389079,3.6238567023293626],[98.48555145443612,3.625400973179154],[98.48401510391398,3.6384035619636412],[98.48720329859343,3.641133856028539],[98.49528951859644,3.629353704908083]]]}},{"type":"Feature","properties":{"code":"1275011006","desa":"Cengkeh Turi","kecamatan":"Binjai Utara","kecCode":"127501","kabCode":"1275","province":"Sumatera Utara"},"geometry":{"type":"Polygon","coordinates":[[[98.47285067092179,3.64823654955542],[98.48841319521283,3.667464850780005],[98.49665485403834,3.667274414840377],[98.5007132920848,3.6698817688836964],[98.49739149322289,3.6461766614043243],[98.48966537525693,3.6376796922536254],[98.48720329859343,3.641133856028539],[98.48048370905597,3.6340983238719864],[98.4801696199321,3.63953063282008],[98.47696448562255,3.6397305080439417],[98.47790675299433,3.642478784952442],[98.47159642243702,3.6427714594194778],[98.4743161458735,3.6450771565672686],[98.47285067092179,3.64823654955542]]]}},{"type":"Feature","properties":{"code":"1275011007","desa":"Jati Utomo","kecamatan":"Binjai Utara","kecCode":"127501","kabCode":"1275","province":"Sumatera Utara"},"geometry":{"type":"Polygon","coordinates":[[[98.49814129668356,3.651738724537101],[98.501081272183,3.6724462747282547],[98.5118842019944,3.67249467354275],[98.51180361914173,3.6683280290721227],[98.51847973005555,3.668125474767921],[98.51807733290264,3.663705681034178],[98.5107544907272,3.6636209226293617],[98.511000332999,3.6554629322391605],[98.51676228575091,3.6552014687437047],[98.51671652824523,3.6522555811042117],[98.50953475372596,3.6520441037266593],[98.50732436672621,3.6498468702134863],[98.49814129668356,3.651738724537101]]]}},{"type":"Feature","properties":{"code":"1275011008","desa":"Jati Makmur","kecamatan":"Binjai Utara","kecCode":"127501","kabCode":"1275","province":"Sumatera Utara"},"geometry":{"type":"Polygon","coordinates":[[[98.51194956831795,3.638300459187834],[98.5120899992541,3.6317717030975962],[98.51612686706129,3.631725333153593],[98.51599000733303,3.6208356538500275],[98.50322478829337,3.624037223243477],[98.50442931506092,3.6316710320884766],[98.49558939843205,3.631574735381901],[98.49668631771942,3.638933820227888],[98.51194956831795,3.638300459187834]]]}},{"type":"Feature","properties":{"code":"1275011009","desa":"Jati Karya","kecamatan":"Binjai Utara","kecCode":"127501","kabCode":"1275","province":"Sumatera Utara"},"geometry":{"type":"Polygon","coordinates":[[[98.51134402600603,3.651932745174395],[98.51127636641127,3.645933286872485],[98.5171933092239,3.6458414642930776],[98.51710073930774,3.6418977599587916],[98.51196735780734,3.6419265553513793],[98.51194956831795,3.638300459187834],[98.49668631771942,3.638933820227888],[98.49814129668356,3.651738724537101],[98.50732436672621,3.6498468702134863],[98.51134402600603,3.651932745174395]]]}},{"type":"Feature","properties":{"code":"1275021001","desa":"Berngam","kecamatan":"Binjai Kota","kecCode":"127502","kabCode":"1275","province":"Sumatera Utara"},"geometry":{"type":"Polygon","coordinates":[[[98.46544332574894,3.5926945828265144],[98.46669168637231,3.5945129634383073],[98.45884275069243,3.5969574484606786],[98.45929803157894,3.5993744187250756],[98.46699652057303,3.59782659825117],[98.46690651102669,3.6037172970416016],[98.47262005866884,3.6040063922069088],[98.47052028558277,3.600012683768266],[98.47439284455419,3.6021024087268816],[98.4757051703574,3.599215818785805],[98.47815463582782,3.599580976811059],[98.47845760573396,3.5895585380372106],[98.47633672735816,3.5896463433451165],[98.4764926769955,3.5919396280499973],[98.46544332574894,3.5926945828265144]]]}},{"type":"Feature","properties":{"code":"1275021002","desa":"Satria","kecamatan":"Binjai Kota","kecCode":"127502","kabCode":"1275","province":"Sumatera Utara"},"geometry":{"type":"Polygon","coordinates":[[[98.47880141655219,3.5963390836156917],[98.47663059882314,3.599821873710657],[98.47930792192311,3.6025699428757743],[98.48727972208155,3.5998747421556967],[98.48615056389745,3.5957174902045543],[98.47880141655219,3.5963390836156917]]]}},{"type":"Feature","properties":{"code":"1275021003","desa":"Setia","kecamatan":"Binjai Kota","kecCode":"127502","kabCode":"1275","province":"Sumatera Utara"},"geometry":{"type":"Polygon","coordinates":[[[98.49192511974854,3.6094009593067136],[98.49367119756778,3.608613530011143],[98.48944329757016,3.6042325213392146],[98.48982952401336,3.598714775897526],[98.48720615573956,3.5999070287164496],[98.48761042887826,3.6031178881066506],[98.49192511974854,3.6094009593067136]]]}},{"type":"Feature","properties":{"code":"1275021004","desa":"Kartini","kecamatan":"Binjai Kota","kecCode":"127502","kabCode":"1275","province":"Sumatera Utara"},"geometry":{"type":"Polygon","coordinates":[[[98.48720615573956,3.5999070287164496],[98.48082955324134,3.6022033747135596],[98.4889422555807,3.6064862988266633],[98.48834956368147,3.601858133973656],[98.48720615573956,3.5999070287164496]]]}},{"type":"Feature","properties":{"code":"1275021005","desa":"Tangsi","kecamatan":"Binjai Kota","kecCode":"127502","kabCode":"1275","province":"Sumatera Utara"},"geometry":{"type":"Polygon","coordinates":[[[98.48082955324134,3.6022033747135596],[98.47781652041611,3.608230247948741],[98.48418011242234,3.6087325040224005],[98.48494428255265,3.6044436497797974],[98.48082955324134,3.6022033747135596]]]}},{"type":"Feature","properties":{"code":"1275021006","desa":"Binjai","kecamatan":"Binjai Kota","kecCode":"127502","kabCode":"1275","province":"Sumatera Utara"},"geometry":{"type":"Polygon","coordinates":[[[98.4889422555807,3.6064862988266633],[98.48494428255265,3.6044436497797974],[98.4833281405813,3.6062450368022723],[98.48702104828281,3.609401846937552],[98.4889422555807,3.6064862988266633]]]}},{"type":"Feature","properties":{"code":"1275021007","desa":"Pekan Binjai","kecamatan":"Binjai Kota","kecCode":"127502","kabCode":"1275","province":"Sumatera Utara"},"geometry":{"type":"Polygon","coordinates":[[[98.49208739072053,3.6162780129324927],[98.49404572023387,3.6118715570439375],[98.48941066566975,3.6061497311485806],[98.48702104828281,3.609401846937552],[98.49164738661766,3.613001416698111],[98.49208739072053,3.6162780129324927]]]}},{"type":"Feature","properties":{"code":"1275031001","desa":"Bandar Senembah","kecamatan":"Binjai Barat","kecCode":"127503","kabCode":"1275","province":"Sumatera Utara"},"geometry":{"type":"Polygon","coordinates":[[[98.44069099729177,3.6067842667032353],[98.45712842523669,3.60334678894954],[98.4624504440328,3.6068218205931823],[98.472309228688,3.6067340152853298],[98.47309253099557,3.6039189682115897],[98.46690651102669,3.6037172970416016],[98.46699652057303,3.59782659825117],[98.46194223984253,3.598047720857639],[98.46074062238188,3.6004092578105094],[98.45860570019293,3.594783055029525],[98.44508560731497,3.5981674781785156],[98.44479172865537,3.6058833078919985],[98.44069099729177,3.6067842667032353]]]}},{"type":"Feature","properties":{"code":"1275031002","desa":"Limau Mungkur","kecamatan":"Binjai Barat","kecCode":"127503","kabCode":"1275","province":"Sumatera Utara"},"geometry":{"type":"Polygon","coordinates":[[[98.47378908200061,3.6172543349310966],[98.48047102142056,3.6182479392014515],[98.48278279259186,3.60913734912951],[98.47781652041611,3.608230247948741],[98.47953773198081,3.603373467338016],[98.47606446390392,3.599089216724903],[98.47458703066701,3.6020830121490244],[98.47026761385933,3.600441736826195],[98.47311068291174,3.603174665904646],[98.47157531624788,3.6115057137353372],[98.4742184030569,3.611872165884989],[98.47378908200061,3.6172543349310966]]]}},{"type":"Feature","properties":{"code":"1275031003","desa":"Limau Sundai","kecamatan":"Binjai Barat","kecCode":"127503","kabCode":"1275","province":"Sumatera Utara"},"geometry":{"type":"Polygon","coordinates":[[[98.49099157759929,3.6198030621703263],[98.49164738661766,3.613001416698111],[98.4825059848634,3.608592455298363],[98.48053241633802,3.618033778246962],[98.49099157759929,3.6198030621703263]]]}},{"type":"Feature","properties":{"code":"1275031004","desa":"Paya Roba","kecamatan":"Binjai Barat","kecCode":"127503","kabCode":"1275","province":"Sumatera Utara"},"geometry":{"type":"Polygon","coordinates":[[[98.44631301823125,3.6560038636574177],[98.44947963637617,3.6545029698078793],[98.44953843225288,3.6568609499420073],[98.45330283425847,3.657165559311931],[98.45378727836027,3.6529034167326593],[98.45893598430831,3.654962188825113],[98.46234020783436,3.653210894939885],[98.4649923517157,3.6500383223871102],[98.47285067092179,3.64823654955542],[98.4743161458735,3.6450771565672686],[98.47179629676174,3.6424430935584553],[98.47790675299433,3.642478784952442],[98.47696448562255,3.6397305080439417],[98.4801696199321,3.63953063282008],[98.48048370905597,3.6340983238719864],[98.48331764639231,3.638281416043501],[98.4848899644004,3.6374386658516387],[98.48538489279859,3.6257578934144163],[98.49099978840957,3.623535378159924],[98.49162034490301,3.620573909766017],[98.47400957418256,3.6172899750637857],[98.47316871526407,3.635581966926087],[98.46258110383489,3.6413479459366895],[98.46269466033037,3.6519546202838833],[98.44768045628808,3.6535054471913537],[98.44631301823125,3.6560038636574177]]]}},{"type":"Feature","properties":{"code":"1275031005","desa":"Suka Maju","kecamatan":"Binjai Barat","kecCode":"127503","kabCode":"1275","province":"Sumatera Utara"},"geometry":{"type":"Polygon","coordinates":[[[98.44273705387201,3.6128176888015644],[98.46144367008934,3.6152652809815518],[98.4624504440328,3.6068218205931823],[98.45712842523669,3.60334678894954],[98.4408098139218,3.607454559302454],[98.44273705387201,3.6128176888015644]]]}},{"type":"Feature","properties":{"code":"1275031006","desa":"Sukaramai","kecamatan":"Binjai Barat","kecCode":"127503","kabCode":"1275","province":"Sumatera Utara"},"geometry":{"type":"Polygon","coordinates":[[[98.46144367008934,3.6152652809815518],[98.47378908200061,3.6172543349310966],[98.472309228688,3.6067340152853298],[98.4624504440328,3.6068218205931823],[98.46144367008934,3.6152652809815518]]]}},{"type":"Feature","properties":{"code":"1275041001","desa":"Tanah Tinggi","kecamatan":"Binjai Timur","kecCode":"127504","kabCode":"1275","province":"Sumatera Utara"},"geometry":{"type":"Polygon","coordinates":[[[98.49462988386209,3.610444784418014],[98.49787314582909,3.6101482689465594],[98.49874824733382,3.613009712943915],[98.51211563263041,3.6130576054400834],[98.51162549671938,3.6086974691335576],[98.49839794970569,3.608455581181033],[98.49462988386209,3.610444784418014]]]}},{"type":"Feature","properties":{"code":"1275041002","desa":"Dataran Tinggi","kecamatan":"Binjai Timur","kecCode":"127504","kabCode":"1275","province":"Sumatera Utara"},"geometry":{"type":"Polygon","coordinates":[[[98.49872739025692,3.6084519991813435],[98.51162549671938,3.6086974691335576],[98.51270404555532,3.6039067491229386],[98.50318813372546,3.6029257461530366],[98.49872739025692,3.6084519991813435]]]}},{"type":"Feature","properties":{"code":"1275041003","desa":"Timbang Langkat","kecamatan":"Binjai Timur","kecCode":"127504","kabCode":"1275","province":"Sumatera Utara"},"geometry":{"type":"Polygon","coordinates":[[[98.49460560126755,3.6029997972296335],[98.49414520233925,3.610481515428291],[98.49844606703243,3.609205713792768],[98.49990574495422,3.6046424961792605],[98.50318813372546,3.6029257461530366],[98.51133380431168,3.6029405525912055],[98.51164114762092,3.591156959765304],[98.50715235789505,3.591170303006504],[98.50703495859653,3.5950759471324956],[98.50179337606352,3.5975317681092305],[98.50143714560784,3.601091272173271],[98.49460560126755,3.6029997972296335]]]}},{"type":"Feature","properties":{"code":"1275041004","desa":"Mencirim","kecamatan":"Binjai Timur","kecCode":"127504","kabCode":"1275","province":"Sumatera Utara"},"geometry":{"type":"Polygon","coordinates":[[[98.49986365038723,3.580598807439751],[98.4962151790873,3.5804179178036173],[98.49447079559081,3.583309360486401],[98.49934966535481,3.588399841621802],[98.49639488791382,3.589598262890613],[98.49874864393485,3.59541580003402],[98.4977280932769,3.5978473357182126],[98.4952390594351,3.596486269359578],[98.49340456656756,3.602344945090569],[98.48933136884766,3.6028358238411196],[98.49150092302921,3.6063626024752575],[98.49460560126755,3.6029997972296335],[98.50143714560784,3.601091272173271],[98.50179337606352,3.5975317681092305],[98.50703495859653,3.5950759471324956],[98.50766605244644,3.587415897868829],[98.49968277783795,3.587531163076031],[98.49986365038723,3.580598807439751]]]}},{"type":"Feature","properties":{"code":"1275041005","desa":"Tunggurono","kecamatan":"Binjai Timur","kecCode":"127504","kabCode":"1275","province":"Sumatera Utara"},"geometry":{"type":"Polygon","coordinates":[[[98.53564073543163,3.5702774061392057],[98.51527604185587,3.5697655120311036],[98.50259894828291,3.574645985281122],[98.49968277783795,3.587531163076031],[98.50766605244644,3.587415897868829],[98.50715235789505,3.591170303006504],[98.51164114762092,3.591156959765304],[98.51162549671938,3.6086974691335576],[98.53535200359215,3.6040343341428565],[98.53339307782834,3.5947916912191014],[98.53812508740292,3.587079164715464],[98.53960944092302,3.57537989322382],[98.53564073543163,3.5702774061392057]]]}},{"type":"Feature","properties":{"code":"1275041006","desa":"Sumber Mulyorejo","kecamatan":"Binjai Timur","kecCode":"127504","kabCode":"1275","province":"Sumatera Utara"},"geometry":{"type":"Polygon","coordinates":[[[98.527380921992,3.630624186154476],[98.52720001616785,3.6249179104364626],[98.5241686722465,3.624662928355011],[98.52276652305663,3.6216888703518118],[98.52109525444251,3.6078189520045854],[98.51162549671938,3.6086974691335576],[98.51200819602148,3.617227697911432],[98.51599000733303,3.6208356538500275],[98.51612686706129,3.631725333153593],[98.527380921992,3.630624186154476]]]}},{"type":"Feature","properties":{"code":"1275041007","desa":"Sumber Karya","kecamatan":"Binjai Timur","kecCode":"127504","kabCode":"1275","province":"Sumatera Utara"},"geometry":{"type":"Polygon","coordinates":[[[98.53319498685919,3.613038965192076],[98.53541172397195,3.603606399841599],[98.52109525444251,3.6078189520045854],[98.5241686722465,3.624662928355011],[98.52720001616785,3.6249179104364626],[98.52703175481166,3.6210291438873234],[98.53319098127882,3.6208703353053355],[98.53319498685919,3.613038965192076]]]}},{"type":"Feature","properties":{"code":"1275051001","desa":"Tanah Merah","kecamatan":"Binjai Selatan","kecCode":"127505","kabCode":"1275","province":"Sumatera Utara"},"geometry":{"type":"Polygon","coordinates":[[[98.46245075339958,3.529074718429448],[98.45049862041502,3.5281711974497605],[98.44991949658753,3.5341998810201645],[98.4457903295601,3.5368731113026315],[98.44526545103979,3.544727229767037],[98.44512719466432,3.558851729098068],[98.44873272603455,3.561415752905961],[98.44619720263886,3.5652625067264734],[98.45352440742549,3.5720416853354022],[98.4509176703143,3.576375521868102],[98.45426910363629,3.5781096800710617],[98.45579642676375,3.575644655432523],[98.45807929732176,3.5762623961480298],[98.45547998771133,3.582248367317277],[98.46002548778607,3.5855766457909346],[98.45791256481304,3.5895626407443766],[98.46063453925261,3.5953488724873934],[98.4635257472155,3.5914838822144466],[98.4764926769955,3.5919396280499973],[98.47633672735816,3.5896463433451165],[98.47845760573396,3.5895585380372106],[98.47835624944138,3.5875312296258692],[98.47328075640185,3.587790994302011],[98.47352844767978,3.576143485988623],[98.46639003936889,3.5764831311467247],[98.46581915692859,3.570178515787767],[98.46278748295606,3.568045489372018],[98.46094551762161,3.5318721846565735],[98.46245075339958,3.529074718429448]]]}},{"type":"Feature","properties":{"code":"1275051002","desa":"Binjai Estate","kecamatan":"Binjai Selatan","kecCode":"127505","kabCode":"1275","province":"Sumatera Utara"},"geometry":{"type":"Polygon","coordinates":[[[98.47835624944138,3.5875312296258692],[98.47880141655219,3.5963390836156917],[98.48504360098144,3.596039398033976],[98.48462962235925,3.5902809922143772],[98.49018892727723,3.5903224284775637],[98.49077918740964,3.588417919793519],[98.48136858709067,3.5737043726168207],[98.47352844767978,3.576143485988623],[98.47328075640185,3.587790994302011],[98.47835624944138,3.5875312296258692]]]}},{"type":"Feature","properties":{"code":"1275051003","desa":"Bhakti Karya","kecamatan":"Binjai Selatan","kecCode":"127505","kabCode":"1275","province":"Sumatera Utara"},"geometry":{"type":"Polygon","coordinates":[[[98.47398287780759,3.5280667205097793],[98.46245075339958,3.529074718429448],[98.4609652127744,3.5315649609574282],[98.46278748295606,3.568045489372018],[98.46581915692859,3.570178515787767],[98.46639003936889,3.5764831311467247],[98.4777678392145,3.5759631692205773],[98.48136858709067,3.5737043726168207],[98.47530169042074,3.5640612130229874],[98.47618238390992,3.556671166317615],[98.47450838225609,3.5567030832569997],[98.47365716584557,3.5499238767690695],[98.47535446173906,3.5466598998216003],[98.47268559316564,3.53906235973538],[98.47398287780759,3.5280667205097793]]]}},{"type":"Feature","properties":{"code":"1275051004","desa":"Rambung Dalam","kecamatan":"Binjai Selatan","kecCode":"127505","kabCode":"1275","province":"Sumatera Utara"},"geometry":{"type":"Polygon","coordinates":[[[98.4902197704261,3.5967471581882284],[98.49837341080432,3.5972236684704577],[98.49639488791382,3.589598262890613],[98.49946891635743,3.5887439222362114],[98.49751030265838,3.588406830253359],[98.4978443153629,3.585678420268197],[98.49210532859807,3.585467715408275],[98.4902197704261,3.5967471581882284]]]}},{"type":"Feature","properties":{"code":"1275051005","desa":"Pujidadi","kecamatan":"Binjai Selatan","kecCode":"127505","kabCode":"1275","province":"Sumatera Utara"},"geometry":{"type":"Polygon","coordinates":[[[98.49970685358845,3.58039694381484],[98.49995774465422,3.5712753784166953],[98.49485517842379,3.5667225992341898],[98.477052783759,3.5673507693873994],[98.48574180134312,3.5781140552728097],[98.4889291992232,3.5868854930150604],[98.4978443153629,3.585678420268197],[98.49447079559081,3.583309360486401],[98.4962151790873,3.5804179178036173],[98.49970685358845,3.58039694381484]]]}},{"type":"Feature","properties":{"code":"1275051006","desa":"Tanah Seribu","kecamatan":"Binjai Selatan","kecCode":"127505","kabCode":"1275","province":"Sumatera Utara"},"geometry":{"type":"Polygon","coordinates":[[[98.49822583205655,3.564384622720256],[98.4952924692721,3.555863404249947],[98.47603046863128,3.556512655411275],[98.47519660104236,3.559151270788208],[98.47616821509109,3.5662092167480646],[98.4830454009246,3.568054811744351],[98.49485517842379,3.5667225992341898],[98.49752238684873,3.569510532647589],[98.49822583205655,3.564384622720256]]]}},{"type":"Feature","properties":{"code":"1275051007","desa":"Rambung Barat","kecamatan":"Binjai Selatan","kecCode":"127505","kabCode":"1275","province":"Sumatera Utara"},"geometry":{"type":"Polygon","coordinates":[[[98.48462962235925,3.5902809922143772],[98.48727972208155,3.5998747421556967],[98.48982952401336,3.598714775897526],[98.49201972483047,3.5871526159442197],[98.49014565100104,3.587111690495827],[98.49018892727723,3.5903224284775637],[98.48462962235925,3.5902809922143772]]]}},{"type":"Feature","properties":{"code":"1275051008","desa":"Rambung Timur","kecamatan":"Binjai Selatan","kecCode":"127505","kabCode":"1275","province":"Sumatera Utara"},"geometry":{"type":"Polygon","coordinates":[[[98.4902197704261,3.5967471581882284],[98.4891690070441,3.601901539752219],[98.49142478372687,3.6034577742831293],[98.49560979235808,3.599649273125783],[98.49389647504232,3.5967272157218613],[98.4902197704261,3.5967471581882284]]]}}]}