{"type":"FeatureCollection","features":[{"type":"Feature","properties":{"code":"1278011030","desa":"Pasar Gunungsitoli","kecamatan":"Gunungsitoli","kecCode":"127801","kabCode":"1278","province":"Sumatera Utara"},"geometry":{"type":"Polygon","coordinates":[[[97.62073665427322,1.2888941377147478],[97.61957950469042,1.2854916957494518],[97.61730356161011,1.286484772117747],[97.61439269176935,1.283243382542868],[97.61461998822193,1.285461391294515],[97.61112848459197,1.2853898376353035],[97.61352878142816,1.2885293484116365],[97.61054276693523,1.2905302437344957],[97.61193084803028,1.292613408138623],[97.62073665427322,1.2888941377147478]]]}},{"type":"Feature","properties":{"code":"1278011031","desa":"Saombo","kecamatan":"Gunungsitoli","kecCode":"127801","kabCode":"1278","province":"Sumatera Utara"},"geometry":{"type":"Polygon","coordinates":[[[97.61193084803028,1.292613408138623],[97.61064205388772,1.28902312747571],[97.60734046998674,1.2891176327328273],[97.60892356996685,1.2927123083825733],[97.60673399957447,1.292066440470868],[97.60579963724352,1.2949368363197529],[97.60820998580225,1.2960066671265682],[97.60752113389327,1.3026013767973281],[97.61193084803028,1.292613408138623]]]}},{"type":"Feature","properties":{"code":"1278011032","desa":"Ilir","kecamatan":"Gunungsitoli","kecCode":"127801","kabCode":"1278","province":"Sumatera Utara"},"geometry":{"type":"Polygon","coordinates":[[[97.61627831199456,1.2851507636615165],[97.61957950469042,1.2854916957494518],[97.61875684625151,1.287458522954533],[97.62245785594536,1.289331310751442],[97.63119453040332,1.2742744329954154],[97.61627831199456,1.2851507636615165]]]}},{"type":"Feature","properties":{"code":"1278012001","desa":"Bawodesolo","kecamatan":"Gunungsitoli","kecCode":"127801","kabCode":"1278","province":"Sumatera Utara"},"geometry":{"type":"Polygon","coordinates":[[[97.58741415543898,1.3389461849233593],[97.58272797441656,1.3253204873705766],[97.5727374543701,1.3189186382117308],[97.56666296292546,1.310798791667045],[97.56781375789865,1.3297189545811663],[97.57577226158065,1.3460674377589217],[97.5774257838729,1.3474907965583545],[97.58741415543898,1.3389461849233593]]]}},{"type":"Feature","properties":{"code":"1278012002","desa":"Boyo","kecamatan":"Gunungsitoli","kecCode":"127801","kabCode":"1278","province":"Sumatera Utara"},"geometry":{"type":"Polygon","coordinates":[[[97.61300519883093,1.287061983985885],[97.61100443930349,1.2794736799373672],[97.60918771883821,1.279202738486887],[97.60696112875313,1.2858244197251314],[97.61300519883093,1.287061983985885]]]}},{"type":"Feature","properties":{"code":"1278012003","desa":"Dahadano Gawu-Gawu","kecamatan":"Gunungsitoli","kecCode":"127801","kabCode":"1278","province":"Sumatera Utara"},"geometry":{"type":"Polygon","coordinates":[[[97.61782404874094,1.273540188706344],[97.61856980884964,1.2690970548677551],[97.61332783241357,1.267099174971751],[97.61026284395513,1.2683657324759108],[97.6106176948508,1.2754585352586505],[97.61782404874094,1.273540188706344]]]}},{"type":"Feature","properties":{"code":"1278012004","desa":"Dahana Tabaloho","kecamatan":"Gunungsitoli","kecCode":"127801","kabCode":"1278","province":"Sumatera Utara"},"geometry":{"type":"Polygon","coordinates":[[[97.61026284395513,1.2683657324759108],[97.61332783241357,1.267099174971751],[97.61856980884964,1.2690970548677551],[97.62522003097973,1.2587208075133463],[97.61751610198654,1.2516696928040336],[97.6090368377799,1.26338006102991],[97.61026284395513,1.2683657324759108]]]}},{"type":"Feature","properties":{"code":"1278012005","desa":"Fadoro Lasara","kecamatan":"Gunungsitoli","kecCode":"127801","kabCode":"1278","province":"Sumatera Utara"},"geometry":{"type":"MultiPolygon","coordinates":[[[[97.59071442273249,1.3050135284941067],[97.60001265366111,1.296547651604829],[97.60046753165129,1.2913689047089156],[97.59333646270767,1.2926316409937697],[97.58623257397414,1.2971755042973714],[97.59071442273249,1.3050135284941067]]],[[[97.60837878135574,1.3043656461010043],[97.6092495166519,1.3078724301079228],[97.61074431579759,1.3086238613406935],[97.61131654272435,1.3067966754667972],[97.60837878135574,1.3043656461010043]]]]}},{"type":"Feature","properties":{"code":"1278012006","desa":"Hilihao","kecamatan":"Gunungsitoli","kecCode":"127801","kabCode":"1278","province":"Sumatera Utara"},"geometry":{"type":"Polygon","coordinates":[[[97.56666296292546,1.310798791667045],[97.5727374543701,1.3189186382117308],[97.57489293775893,1.315267075945967],[97.58107205093444,1.3216009075799684],[97.58435749020605,1.320614077902584],[97.59564261221686,1.3325158047725312],[97.6014583399305,1.3245706389446832],[97.60146271513224,1.321161899926356],[97.5961743777454,1.3200518199613755],[97.58714887342181,1.3066756959673156],[97.58307437258428,1.306501073706509],[97.58019624975721,1.3017680218229402],[97.56666296292546,1.310798791667045]]]}},{"type":"Feature","properties":{"code":"1278012007","desa":"Hilimbaruzo","kecamatan":"Gunungsitoli","kecCode":"127801","kabCode":"1278","province":"Sumatera Utara"},"geometry":{"type":"Polygon","coordinates":[[[97.575453319715,1.292872225828629],[97.58237044444051,1.2819008116414654],[97.57316140197719,1.28205344098162],[97.56859728683537,1.3003457278208495],[97.57620592995976,1.295499922536526],[97.575453319715,1.292872225828629]]]}},{"type":"Feature","properties":{"code":"1278012008","desa":"Hilina'A","kecamatan":"Gunungsitoli","kecCode":"127801","kabCode":"1278","province":"Sumatera Utara"},"geometry":{"type":"Polygon","coordinates":[[[97.60696112875313,1.2858244197251314],[97.61164446342131,1.2764408314535605],[97.59889213706252,1.2766392389838428],[97.60046753165129,1.2913689047089156],[97.60696112875313,1.2858244197251314]]]}},{"type":"Feature","properties":{"code":"1278012009","desa":"Iraonogeba","kecamatan":"Gunungsitoli","kecCode":"127801","kabCode":"1278","province":"Sumatera Utara"},"geometry":{"type":"Polygon","coordinates":[[[97.60837878135574,1.3043656461010043],[97.60742487226007,1.3025402993406747],[97.60820998580225,1.2960066671265682],[97.6058137925725,1.295137860877141],[97.60673399957447,1.292066440470868],[97.6030579577586,1.295494174969374],[97.60127952862739,1.2942356421157912],[97.60319360879805,1.3008077716086648],[97.60837878135574,1.3043656461010043]]]}},{"type":"Feature","properties":{"code":"1278012010","desa":"Lasara Bahili","kecamatan":"Gunungsitoli","kecCode":"127801","kabCode":"1278","province":"Sumatera Utara"},"geometry":{"type":"Polygon","coordinates":[[[97.61929428740149,1.28164946012304],[97.62404400732514,1.2800536545228804],[97.61794764436837,1.27361683342767],[97.6106176948508,1.2754585352586505],[97.61156260892733,1.2812454414929626],[97.61310717655498,1.2786189489772504],[97.61929428740149,1.28164946012304]]]}},{"type":"Feature","properties":{"code":"1278012011","desa":"Lolowonu Niko'Otano","kecamatan":"Gunungsitoli","kecCode":"127801","kabCode":"1278","province":"Sumatera Utara"},"geometry":{"type":"Polygon","coordinates":[[[97.6106176948508,1.2754585352586505],[97.59906016459495,1.272028369892639],[97.58727702501477,1.277898907681212],[97.5886049774378,1.2904031416505337],[97.59320732635706,1.2879914944733768],[97.59889213706252,1.2766392389838428],[97.6030341760864,1.277758480342474],[97.6106176948508,1.2754585352586505]]]}},{"type":"Feature","properties":{"code":"1278012012","desa":"Madula","kecamatan":"Gunungsitoli","kecCode":"127801","kabCode":"1278","province":"Sumatera Utara"},"geometry":{"type":"Polygon","coordinates":[[[97.61751610198654,1.2516696928040336],[97.62522003097973,1.2587208075133463],[97.634209544435,1.2458540073649365],[97.62198008481312,1.2388804573833987],[97.61751610198654,1.2516696928040336]]]}},{"type":"Feature","properties":{"code":"1278012013","desa":"Madolaoli","kecamatan":"Gunungsitoli","kecCode":"127801","kabCode":"1278","province":"Sumatera Utara"},"geometry":{"type":"Polygon","coordinates":[[[97.56845149683913,1.3310972924196813],[97.56709339734249,1.3254336454661855],[97.56112340981758,1.3208930314132161],[97.55512943377641,1.3267080981186812],[97.55692634577429,1.3338283194318896],[97.56131419559368,1.3363945762563478],[97.56112390804195,1.3328213224576761],[97.56845149683913,1.3310972924196813]]]}},{"type":"Feature","properties":{"code":"1278012014","desa":"Mudik","kecamatan":"Gunungsitoli","kecCode":"127801","kabCode":"1278","province":"Sumatera Utara"},"geometry":{"type":"Polygon","coordinates":[[[97.61076867303586,1.281958807121501],[97.61461998822193,1.285461391294515],[97.61463165422752,1.2832255642751729],[97.61627831199456,1.2851507636615165],[97.61929428740149,1.28164946012304],[97.61310717655498,1.2786189489772504],[97.61076867303586,1.281958807121501]]]}},{"type":"Feature","properties":{"code":"1278012015","desa":"Miga","kecamatan":"Gunungsitoli","kecCode":"127801","kabCode":"1278","province":"Sumatera Utara"},"geometry":{"type":"Polygon","coordinates":[[[97.64275602936732,1.2517224038677124],[97.6385101842976,1.247775420605464],[97.63738034622604,1.2632367171897907],[97.63940635961585,1.263128687028462],[97.64275602936732,1.2517224038677124]]]}},{"type":"Feature","properties":{"code":"1278012016","desa":"Mo'Awo","kecamatan":"Gunungsitoli","kecCode":"127801","kabCode":"1278","province":"Sumatera Utara"},"geometry":{"type":"Polygon","coordinates":[[[97.59989359691201,1.3192096318458397],[97.60146271513224,1.321161899926356],[97.60187992232063,1.3195839692511593],[97.59989359691201,1.3192096318458397]]]}},{"type":"Feature","properties":{"code":"1278012017","desa":"Ombolata Ulu","kecamatan":"Gunungsitoli","kecCode":"127801","kabCode":"1278","province":"Sumatera Utara"},"geometry":{"type":"Polygon","coordinates":[[[97.61074431579759,1.3086238613406935],[97.60602886274188,1.3014480493345453],[97.60319360879805,1.3008077716086648],[97.60042010320524,1.3033578874010043],[97.60357763729819,1.3176897964754075],[97.61074431579759,1.3086238613406935]]]}},{"type":"Feature","properties":{"code":"1278012018","desa":"Onowaembo","kecamatan":"Gunungsitoli","kecCode":"127801","kabCode":"1278","province":"Sumatera Utara"},"geometry":{"type":"Polygon","coordinates":[[[97.57026741241121,1.3101423486273722],[97.59333646270767,1.2926316409937697],[97.59320732635706,1.2879914944733768],[97.5886049774378,1.2904031416505337],[97.58544023078205,1.2863731392722924],[97.58119390637376,1.2856351987695325],[97.575453319715,1.292872225828629],[97.57620592995976,1.295499922536526],[97.56859728683537,1.3003457278208495],[97.56666296292546,1.310798791667045],[97.57026741241121,1.3101423486273722]]]}},{"type":"Feature","properties":{"code":"1278012019","desa":"Onozitoli Olora","kecamatan":"Gunungsitoli","kecCode":"127801","kabCode":"1278","province":"Sumatera Utara"},"geometry":{"type":"Polygon","coordinates":[[[97.57570350481295,1.3459283126386095],[97.57401590001382,1.3425135742428809],[97.56327428238228,1.3458301156644676],[97.56493853268717,1.351266685600186],[97.56728866533966,1.3518819594752585],[97.57570350481295,1.3459283126386095]]]}},{"type":"Feature","properties":{"code":"1278012020","desa":"Onozitoli Sifaoroasi","kecamatan":"Gunungsitoli","kecCode":"127801","kabCode":"1278","province":"Sumatera Utara"},"geometry":{"type":"Polygon","coordinates":[[[97.61099245763586,1.2895737230086475],[97.61300519883093,1.287061983985885],[97.6051085703043,1.2855257063105165],[97.60310595097889,1.2908836665062944],[97.60865722405167,1.2928030976410005],[97.60734046998674,1.2891176327328273],[97.61099245763586,1.2895737230086475]]]}},{"type":"Feature","properties":{"code":"1278012021","desa":"Saewe","kecamatan":"Gunungsitoli","kecCode":"127801","kabCode":"1278","province":"Sumatera Utara"},"geometry":{"type":"MultiPolygon","coordinates":[[[[97.59698588189298,1.3013206378838387],[97.59244572469049,1.304987687374446],[97.59750974687739,1.3092950163897157],[97.59989359691201,1.3192096318458397],[97.60187992232063,1.3195839692511593],[97.60357763729819,1.3176897964754075],[97.60111858955132,1.3043474096485395],[97.59698588189298,1.3013206378838387]]],[[[97.59520801483806,1.3183903539593604],[97.59786601870182,1.3200788266023888],[97.598891010212,1.319841562963804],[97.59520801483806,1.3183903539593604]]]]}},{"type":"Feature","properties":{"code":"1278012022","desa":"Sifalaete Tabaloho","kecamatan":"Gunungsitoli","kecCode":"127801","kabCode":"1278","province":"Sumatera Utara"},"geometry":{"type":"Polygon","coordinates":[[[97.63068118568822,1.2738434050264138],[97.63174949394401,1.2758921289935774],[97.63893503662267,1.2636649878374921],[97.63770151841037,1.2587480767563966],[97.63216036900587,1.2587103771762778],[97.62761224201141,1.2551981207946399],[97.6207877555505,1.2639234080271715],[97.63293808562423,1.2684607089778106],[97.63422586892874,1.2701793035133948],[97.63068118568822,1.2738434050264138]]]}},{"type":"Feature","properties":{"code":"1278012023","desa":"Sifalaete Ulu","kecamatan":"Gunungsitoli","kecCode":"127801","kabCode":"1278","province":"Sumatera Utara"},"geometry":{"type":"Polygon","coordinates":[[[97.60001265366111,1.3150575249162382],[97.58672677841814,1.300819668739977],[97.58623257397414,1.2971755042973714],[97.58019624975721,1.3017680218229402],[97.58307437258428,1.306501073706509],[97.58714887342181,1.3066756959673156],[97.59520801483806,1.3183903539593604],[97.598891010212,1.319841562963804],[97.60001265366111,1.3150575249162382]]]}},{"type":"Feature","properties":{"code":"1278012024","desa":"Sihare'O Ii Tabaloho","kecamatan":"Gunungsitoli","kecCode":"127801","kabCode":"1278","province":"Sumatera Utara"},"geometry":{"type":"Polygon","coordinates":[[[97.63419740988263,1.2458683650414313],[97.62761224201141,1.2551981207946399],[97.63555900774207,1.2592375309807726],[97.63770151841037,1.2587480767563966],[97.63910533674198,1.2487493000453371],[97.63715670821557,1.2467325955402866],[97.63487365779315,1.248470419379867],[97.63419740988263,1.2458683650414313]]]}},{"type":"Feature","properties":{"code":"1278012025","desa":"Simandraolo","kecamatan":"Gunungsitoli","kecCode":"127801","kabCode":"1278","province":"Sumatera Utara"},"geometry":{"type":"Polygon","coordinates":[[[97.56013664039368,1.265409642927334],[97.56026000399605,1.2736900004706098],[97.55760547781063,1.276564527804958],[97.56080128794912,1.2795772701457835],[97.58237044444051,1.2819008116414654],[97.58119390637376,1.2856351987695325],[97.58544023078205,1.2863731392722924],[97.5886049774378,1.2904031416505337],[97.58727702501477,1.277898907681212],[97.59149791659564,1.2767346363684433],[97.59083526373648,1.2735845549607698],[97.57677783492919,1.2744198443769346],[97.57556423040495,1.2701104001562586],[97.56599318293911,1.265532664787192],[97.56013664039368,1.265409642927334]]]}},{"type":"Feature","properties":{"code":"1278012026","desa":"Sisarahiligamo","kecamatan":"Gunungsitoli","kecCode":"127801","kabCode":"1278","province":"Sumatera Utara"},"geometry":{"type":"Polygon","coordinates":[[[97.5727374543701,1.3189186382117308],[97.58272797441656,1.3253204873705766],[97.58741415543898,1.3389461849233593],[97.59564261221686,1.3325158047725312],[97.58435749020605,1.320614077902584],[97.58107205093444,1.3216009075799684],[97.57489293775893,1.315267075945967],[97.5727374543701,1.3189186382117308]]]}},{"type":"Feature","properties":{"code":"1278012027","desa":"Sisarahili Sisambualahe","kecamatan":"Gunungsitoli","kecCode":"127801","kabCode":"1278","province":"Sumatera Utara"},"geometry":{"type":"Polygon","coordinates":[[[97.59333646270767,1.2926316409937697],[97.60046753165129,1.2913689047089156],[97.59889213706252,1.2766392389838428],[97.59320732635706,1.2879914944733768],[97.59333646270767,1.2926316409937697]]]}},{"type":"Feature","properties":{"code":"1278012028","desa":"Sisobahili Tabaloho","kecamatan":"Gunungsitoli","kecCode":"127801","kabCode":"1278","province":"Sumatera Utara"},"geometry":{"type":"Polygon","coordinates":[[[97.62404400732514,1.2800536545228804],[97.63422586892874,1.2701793035133948],[97.6207877555505,1.2639234080271715],[97.6179649797001,1.2748476419812602],[97.62404400732514,1.2800536545228804]]]}},{"type":"Feature","properties":{"code":"1278012029","desa":"Tuhemberua Ulu","kecamatan":"Gunungsitoli","kecCode":"127801","kabCode":"1278","province":"Sumatera Utara"},"geometry":{"type":"Polygon","coordinates":[[[97.60046753165129,1.2913689047089156],[97.59698588189298,1.3013206378838387],[97.60042010320524,1.3033578874010043],[97.60319360879805,1.3008077716086648],[97.60127952862739,1.2942356421157912],[97.6030579577586,1.295494174969374],[97.60673399957447,1.292066440470868],[97.60046753165129,1.2913689047089156]]]}},{"type":"Feature","properties":{"code":"1278022001","desa":"Ononamolo I Lot","kecamatan":"Gunungsitoli Selatan","kecCode":"127802","kabCode":"1278","province":"Sumatera Utara"},"geometry":{"type":"Polygon","coordinates":[[[97.66667180126268,1.2265901487462127],[97.65936611905119,1.2198786495173986],[97.66293530971683,1.2187484058528533],[97.65835484759822,1.2153279297825257],[97.65999072699054,1.2134541050673544],[97.65819841142758,1.2099426670687805],[97.65551458443058,1.20748120734297],[97.64833965555071,1.2071232034246175],[97.64751650338401,1.219155090073451],[97.6425790032185,1.2259346796723265],[97.64037029435366,1.2258197274291858],[97.6532795551074,1.2361892739350242],[97.66667180126268,1.2265901487462127]]]}},{"type":"Feature","properties":{"code":"1278022002","desa":"Fodo","kecamatan":"Gunungsitoli Selatan","kecCode":"127802","kabCode":"1278","province":"Sumatera Utara"},"geometry":{"type":"Polygon","coordinates":[[[97.634209544435,1.2458540073649365],[97.63487365779315,1.248470419379867],[97.63978433298065,1.2471455300491425],[97.64275602936732,1.2517224038677124],[97.65179852368298,1.2424121445171075],[97.63925999675149,1.2348966855541819],[97.6381716318154,1.2427241607033395],[97.634209544435,1.2458540073649365]]]}},{"type":"Feature","properties":{"code":"1278022003","desa":"Faekhu","kecamatan":"Gunungsitoli Selatan","kecCode":"127802","kabCode":"1278","province":"Sumatera Utara"},"geometry":{"type":"Polygon","coordinates":[[[97.62498555433989,1.2393827287456],[97.634209544435,1.2458540073649365],[97.6381716318154,1.2427241607033395],[97.63859665501167,1.235704542050673],[97.62498555433989,1.2393827287456]]]}},{"type":"Feature","properties":{"code":"1278022004","desa":"Lolofaoso Tabaloho","kecamatan":"Gunungsitoli Selatan","kecCode":"127802","kabCode":"1278","province":"Sumatera Utara"},"geometry":{"type":"Polygon","coordinates":[[[97.62198008481312,1.2388804573833987],[97.63343504109434,1.2369343523568073],[97.62335039260658,1.2238233826758902],[97.62068651257253,1.2285422567474211],[97.61187939421869,1.2327149788362377],[97.61358290892416,1.2356869944789128],[97.62198008481312,1.2388804573833987]]]}},{"type":"Feature","properties":{"code":"1278022005","desa":"Lolomboli","kecamatan":"Gunungsitoli Selatan","kecCode":"127802","kabCode":"1278","province":"Sumatera Utara"},"geometry":{"type":"Polygon","coordinates":[[[97.63859665501167,1.235704542050673],[97.6396504625988,1.228764981046478],[97.63422961370577,1.227260536673523],[97.63101369292762,1.229059853456599],[97.63015213791088,1.2317324650054038],[97.63335201658236,1.2361052331892353],[97.63859665501167,1.235704542050673]]]}},{"type":"Feature","properties":{"code":"1278022006","desa":"Mazingo Tabaloho","kecamatan":"Gunungsitoli Selatan","kecCode":"127802","kabCode":"1278","province":"Sumatera Utara"},"geometry":{"type":"Polygon","coordinates":[[[97.6308823793184,1.21544536775176],[97.6425790032185,1.2259346796723265],[97.64751650338401,1.219155090073451],[97.64819688907521,1.2068733609686406],[97.63980861557519,1.207090831428279],[97.6308823793184,1.21544536775176]]]}},{"type":"Feature","properties":{"code":"1278022007","desa":"Onozitoli Tabaloho","kecamatan":"Gunungsitoli Selatan","kecCode":"127802","kabCode":"1278","province":"Sumatera Utara"},"geometry":{"type":"Polygon","coordinates":[[[97.62247398528626,1.184438562966124],[97.618283958438,1.192778252381921],[97.62392660263066,1.2040361680896658],[97.63037427225493,1.201687280101518],[97.6364757037908,1.194093223989127],[97.62895854240287,1.1920310155872493],[97.62654899334143,1.1875227393562717],[97.62883826707241,1.1839485160885175],[97.62247398528626,1.184438562966124]]]}},{"type":"Feature","properties":{"code":"1278022008","desa":"Lololakha","kecamatan":"Gunungsitoli Selatan","kecCode":"127802","kabCode":"1278","province":"Sumatera Utara"},"geometry":{"type":"Polygon","coordinates":[[[97.61335350266205,1.1840968970313541],[97.60952000394508,1.1903100018753554],[97.60777000418238,1.20469000129674],[97.60371791984619,1.2083737080303594],[97.61474984582878,1.2166074168397922],[97.61790317559115,1.216144602333014],[97.61895541206268,1.2104715808465296],[97.62392660263066,1.2040361680896658],[97.61335350266205,1.1840968970313541]]]}},{"type":"Feature","properties":{"code":"1278022009","desa":"Sihare'O I Tabaloho","kecamatan":"Gunungsitoli Selatan","kecCode":"127802","kabCode":"1278","province":"Sumatera Utara"},"geometry":{"type":"Polygon","coordinates":[[[97.63980861557519,1.207090831428279],[97.6508921167778,1.2069645126538477],[97.65153457176312,1.2015869310497198],[97.63866480833427,1.194045634564518],[97.63037427225493,1.201687280101518],[97.62392660263066,1.2040361680896658],[97.6308823793184,1.21544536775176],[97.63980861557519,1.207090831428279]]]}},{"type":"Feature","properties":{"code":"1278022010","desa":"Ombolata Simenari","kecamatan":"Gunungsitoli Selatan","kecCode":"127802","kabCode":"1278","province":"Sumatera Utara"},"geometry":{"type":"Polygon","coordinates":[[[97.62335039260658,1.2238233826758902],[97.62945454728958,1.2323579506823226],[97.63101369292762,1.229059853456599],[97.637937605736,1.2283681228184942],[97.64037029435366,1.2258197274291858],[97.6308823793184,1.21544536775176],[97.62755488325132,1.2175674745991683],[97.62836475243141,1.2207011667618302],[97.62503522569516,1.2199401883262957],[97.62335039260658,1.2238233826758902]]]}},{"type":"Feature","properties":{"code":"1278022011","desa":"Hiligara","kecamatan":"Gunungsitoli Selatan","kecCode":"127802","kabCode":"1278","province":"Sumatera Utara"},"geometry":{"type":"Polygon","coordinates":[[[97.61685144723656,1.23065746669406],[97.62068651257253,1.2285422567474211],[97.62503522569516,1.2199401883262957],[97.62836475243141,1.2207011667618302],[97.62755488325132,1.2175674745991683],[97.6308823793184,1.21544536775176],[97.62392660263066,1.2040361680896658],[97.61895541206268,1.2104715808465296],[97.61790317559115,1.216144602333014],[97.61474984582878,1.2166074168397922],[97.61685144723656,1.23065746669406]]]}},{"type":"Feature","properties":{"code":"1278022012","desa":"Luahalaraga","kecamatan":"Gunungsitoli Selatan","kecCode":"127802","kabCode":"1278","province":"Sumatera Utara"},"geometry":{"type":"Polygon","coordinates":[[[97.6532795551074,1.2361892739350242],[97.64853999572425,1.2317700000095888],[97.63922053539943,1.2257615637759627],[97.63908391668946,1.2349775867667567],[97.65009925467693,1.2410835014161912],[97.6532795551074,1.2361892739350242]]]}},{"type":"Feature","properties":{"code":"1278022013","desa":"Sisobahili Ii Tanose'O","kecamatan":"Gunungsitoli Selatan","kecCode":"127802","kabCode":"1278","province":"Sumatera Utara"},"geometry":{"type":"Polygon","coordinates":[[[97.56404000294383,1.216009999903201],[97.5614210233616,1.227640101837905],[97.57349900927193,1.2142445497897323],[97.57246229330023,1.2079671497147695],[97.5622800036193,1.2015600017504433],[97.56404000294383,1.216009999903201]]]}},{"type":"Feature","properties":{"code":"1278022014","desa":"Hiligodu Ombolata","kecamatan":"Gunungsitoli Selatan","kecCode":"127802","kabCode":"1278","province":"Sumatera Utara"},"geometry":{"type":"Polygon","coordinates":[[[97.60371791984619,1.2083737080303594],[97.59793323223295,1.2089739785157705],[97.59505967706252,1.2249547603855495],[97.60296618194381,1.225078908196569],[97.6125766655807,1.2333105548606313],[97.61685144723656,1.23065746669406],[97.61474984582878,1.2166074168397922],[97.60371791984619,1.2083737080303594]]]}},{"type":"Feature","properties":{"code":"1278022015","desa":"Tetehosi Ombolata","kecamatan":"Gunungsitoli Selatan","kecCode":"127802","kabCode":"1278","province":"Sumatera Utara"},"geometry":{"type":"Polygon","coordinates":[[[97.59793323223295,1.2089739785157705],[97.58833272387619,1.2053357298135785],[97.5828138776584,1.2085648256560984],[97.58255878675867,1.2204870112032649],[97.59486724462772,1.2252964182264026],[97.59793323223295,1.2089739785157705]]]}},{"type":"Feature","properties":{"code":"1278032001","desa":"Afia","kecamatan":"Gunungsitoli Utara","kecCode":"127803","kabCode":"1278","province":"Sumatera Utara"},"geometry":{"type":"Polygon","coordinates":[[[97.5463585976712,1.3840424118824932],[97.5514234904018,1.3775951226786072],[97.55856663184464,1.376200758021937],[97.56100966266587,1.3730567938028815],[97.56564853934866,1.3627123365834568],[97.56212703073794,1.3584584228011019],[97.55645470621977,1.3718266876197993],[97.55071837964954,1.3721821464567923],[97.54835985542302,1.3682900928856743],[97.53765642930085,1.3756735376676126],[97.5463585976712,1.3840424118824932]]]}},{"type":"Feature","properties":{"code":"1278032002","desa":"Lolo'Ana'A Lolomoyo","kecamatan":"Gunungsitoli Utara","kecCode":"127803","kabCode":"1278","province":"Sumatera Utara"},"geometry":{"type":"Polygon","coordinates":[[[97.55516516743857,1.3334500618817586],[97.54175894671805,1.3414206893154483],[97.5422000174169,1.343480490232235],[97.55373725267214,1.3493905226477019],[97.55516516743857,1.3334500618817586]]]}},{"type":"Feature","properties":{"code":"1278032003","desa":"Lasara Sowu","kecamatan":"Gunungsitoli Utara","kecCode":"127803","kabCode":"1278","province":"Sumatera Utara"},"geometry":{"type":"Polygon","coordinates":[[[97.52829182121063,1.3498823106128077],[97.5317601043454,1.3498511670903965],[97.54175894671805,1.3414206893154483],[97.53976912744332,1.339044068933394],[97.54180956505945,1.3271558202028613],[97.51959009440736,1.322788000088943],[97.5181207119014,1.3283920058029868],[97.51969387437288,1.3391362656307746],[97.52773768144891,1.343206170928116],[97.52829182121063,1.3498823106128077]]]}},{"type":"Feature","properties":{"code":"1278032004","desa":"Telukbelukar","kecamatan":"Gunungsitoli Utara","kecCode":"127803","kabCode":"1278","province":"Sumatera Utara"},"geometry":{"type":"Polygon","coordinates":[[[97.5093507121657,1.3660827437982581],[97.49761934295837,1.3824011950156276],[97.50622000035281,1.390289998532353],[97.51668461510297,1.406569953370299],[97.52066415292836,1.4030599291059878],[97.5237151857073,1.4055047675618033],[97.52458499829908,1.4032779670378335],[97.52615223783555,1.409140180701546],[97.52852023911782,1.4079233287267574],[97.52995044265883,1.4099529573889582],[97.5275462283758,1.4141028178120694],[97.53214829220995,1.4152417264445258],[97.53464148811423,1.4124938488350685],[97.53377027887535,1.4168656925158782],[97.53915797875777,1.420825912000024],[97.54176222204897,1.410868301755583],[97.54136752039481,1.3923081095770944],[97.5463585976712,1.3840424118824932],[97.54543339943189,1.3812364047940229],[97.53558267180289,1.3735313291738873],[97.53420864441345,1.3747943955099198],[97.52615273785864,1.3696845168976002],[97.51996492284296,1.3593100079327005],[97.51147922758435,1.367216529892373],[97.5093507121657,1.3660827437982581]]]}},{"type":"Feature","properties":{"code":"1278032005","desa":"Tetehosi Afia","kecamatan":"Gunungsitoli Utara","kecCode":"127803","kabCode":"1278","province":"Sumatera Utara"},"geometry":{"type":"Polygon","coordinates":[[[97.507099923123,1.359600949406165],[97.51147922758435,1.367216529892373],[97.51996492284296,1.3593100079327005],[97.52615273785864,1.3696845168976002],[97.53420864441345,1.3747943955099198],[97.53558267180289,1.3735313291738873],[97.53765642930085,1.3756735376676126],[97.54451823133138,1.3712119884114995],[97.54183833167372,1.3689564833264765],[97.53584931359501,1.3711720603113164],[97.53392300174517,1.3670449905074638],[97.53193336143556,1.3673722097329226],[97.53152170486281,1.3574239668268495],[97.53001231331768,1.3555557017205997],[97.52934206388522,1.3573236933181696],[97.5272890870218,1.3570492562028964],[97.52881957936016,1.3563315063794101],[97.52690381385997,1.3526477564783959],[97.52868764162145,1.3508058810781753],[97.52693021975391,1.3500881312547186],[97.52773768144891,1.343206170928116],[97.52261446858289,1.340798752363325],[97.51420674724362,1.345059159250833],[97.507099923123,1.359600949406165]]]}},{"type":"Feature","properties":{"code":"1278032006","desa":"Hambawa","kecamatan":"Gunungsitoli Utara","kecCode":"127803","kabCode":"1278","province":"Sumatera Utara"},"geometry":{"type":"Polygon","coordinates":[[[97.49452463190629,1.339279360358686],[97.49929000003351,1.3390799986477389],[97.49961000040126,1.342879998513555],[97.50752999960986,1.34886999864533],[97.50557999961732,1.3539199985972399],[97.507099923123,1.359600949406165],[97.51420674724362,1.345059159250833],[97.49477183035576,1.3253053400893948],[97.49094754069647,1.3285597716325406],[97.49551997726519,1.3356168263639803],[97.49452463190629,1.339279360358686]]]}},{"type":"Feature","properties":{"code":"1278032007","desa":"Gawu-Gawu Bo'Uso","kecamatan":"Gunungsitoli Utara","kecCode":"127803","kabCode":"1278","province":"Sumatera Utara"},"geometry":{"type":"Polygon","coordinates":[[[97.54451823133138,1.3712119884114995],[97.54835985542302,1.3682900928856743],[97.55071837964954,1.3721821464567923],[97.55559251538232,1.3723047636216337],[97.5615326858848,1.3619005527475923],[97.55552658698247,1.3579188493591583],[97.55681479027044,1.3539737483778795],[97.55373725267214,1.3493905226477019],[97.54175894671805,1.3414206893154483],[97.5317601043454,1.3498511670903965],[97.52829182121063,1.3498823106128077],[97.52726269641634,1.3568223266739992],[97.53001231331768,1.3555557017205997],[97.53152170486281,1.3574239668268495],[97.53036063333661,1.3609704981702668],[97.5324030557565,1.3617463028290742],[97.53193336143556,1.3673722097329226],[97.53400216456828,1.3671294350488477],[97.53437159437364,1.3705123653231557],[97.53772336584073,1.3716580233675044],[97.54183833167372,1.3689564833264765],[97.54451823133138,1.3712119884114995]]]}},{"type":"Feature","properties":{"code":"1278032008","desa":"Olora","kecamatan":"Gunungsitoli Utara","kecCode":"127803","kabCode":"1278","province":"Sumatera Utara"},"geometry":{"type":"Polygon","coordinates":[[[97.5774257838729,1.3474907965583545],[97.57281924681087,1.3468874485928646],[97.56323957934319,1.3568083718938349],[97.56212703073794,1.3584584228011019],[97.56564853934866,1.3627123365834568],[97.5774257838729,1.3474907965583545]]]}},{"type":"Feature","properties":{"code":"1278032009","desa":"Hilimbowo Olora","kecamatan":"Gunungsitoli Utara","kecCode":"127803","kabCode":"1278","province":"Sumatera Utara"},"geometry":{"type":"MultiPolygon","coordinates":[[[[97.56727233634928,1.3244336236337906],[97.5665232055815,1.3250458847800581],[97.56743498773453,1.3260214018853906],[97.56727233634928,1.3244336236337906]]],[[[97.56092674157593,1.3360690243739928],[97.55516516743857,1.3334500618817586],[97.55373725267214,1.3493905226477019],[97.55681479027044,1.3539737483778795],[97.55552658698247,1.3579188493591583],[97.5615326858848,1.3619005527475923],[97.56790488080566,1.3516449044794414],[97.56493853268717,1.351266685600186],[97.56328436827901,1.3460217638902434],[97.56591606337571,1.344502397066587],[97.56599539976793,1.3410311542668611],[97.56213241587835,1.3404608806682727],[97.56092674157593,1.3360690243739928]]]]}},{"type":"Feature","properties":{"code":"1278032010","desa":"Hiligodu Ulu","kecamatan":"Gunungsitoli Utara","kecCode":"127803","kabCode":"1278","province":"Sumatera Utara"},"geometry":{"type":"Polygon","coordinates":[[[97.57401590001382,1.3425135742428809],[97.56845149683913,1.3310972924196813],[97.56112390804195,1.3328213224576761],[97.56207290773858,1.340396420861368],[97.56608962623534,1.341289021373485],[97.56503001981963,1.3451697884528961],[97.57401590001382,1.3425135742428809]]]}},{"type":"Feature","properties":{"code":"1278042001","desa":"Sifalaete","kecamatan":"Gunungsitoli Idanoi","kecCode":"127804","kabCode":"1278","province":"Sumatera Utara"},"geometry":{"type":"Polygon","coordinates":[[[97.6508921167778,1.2069645126538477],[97.65551458443058,1.20748120734297],[97.65664178658926,1.2102737192047996],[97.6624340905609,1.2077325040027014],[97.65570662296233,1.2043867894733753],[97.65353084007626,1.1958652436501347],[97.64951006203978,1.1961868789849972],[97.64689604041996,1.193226748782455],[97.64561582401113,1.1984821215138282],[97.65153457176312,1.2015869310497198],[97.6508921167778,1.2069645126538477]]]}},{"type":"Feature","properties":{"code":"1278042002","desa":"Hilimbawodesolo","kecamatan":"Gunungsitoli Idanoi","kecCode":"127804","kabCode":"1278","province":"Sumatera Utara"},"geometry":{"type":"Polygon","coordinates":[[[97.66840175243897,1.2083719309699799],[97.6632901183443,1.2029788738321252],[97.66173997761791,1.1965277166441544],[97.65718700957291,1.1956033206011694],[97.6560953072527,1.1983201464189555],[97.6608185799136,1.1980349039493023],[97.66206392600941,1.200304318848349],[97.66587871343194,1.2138028396734015],[97.66840175243897,1.2083719309699799]]]}},{"type":"Feature","properties":{"code":"1278042003","desa":"Dahana","kecamatan":"Gunungsitoli Idanoi","kecCode":"127804","kabCode":"1278","province":"Sumatera Utara"},"geometry":{"type":"Polygon","coordinates":[[[97.66240907142156,1.1987488901100374],[97.66840175243897,1.2083719309699799],[97.67926053284735,1.2115429737758314],[97.67967356628213,1.2069627212043432],[97.67528020541721,1.20686310510004],[97.66240907142156,1.1987488901100374]]]}},{"type":"Feature","properties":{"code":"1278042004","desa":"Bawodesolo","kecamatan":"Gunungsitoli Idanoi","kecCode":"127804","kabCode":"1278","province":"Sumatera Utara"},"geometry":{"type":"Polygon","coordinates":[[[97.65819841142758,1.2099426670687805],[97.65999072699054,1.2134541050673544],[97.65835484759822,1.2153279297825257],[97.66293530971683,1.2187484058528533],[97.65936611905119,1.2198786495173986],[97.66667180126268,1.2265901487462127],[97.6742841927613,1.221576395070025],[97.67926053284735,1.2115429737758314],[97.66840175243897,1.2083719309699799],[97.66525178704042,1.21345703505862],[97.6608185799136,1.1980349039493023],[97.6560953072527,1.1983201464189555],[97.65570662296233,1.2043867894733753],[97.6624340905609,1.2077325040027014],[97.65819841142758,1.2099426670687805]]]}},{"type":"Feature","properties":{"code":"1278042005","desa":"Tuhegeo I","kecamatan":"Gunungsitoli Idanoi","kecCode":"127804","kabCode":"1278","province":"Sumatera Utara"},"geometry":{"type":"Polygon","coordinates":[[[97.66173997761791,1.1965277166441544],[97.66650540959705,1.2021206930726478],[97.67967356628213,1.2069627212043432],[97.67954396498203,1.1998752873742344],[97.67104601735984,1.1978562230481231],[97.66351436879313,1.1922058887588645],[97.66173997761791,1.1965277166441544]]]}},{"type":"Feature","properties":{"code":"1278042006","desa":"Simanaere","kecamatan":"Gunungsitoli Idanoi","kecCode":"127804","kabCode":"1278","province":"Sumatera Utara"},"geometry":{"type":"Polygon","coordinates":[[[97.66351436879313,1.1922058887588645],[97.67434904287408,1.198937134401895],[97.67631684764444,1.1921475146642377],[97.68321111160354,1.1875131148117637],[97.67224206801711,1.185885480405781],[97.66317775884653,1.1894094747386732],[97.66351436879313,1.1922058887588645]]]}},{"type":"Feature","properties":{"code":"1278042007","desa":"Humene","kecamatan":"Gunungsitoli Idanoi","kecCode":"127804","kabCode":"1278","province":"Sumatera Utara"},"geometry":{"type":"Polygon","coordinates":[[[97.67434904287408,1.198937134401895],[97.67954396498203,1.1998752873742344],[97.68155791576525,1.1898282656327646],[97.67631684764444,1.1921475146642377],[97.67434904287408,1.198937134401895]]]}},{"type":"Feature","properties":{"code":"1278042008","desa":"Siwalubanua Ii","kecamatan":"Gunungsitoli Idanoi","kecCode":"127804","kabCode":"1278","province":"Sumatera Utara"},"geometry":{"type":"Polygon","coordinates":[[[97.66317775884653,1.1894094747386732],[97.67224206801711,1.185885480405781],[97.68321111160354,1.1875131148117637],[97.68831100414955,1.179998127992926],[97.6640462080661,1.173540269956455],[97.66158596961684,1.1846020525193566],[97.66317775884653,1.1894094747386732]]]}},{"type":"Feature","properties":{"code":"1278042009","desa":"Helefanikha","kecamatan":"Gunungsitoli Idanoi","kecCode":"127804","kabCode":"1278","province":"Sumatera Utara"},"geometry":{"type":"Polygon","coordinates":[[[97.64689604041996,1.193226748782455],[97.64951006203978,1.1961868789849972],[97.65353084007626,1.1958652436501347],[97.65635746142776,1.2016641477398244],[97.65718700957291,1.1956033206011694],[97.66072048726073,1.197369726693925],[97.66340090762583,1.1931505060581007],[97.66211023569888,1.185154569004161],[97.65781837861533,1.186615614793147],[97.65321412133471,1.183879234116814],[97.64689604041996,1.193226748782455]]]}},{"type":"Feature","properties":{"code":"1278042010","desa":"Tetehosi I","kecamatan":"Gunungsitoli Idanoi","kecCode":"127804","kabCode":"1278","province":"Sumatera Utara"},"geometry":{"type":"Polygon","coordinates":[[[97.67634502520279,1.176437220986667],[97.68572191173688,1.1780679040943751],[97.68704028368221,1.1759859456810724],[97.68256717363617,1.169871498264042],[97.68202594364243,1.164084468822667],[97.67818029958123,1.1648880247610733],[97.67917030476582,1.1706735874082805],[97.67634502520279,1.176437220986667]]]}},{"type":"Feature","properties":{"code":"1278042011","desa":"Fowa","kecamatan":"Gunungsitoli Idanoi","kecCode":"127804","kabCode":"1278","province":"Sumatera Utara"},"geometry":{"type":"Polygon","coordinates":[[[97.68572191173688,1.1780679040943751],[97.68831100414955,1.179998127992926],[97.69676005743077,1.174787625136308],[97.69266336222444,1.171143634262928],[97.68745319121187,1.1742204128299591],[97.68572191173688,1.1780679040943751]]]}},{"type":"Feature","properties":{"code":"1278042012","desa":"Binaka","kecamatan":"Gunungsitoli Idanoi","kecCode":"127804","kabCode":"1278","province":"Sumatera Utara"},"geometry":{"type":"Polygon","coordinates":[[[97.7128957907082,1.162980623857422],[97.70495438493695,1.1618073251499235],[97.69136321863766,1.1517586990179673],[97.68376777756093,1.1587760657681594],[97.69676005743077,1.174787625136308],[97.71408307657275,1.173794677371101],[97.71552895889442,1.169210711498898],[97.71130869683894,1.1660193188337837],[97.7128957907082,1.162980623857422]]]}},{"type":"Feature","properties":{"code":"1278042013","desa":"Idanotae","kecamatan":"Gunungsitoli Idanoi","kecCode":"127804","kabCode":"1278","province":"Sumatera Utara"},"geometry":{"type":"MultiPolygon","coordinates":[[[[97.72311433655744,1.170274866684332],[97.72294954388639,1.164020950605937],[97.71965613842012,1.1595681661424762],[97.71040337721415,1.161392865390879],[97.7128957907082,1.162980623857422],[97.71130869683894,1.1660193188337837],[97.71552895889442,1.169210711498898],[97.7141360097691,1.1735710060859394],[97.72311433655744,1.170274866684332]]],[[[97.68376777756093,1.1587760657681594],[97.68256717363617,1.169871498264042],[97.68620463363696,1.1736939586979769],[97.69266336222444,1.171143634262928],[97.68376777756093,1.1587760657681594]]]]}},{"type":"Feature","properties":{"code":"1278042014","desa":"Tetehosi Ii","kecamatan":"Gunungsitoli Idanoi","kecCode":"127804","kabCode":"1278","province":"Sumatera Utara"},"geometry":{"type":"Polygon","coordinates":[[[97.67836464980883,1.1667881438542107],[97.67095990457602,1.1608030414303478],[97.67290944141763,1.1520721010594495],[97.67138914469331,1.1491422141579255],[97.6614617075918,1.1545859076235623],[97.65758544431287,1.15970115878584],[97.66710304866685,1.1671329825971464],[97.66914604035753,1.1654137090734171],[97.67511465731565,1.1694519906103273],[97.67555304893413,1.1665208779329017],[97.67836464980883,1.1667881438542107]]]}},{"type":"Feature","properties":{"code":"1278042015","desa":"Lolo'Ana'A Idanoi","kecamatan":"Gunungsitoli Idanoi","kecCode":"127804","kabCode":"1278","province":"Sumatera Utara"},"geometry":{"type":"Polygon","coordinates":[[[97.68318849725141,1.1368870456304057],[97.67530154093345,1.1367203023300387],[97.67088766923062,1.140194450839322],[97.67025308331317,1.1469658952783597],[97.67666129788061,1.1565534650781752],[97.68376777756093,1.1587760657681594],[97.69136321863766,1.1517586990179673],[97.68215188380248,1.1395102106545205],[97.68318849725141,1.1368870456304057]]]}},{"type":"Feature","properties":{"code":"1278042016","desa":"Siwalubanua I","kecamatan":"Gunungsitoli Idanoi","kecCode":"127804","kabCode":"1278","province":"Sumatera Utara"},"geometry":{"type":"Polygon","coordinates":[[[97.6640462080661,1.173540269956455],[97.67634502520279,1.176437220986667],[97.67897374804011,1.167985054261971],[97.67555304893413,1.1665208779329017],[97.67511465731565,1.1694519906103273],[97.66450968087713,1.16457830274542],[97.6640462080661,1.173540269956455]]]}},{"type":"Feature","properties":{"code":"1278042017","desa":"Hilihambawa","kecamatan":"Gunungsitoli Idanoi","kecCode":"127804","kabCode":"1278","province":"Sumatera Utara"},"geometry":{"type":"Polygon","coordinates":[[[97.66158596961684,1.1846020525193566],[97.66425804876997,1.1648242961030413],[97.65033705521097,1.1636069009377101],[97.6408632442434,1.1677708519386478],[97.64576255559751,1.174166843813032],[97.64284330587395,1.1821369199622502],[97.6503911188551,1.1830652676263411],[97.65064251893716,1.187268478531102],[97.65501061424851,1.1832843685568188],[97.65577620890497,1.1862949084579535],[97.66158596961684,1.1846020525193566]]]}},{"type":"Feature","properties":{"code":"1278042018","desa":"Awa'Ai","kecamatan":"Gunungsitoli Idanoi","kecCode":"127804","kabCode":"1278","province":"Sumatera Utara"},"geometry":{"type":"Polygon","coordinates":[[[97.64284330587395,1.1821369199622502],[97.6448345658626,1.1720967114845937],[97.63710226865481,1.1653296836160927],[97.63057247743797,1.16726499048285],[97.6369184472286,1.1830292165034726],[97.64284330587395,1.1821369199622502]]]}},{"type":"Feature","properties":{"code":"1278042019","desa":"Lewuoguru Idanoi","kecamatan":"Gunungsitoli Idanoi","kecCode":"127804","kabCode":"1278","province":"Sumatera Utara"},"geometry":{"type":"Polygon","coordinates":[[[97.63057247743797,1.16726499048285],[97.62247398528626,1.184438562966124],[97.62883826707241,1.1839485160885175],[97.62654899334143,1.1875227393562717],[97.63050073042443,1.1928760230773978],[97.63266918383583,1.185527599694542],[97.6369184472286,1.1830292165034726],[97.63057247743797,1.16726499048285]]]}},{"type":"Feature","properties":{"code":"1278042020","desa":"Fadoro","kecamatan":"Gunungsitoli Idanoi","kecCode":"127804","kabCode":"1278","province":"Sumatera Utara"},"geometry":{"type":"Polygon","coordinates":[[[97.6316732008576,1.1915131499807774],[97.63353156982612,1.1945246908273934],[97.63866480833427,1.194045634564518],[97.64561582401113,1.1984821215138282],[97.6503911188551,1.1830652676263411],[97.6343843213794,1.1839572062373809],[97.6316732008576,1.1915131499807774]]]}},{"type":"Feature","properties":{"code":"1278042021","desa":"Hiliweto Idanoi","kecamatan":"Gunungsitoli Idanoi","kecCode":"127804","kabCode":"1278","province":"Sumatera Utara"},"geometry":{"type":"Polygon","coordinates":[[[97.67818029958123,1.1648880247610733],[97.68202594364243,1.164084468822667],[97.68376777756093,1.1587760657681594],[97.67666129788061,1.1565534650781752],[97.67286145808986,1.1523649832698326],[97.67095990457602,1.1608030414303478],[97.67818029958123,1.1648880247610733]]]}},{"type":"Feature","properties":{"code":"1278042022","desa":"Hilimbowo Idanoi","kecamatan":"Gunungsitoli Idanoi","kecCode":"127804","kabCode":"1278","province":"Sumatera Utara"},"geometry":{"type":"Polygon","coordinates":[[[97.64622820656653,1.1343830560657315],[97.64118958842879,1.1440945002827088],[97.64631542731519,1.1479841814422147],[97.64903704742186,1.1455290691313371],[97.64622820656653,1.1343830560657315]]]}},{"type":"Feature","properties":{"code":"1278042023","desa":"Onowaembo","kecamatan":"Gunungsitoli Idanoi","kecCode":"127804","kabCode":"1278","province":"Sumatera Utara"},"geometry":{"type":"Polygon","coordinates":[[[97.61672376508976,1.155601493123289],[97.61250020342169,1.1599477025285383],[97.62378069842055,1.169848105099011],[97.62532577236657,1.1762613099973582],[97.62842645581634,1.169135841139993],[97.63577061821951,1.1652124201153011],[97.62923899958025,1.1632060479212412],[97.62826961135352,1.1543067130947164],[97.61998498741728,1.1571126140630867],[97.61672376508976,1.155601493123289]]]}},{"type":"Feature","properties":{"code":"1278042024","desa":"Ombolata","kecamatan":"Gunungsitoli Idanoi","kecCode":"127804","kabCode":"1278","province":"Sumatera Utara"},"geometry":{"type":"Polygon","coordinates":[[[97.65456389940448,1.153528166402977],[97.63187297805553,1.1506905445473659],[97.62786594076061,1.153588470442706],[97.63101095359268,1.1643901519830886],[97.6408632442434,1.1677708519386478],[97.65033705521097,1.1636069009377101],[97.66178710658976,1.1642283585512103],[97.65488009833791,1.1591789620444157],[97.65456389940448,1.153528166402977]]]}},{"type":"Feature","properties":{"code":"1278042025","desa":"Samasi","kecamatan":"Gunungsitoli Idanoi","kecCode":"127804","kabCode":"1278","province":"Sumatera Utara"},"geometry":{"type":"Polygon","coordinates":[[[97.6702740635972,1.1444893026604663],[97.65859439371631,1.1395150840807289],[97.6551837706146,1.1427232203236417],[97.65676999843673,1.144941874788482],[97.65488009833791,1.1591789620444157],[97.65758544431287,1.15970115878584],[97.6614617075918,1.1545859076235623],[97.67098805155742,1.1490391005902063],[97.6702740635972,1.1444893026604663]]]}},{"type":"Feature","properties":{"code":"1278042026","desa":"Tuhegeo Ii","kecamatan":"Gunungsitoli Idanoi","kecCode":"127804","kabCode":"1278","province":"Sumatera Utara"},"geometry":{"type":"MultiPolygon","coordinates":[[[[97.67225999959936,1.1391599984623886],[97.66180999973176,1.1382599983285142],[97.66047999955242,1.1401299991263276],[97.6702740635972,1.1444893026604663],[97.67225999959936,1.1391599984623886]]],[[[97.66014999962283,1.1401399986881497],[97.64914562886774,1.130698079489435],[97.64622820656653,1.1343830560657315],[97.648456942434,1.1469848080209784],[97.64313884558128,1.1472346504769282],[97.64118958842879,1.1440945002827088],[97.63595939221221,1.151425858130422],[97.65456389940448,1.153528166402977],[97.65676999843673,1.144941874788482],[97.6551837706146,1.1427232203236417],[97.66014999962283,1.1401399986881497]]]]}},{"type":"Feature","properties":{"code":"1278052001","desa":"Nazalou Alo'Oa","kecamatan":"Gunungsitoli Alo'Oa","kecCode":"127805","kabCode":"1278","province":"Sumatera Utara"},"geometry":{"type":"Polygon","coordinates":[[[97.51454202259634,1.2830763685465532],[97.520823800578,1.262346503478381],[97.50847439837486,1.2595768119134538],[97.50234237280232,1.2699518209013767],[97.49824022500643,1.2709276482728398],[97.49676121795592,1.2770093198979562],[97.49363354585152,1.2775805153016537],[97.49071777200764,1.2863656793959248],[97.48701479639578,1.2863866632771797],[97.48070229487507,1.2921947899144333],[97.48268212358118,1.293930117236003],[97.48574365234775,1.2912894999683207],[97.48818857624182,1.2924428831890316],[97.49301387069362,1.2881536197550616],[97.49944444420576,1.2949999984049432],[97.49482394606831,1.3048241123856832],[97.50315533834821,1.3148142007464363],[97.53677621964687,1.3137628267259218],[97.53981375180324,1.3107462190989352],[97.53362254364555,1.3113779748491636],[97.52226215467476,1.3075731483218798],[97.52888253460132,1.296227486661507],[97.53540000510623,1.2931600007891444],[97.52653450726177,1.2870167552816414],[97.51454202259634,1.2830763685465532]]]}},{"type":"Feature","properties":{"code":"1278052002","desa":"Niko'Otano Dao","kecamatan":"Gunungsitoli Alo'Oa","kecCode":"127805","kabCode":"1278","province":"Sumatera Utara"},"geometry":{"type":"Polygon","coordinates":[[[97.5196670422003,1.3341246919111966],[97.5181207119014,1.3283920058029868],[97.51959009440736,1.322788000088943],[97.53410763256123,1.3265987477525418],[97.53981375180324,1.3107462190989352],[97.53677621964687,1.3137628267259218],[97.50315533834821,1.3148142007464363],[97.51268273541994,1.330952649958525],[97.5196670422003,1.3341246919111966]]]}},{"type":"Feature","properties":{"code":"1278052003","desa":"Iraonolase","kecamatan":"Gunungsitoli Alo'Oa","kecCode":"127805","kabCode":"1278","province":"Sumatera Utara"},"geometry":{"type":"Polygon","coordinates":[[[97.56727233634928,1.3244336236337906],[97.56662530021748,1.3154902597985605],[97.55594513955663,1.3135738117151132],[97.54920950161727,1.3212004907346597],[97.54802657656529,1.3261610621024031],[97.55143151595178,1.3356698917605336],[97.55626711933218,1.3327948985773779],[97.55512943377641,1.3267080981186812],[97.55941231472661,1.3212366254944008],[97.56727233634928,1.3244336236337906]]]}},{"type":"Feature","properties":{"code":"1278052004","desa":"Orahili Tanose'O","kecamatan":"Gunungsitoli Alo'Oa","kecCode":"127805","kabCode":"1278","province":"Sumatera Utara"},"geometry":{"type":"Polygon","coordinates":[[[97.53445298931403,1.2930859883835306],[97.52888253460132,1.296227486661507],[97.52226215467476,1.3075731483218798],[97.53362254364555,1.3113779748491636],[97.53817118685083,1.3101144624493541],[97.54448874525946,1.3154843872255841],[97.548531983864,1.3108725693496448],[97.54297253055789,1.3067029804988286],[97.54657783439961,1.2956241575817906],[97.53445298931403,1.2930859883835306]]]}},{"type":"Feature","properties":{"code":"1278052005","desa":"Tarakhaini","kecamatan":"Gunungsitoli Alo'Oa","kecCode":"127805","kabCode":"1278","province":"Sumatera Utara"},"geometry":{"type":"Polygon","coordinates":[[[97.56662530021748,1.3154902597985605],[97.56858838894306,1.300385696390481],[97.56290701994304,1.3025997319373452],[97.5601062208255,1.299376170522689],[97.54657783439961,1.2956241575817906],[97.54297253055789,1.3067029804988286],[97.548531983864,1.3108725693496448],[97.54448874525946,1.3154843872255841],[97.54802657656529,1.3261610621024031],[97.54920950161727,1.3212004907346597],[97.55594513955663,1.3135738117151132],[97.56662530021748,1.3154902597985605]]]}},{"type":"Feature","properties":{"code":"1278052006","desa":"Fadoro Hilimbowo","kecamatan":"Gunungsitoli Alo'Oa","kecCode":"127805","kabCode":"1278","province":"Sumatera Utara"},"geometry":{"type":"Polygon","coordinates":[[[97.55760547781063,1.276564527804958],[97.5526676556878,1.2818284971558014],[97.54504000539198,1.272279999301502],[97.53898001281738,1.275850000252345],[97.53710000256314,1.290530000917519],[97.53445298931403,1.2930859883835306],[97.55281357428709,1.296628217370269],[97.56290701994304,1.3025997319373452],[97.56710560743788,1.3015225815483626],[97.57316140197719,1.28205344098162],[97.5640481975663,1.280882259278258],[97.55760547781063,1.276564527804958]]]}},{"type":"Feature","properties":{"code":"1278052007","desa":"Fadoro You","kecamatan":"Gunungsitoli Alo'Oa","kecCode":"127805","kabCode":"1278","province":"Sumatera Utara"},"geometry":{"type":"Polygon","coordinates":[[[97.48459421355216,1.3098744037179026],[97.48753092271396,1.313814981109258],[97.4931799997572,1.3085499991217813],[97.49821902079123,1.3004311274422418],[97.49792653967813,1.2933850543322967],[97.49525422760057,1.2979286999999762],[97.48554602722743,1.3008982667887148],[97.48459421355216,1.3098744037179026]]]}},{"type":"Feature","properties":{"code":"1278052008","desa":"Lololawa","kecamatan":"Gunungsitoli Alo'Oa","kecCode":"127805","kabCode":"1278","province":"Sumatera Utara"},"geometry":{"type":"Polygon","coordinates":[[[97.54175894671805,1.3414206893154483],[97.55143151595178,1.3356698917605336],[97.54448874525946,1.3154843872255841],[97.53981375180324,1.3107462190989352],[97.53374889569506,1.325402956101437],[97.54180956505945,1.3271558202028613],[97.53976912744332,1.339044068933394],[97.54175894671805,1.3414206893154483]]]}},{"type":"Feature","properties":{"code":"1278052009","desa":"Nazalou Lolowua","kecamatan":"Gunungsitoli Alo'Oa","kecCode":"127805","kabCode":"1278","province":"Sumatera Utara"},"geometry":{"type":"Polygon","coordinates":[[[97.47168273956686,1.3416378144354388],[97.47143917257984,1.3494079865825084],[97.4727417614232,1.3485025284631091],[97.47452884832774,1.3492650186590283],[97.47279736021004,1.3508694262745429],[97.47813479338606,1.352775651764394],[97.4775788100141,1.3500831067424302],[97.48062082798889,1.3475494134699375],[97.4850051488686,1.3483675006540032],[97.48290035666615,1.3468107499122688],[97.48456830408401,1.3437290160807382],[97.48985808128548,1.3430380084976046],[97.49224086292554,1.338860194447346],[97.49465310275855,1.3391697716721955],[97.49551997726519,1.3356168263639803],[97.49094754069647,1.3286269204123529],[97.49401524240955,1.3253451162041243],[97.51420674724362,1.345059159250833],[97.52048227673572,1.3407352404418398],[97.52040492244923,1.3349203068359652],[97.51268273541994,1.330952649958525],[97.4982211162116,1.3068643476520316],[97.49482394606831,1.3048241123856832],[97.48789999998506,1.313169999929057],[97.49001999972324,1.3173299984095888],[97.47168273956686,1.3416378144354388]]]}},{"type":"Feature","properties":{"code":"1278062001","desa":"Tumori","kecamatan":"Gunungsitoli Barat","kecCode":"127806","kabCode":"1278","province":"Sumatera Utara"},"geometry":{"type":"MultiPolygon","coordinates":[[[[97.60927709166452,1.2635140474240947],[97.61113979806326,1.2618217014010202],[97.61057991523097,1.2546975608423567],[97.60666096293318,1.254769318647623],[97.60474990088727,1.2521926009091608],[97.5983198525792,1.2548525365137682],[97.59943514591532,1.2605499736943633],[97.60927709166452,1.2635140474240947]]],[[[97.60960767075743,1.2742975725516652],[97.60997161020168,1.2680704544715489],[97.60672435434553,1.269019902928799],[97.60626959236787,1.272863575671797],[97.60960767075743,1.2742975725516652]]]]}},{"type":"Feature","properties":{"code":"1278062002","desa":"Tumori Balohili","kecamatan":"Gunungsitoli Barat","kecCode":"127806","kabCode":"1278","province":"Sumatera Utara"},"geometry":{"type":"Polygon","coordinates":[[[97.61026284395513,1.2683657324759108],[97.6090368377799,1.26338006102991],[97.59943514591532,1.2605499736943633],[97.59822106564974,1.2558640139103914],[97.58824457232917,1.2563561103429568],[97.59332018767655,1.2632839288991895],[97.59969671283305,1.262202693789466],[97.60406282244134,1.2678717096955505],[97.61026284395513,1.2683657324759108]]]}},{"type":"Feature","properties":{"code":"1278062003","desa":"Orahili Tumori","kecamatan":"Gunungsitoli Barat","kecCode":"127806","kabCode":"1278","province":"Sumatera Utara"},"geometry":{"type":"Polygon","coordinates":[[[97.61102730636513,1.2603903233469937],[97.61751610198654,1.2516696928040336],[97.62198008481312,1.2388804573833987],[97.61358290892416,1.2356869944789128],[97.6079344398226,1.22984899326267],[97.60371279371054,1.2343131532506426],[97.59941781238216,1.2330686705053915],[97.59089553540069,1.2420492977495468],[97.60320620200469,1.2536818044714075],[97.60474990088727,1.2521926009091608],[97.60666096293318,1.254769318647623],[97.61057991523097,1.2546975608423567],[97.61102730636513,1.2603903233469937]]]}},{"type":"Feature","properties":{"code":"1278062004","desa":"Gada","kecamatan":"Gunungsitoli Barat","kecCode":"127806","kabCode":"1278","province":"Sumatera Utara"},"geometry":{"type":"Polygon","coordinates":[[[97.6079344398226,1.22984899326267],[97.60296618194381,1.225078908196569],[97.59222971922622,1.2244020829220628],[97.58212577488467,1.2334203467938072],[97.58832296173533,1.2447602312093569],[97.59941781238216,1.2330686705053915],[97.60371279371054,1.2343131532506426],[97.6079344398226,1.22984899326267]]]}},{"type":"Feature","properties":{"code":"1278062005","desa":"Lolomoyo Tuhemberua","kecamatan":"Gunungsitoli Barat","kecCode":"127806","kabCode":"1278","province":"Sumatera Utara"},"geometry":{"type":"Polygon","coordinates":[[[97.59149791659564,1.2767346363684433],[97.59983288188202,1.2720457178148783],[97.59767084423413,1.2652157679801712],[97.59477361890742,1.2652677487943447],[97.58682025844824,1.2544120332875874],[97.58832296173533,1.2447602312093569],[97.58577132878384,1.2400911427069132],[97.57585450368246,1.2607640546092131],[97.56778002163077,1.2662862714799215],[97.57556423040495,1.2701104001562586],[97.57677783492919,1.2744198443769346],[97.59083526373648,1.2735845549607698],[97.59149791659564,1.2767346363684433]]]}},{"type":"Feature","properties":{"code":"1278062006","desa":"Sihare'O Siwahili","kecamatan":"Gunungsitoli Barat","kecCode":"127806","kabCode":"1278","province":"Sumatera Utara"},"geometry":{"type":"Polygon","coordinates":[[[97.59983288188202,1.2720457178148783],[97.60626959236787,1.272863575671797],[97.60673581440636,1.2681726938982751],[97.60080771370507,1.2654351971632127],[97.59969671283305,1.262202693789466],[97.59332018767655,1.2632839288991895],[97.59767084423413,1.2652157679801712],[97.59983288188202,1.2720457178148783]]]}},{"type":"Feature","properties":{"code":"1278062007","desa":"Hilinakhe","kecamatan":"Gunungsitoli Barat","kecCode":"127806","kabCode":"1278","province":"Sumatera Utara"},"geometry":{"type":"Polygon","coordinates":[[[97.58824457232917,1.2563561103429568],[97.60320620200469,1.2536818044714075],[97.59089553540069,1.2420492977495468],[97.58728298841923,1.2475069954580316],[97.58682025844824,1.2544120332875874],[97.58824457232917,1.2563561103429568]]]}},{"type":"Feature","properties":{"code":"1278062008","desa":"Onozikho","kecamatan":"Gunungsitoli Barat","kecCode":"127806","kabCode":"1278","province":"Sumatera Utara"},"geometry":{"type":"Polygon","coordinates":[[[97.56774000269898,1.2416800019435672],[97.56013664039368,1.265409642927334],[97.56933130629481,1.2677695035437837],[97.5689417595546,1.2641361444555275],[97.5709056243951,1.2649556004077838],[97.57137482858552,1.262534354766525],[97.57585450368246,1.2607640546092131],[97.58577132878384,1.2400911427069132],[97.58212577488467,1.2334203467938072],[97.56821935483941,1.2293976055417917],[97.56388084362607,1.224876607501173],[97.56156000279196,1.230079999418424],[97.56719000341597,1.2346400019554142],[97.56774000269898,1.2416800019435672]]]}},{"type":"Feature","properties":{"code":"1278062009","desa":"Ononamolo Ii Lot","kecamatan":"Gunungsitoli Barat","kecCode":"127806","kabCode":"1278","province":"Sumatera Utara"},"geometry":{"type":"Polygon","coordinates":[[[97.58833272387619,1.2053357298135785],[97.5738500038746,1.2094100004201536],[97.57246229330023,1.2079671497147695],[97.57267391007298,1.216176008457465],[97.56388084362607,1.224876607501173],[97.56821935483941,1.2293976055417917],[97.58212577488467,1.2334203467938072],[97.59222971922622,1.2244020829220628],[97.58215515483657,1.2194338646189873],[97.5828138776584,1.2085648256560984],[97.58833272387619,1.2053357298135785]]]}}]}