{"type":"FeatureCollection","features":[{"type":"Feature","properties":{"code":"1302032001","desa":"Lolo","kecamatan":"Pantai Cermin","kecCode":"130203"},"geometry":{"type":"Polygon","coordinates":[[[100.80003848838561,-1.2576900583446478],[100.80986396485014,-1.244175982845497],[100.80686098015019,-1.2299310319175958],[100.79607496838514,-1.2215090203604233],[100.79825673266214,-1.1995741015234525],[100.83866411125979,-1.191781713423877],[100.87329101556797,-1.1563110337352593],[100.88812255830946,-1.1605834951354577],[100.93895608135813,-1.1989758536132644],[100.89432359156056,-1.2226468803833574],[100.87449607743206,-1.2414013971700373],[100.84552002003295,-1.252380369259656],[100.82064861594091,-1.2817106057282908],[100.81121803538406,-1.2760880083295776],[100.79873129681197,-1.278109976566578],[100.80003848838561,-1.2576900583446478]]]}},{"type":"Feature","properties":{"code":"1302032002","desa":"Surian","kecamatan":"Pantai Cermin","kecCode":"130203"},"geometry":{"type":"Polygon","coordinates":[[[100.89280194405455,-1.325727220854],[100.88584298376672,-1.3277559825696932],[100.85682702614639,-1.2967769866203005],[100.83723239415973,-1.304960781257615],[100.82064861594091,-1.2817106057282908],[100.84552002003295,-1.252380369259656],[100.87449607743206,-1.2414013971700373],[100.89432359156056,-1.2226468803833574],[100.93899270085251,-1.1990831562230826],[100.98516012743801,-1.251639809031852],[101.00648248927553,-1.2864280786560707],[101.00508098220159,-1.29987699017911],[100.98064399922121,-1.3128849730967715],[100.97302497881975,-1.2985500207165346],[100.94193498401233,-1.2845439549048543],[100.9167700178221,-1.288427012557506],[100.8946269652623,-1.304024997099498],[100.89280194405455,-1.325727220854]]]}},{"type":"Feature","properties":{"code":"1302042001","desa":"Alahan Panjang","kecamatan":"Lembah Gumanti","kecCode":"130204"},"geometry":{"type":"Polygon","coordinates":[[[100.74310323072956,-1.1152952961946596],[100.7371211509204,-1.1041878460583396],[100.74792480468602,-1.0847167962309385],[100.75292968655582,-1.085388182405753],[100.74847411958501,-1.0579833962343035],[100.75811767579016,-1.0446777314246087],[100.77882682769597,-1.0468999112318742],[100.80152683129829,-1.0611918751189762],[100.79906590756565,-1.070155610397158],[100.80857765643378,-1.077928338417394],[100.80151367241807,-1.09320068204416],[100.74310323072956,-1.1152952961946596]]]}},{"type":"Feature","properties":{"code":"1302042002","desa":"Sungai Nanam","kecamatan":"Lembah Gumanti","kecCode":"130204"},"geometry":{"type":"Polygon","coordinates":[[[100.80152683129829,-1.0611918751189762],[100.77882682769597,-1.0468999112318742],[100.75811767579016,-1.0446777314246087],[100.75751346987079,-0.9798266744661931],[100.81380918634493,-0.9764529289680652],[100.84090136640498,-1.0071354804923347],[100.8502857317012,-1.0304620534292812],[100.83056383755108,-1.0302629579176303],[100.80152683129829,-1.0611918751189762]]]}},{"type":"Feature","properties":{"code":"1302042003","desa":"Salimpat","kecamatan":"Lembah Gumanti","kecCode":"130204"},"geometry":{"type":"Polygon","coordinates":[[[100.80151367241807,-1.09320068204416],[100.80857488832049,-1.0773062899493668],[100.79906590756565,-1.070155610397158],[100.80044341802937,-1.0571198501195267],[100.82282018370456,-1.043587194626963],[100.83056383755108,-1.0302629579176303],[100.8502857317012,-1.0304620534292812],[100.86236316093118,-1.0444657944934823],[100.83481252807574,-1.0760258828856495],[100.83860718597292,-1.1243056433343972],[100.8140869140799,-1.1104125953241766],[100.80151367241807,-1.09320068204416]]]}},{"type":"Feature","properties":{"code":"1302042004","desa":"Aie Dingin","kecamatan":"Lembah Gumanti","kecCode":"130204"},"geometry":{"type":"Polygon","coordinates":[[[100.79825673266214,-1.1995741015234525],[100.79288896265557,-1.1827220195841703],[100.78636598290387,-1.1842210050722923],[100.77705800782086,-1.1717679973859703],[100.77586198144536,-1.1610830370552239],[100.75302499041105,-1.1610990126120238],[100.74781897156834,-1.138919033913684],[100.75213200498807,-1.1252069807601885],[100.74310323072956,-1.1152952961946596],[100.80151367241807,-1.09320068204416],[100.8182983393969,-1.1137084946068376],[100.89093017608683,-1.1469116182950432],[100.90631103462658,-1.160278318293336],[100.90130922933751,-1.1712061036701913],[100.87329101556797,-1.1563110337352593],[100.83866411125979,-1.191781713423877],[100.79825673266214,-1.1995741015234525]]]}},{"type":"Feature","properties":{"code":"1302052001","desa":"Supayang","kecamatan":"Payung Sekaki","kecCode":"130205"},"geometry":{"type":"Polygon","coordinates":[[[100.83404847755524,-0.8420669291039152],[100.84088511835358,-0.9141382272754246],[100.82099542060222,-0.9172673580766305],[100.79504018505655,-0.9012719586263602],[100.7796636972219,-0.8779211813358689],[100.75902434979395,-0.8757561858201492],[100.75057591884365,-0.8642203166480011],[100.735504799407,-0.8588517579419878],[100.73962887896964,-0.8518953769176391],[100.74617715665049,-0.8561763117300933],[100.80952386103739,-0.8432422386955082],[100.8117781826171,-0.8210385107006741],[100.83404847755524,-0.8420669291039152]]]}},{"type":"Feature","properties":{"code":"1302052002","desa":"Sirukam","kecamatan":"Payung Sekaki","kecCode":"130205"},"geometry":{"type":"Polygon","coordinates":[[[100.82732090203808,-0.9878759188343703],[100.80524139737263,-0.9745484274785697],[100.75751346987079,-0.9798266744661931],[100.74669110121339,-0.924357187700673],[100.73614439364889,-0.9100151000994096],[100.74550472276478,-0.8693382837627739],[100.7796636972219,-0.8779211813358689],[100.81068813055282,-0.9145682318159759],[100.84088511835358,-0.9141382272754246],[100.84280029929441,-0.9344399170239017],[100.82732090203808,-0.9878759188343703]]]}},{"type":"Feature","properties":{"code":"1302052003","desa":"Aie Luo","kecamatan":"Payung Sekaki","kecCode":"130205"},"geometry":{"type":"Polygon","coordinates":[[[100.83895438543658,-0.8649689365999906],[100.83404847755524,-0.8420669291039152],[100.8117781826171,-0.8210385107006741],[100.8302410708688,-0.8061576725371223],[100.83180206371433,-0.7881026610276793],[100.85064088386973,-0.7840583207581043],[100.88448816229891,-0.8131747910744321],[100.88844758498811,-0.828053085055934],[100.9186080684077,-0.8102169280627819],[100.92850778300783,-0.8700973484410433],[100.91537036784824,-0.9011920700504783],[100.91049516641884,-0.8968835188566265],[100.89663268185285,-0.9015552001044725],[100.83895438543658,-0.8649689365999906]]]}},{"type":"Feature","properties":{"code":"1302062001","desa":"Batu Banyak","kecamatan":"Lembang Jaya","kecCode":"130206"},"geometry":{"type":"Polygon","coordinates":[[[100.74753098256883,-0.9412859755150887],[100.75689697291705,-0.9755859366511411],[100.7288818357282,-0.970581053887579],[100.72967532825385,-0.9757081814967101],[100.71815692300366,-0.9789979141281029],[100.71856900405635,-0.9376266494021622],[100.7231258077099,-0.9420750478719992],[100.73193520944243,-0.9332647774042457],[100.73867538626013,-0.9424027455367731],[100.74753098256883,-0.9412859755150887]]]}},{"type":"Feature","properties":{"code":"1302062002","desa":"Batu Bajanjang","kecamatan":"Lembang Jaya","kecCode":"130206"},"geometry":{"type":"Polygon","coordinates":[[[100.71856900405635,-0.9376266494021622],[100.71455829033289,-0.9477301036019036],[100.71941894702684,-0.9772996100965341],[100.70061050507081,-0.9818352922673931],[100.7039534856649,-0.96060247415105],[100.68579347199118,-0.9594781929916613],[100.68111308440137,-0.9342506439076954],[100.71856900405635,-0.9376266494021622]]]}},{"type":"Feature","properties":{"code":"1302062003","desa":"Koto Laweh","kecamatan":"Lembang Jaya","kecCode":"130206"},"geometry":{"type":"Polygon","coordinates":[[[100.73193520944243,-0.9332647774042457],[100.7231258077099,-0.9420750478719992],[100.69765392808635,-0.9339571177826537],[100.71589642488014,-0.9213279257131856],[100.73193520944243,-0.9332647774042457]]]}},{"type":"Feature","properties":{"code":"1302062004","desa":"Limau Lunggo","kecamatan":"Lembang Jaya","kecCode":"130206"},"geometry":{"type":"Polygon","coordinates":[[[100.69765392808635,-0.9339571177826537],[100.68680763836186,-0.9339209650364468],[100.68763160711302,-0.9193668361827317],[100.69970656230804,-0.9125658067463842],[100.71456124640446,-0.9215793563718833],[100.69765392808635,-0.9339571177826537]]]}},{"type":"Feature","properties":{"code":"1302062005","desa":"Koto Gadang Koto Anau","kecamatan":"Lembang Jaya","kecCode":"130206"},"geometry":{"type":"Polygon","coordinates":[[[100.68680763836186,-0.9339209650364468],[100.67780906693496,-0.9293543066169622],[100.6660942884207,-0.9018328154238602],[100.67153737844733,-0.900744041297428],[100.66363570562338,-0.8889180859071418],[100.67186530004362,-0.8744811108368475],[100.70480481538999,-0.8885376717826868],[100.71508463564747,-0.9214807960717528],[100.69970656230804,-0.9125658067463842],[100.68994965285422,-0.9143972482121817],[100.68680763836186,-0.9339209650364468]]]}},{"type":"Feature","properties":{"code":"1302062006","desa":"Selayo Tanang B. Sileh","kecamatan":"Lembang Jaya","kecCode":"130206"},"geometry":{"type":"Polygon","coordinates":[[[100.75751346987079,-0.9798266744661931],[100.75970458979504,-0.9929199203082206],[100.75970791009205,-1.002251183325168],[100.72930908204853,-0.985107420669782],[100.7288818357282,-0.970581053887579],[100.75751346987079,-0.9798266744661931]]]}},{"type":"Feature","properties":{"code":"1302072001","desa":"Cupak","kecamatan":"Gunung Talang","kecCode":"130207"},"geometry":{"type":"Polygon","coordinates":[[[100.66774935664756,-0.8818674181608616],[100.66364027687735,-0.8889745507410426],[100.67153737844733,-0.900744041297428],[100.64647509504965,-0.891920561587463],[100.6320800778334,-0.8956298819121832],[100.62514513843745,-0.8859563926828661],[100.60552978427216,-0.8815917957391015],[100.61935098276172,-0.869465639455608],[100.66069373542763,-0.8530587246266442],[100.66774935664756,-0.8818674181608616]]]}},{"type":"Feature","properties":{"code":"1302072002","desa":"Talang","kecamatan":"Gunung Talang","kecCode":"130207"},"geometry":{"type":"Polygon","coordinates":[[[100.66628213341379,-0.8994358307934143],[100.67319079461952,-0.913999464581802],[100.6579779186461,-0.9151166518889179],[100.66073971956246,-0.9341107093975133],[100.64381307661226,-0.9325635598178914],[100.6320800778334,-0.8956298819121832],[100.64466303666983,-0.8916934746772097],[100.66628213341379,-0.8994358307934143]]]}},{"type":"Feature","properties":{"code":"1302072003","desa":"Koto Gadang Guguak","kecamatan":"Gunung Talang","kecCode":"130207"},"geometry":{"type":"Polygon","coordinates":[[[100.63671874857147,-0.9096069328967263],[100.64215411162303,-0.9313606122612206],[100.66073971956246,-0.9341107093975133],[100.67219179531514,-0.9640577198102791],[100.66634118739591,-0.9679307788004503],[100.66106931299844,-0.9693264025079364],[100.65827687307927,-0.9601141278914194],[100.63348142033134,-0.958022151929804],[100.62539330995332,-0.951744480259601],[100.62347412073414,-0.913574216555474],[100.63671874857147,-0.9096069328967263]]]}},{"type":"Feature","properties":{"code":"1302072004","desa":"Jawi Jawi","kecamatan":"Gunung Talang","kecCode":"130207"},"geometry":{"type":"Polygon","coordinates":[[[100.6055596822336,-0.8816067451695003],[100.62514513843745,-0.8859563926828661],[100.63671874857147,-0.9096069328967263],[100.62670898393252,-0.9094238264317428],[100.62231445304961,-0.918273923376296],[100.59051513686414,-0.9191894521039027],[100.56323217372591,-0.9079931417549314],[100.59088134799588,-0.8999023424130866],[100.6055596822336,-0.8816067451695003]]]}},{"type":"Feature","properties":{"code":"1302072005","desa":"Sungai Janiah","kecamatan":"Gunung Talang","kecCode":"130207"},"geometry":{"type":"Polygon","coordinates":[[[100.67319079461952,-0.913999464581802],[100.68650803821542,-0.9570028387401918],[100.68007719760465,-0.9792464507684479],[100.66249803355747,-0.9475893875808199],[100.6579779186461,-0.9151166518889179],[100.67319079461952,-0.913999464581802]]]}},{"type":"Feature","properties":{"code":"1302072006","desa":"Batang Barus","kecamatan":"Gunung Talang","kecCode":"130207"},"geometry":{"type":"Polygon","coordinates":[[[100.58263412866215,-1.07106599500272],[100.55322200079473,-1.0323060026660837],[100.55252301622426,-0.9877350157542635],[100.53852097306452,-0.9605809857501144],[100.54373297060016,-0.9385390260060159],[100.55550127136667,-0.9234063857637801],[100.63348142033134,-0.958022151929804],[100.65827687307927,-0.9601141278914194],[100.661061989819,-0.9693172555033762],[100.65056713536507,-0.9987570977454616],[100.6366758194336,-1.0043213633176602],[100.62468545357085,-1.0267705648621288],[100.61780658420656,-1.0615592032083223],[100.59446797561662,-1.074632010158179],[100.59446277123992,-1.0684341398296435],[100.58263412866215,-1.07106599500272]]]}},{"type":"Feature","properties":{"code":"1302072007","desa":"Aie Batumbuak","kecamatan":"Gunung Talang","kecCode":"130207"},"geometry":{"type":"Polygon","coordinates":[[[100.68579347199118,-0.9594781929916613],[100.7039534856649,-0.96060247415105],[100.70061050507081,-0.9818352922673931],[100.68589443707867,-0.9932176903339549],[100.68530273263508,-1.0062255833193452],[100.67980922481591,-1.0074157596036004],[100.6879177093349,-1.0309181194234518],[100.68575859088632,-1.0481147757049596],[100.67852614586502,-1.0520074893783704],[100.65431046355711,-1.0445529316050925],[100.62940059636047,-1.045828840259926],[100.61669921839426,-1.0516967754104591],[100.62725649659012,-1.021549447307372],[100.6366758194336,-1.0043213633176602],[100.65056713536507,-0.9987570977454616],[100.661061989819,-0.9693172555033762],[100.67219179531514,-0.9640577198102791],[100.68007719760465,-0.9792464507684479],[100.68579347199118,-0.9594781929916613]]]}},{"type":"Feature","properties":{"code":"1302072008","desa":"Koto Gaek Guguk","kecamatan":"Gunung Talang","kecCode":"130207"},"geometry":{"type":"Polygon","coordinates":[[[100.62227062099242,-0.9182758946902067],[100.62539330995332,-0.951744480259601],[100.59027099521033,-0.9423828120636492],[100.55550127136667,-0.9234063857637801],[100.56323217372591,-0.9079931417549314],[100.59051513686414,-0.9191894521039027],[100.62227062099242,-0.9182758946902067]]]}},{"type":"Feature","properties":{"code":"1302082001","desa":"Muaro Paneh","kecamatan":"Bukit Sundi","kecCode":"130208"},"geometry":{"type":"Polygon","coordinates":[[[100.68396561432172,-0.8761790848173276],[100.67186530004362,-0.8744811108368475],[100.66733158108764,-0.8815607016794239],[100.66122254038801,-0.8567278569471353],[100.67717726441929,-0.8519145549602473],[100.67669534561378,-0.8413282583517172],[100.68006862706555,-0.8372309336245681],[100.69505468142847,-0.848061920473017],[100.68396561432172,-0.8761790848173276]]]}},{"type":"Feature","properties":{"code":"1302082002","desa":"Kinari","kecamatan":"Bukit Sundi","kecCode":"130208"},"geometry":{"type":"Polygon","coordinates":[[[100.70456470090026,-0.8567341261211149],[100.75057591884365,-0.8642203166480011],[100.7518436085957,-0.8713348209709745],[100.74550472276478,-0.8693382837627739],[100.7370414494034,-0.8923668006895834],[100.72469588820474,-0.8904168357728394],[100.7157417927496,-0.8746893524537237],[100.70515433330588,-0.8788575095838392],[100.71130638498175,-0.8850299884536812],[100.70651852570944,-0.8935136890066018],[100.68396561432172,-0.8761790848173276],[100.69975678494772,-0.8440221847323076],[100.70456470090026,-0.8567341261211149]]]}},{"type":"Feature","properties":{"code":"1302082003","desa":"Bukit Tandang","kecamatan":"Bukit Sundi","kecCode":"130208"},"geometry":{"type":"Polygon","coordinates":[[[100.73962887896964,-0.8518953769176391],[100.73173466422344,-0.860595638715561],[100.71744434068381,-0.8601140364719232],[100.71516521670145,-0.8552339319441499],[100.70414864394485,-0.8565309306003019],[100.69975678494772,-0.8440221847323076],[100.70219677426178,-0.8384753687057527],[100.73885699625345,-0.8359808166266556],[100.73962887896964,-0.8518953769176391]]]}},{"type":"Feature","properties":{"code":"1302082004","desa":"Parambahan","kecamatan":"Bukit Sundi","kecCode":"130208"},"geometry":{"type":"Polygon","coordinates":[[[100.72529198673583,-0.9051859538567147],[100.72496231595818,-0.9164917440741398],[100.7220360227443,-0.9116542062574133],[100.72529198673583,-0.9051859538567147]]]}},{"type":"Feature","properties":{"code":"1302082004","desa":"Parambahan","kecamatan":"Bukit Sundi","kecCode":"130208"},"geometry":{"type":"Polygon","coordinates":[[[100.7059761167045,-0.8826615258218943],[100.7157417927496,-0.8746893524537237],[100.72469588820474,-0.8904168357728394],[100.7059761167045,-0.8826615258218943]]]}},{"type":"Feature","properties":{"code":"1302082005","desa":"Dilam","kecamatan":"Bukit Sundi","kecCode":"130208"},"geometry":{"type":"Polygon","coordinates":[[[100.7370414494034,-0.8923668006895834],[100.73614439364889,-0.9100151000994096],[100.74669110121339,-0.924357187700673],[100.7459631566744,-0.9424134303819892],[100.73867538626013,-0.9424027455367731],[100.73834417944038,-0.9359570904010369],[100.71508463564747,-0.9214807960717528],[100.707839986826,-0.9065656532687395],[100.71130638498175,-0.8850299884536812],[100.7370414494034,-0.8923668006895834]],[[100.72668083225464,-0.9154819088395313],[100.7266140773778,-0.9086677304155599],[100.72529198673583,-0.9051859538567147],[100.7220360227443,-0.9116542062574133],[100.72668083225464,-0.9154819088395313]]]}},{"type":"Feature","properties":{"code":"1302092001","desa":"Taruang-Taruang","kecamatan":"Ix Koto Sungai Lasi","kecCode":"130209"},"geometry":{"type":"Polygon","coordinates":[[[100.74907256444736,-0.7660605501975789],[100.80457994241051,-0.7675688139911696],[100.75096320558752,-0.8135790804005374],[100.73296433243803,-0.8067903051263458],[100.73865770828665,-0.8025085096626561],[100.73151001357631,-0.7784047048428175],[100.74907256444736,-0.7660605501975789]]]}},{"type":"Feature","properties":{"code":"1302092002","desa":"Siaro-Aro","kecamatan":"Ix Koto Sungai Lasi","kecCode":"130209"},"geometry":{"type":"Polygon","coordinates":[[[100.83180206371433,-0.7881026610276793],[100.8302410708688,-0.8061576725371223],[100.81176214140974,-0.8210684797084954],[100.76819854892399,-0.8011243936799762],[100.80457994241051,-0.7675688139911696],[100.82181473266381,-0.7799403251137401],[100.81080426000862,-0.7951338314720052],[100.83180206371433,-0.7881026610276793]]]}},{"type":"Feature","properties":{"code":"1302092003","desa":"Pianggu","kecamatan":"Ix Koto Sungai Lasi","kecCode":"130209"},"geometry":{"type":"Polygon","coordinates":[[[100.7787875812819,-0.7640049967788003],[100.74907256444736,-0.7660605501975789],[100.73151001357631,-0.7784047048428175],[100.72564991601085,-0.7715450072335177],[100.71417536260299,-0.7713845429996518],[100.72695993595231,-0.7594346727226676],[100.73520953399286,-0.7237792704874768],[100.74618996929172,-0.7387220341684418],[100.76457899532441,-0.7429589930322361],[100.7787875812819,-0.7640049967788003]]]}},{"type":"Feature","properties":{"code":"1302092004","desa":"Sungai Durian","kecamatan":"Ix Koto Sungai Lasi","kecCode":"130209"},"geometry":{"type":"Polygon","coordinates":[[[100.8117781826171,-0.8210385107006741],[100.80952386103739,-0.8432422386955082],[100.76582684243488,-0.8480924668455634],[100.78516194806554,-0.8242322694820118],[100.78548730929197,-0.8090814026799221],[100.8117781826171,-0.8210385107006741]]]}},{"type":"Feature","properties":{"code":"1302092005","desa":"Bukik Bais","kecamatan":"Ix Koto Sungai Lasi","kecCode":"130209"},"geometry":{"type":"Polygon","coordinates":[[[100.76582684243488,-0.8480924668455634],[100.74433504472658,-0.8561472456415996],[100.73699114132818,-0.8445162911496047],[100.75000572168676,-0.8245563500735555],[100.7467833293872,-0.8146082456631674],[100.76354789741758,-0.800893783225912],[100.78548730929197,-0.8090814026799221],[100.78516194806554,-0.8242322694820118],[100.76582684243488,-0.8480924668455634]]]}},{"type":"Feature","properties":{"code":"1302092006","desa":"Sungai Jambur","kecamatan":"Ix Koto Sungai Lasi","kecCode":"130209"},"geometry":{"type":"Polygon","coordinates":[[[100.73151001357631,-0.7784047048428175],[100.73810013940995,-0.8048655185288344],[100.70859178588226,-0.8015836441734951],[100.70290692121749,-0.7839533240100547],[100.70718109673025,-0.7644411958496578],[100.73151001357631,-0.7784047048428175]]]}},{"type":"Feature","properties":{"code":"1302092007","desa":"Guguak Sarai","kecamatan":"Ix Koto Sungai Lasi","kecCode":"130209"},"geometry":{"type":"Polygon","coordinates":[[[100.70718109673025,-0.7644411958496578],[100.70290692121749,-0.7839533240100547],[100.68542046198478,-0.7643769725644307],[100.68336802021803,-0.7427953640840719],[100.69922987665757,-0.7382269348995829],[100.69964759376147,-0.7575529420674529],[100.70718109673025,-0.7644411958496578]]]}},{"type":"Feature","properties":{"code":"1302092008","desa":"Koto Laweh","kecamatan":"Ix Koto Sungai Lasi","kecCode":"130209"},"geometry":{"type":"Polygon","coordinates":[[[100.71128576892316,-0.7517647498026717],[100.71417536260299,-0.7713845429996518],[100.69964759376147,-0.7575529420674529],[100.69975776880601,-0.7253266242131338],[100.70897200485422,-0.7343300025063535],[100.71772418362423,-0.7330772504948876],[100.71128576892316,-0.7517647498026717]]]}},{"type":"Feature","properties":{"code":"1302092009","desa":"Indudur","kecamatan":"Ix Koto Sungai Lasi","kecCode":"130209"},"geometry":{"type":"Polygon","coordinates":[[[100.73520953399286,-0.7237792704874768],[100.72695993595231,-0.7594346727226676],[100.72299289420675,-0.7670206025610268],[100.71384134270384,-0.7669027347158034],[100.71128576892316,-0.7517647498026717],[100.71772418362423,-0.7330772504948876],[100.73520953399286,-0.7237792704874768]]]}},{"type":"Feature","properties":{"code":"1302102001","desa":"Koto Baru","kecamatan":"Kubung","kecCode":"130210"},"geometry":{"type":"Polygon","coordinates":[[[100.67717726441929,-0.8519145549602473],[100.62288854157298,-0.8691297534636269],[100.63920984365943,-0.8305533820043354],[100.63264853300346,-0.8240353080616297],[100.65467809561765,-0.8168221777879032],[100.65017523240112,-0.8058106781192702],[100.66625199982995,-0.8109139988752229],[100.67814075758997,-0.8066965157295731],[100.68463926499015,-0.8299909091250898],[100.67717726441929,-0.8519145549602473]]]}},{"type":"Feature","properties":{"code":"1302102002","desa":"Selayo","kecamatan":"Kubung","kecCode":"130210"},"geometry":{"type":"Polygon","coordinates":[[[100.65017523240112,-0.8058106781192702],[100.65467809561765,-0.8168221777879032],[100.63264853300346,-0.8240353080616297],[100.63920984365943,-0.8305533820043354],[100.62813218355348,-0.8489885909015121],[100.61525340442113,-0.8572540484770927],[100.6099243160544,-0.848876950861435],[100.61680223933195,-0.8352101839689288],[100.61106726444272,-0.8196353227953842],[100.56753389727157,-0.8163697594439886],[100.59267919618799,-0.8065568851901888],[100.59767300020883,-0.7971929992660401],[100.60681675189163,-0.8066091987536108],[100.63614700008407,-0.7952009991375838],[100.64269299978218,-0.7976489987104166],[100.64163999978621,-0.8050159984893114],[100.65017523240112,-0.8058106781192702]]]}},{"type":"Feature","properties":{"code":"1302102003","desa":"Panyakalan","kecamatan":"Kubung","kecCode":"130210"},"geometry":{"type":"Polygon","coordinates":[[[100.69505468142847,-0.848061920473017],[100.67998384078167,-0.8380707682143197],[100.68372008591331,-0.8146586985291703],[100.7179659079004,-0.8053311757925921],[100.74607485157321,-0.8134631721780319],[100.75000572168676,-0.8245563500735555],[100.73987770069539,-0.8354167933162396],[100.70219677426178,-0.8384753687057527],[100.69505468142847,-0.848061920473017]]]}},{"type":"Feature","properties":{"code":"1302102004","desa":"Gaung","kecamatan":"Kubung","kecCode":"130210"},"geometry":{"type":"Polygon","coordinates":[[[100.70290692121749,-0.7839533240100547],[100.70859178588226,-0.8015836441734951],[100.7179659079004,-0.8053311757925921],[100.68167678755378,-0.8128434034913418],[100.67930564224167,-0.7996657967449103],[100.70290692121749,-0.7839533240100547]]]}},{"type":"Feature","properties":{"code":"1302102005","desa":"Gantuang Ciri","kecamatan":"Kubung","kecCode":"130210"},"geometry":{"type":"Polygon","coordinates":[[[100.63235053544888,-0.8555869347326398],[100.59088134799588,-0.8999023424130866],[100.56519886333693,-0.903396555696483],[100.55871695202575,-0.8829748424278024],[100.5919189444038,-0.8552246077732536],[100.6099243160544,-0.848876950861435],[100.61525340442113,-0.8572540484770927],[100.62997691340387,-0.8449149066529118],[100.63235053544888,-0.8555869347326398]]]}},{"type":"Feature","properties":{"code":"1302102006","desa":"Saok Laweh","kecamatan":"Kubung","kecCode":"130210"},"geometry":{"type":"Polygon","coordinates":[[[100.68480528343711,-0.7624653727261491],[100.70290692121749,-0.7839533240100547],[100.67861881290791,-0.8007286434167973],[100.67028799979141,-0.7880059991963222],[100.67070500013567,-0.7718359990689342],[100.68480528343711,-0.7624653727261491]]]}},{"type":"Feature","properties":{"code":"1302102007","desa":"Koto Hilalang","kecamatan":"Kubung","kecCode":"130210"},"geometry":{"type":"Polygon","coordinates":[[[100.5444119974158,-0.8147680390027541],[100.59168334900737,-0.8220898037821794],[100.60997359440593,-0.8190614896801692],[100.61651788359352,-0.8373877592013886],[100.60748290940882,-0.8521118149554927],[100.5919189444038,-0.8552246077732536],[100.55871695202575,-0.8829748424278024],[100.55563598261455,-0.8599710181864259],[100.54215997720127,-0.8594529826081381],[100.53537802687451,-0.8452039847310785],[100.54937098328428,-0.8285550029845564],[100.5444119974158,-0.8147680390027541]]]}},{"type":"Feature","properties":{"code":"1302102008","desa":"Tanjung Bingkung","kecamatan":"Kubung","kecCode":"130210"},"geometry":{"type":"Polygon","coordinates":[[[100.63214303127592,-0.7533360902459194],[100.62605100035347,-0.7649979994026418],[100.6301610001301,-0.7707189988208677],[100.62159857291584,-0.7709811035329656],[100.61676500020468,-0.7795719987769618],[100.58659843556939,-0.7808261177579923],[100.6020551087563,-0.7609398671302392],[100.61019550481876,-0.7607357785826165],[100.61307159158076,-0.748306467132924],[100.62038918890998,-0.7446296312197643],[100.62502091238524,-0.7533519425955731],[100.63214303127592,-0.7533360902459194]]]}},{"type":"Feature","properties":{"code":"1302112001","desa":"Sumani","kecamatan":"X Koto Singkarak","kecCode":"130211"},"geometry":{"type":"Polygon","coordinates":[[[100.62038918890998,-0.7446296312197643],[100.61307159158076,-0.748306467132924],[100.58887996074168,-0.718476555644988],[100.5834691275982,-0.7000952620037396],[100.58376502973236,-0.6901226034035702],[100.59168427980573,-0.712005018920166],[100.60668945285602,-0.7105102530510882],[100.61212158194553,-0.717895507268955],[100.62038918890998,-0.7446296312197643]]]}},{"type":"Feature","properties":{"code":"1302112002","desa":"Tikalak","kecamatan":"X Koto Singkarak","kecCode":"130211"},"geometry":{"type":"Polygon","coordinates":[[[100.61058394179553,-0.6664312645458264],[100.61609758723391,-0.6843927816361075],[100.59751795259147,-0.6802694368242432],[100.58896827686452,-0.6859703049184103],[100.57867622402858,-0.681289671818921],[100.57497215304248,-0.66502571052428],[100.59799492422644,-0.657227382402714],[100.61058394179553,-0.6664312645458264]]]}},{"type":"Feature","properties":{"code":"1302112003","desa":"Koto Sani","kecamatan":"X Koto Singkarak","kecCode":"130211"},"geometry":{"type":"Polygon","coordinates":[[[100.61307159158076,-0.748306467132924],[100.61019550481876,-0.7607357785826165],[100.6020551087563,-0.7609398671302392],[100.58659843556939,-0.7808261177579923],[100.60756972186522,-0.7827492154286223],[100.5707859995743,-0.7867419984647105],[100.5643702001247,-0.7998464993220877],[100.56492180020096,-0.7912456935491277],[100.54146600005588,-0.8089919992767578],[100.5298323826584,-0.7946002322263938],[100.5458533804292,-0.7787971869697391],[100.57074833956425,-0.7145814003121785],[100.58639715920157,-0.712800278612769],[100.61307159158076,-0.748306467132924]]]}},{"type":"Feature","properties":{"code":"1302112004","desa":"Singkarak","kecamatan":"X Koto Singkarak","kecCode":"130211"},"geometry":{"type":"Polygon","coordinates":[[[100.60668945285602,-0.7105102530510882],[100.59168427980573,-0.712005018920166],[100.58327293419859,-0.6844463344652578],[100.59751795259147,-0.6802694368242432],[100.61609758723391,-0.6843927816361075],[100.62231445304961,-0.6984252920124912],[100.60668945285602,-0.7105102530510882]]]}},{"type":"Feature","properties":{"code":"1302112005","desa":"Aripan","kecamatan":"X Koto Singkarak","kecCode":"130211"},"geometry":{"type":"Polygon","coordinates":[[[100.63214303127592,-0.7533360902459194],[100.62354641003883,-0.7512707602971765],[100.60668945285602,-0.7105102530510882],[100.62231445304961,-0.6984252920124912],[100.61058394179553,-0.6664312645458264],[100.63890665521802,-0.6666724033630336],[100.63935893776481,-0.7173433433183551],[100.62990855593516,-0.7275321899449567],[100.64142777776976,-0.7430972107366717],[100.64912679736386,-0.7439740964953269],[100.63214303127592,-0.7533360902459194]]]}},{"type":"Feature","properties":{"code":"1302112006","desa":"Kacang","kecamatan":"X Koto Singkarak","kecCode":"130211"},"geometry":{"type":"Polygon","coordinates":[[[100.59799492422644,-0.657227382402714],[100.57497215304248,-0.66502571052428],[100.54763359471467,-0.6270215839775671],[100.58032999903031,-0.6065900006495],[100.59903015991402,-0.6113209301329958],[100.60477403179617,-0.6386560377316551],[100.59799492422644,-0.657227382402714]]]}},{"type":"Feature","properties":{"code":"1302112007","desa":"Tanjung Alai","kecamatan":"X Koto Singkarak","kecCode":"130211"},"geometry":{"type":"Polygon","coordinates":[[[100.62265430505221,-0.6681728628400155],[100.59799492422644,-0.657227382402714],[100.60449218696495,-0.6395874017218182],[100.623228648983,-0.6386924755629072],[100.63009503575734,-0.6444138535956668],[100.62871744525397,-0.6614559254108054],[100.62265430505221,-0.6681728628400155]]]}},{"type":"Feature","properties":{"code":"1302112008","desa":"Saniangbaka","kecamatan":"X Koto Singkarak","kecCode":"130211"},"geometry":{"type":"Polygon","coordinates":[[[100.57867622402858,-0.681289671818921],[100.58639715920157,-0.712800278612769],[100.57074833956425,-0.7145814003121785],[100.5458533804292,-0.7787971869697391],[100.5298323826584,-0.7946002322263938],[100.52339197416033,-0.7894999691653923],[100.51038402630184,-0.7949500154419045],[100.50944400723523,-0.7546670185241153],[100.4792740341694,-0.7517689577305013],[100.47829981838197,-0.7402471377673147],[100.49378121842852,-0.7467745115993204],[100.49710160265685,-0.7387550581732438],[100.5624971470258,-0.7080591670050473],[100.57867622402858,-0.681289671818921]]]}},{"type":"Feature","properties":{"code":"1302122001","desa":"Sulit Air","kecamatan":"X Koto Diatas","kecCode":"130212"},"geometry":{"type":"Polygon","coordinates":[[[100.63466084342325,-0.6496546519139954],[100.60797691330396,-0.6353816978963707],[100.61044120769566,-0.6137447352448079],[100.62724876421913,-0.5929508204607293],[100.62913322431892,-0.5772781364310664],[100.66614723240887,-0.5819683059415973],[100.70499999975027,-0.5711111101507781],[100.69996161543627,-0.6154466860273407],[100.67336728836973,-0.6101984071481674],[100.65169580701593,-0.6364156664379937],[100.63865440257865,-0.6394564118687014],[100.63466084342325,-0.6496546519139954]]]}},{"type":"Feature","properties":{"code":"1302122002","desa":"Tanjung Balik","kecamatan":"X Koto Diatas","kecCode":"130212"},"geometry":{"type":"Polygon","coordinates":[[[100.66060200098161,-0.6576288262737238],[100.62265430505221,-0.6681728628400155],[100.63021317699656,-0.6458207521036889],[100.63466084342325,-0.6496546519139954],[100.63865440257865,-0.6394564118687014],[100.65169580701593,-0.6364156664379937],[100.67336728836973,-0.6101984071481674],[100.69996161543627,-0.6154466860273407],[100.68753397401376,-0.6318880251054931],[100.6954956046385,-0.6538085925612229],[100.68453146865242,-0.6614897138393943],[100.68019934442424,-0.6519874105613346],[100.6716013948885,-0.6567997089048052],[100.67183425544658,-0.6653467262262412],[100.66060200098161,-0.6576288262737238]]]}},{"type":"Feature","properties":{"code":"1302122003","desa":"Paninjauan","kecamatan":"X Koto Diatas","kecCode":"130212"},"geometry":{"type":"Polygon","coordinates":[[[100.63935893776481,-0.7173433433183551],[100.63890665521802,-0.6666724033630336],[100.66177861279283,-0.657771996544677],[100.67183425544658,-0.6653467262262412],[100.66758939603386,-0.7093446237620635],[100.66386023666062,-0.716341263837133],[100.63935893776481,-0.7173433433183551]]]}},{"type":"Feature","properties":{"code":"1302122004","desa":"Kuncir","kecamatan":"X Koto Diatas","kecCode":"130212"},"geometry":{"type":"Polygon","coordinates":[[[100.69922987665757,-0.7382269348995829],[100.6825887432759,-0.7438639583231491],[100.64202208035476,-0.7432644828384252],[100.62990855593516,-0.7275321899449567],[100.63999748159858,-0.7164974203183597],[100.66386023666062,-0.716341263837133],[100.67484236628222,-0.7066126110928537],[100.69612216680463,-0.7139754488094445],[100.69922987665757,-0.7382269348995829]]]}},{"type":"Feature","properties":{"code":"1302122005","desa":"Katialo","kecamatan":"X Koto Diatas","kecCode":"130212"},"geometry":{"type":"Polygon","coordinates":[[[100.66758939603386,-0.7093446237620635],[100.67107679156072,-0.6754125419997887],[100.67805663500575,-0.6836440366782944],[100.68370251675782,-0.6790336478251211],[100.68818761386734,-0.6878658752405974],[100.68341064178776,-0.7094763168850202],[100.66758939603386,-0.7093446237620635]]]}},{"type":"Feature","properties":{"code":"1302122006","desa":"Pasilihan","kecamatan":"X Koto Diatas","kecCode":"130212"},"geometry":{"type":"Polygon","coordinates":[[[100.70159325272647,-0.5684633369775236],[100.66614723240887,-0.5819683059415973],[100.63764184059853,-0.5782249112038945],[100.6372537858336,-0.5410458955463731],[100.65009911018585,-0.5432039599871002],[100.64911967383392,-0.538310771222907],[100.66461111211323,-0.5319722190475394],[100.67811111233799,-0.5375277764843527],[100.69913126509584,-0.5504841410144965],[100.70159325272647,-0.5684633369775236]]]}},{"type":"Feature","properties":{"code":"1302122007","desa":"Bukit Kanduang","kecamatan":"X Koto Diatas","kecCode":"130212"},"geometry":{"type":"Polygon","coordinates":[[[100.60449218696495,-0.6395874017218182],[100.60024276529145,-0.6125409099498752],[100.58342940364412,-0.6063325769086444],[100.59336472240408,-0.596358888584742],[100.5830671171538,-0.5847393626773788],[100.58424999993757,-0.5725555553541477],[100.59696111126634,-0.5575611103332202],[100.58931957274012,-0.5548588337474648],[100.6066517011152,-0.5523784091183267],[100.61319425191324,-0.5614187990103804],[100.63349865673767,-0.5508814641919915],[100.63764555120126,-0.5781902540302442],[100.62913322431892,-0.5772781364310664],[100.62724876421913,-0.5929508204607293],[100.61044120769566,-0.6137447352448079],[100.61066897899023,-0.637523219308015],[100.60449218696495,-0.6395874017218182]]]}},{"type":"Feature","properties":{"code":"1302122008","desa":"Sibarambang","kecamatan":"X Koto Diatas","kecCode":"130212"},"geometry":{"type":"Polygon","coordinates":[[[100.68453146865242,-0.6614897138393943],[100.69696460942924,-0.652428620654557],[100.72452799826857,-0.6619169916355366],[100.7066499949014,-0.6712349806590673],[100.69612216680463,-0.7139754488094445],[100.68285039293134,-0.7099713370135826],[100.6881313297971,-0.6900289183281654],[100.68453146865242,-0.6614897138393943]]]}},{"type":"Feature","properties":{"code":"1302122009","desa":"Labuh Panjang","kecamatan":"X Koto Diatas","kecCode":"130212"},"geometry":{"type":"Polygon","coordinates":[[[100.66919668058237,-0.6730233472968637],[100.6716013948885,-0.6567997089048052],[100.68019934442424,-0.6519874105613346],[100.68657929779641,-0.6674039910548436],[100.67999610033978,-0.6834280078319371],[100.66919668058237,-0.6730233472968637]]]}},{"type":"Feature","properties":{"code":"1302132001","desa":"Paninggahan","kecamatan":"Junjung Sirih","kecCode":"130213"},"geometry":{"type":"Polygon","coordinates":[[[100.54763359471467,-0.6270215839775671],[100.56587028458601,-0.6496238699190828],[100.54906139706587,-0.6935985388657148],[100.52227630041102,-0.698667089133454],[100.52084862396487,-0.7079112950784784],[100.50540592174593,-0.7097157191114307],[100.50085589628263,-0.7196250843253444],[100.47743678937638,-0.7345533077674454],[100.46058042844408,-0.7296951206172834],[100.44221602764758,-0.7124779831755503],[100.4410640095964,-0.6867749940026551],[100.42968902103154,-0.6774190445955774],[100.42657002108966,-0.6583929505378143],[100.46345397102402,-0.6540178135397768],[100.48685731371408,-0.6586160192772238],[100.54763359471467,-0.6270215839775671]]]}},{"type":"Feature","properties":{"code":"1302132002","desa":"Muaro Pingai","kecamatan":"Junjung Sirih","kecCode":"130213"},"geometry":{"type":"Polygon","coordinates":[[[100.56587028458601,-0.6496238699190828],[100.57867622402858,-0.681289671818921],[100.5624971470258,-0.7080591670050473],[100.49710160265685,-0.7387550581732438],[100.49378121842852,-0.7467745115993204],[100.47829981838197,-0.7402471377673147],[100.47743678937638,-0.7345533077674454],[100.50085589628263,-0.7196250843253444],[100.50540592174593,-0.7097157191114307],[100.51925061322527,-0.7091897029492905],[100.52259437443087,-0.6985168870634457],[100.54906139706587,-0.6935985388657148],[100.56587028458601,-0.6496238699190828]]]}},{"type":"Feature","properties":{"code":"1302172001","desa":"Talang Babungo","kecamatan":"Hiliran Gumanti","kecCode":"130217"},"geometry":{"type":"Polygon","coordinates":[[[100.83860718597292,-1.1243056433343972],[100.83481252807574,-1.0760258828856495],[100.86026541671566,-1.0455634629149109],[100.9052938564264,-1.0709903395356586],[100.90062496756825,-1.0956262093576679],[100.90852153763895,-1.1115785690535882],[100.88268025159236,-1.1432209553054598],[100.83860718597292,-1.1243056433343972]]]}},{"type":"Feature","properties":{"code":"1302172002","desa":"Sariak Alahan Tigo","kecamatan":"Hiliran Gumanti","kecCode":"130217"},"geometry":{"type":"Polygon","coordinates":[[[100.90634016906358,-1.1653892041463614],[100.90350341774858,-1.156005857792515],[100.88268025159236,-1.1432209553054598],[100.90852153763895,-1.1115785690535882],[100.90062496756825,-1.0956262093576679],[100.9052938564264,-1.0709903395356586],[100.93652097266482,-1.0848500838519792],[100.98705828870914,-1.1240534950167822],[100.96507553490807,-1.1500489859868983],[100.90634016906358,-1.1653892041463614]]]}},{"type":"Feature","properties":{"code":"1302172003","desa":"Sungai Abu","kecamatan":"Hiliran Gumanti","kecCode":"130217"},"geometry":{"type":"Polygon","coordinates":[[[100.93899270085251,-1.1990831562230826],[100.90130486043101,-1.171211154262846],[100.90634016906358,-1.1653892041463614],[100.96507553490807,-1.1500489859868983],[100.98705828870914,-1.1240534950167822],[100.99664542144909,-1.1357570382876394],[101.0041650038119,-1.1338445490197755],[101.02187221872799,-1.1732511925776266],[101.02427757964664,-1.2202205490759124],[101.00147200462936,-1.262428023224593],[101.00504601386251,-1.2877042193360329],[100.98516012743801,-1.251639809031852],[100.93899270085251,-1.1990831562230826]]]}},{"type":"Feature","properties":{"code":"1302182001","desa":"Rangkiang Luluih","kecamatan":"Tigo Lurah","kecCode":"130218"},"geometry":{"type":"Polygon","coordinates":[[[100.8422441684337,-1.0102497832717159],[100.82732090203808,-0.9878759188343703],[100.83952794605788,-0.9452934948421651],[100.85976041321254,-0.9396873415470933],[100.88850031943421,-0.9512684142425331],[100.89199406597344,-0.9046686125550011],[100.91049516641884,-0.8968835188566265],[100.91852894965137,-0.9039858598489071],[100.93129327926145,-0.9432424883956742],[100.88599199603385,-0.9707763227839318],[100.8422441684337,-1.0102497832717159]]]}},{"type":"Feature","properties":{"code":"1302182002","desa":"Batu Bajanjang","kecamatan":"Tigo Lurah","kecCode":"130218"},"geometry":{"type":"Polygon","coordinates":[[[100.8502857317012,-1.0304620534292812],[100.8422441684337,-1.0102497832717159],[100.88599199603385,-0.9707763227839318],[100.93129327926145,-0.9432424883956742],[100.94572831630882,-0.9706847223370015],[100.98173726636178,-1.0098769962975709],[100.98220554694846,-1.022280953160886],[100.97262057258142,-1.0304555351431504],[100.98029245333413,-1.0417245844577192],[100.97626305799376,-1.059250966375214],[100.9659399128967,-1.0756847214706153],[100.9430559205943,-1.0869591253486945],[100.87453209707866,-1.0542792425147767],[100.8502857317012,-1.0304620534292812]]]}},{"type":"Feature","properties":{"code":"1302182003","desa":"Garabak Data","kecamatan":"Tigo Lurah","kecCode":"130218"},"geometry":{"type":"Polygon","coordinates":[[[100.99664542144909,-1.1357570382876394],[100.9398285289635,-1.087314641742247],[100.9659399128967,-1.0756847214706153],[100.97626305799376,-1.059250966375214],[100.98062089743655,-1.0443559351110807],[100.97301166075958,-1.0287148667479067],[100.98220554694846,-1.022280953160886],[100.98051094632318,-1.0071840996407273],[100.99875227399832,-0.966778564698308],[101.01736018332588,-0.9599064762298445],[101.05238063006209,-0.9729933917439755],[101.06629202066028,-0.9895406268923312],[101.08619383317891,-0.9895120743167145],[101.10161274113517,-0.9792899087076193],[101.12659708119043,-0.978090660961909],[101.14972544177579,-0.958531491963307],[101.19322298625188,-0.952057691644842],[101.20454588158724,-0.9676841595146329],[101.1825043337081,-1.0061286885635277],[101.18394613040965,-1.0298565192119902],[101.14233864791032,-1.0372815810208285],[101.16559277688519,-1.0554978121946443],[101.1581680559111,-1.0707022210341288],[101.17166534827724,-1.0869679458992536],[101.1743330351415,-1.0974965114283897],[101.16727042978658,-1.0999468366480536],[101.16710702117217,-1.1094709736667618],[101.17689503188029,-1.1351939700572327],[101.19769302871038,-1.1619649868963402],[101.21165499358312,-1.1645340100354005],[101.24507097424612,-1.213411026442166],[101.23140996389878,-1.2489959883789403],[101.26257202497901,-1.2631060257116284],[101.25799800200627,-1.285770022232629],[101.24085497137985,-1.295066022832252],[101.23540700432983,-1.2869030412050089],[101.21539199774257,-1.2817239543654149],[101.2091319950456,-1.2933299832476435],[101.19199799810917,-1.2806940075919258],[101.18709100384682,-1.2953269827073335],[101.17150500725033,-1.3037709629035124],[101.15149203223156,-1.2954220212624392],[101.13296500613016,-1.298562977249231],[101.12181299817138,-1.2933449731474689],[101.11891699502335,-1.2992549812812637],[101.10645999703132,-1.2935980225859107],[101.09461700307229,-1.3016170254516457],[101.06275902231106,-1.278870984679768],[101.05615997160542,-1.2816719825443925],[101.01849298286493,-1.2701180289052247],[101.01303703163374,-1.2612689904627223],[101.00342601110157,-1.2593789887425764],[101.02401235968271,-1.2214323252770822],[101.02364099003971,-1.1814235343486865],[101.00668672081558,-1.1369507722898866],[100.99664542144909,-1.1357570382876394]]]}},{"type":"Feature","properties":{"code":"1302182004","desa":"Tanjung Balik Sumiso","kecamatan":"Tigo Lurah","kecCode":"130218"},"geometry":{"type":"Polygon","coordinates":[[[100.91537036784824,-0.9011920700504783],[100.92850778300783,-0.8700973484410433],[100.9186080684077,-0.8102169280627819],[100.93210427259417,-0.8143279548606877],[100.96209998402706,-0.8043337664907034],[100.96681145578411,-0.8106843390045468],[100.95573981124335,-0.8173883621691813],[100.9537430456051,-0.8315050994510068],[100.99481818521114,-0.8543998170426033],[100.99333340091579,-0.8706296454683593],[101.00052530539857,-0.8780631968773197],[101.02362828621646,-0.8857485377745041],[101.04454850720786,-0.8839020767312554],[101.06664894089594,-0.9505698145826464],[101.05046860574161,-0.9657507762977146],[101.05238063006209,-0.9729933917439755],[101.00689271682546,-0.9600556045093117],[100.98051094632318,-1.0071840996407273],[100.93980784455647,-0.9622307164987347],[100.91537036784824,-0.9011920700504783]]]}},{"type":"Feature","properties":{"code":"1302182005","desa":"Simanau","kecamatan":"Tigo Lurah","kecCode":"130218"},"geometry":{"type":"Polygon","coordinates":[[[100.83952794605788,-0.9452934948421651],[100.83895438543658,-0.8649689365999906],[100.89663268185285,-0.9015552001044725],[100.88959855532913,-0.914765758010632],[100.88850031943421,-0.9512684142425331],[100.85976041321254,-0.9396873415470933],[100.83952794605788,-0.9452934948421651]]]}},{"type":"Feature","properties":{"code":"1302192001","desa":"Simpang Tj. Nan IV","kecamatan":"Danau Kembar","kecCode":"130219"},"geometry":{"type":"Polygon","coordinates":[[[100.62404902494262,-1.1012610141538446],[100.62282501706095,-1.0643180147750888],[100.61547851642047,-1.059020994439798],[100.62152099559749,-1.0477905251415964],[100.65431046355711,-1.0445529316050925],[100.68261167418943,-1.0520902647780843],[100.6870756857943,-1.0291895244267129],[100.70446006657886,-1.0267274387726963],[100.73972881343406,-1.0360798421530135],[100.75872068021526,-1.0312823637374868],[100.75708007758357,-1.0526123032388022],[100.74847411958501,-1.0579833962343035],[100.75292968655582,-1.085388182405753],[100.74792480468602,-1.0847167962309385],[100.7371211509204,-1.1041878460583396],[100.72041496597795,-1.0913470111360826],[100.70828548758527,-1.0925854998999092],[100.69671198626924,-1.1024719647773478],[100.67401996594872,-1.1054699654311955],[100.673209028374,-1.1116700417967713],[100.64397198501915,-1.1208890280536845],[100.62404902494262,-1.1012610141538446]]]}},{"type":"Feature","properties":{"code":"1302192002","desa":"Kampung Batu Dalam","kecamatan":"Danau Kembar","kecCode":"130219"},"geometry":{"type":"Polygon","coordinates":[[[100.75970791009205,-1.002251183325168],[100.75872068021526,-1.0312823637374868],[100.73972881343406,-1.0360798421530135],[100.70446006657886,-1.0267274387726963],[100.6870756857943,-1.0291895244267129],[100.67971610991059,-1.0107574451702122],[100.68589443707867,-0.9932176903339549],[100.69747068942087,-0.98379402017822],[100.72967532825385,-0.9757081814967101],[100.72930908204853,-0.985107420669782],[100.75970791009205,-1.002251183325168]]]}}]}