{"type":"FeatureCollection","features":[{"type":"Feature","properties":{"code":"1304012001","desa":"Tambangan","kecamatan":"X Koto","kecCode":"130401"},"geometry":{"type":"Polygon","coordinates":[[[100.4361230893092,-0.49646090259312753],[100.43863373206113,-0.5195216782016925],[100.42358970560046,-0.5336456298449705],[100.41119632565,-0.5620522230029236],[100.40255880774282,-0.5644031821297586],[100.38945820992848,-0.5406385197470582],[100.39215603397382,-0.5326101882138218],[100.38393652365168,-0.5259022997629711],[100.38428847962967,-0.4999999992411628],[100.38994307401373,-0.4948738276114445],[100.4361230893092,-0.49646090259312753]]]}},{"type":"Feature","properties":{"code":"1304012002","desa":"Jaho","kecamatan":"X Koto","kecCode":"130401"},"geometry":{"type":"Polygon","coordinates":[[[100.4361230893092,-0.49646090259312753],[100.4073817108973,-0.4940058271545642],[100.38994307401373,-0.4948738276114445],[100.41055308285854,-0.48916537823235107],[100.41723399885,-0.47833701020968894],[100.4361230893092,-0.49646090259312753]]]}},{"type":"Feature","properties":{"code":"1304012003","desa":"Singgalang","kecamatan":"X Koto","kecCode":"130401"},"geometry":{"type":"Polygon","coordinates":[[[100.39292216372695,-0.4909656393035073],[100.37505074969238,-0.49171465135995535],[100.35433008106844,-0.4804406162039608],[100.33215302963868,-0.48952459353749],[100.32043107993046,-0.4795129781050195],[100.31310745534483,-0.4404191061640797],[100.31810484406338,-0.4206593038131501],[100.33168303404481,-0.40464585676809556],[100.38715118537897,-0.4266866932588867],[100.39209094644006,-0.43503859906532844],[100.3967737253272,-0.43137661095917496],[100.39618005676424,-0.46000782778438093],[100.37736915336382,-0.4620897628153046],[100.36533772715444,-0.4773462531929769],[100.37691869823935,-0.49083560003379195],[100.39292216372695,-0.4909656393035073]]]}},{"type":"Feature","properties":{"code":"1304012004","desa":"Paninjauan","kecamatan":"X Koto","kecCode":"130401"},"geometry":{"type":"Polygon","coordinates":[[[100.43482073878614,-0.4612746155150188],[100.41307991160869,-0.45225257179278644],[100.40866083013327,-0.45930588984107223],[100.40413391634723,-0.4506982141470364],[100.40745300105522,-0.4382356673518791],[100.4348051544344,-0.4246520391851162],[100.43299734894856,-0.4362054559290212],[100.43995387477156,-0.44259499606701624],[100.43482073878614,-0.4612746155150188]]]}},{"type":"Feature","properties":{"code":"1304012005","desa":"Panyalaian","kecamatan":"X Koto","kecCode":"130401"},"geometry":{"type":"Polygon","coordinates":[[[100.39669344284817,-0.4502599907022454],[100.39650365621883,-0.4267794925020871],[100.40596439374183,-0.41493453533627206],[100.42129055461544,-0.4130812871095491],[100.44719250622921,-0.3910321678627442],[100.45595728629979,-0.3927972024894082],[100.4348051544344,-0.4246520391851162],[100.40745300105522,-0.4382356673518791],[100.40484749061926,-0.45073021742133174],[100.39669344284817,-0.4502599907022454]]]}},{"type":"Feature","properties":{"code":"1304012006","desa":"Koto Laweh","kecamatan":"X Koto","kecCode":"130401"},"geometry":{"type":"Polygon","coordinates":[[[100.40673926220721,-0.41086351398026716],[100.39209094644006,-0.43503859906532844],[100.38715118537897,-0.4266866932588867],[100.37575832638571,-0.4237314023082959],[100.37434512542728,-0.41095964521167583],[100.40673926220721,-0.41086351398026716]]]}},{"type":"Feature","properties":{"code":"1304012007","desa":"Aie Angek","kecamatan":"X Koto","kecCode":"130401"},"geometry":{"type":"Polygon","coordinates":[[[100.44719250622921,-0.3910321678627442],[100.42129055461544,-0.4130812871095491],[100.4108479399805,-0.41722483609045724],[100.40105710989774,-0.41019091911671607],[100.39967570177224,-0.4037816541482234],[100.41787212539833,-0.3979685803404462],[100.42095522800145,-0.3913995544079803],[100.44719250622921,-0.3910321678627442]]]}},{"type":"Feature","properties":{"code":"1304012008","desa":"Pandai Sikek","kecamatan":"X Koto","kecCode":"130401"},"geometry":{"type":"Polygon","coordinates":[[[100.37294818241276,-0.4200932066661734],[100.33679265905401,-0.41086585131828524],[100.33265927060891,-0.39657115169356033],[100.39877777817196,-0.38436111024694136],[100.40105710989774,-0.41019091911671607],[100.37434512542728,-0.41095964521167583],[100.37294818241276,-0.4200932066661734]]]}},{"type":"Feature","properties":{"code":"1304012009","desa":"Koto Baru","kecamatan":"X Koto","kecCode":"130401"},"geometry":{"type":"Polygon","coordinates":[[[100.42095522800145,-0.3913995544079803],[100.41787212539833,-0.3979685803404462],[100.39870118561127,-0.40246229295011154],[100.39710032671877,-0.3889956144208174],[100.42095522800145,-0.3913995544079803]]]}},{"type":"Feature","properties":{"code":"1304022001","desa":"Andaleh","kecamatan":"Batipuh","kecCode":"130402"},"geometry":{"type":"Polygon","coordinates":[[[100.43733122505603,-0.4676624550350448],[100.43995387477156,-0.44259499606701624],[100.43325709204123,-0.4287617934422517],[100.45727326604846,-0.3931343376396494],[100.45673388955743,-0.4526755517288515],[100.44596967466083,-0.4654169495119348],[100.43733122505603,-0.4676624550350448]]]}},{"type":"Feature","properties":{"code":"1304022002","desa":"Sabu","kecamatan":"Batipuh","kecCode":"130402"},"geometry":{"type":"Polygon","coordinates":[[[100.45673388955743,-0.4526755517288515],[100.45727326604846,-0.3931343376396494],[100.46548622840679,-0.39013706993331765],[100.46793383407923,-0.4365695077881087],[100.47880298816743,-0.4599440667507553],[100.4705715177614,-0.4625167843047042],[100.45673388955743,-0.4526755517288515]]]}},{"type":"Feature","properties":{"code":"1304022003","desa":"Batipuah Ateh","kecamatan":"Batipuh","kecCode":"130402"},"geometry":{"type":"Polygon","coordinates":[[[100.44748920696138,-0.46342746838450916],[100.45993614243906,-0.4513568875053349],[100.4705715177614,-0.4625167843047042],[100.47880298816743,-0.4599440667507553],[100.488709891948,-0.4770948890841299],[100.47747607086403,-0.48499924637552205],[100.44865203396425,-0.4728397360359677],[100.44748920696138,-0.46342746838450916]]]}},{"type":"Feature","properties":{"code":"1304022004","desa":"Batipuah Baruah","kecamatan":"Batipuh","kecCode":"130402"},"geometry":{"type":"Polygon","coordinates":[[[100.41119632565,-0.5620522230029236],[100.42358970560046,-0.5336456298449705],[100.43955274476343,-0.5163107144902428],[100.43466966797087,-0.48994727939524924],[100.42355774819156,-0.4801386670287135],[100.43460408131335,-0.483801973541011],[100.43733122505603,-0.4676624550350448],[100.44748920696138,-0.46342746838450916],[100.44865203396425,-0.4728397360359677],[100.4726077339598,-0.4831773044484764],[100.46510291396834,-0.4867940854341224],[100.46346822258043,-0.49747072613655835],[100.45550473755367,-0.4978334290125931],[100.46068482444514,-0.5059247850348021],[100.45261250256497,-0.512840690271921],[100.46005115583625,-0.545843818227036],[100.45448390900526,-0.5578481289639259],[100.41725388016249,-0.578497417474701],[100.41119632565,-0.5620522230029236]]]}},{"type":"Feature","properties":{"code":"1304022005","desa":"Gunuang Rajo","kecamatan":"Batipuh","kecCode":"130402"},"geometry":{"type":"Polygon","coordinates":[[[100.46005115583625,-0.545843818227036],[100.45264105603995,-0.5134117615691823],[100.4607133779201,-0.5064530270189965],[100.45587593272819,-0.49700537734028094],[100.47057695686111,-0.5021632149985885],[100.47725486821763,-0.5327491757378818],[100.4853786349161,-0.5380730723125128],[100.48515412366397,-0.5425941782717538],[100.46005115583625,-0.545843818227036]]]}},{"type":"Feature","properties":{"code":"1304022006","desa":"Pitalah","kecamatan":"Batipuh","kecCode":"130402"},"geometry":{"type":"Polygon","coordinates":[[[100.4726077339598,-0.4831773044484764],[100.48004434127341,-0.4933984772059256],[100.47071332735821,-0.5036412040149336],[100.46218331440848,-0.493746870069605],[100.4726077339598,-0.4831773044484764]]]}},{"type":"Feature","properties":{"code":"1304022007","desa":"Tanjuang Barulak","kecamatan":"Batipuh","kecCode":"130402"},"geometry":{"type":"Polygon","coordinates":[[[100.49925263979752,-0.4977010182306105],[100.51256546142696,-0.5038927300017871],[100.52167599575067,-0.5184288004687738],[100.51207542444132,-0.5193462366584976],[100.50590531527813,-0.532556254971439],[100.4875013748886,-0.5188945386715264],[100.49925263979752,-0.4977010182306105]]]}},{"type":"Feature","properties":{"code":"1304022008","desa":"Bungo Tanjuang","kecamatan":"Batipuh","kecCode":"130402"},"geometry":{"type":"Polygon","coordinates":[[[100.47747607086403,-0.48499924637552205],[100.488709891948,-0.4770948890841299],[100.49269090735953,-0.48267195110965194],[100.49871826173847,-0.4946899405348981],[100.49925263979752,-0.4977010182306105],[100.48258124332978,-0.5263895056822585],[100.4853786349161,-0.5380730723125128],[100.47878456105872,-0.5356025690041945],[100.47157096942477,-0.5132331840900035],[100.47031226569857,-0.5044693905855571],[100.48004434127341,-0.4933984772059256],[100.47747607086403,-0.48499924637552205]]]}},{"type":"Feature","properties":{"code":"1304032001","desa":"Simawang","kecamatan":"Rambatan","kecCode":"130403"},"geometry":{"type":"Polygon","coordinates":[[[100.59336472240408,-0.596358888584742],[100.54763359471467,-0.6270215839775671],[100.5243968963997,-0.5790119160193704],[100.56322734976243,-0.5322315079822898],[100.56800651618782,-0.5401096329489666],[100.58424568229248,-0.5385131834342205],[100.60568867199468,-0.5526091220951341],[100.58931957274012,-0.5548588337474648],[100.59696111126634,-0.5575611103332202],[100.58424999993757,-0.5725555553541477],[100.5830671171538,-0.5847393626773788],[100.59336472240408,-0.596358888584742]]]}},{"type":"Feature","properties":{"code":"1304032002","desa":"Balimbiang","kecamatan":"Rambatan","kecCode":"130403"},"geometry":{"type":"Polygon","coordinates":[[[100.62487255302597,-0.5528131845623978],[100.61305349722119,-0.5614079486898746],[100.58424568229248,-0.5385131834342205],[100.56800651618782,-0.5401096329489666],[100.55771183283485,-0.5287820944265725],[100.556579813008,-0.5167581469927568],[100.57698964355728,-0.5076661980686569],[100.5879144647808,-0.5095418888770414],[100.594600713752,-0.5190230454965109],[100.6024398252378,-0.5192208513803276],[100.60628913493571,-0.5297347363763262],[100.60216374506086,-0.5333346262953136],[100.62487255302597,-0.5528131845623978]]]}},{"type":"Feature","properties":{"code":"1304032003","desa":"Iii Koto","kecamatan":"Rambatan","kecCode":"130403"},"geometry":{"type":"Polygon","coordinates":[[[100.53267507309619,-0.5358703898071673],[100.51256546142696,-0.5038927300017871],[100.5200805660653,-0.5065917960078569],[100.52919909266403,-0.4905137965257122],[100.55853333204772,-0.5105181883925181],[100.55557106775062,-0.5227406054098295],[100.56395771977297,-0.5304674886902198],[100.5243968963997,-0.5790119160193704],[100.52534675584815,-0.5503635401295697],[100.53267507309619,-0.5358703898071673]]]}},{"type":"Feature","properties":{"code":"1304032004","desa":"Padang Magek","kecamatan":"Rambatan","kecCode":"130403"},"geometry":{"type":"Polygon","coordinates":[[[100.57047083665987,-0.5104625464382763],[100.55861661286644,-0.5142658387221589],[100.53272540095655,-0.49567972088786255],[100.52745834332796,-0.4826192733208622],[100.54046180986467,-0.4763411169160907],[100.55169658602868,-0.4969315151214008],[100.57047083665987,-0.5104625464382763]]]}},{"type":"Feature","properties":{"code":"1304032005","desa":"Rambatan","kecamatan":"Rambatan","kecCode":"130403"},"geometry":{"type":"Polygon","coordinates":[[[100.58925486292162,-0.5111744119976862],[100.56168080362623,-0.5069395278697734],[100.54046180986467,-0.4763411169160907],[100.58500481621934,-0.4764787770409016],[100.59382175786789,-0.49858585129820393],[100.58925486292162,-0.5111744119976862]]]}},{"type":"Feature","properties":{"code":"1304042001","desa":"Baringin","kecamatan":"Lima Kaum","kecCode":"130404"},"geometry":{"type":"Polygon","coordinates":[[[100.61651863632606,-0.47374995246831314],[100.61180324532359,-0.49077173108144295],[100.60319113686154,-0.4840414585049922],[100.6043808670834,-0.47350044635873917],[100.61651863632606,-0.47374995246831314]]]}},{"type":"Feature","properties":{"code":"1304042001","desa":"Baringin","kecamatan":"Lima Kaum","kecCode":"130404"},"geometry":{"type":"Polygon","coordinates":[[[100.59404945361945,-0.4506607052231478],[100.6009517925912,-0.46665299211983974],[100.5653511653241,-0.44887744133865176],[100.58075818694083,-0.45162758793756863],[100.59404945361945,-0.4506607052231478]]]}},{"type":"Feature","properties":{"code":"1304042002","desa":"Limo Kaum","kecamatan":"Lima Kaum","kecCode":"130404"},"geometry":{"type":"Polygon","coordinates":[[[100.60226843244224,-0.5190317104644614],[100.58925486292162,-0.5111744119976862],[100.59382175786789,-0.49858585129820393],[100.58552829899183,-0.47693087522608807],[100.55868797856742,-0.4794055145165483],[100.54877713036035,-0.4661241116169516],[100.55835151341164,-0.4487333375714458],[100.59160316185647,-0.4607703287721702],[100.60407153807107,-0.47259625088755536],[100.60242970876413,-0.48299449475977607],[100.61180324532359,-0.49077173108144295],[100.60226843244224,-0.5190317104644614]]]}},{"type":"Feature","properties":{"code":"1304042003","desa":"Parambahan","kecamatan":"Lima Kaum","kecCode":"130404"},"geometry":{"type":"Polygon","coordinates":[[[100.55500152170293,-0.4554341816326309],[100.5524547819627,-0.4621961220362711],[100.52877758491769,-0.4647354162864691],[100.52585659500592,-0.44365554856836253],[100.55500152170293,-0.4554341816326309]]]}},{"type":"Feature","properties":{"code":"1304042004","desa":"Cubadak","kecamatan":"Lima Kaum","kecCode":"130404"},"geometry":{"type":"Polygon","coordinates":[[[100.55484243343163,-0.47474021305927294],[100.53460392463147,-0.4739105372113152],[100.53564644842491,-0.464844674921784],[100.547965101908,-0.46054604774664293],[100.55484243343163,-0.47474021305927294]]]}},{"type":"Feature","properties":{"code":"1304042005","desa":"Labuh","kecamatan":"Lima Kaum","kecCode":"130404"},"geometry":{"type":"Polygon","coordinates":[[[100.55835151341164,-0.4487333375714458],[100.55500152170293,-0.4554341816326309],[100.52585659500592,-0.44365554856836253],[100.51527620693143,-0.4243233090986898],[100.55835151341164,-0.4487333375714458]]]}},{"type":"Feature","properties":{"code":"1304052001","desa":"Tanjung Barulak","kecamatan":"Tanjung Emas","kecCode":"130405"},"geometry":{"type":"Polygon","coordinates":[[[100.70716490803414,-0.452746844584679],[100.70659660125222,-0.4617052585742546],[100.71881461700104,-0.46626805530482823],[100.71872280881064,-0.4787929970635174],[100.73410676191759,-0.4867121850747826],[100.72342478282752,-0.5036820665106706],[100.71012464703489,-0.498684333357386],[100.70917651878135,-0.50859035399269],[100.69922449061778,-0.511446311226099],[100.69879719123742,-0.5250043302982952],[100.69518241123934,-0.5173486238611436],[100.66241372301498,-0.5045651090281008],[100.66621343779995,-0.4869618485656574],[100.68387794481134,-0.47152900653093044],[100.69403288520952,-0.44786741724646956],[100.70716490803414,-0.452746844584679]]]}},{"type":"Feature","properties":{"code":"1304052002","desa":"Saruaso","kecamatan":"Tanjung Emas","kecCode":"130405"},"geometry":{"type":"Polygon","coordinates":[[[100.65929466731511,-0.5358128125118757],[100.64911967383392,-0.538310771222907],[100.65009911018585,-0.5432039599871002],[100.63991015742788,-0.5391405271105286],[100.63095517344254,-0.5540224651449045],[100.60170716825125,-0.5325307546948271],[100.61072598701473,-0.49252850273719245],[100.63928222559429,-0.45727539063515293],[100.63478609380326,-0.419959972105152],[100.65332031088371,-0.40832519459518846],[100.66440294783786,-0.4188483093333991],[100.66650390443168,-0.44061279225361943],[100.65667365256705,-0.4592172103921987],[100.66133461659933,-0.4694810568800257],[100.64534149241597,-0.4819273097583445],[100.66621343779995,-0.4869618485656574],[100.66355386461919,-0.5139128800005006],[100.65612792956033,-0.5164892721843873],[100.65929466731511,-0.5358128125118757]]]}},{"type":"Feature","properties":{"code":"1304052003","desa":"Koto Tangah","kecamatan":"Tanjung Emas","kecCode":"130405"},"geometry":{"type":"Polygon","coordinates":[[[100.6928078224231,-0.4523158049244235],[100.68387794481134,-0.47152900653093044],[100.66621343779995,-0.4869618485656574],[100.64536536941631,-0.48238193234064],[100.66142963986607,-0.4692656854379902],[100.65643647796117,-0.46141860956492137],[100.66491699132615,-0.44818115113775286],[100.66491327982408,-0.4247847224617379],[100.6928078224231,-0.4523158049244235]]]}},{"type":"Feature","properties":{"code":"1304052004","desa":"Pagaruyung","kecamatan":"Tanjung Emas","kecCode":"130405"},"geometry":{"type":"Polygon","coordinates":[[[100.59834356080675,-0.46705803237973126],[100.60280097678373,-0.46558798707499743],[100.5933245640774,-0.4499291049408337],[100.605285644417,-0.4454956046400291],[100.60268497862893,-0.4276698860778551],[100.63478609380326,-0.419959972105152],[100.63610839758455,-0.4661865200702867],[100.62012834504714,-0.48196188689236963],[100.61548357061037,-0.47283385806714007],[100.60618897024484,-0.47415600806286173],[100.59834356080675,-0.46705803237973126]]]}},{"type":"Feature","properties":{"code":"1304062001","desa":"Taluk","kecamatan":"Lintau Buo","kecCode":"130406"},"geometry":{"type":"Polygon","coordinates":[[[100.81519038582768,-0.5264676963381407],[100.80352910618335,-0.5667922680146941],[100.79298979284471,-0.5641520059792522],[100.78266666663342,-0.5477222213906958],[100.77176699405156,-0.5601664669822468],[100.77815351966927,-0.5427021553730464],[100.7553638095922,-0.5200922260935237],[100.77294917356555,-0.5008558264749037],[100.7781295806157,-0.5107877331959076],[100.80433082570708,-0.514497756790499],[100.81519038582768,-0.5264676963381407]]]}},{"type":"Feature","properties":{"code":"1304062002","desa":"Buo","kecamatan":"Lintau Buo","kecCode":"130406"},"geometry":{"type":"Polygon","coordinates":[[[100.74388858888732,-0.45574239548524575],[100.76667112237448,-0.4496255342878805],[100.77128028905416,-0.45199394116174973],[100.75725364673849,-0.4692115777272119],[100.7451945753694,-0.4628914508619105],[100.74388858888732,-0.45574239548524575]]]}},{"type":"Feature","properties":{"code":"1304062003","desa":"Tigo Jangko","kecamatan":"Lintau Buo","kecCode":"130406"},"geometry":{"type":"Polygon","coordinates":[[[100.83237616033158,-0.494901985384644],[100.81792981880612,-0.5066349985395556],[100.82161091121463,-0.515697378654191],[100.81519038582768,-0.5264676963381407],[100.80433082570708,-0.514497756790499],[100.7781295806157,-0.5107877331959076],[100.77294917356555,-0.5008558264749037],[100.79207854488902,-0.4557814836186168],[100.81391181607749,-0.4421573580808819],[100.84263690057257,-0.4431040465187601],[100.83491366493377,-0.4700357056574328],[100.83948085395832,-0.4814200336690298],[100.81642968488211,-0.4872469525396912],[100.83237616033158,-0.494901985384644]]]}},{"type":"Feature","properties":{"code":"1304062004","desa":"Pangian","kecamatan":"Lintau Buo","kecCode":"130406"},"geometry":{"type":"Polygon","coordinates":[[[100.75475741832025,-0.4940276114324195],[100.71872280881064,-0.4787929970635174],[100.71881461700104,-0.46626805530482823],[100.70921310859812,-0.4641634690495432],[100.70465534356929,-0.4540107850617298],[100.74388858888732,-0.45574239548524575],[100.7451945753694,-0.4628914508619105],[100.75725364673849,-0.4692115777272119],[100.77081108126644,-0.45637702816674636],[100.7692873743129,-0.4398116833704214],[100.79209676065703,-0.4557497888117783],[100.7767380883921,-0.4975962930777614],[100.7666070789536,-0.5059249918789067],[100.75475741832025,-0.4940276114324195]]]}},{"type":"Feature","properties":{"code":"1304072001","desa":"Sungai Patai","kecamatan":"Sungayang","kecCode":"130407"},"geometry":{"type":"Polygon","coordinates":[[[100.63307320726278,-0.3506042308082973],[100.6015645042985,-0.3806645135305498],[100.5868238929084,-0.37142063044211987],[100.59832503836986,-0.3478106073844425],[100.61316702313968,-0.3447520149077982],[100.61940499874174,-0.3519798032315278],[100.63307320726278,-0.3506042308082973]]]}},{"type":"Feature","properties":{"code":"1304072002","desa":"Andaleh Baruh Bukik","kecamatan":"Sungayang","kecCode":"130407"},"geometry":{"type":"Polygon","coordinates":[[[100.65371081989849,-0.40836424495704166],[100.63250732325439,-0.4210205075193594],[100.6257619213756,-0.41647945010056736],[100.64675322208357,-0.35106179147570593],[100.66422232170282,-0.35127777625531664],[100.66227303037613,-0.3930372153554373],[100.65371081989849,-0.40836424495704166]]]}},{"type":"Feature","properties":{"code":"1304072003","desa":"Tanjung","kecamatan":"Sungayang","kecCode":"130407"},"geometry":{"type":"Polygon","coordinates":[[[100.6015645042985,-0.3806645135305498],[100.63307320726278,-0.3506042308082973],[100.64675322208357,-0.35106179147570593],[100.62598635258814,-0.41147592711190606],[100.60029331168704,-0.3917301451917426],[100.6015645042985,-0.3806645135305498]]]}},{"type":"Feature","properties":{"code":"1304072004","desa":"Sungayang","kecamatan":"Sungayang","kecCode":"130407"},"geometry":{"type":"Polygon","coordinates":[[[100.63064939855097,-0.4212833190985497],[100.60008299263609,-0.4112857312912988],[100.5908684337313,-0.4202453611642791],[100.57616455604949,-0.4082943838219286],[100.60026310975478,-0.378730751699059],[100.60029331168704,-0.3917301451917426],[100.63064939855097,-0.4212833190985497]]]}},{"type":"Feature","properties":{"code":"1304072005","desa":"Minang Kabau","kecamatan":"Sungayang","kecCode":"130407"},"geometry":{"type":"Polygon","coordinates":[[[100.62441485476182,-0.42257867379395186],[100.60079445170264,-0.4283000671152473],[100.58854498666187,-0.42531741339202644],[100.59732281769396,-0.411476088090604],[100.62441485476182,-0.42257867379395186]]]}},{"type":"Feature","properties":{"code":"1304082001","desa":"Simpuruik","kecamatan":"Sungai Tarab","kecCode":"130408"},"geometry":{"type":"Polygon","coordinates":[[[100.60388183597802,-0.447509764063714],[100.58075818694083,-0.45162758793756863],[100.5672927710446,-0.4484325449243381],[100.58086649679142,-0.4339736794562057],[100.60388183597802,-0.447509764063714]]]}},{"type":"Feature","properties":{"code":"1304082002","desa":"Sungai Tarab","kecamatan":"Sungai Tarab","kecCode":"130408"},"geometry":{"type":"Polygon","coordinates":[[[100.60268497862893,-0.4276698860778551],[100.60388183597802,-0.447509764063714],[100.54483565274323,-0.4086951271211543],[100.5692259204399,-0.40024962797010655],[100.5908684337313,-0.4202453611642791],[100.58854498666187,-0.42531741339202644],[100.60268497862893,-0.4276698860778551]]]}},{"type":"Feature","properties":{"code":"1304082003","desa":"Gurun","kecamatan":"Sungai Tarab","kecCode":"130408"},"geometry":{"type":"Polygon","coordinates":[[[100.5672927710446,-0.4484325449243381],[100.55432128889639,-0.44702148345458065],[100.54520937321405,-0.43814196608864353],[100.55207380486229,-0.42914342345008427],[100.54363101985574,-0.4231662359595768],[100.55244700822288,-0.4152684023502727],[100.5812702177464,-0.43108940077293895],[100.5672927710446,-0.4484325449243381]]]}},{"type":"Feature","properties":{"code":"1304082004","desa":"Talang Tangah","kecamatan":"Sungai Tarab","kecCode":"130408"},"geometry":{"type":"Polygon","coordinates":[[[100.54520937321405,-0.43814196608864353],[100.5150959576124,-0.4242510081028868],[100.50453011787071,-0.41037499145354844],[100.52126100179385,-0.4108439024644247],[100.5495277818817,-0.42552664246446764],[100.55138375955295,-0.4330933286096837],[100.54520937321405,-0.43814196608864353]]]}},{"type":"Feature","properties":{"code":"1304082005","desa":"Padang Laweh","kecamatan":"Sungai Tarab","kecCode":"130408"},"geometry":{"type":"Polygon","coordinates":[[[100.5482240059332,-0.40738166637501527],[100.54579100704937,-0.4115490599806431],[100.55244700822288,-0.4152684023502727],[100.54214199795489,-0.42447840168192996],[100.52126100179385,-0.4108439024644247],[100.4993671603662,-0.40772133131817656],[100.47405821991099,-0.38809079841736344],[100.49141463627649,-0.38514493326108334],[100.53402401209853,-0.3926879051833305],[100.53433611282139,-0.40309873596688683],[100.5482240059332,-0.40738166637501527]]]}},{"type":"Feature","properties":{"code":"1304082006","desa":"Pasie Laweh","kecamatan":"Sungai Tarab","kecCode":"130408"},"geometry":{"type":"Polygon","coordinates":[[[100.56844545729204,-0.4001734859698669],[100.55277810442601,-0.40506423397403135],[100.53402401209853,-0.3926879051833305],[100.47243873156224,-0.38503925392758376],[100.48054286695981,-0.36143474821066174],[100.49970192490395,-0.3626997786659893],[100.54211462439048,-0.3877404720113642],[100.5549278888111,-0.3878645415813268],[100.55178517194821,-0.390616715252172],[100.56844545729204,-0.4001734859698669]]]}},{"type":"Feature","properties":{"code":"1304082007","desa":"Koto Tuo","kecamatan":"Sungai Tarab","kecCode":"130408"},"geometry":{"type":"Polygon","coordinates":[[[100.55359784996084,-0.40192090197833846],[100.53433611282139,-0.40309873596688683],[100.53472774059281,-0.3946486439781767],[100.55359784996084,-0.40192090197833846]]]}},{"type":"Feature","properties":{"code":"1304082008","desa":"Rao Rao","kecamatan":"Sungai Tarab","kecCode":"130408"},"geometry":{"type":"Polygon","coordinates":[[[100.5549278888111,-0.3878645415813268],[100.52950641259092,-0.3806121675915713],[100.55607336789166,-0.35756387457306504],[100.56861735100999,-0.37930235269697765],[100.5549278888111,-0.3878645415813268]]]}},{"type":"Feature","properties":{"code":"1304082009","desa":"Kumango","kecamatan":"Sungai Tarab","kecCode":"130408"},"geometry":{"type":"Polygon","coordinates":[[[100.57464909857707,-0.4037225974681784],[100.55700372823952,-0.39509336322605915],[100.55178517194821,-0.390616715252172],[100.56861735100999,-0.37930235269697765],[100.57464909857707,-0.4037225974681784]]]}},{"type":"Feature","properties":{"code":"1304082010","desa":"Koto Baru","kecamatan":"Sungai Tarab","kecCode":"130408"},"geometry":{"type":"Polygon","coordinates":[[[100.52950641259092,-0.3806121675915713],[100.52269132404541,-0.37839199417182307],[100.49970192490395,-0.3626997786659893],[100.51805429097281,-0.357749031492254],[100.54740288083832,-0.36459044858238593],[100.52950641259092,-0.3806121675915713]]]}},{"type":"Feature","properties":{"code":"1304092001","desa":"Batu Basa","kecamatan":"Pariangan","kecCode":"130409"},"geometry":{"type":"Polygon","coordinates":[[[100.49925263979752,-0.49827208952789315],[100.48044748306495,-0.46417738515889945],[100.50165748630398,-0.46133041305198813],[100.53125619291905,-0.4889226485144117],[100.5200805660653,-0.5065917960078569],[100.5116377342941,-0.5047918110285485],[100.49925263979752,-0.49827208952789315]]]}},{"type":"Feature","properties":{"code":"1304092002","desa":"Tabek","kecamatan":"Pariangan","kecCode":"130409"},"geometry":{"type":"Polygon","coordinates":[[[100.5354252979392,-0.46557809543185064],[100.534626299764,-0.48261706638453566],[100.52252436131026,-0.4818306542222863],[100.51537848233113,-0.46377774352915363],[100.5354252979392,-0.46557809543185064]]]}},{"type":"Feature","properties":{"code":"1304092003","desa":"Sawah Tangah","kecamatan":"Pariangan","kecCode":"130409"},"geometry":{"type":"Polygon","coordinates":[[[100.52934867959794,-0.4529367409311232],[100.52679989569866,-0.46285451210819306],[100.50953452669711,-0.4582288401761654],[100.5154736620799,-0.4492368571925592],[100.52934867959794,-0.4529367409311232]]]}},{"type":"Feature","properties":{"code":"1304092004","desa":"Simabur","kecamatan":"Pariangan","kecCode":"130409"},"geometry":{"type":"Polygon","coordinates":[[[100.51969518138758,-0.47670410487721665],[100.50749778709324,-0.4704647056553086],[100.50296592703596,-0.4571132653535284],[100.51437910980813,-0.46230247676063124],[100.51969518138758,-0.47670410487721665]]]}},{"type":"Feature","properties":{"code":"1304092005","desa":"Pariangan","kecamatan":"Pariangan","kecCode":"130409"},"geometry":{"type":"Polygon","coordinates":[[[100.47880298816743,-0.4599440667507553],[100.46793383407923,-0.4365695077881087],[100.46600744488774,-0.3902380125376246],[100.49702665135891,-0.4312334182051681],[100.49465908894587,-0.4382052387904646],[100.50744869040477,-0.45509346448263505],[100.49221992520944,-0.46447944585008194],[100.47880298816743,-0.4599440667507553]]]}},{"type":"Feature","properties":{"code":"1304092006","desa":"Sungai Jambu","kecamatan":"Pariangan","kecCode":"130409"},"geometry":{"type":"Polygon","coordinates":[[[100.4934918489697,-0.39933843127676844],[100.52934867959794,-0.4529367409311232],[100.51616846390358,-0.449075052069569],[100.50810287704621,-0.4571104855490779],[100.49465908894587,-0.4382052387904646],[100.49702665135891,-0.4312334182051681],[100.46699144529903,-0.3904285815769253],[100.47243873156224,-0.38503925392758376],[100.4934918489697,-0.39933843127676844]]]}},{"type":"Feature","properties":{"code":"1304102001","desa":"Sumanik","kecamatan":"Salimpaung","kecCode":"130410"},"geometry":{"type":"Polygon","coordinates":[[[100.5868238929084,-0.37142063044211987],[100.5949497532286,-0.38679327725514034],[100.5763592322928,-0.40754367744279163],[100.56738233722511,-0.37075230645898044],[100.5868238929084,-0.37142063044211987]]]}},{"type":"Feature","properties":{"code":"1304102002","desa":"Situmbuk","kecamatan":"Salimpaung","kecCode":"130410"},"geometry":{"type":"Polygon","coordinates":[[[100.61316702313968,-0.3447520149077982],[100.59832503836986,-0.3478106073844425],[100.5868238929084,-0.37142063044211987],[100.56738233722511,-0.37075230645898044],[100.56425882538456,-0.3645272577188984],[100.59617470719706,-0.3402192807145431],[100.61316702313968,-0.3447520149077982]]]}},{"type":"Feature","properties":{"code":"1304102003","desa":"Lawang Mandahiling","kecamatan":"Salimpaung","kecCode":"130410"},"geometry":{"type":"Polygon","coordinates":[[[100.56585802862521,-0.3187069631991853],[100.58417159344435,-0.33579091104597836],[100.57266658179735,-0.34657408903517634],[100.55455654255046,-0.35421871762335977],[100.53431327993398,-0.3453409485395023],[100.50608260672698,-0.3485095451894114],[100.54558954542124,-0.33527701774497404],[100.54945616976647,-0.3195725750566905],[100.56585802862521,-0.3187069631991853]]]}},{"type":"Feature","properties":{"code":"1304102004","desa":"Supayang","kecamatan":"Salimpaung","kecCode":"130410"},"geometry":{"type":"Polygon","coordinates":[[[100.56425882538456,-0.3645272577188984],[100.55540711774431,-0.3557364485801996],[100.56334499997183,-0.3475130316122693],[100.58417159344435,-0.33579091104597836],[100.59617470719706,-0.3402192807145431],[100.56425882538456,-0.3645272577188984]]]}},{"type":"Feature","properties":{"code":"1304102005","desa":"Salimpaung","kecamatan":"Salimpaung","kecCode":"130410"},"geometry":{"type":"Polygon","coordinates":[[[100.49970192490395,-0.3626997786659893],[100.50591116896531,-0.34858508824117684],[100.5271451544254,-0.34525171870549504],[100.55675008524827,-0.3540743161805302],[100.54740288083832,-0.36459044858238593],[100.51805429097281,-0.357749031492254],[100.49970192490395,-0.3626997786659893]]]}},{"type":"Feature","properties":{"code":"1304102006","desa":"Tabek Patah","kecamatan":"Salimpaung","kecCode":"130410"},"geometry":{"type":"Polygon","coordinates":[[[100.54945616976647,-0.3195725750566905],[100.54558954542124,-0.33527701774497404],[100.52973309570586,-0.341028396261892],[100.52303886435215,-0.33498954765467126],[100.53230062957043,-0.32001685723404477],[100.54945616976647,-0.3195725750566905]]]}},{"type":"Feature","properties":{"code":"1304112001","desa":"Atar","kecamatan":"Padang Ganting","kecCode":"130411"},"geometry":{"type":"Polygon","coordinates":[[[100.72342478282752,-0.5036820665106706],[100.73410676191759,-0.4867121850747826],[100.75475741832025,-0.4940276114324195],[100.7666070789536,-0.5059249918789067],[100.75535501961853,-0.5207161613392619],[100.77815351966927,-0.5427021553730464],[100.77176699405156,-0.5601664669822468],[100.72760761420012,-0.5596291265568856],[100.72342478282752,-0.5036820665106706]]]}},{"type":"Feature","properties":{"code":"1304112002","desa":"Padang Ganting","kecamatan":"Padang Ganting","kecCode":"130411"},"geometry":{"type":"Polygon","coordinates":[[[100.70499999975027,-0.5711111101507781],[100.69913126509584,-0.5504841410144965],[100.66461111211323,-0.5319722190475394],[100.65929466731511,-0.5358128125118757],[100.65612792956033,-0.5164892721843873],[100.66355386461919,-0.5139128800005006],[100.66251453521765,-0.5067444532270462],[100.69518241123934,-0.5173486238611436],[100.69879719123742,-0.5250043302982952],[100.69922449061778,-0.511446311226099],[100.70917651878135,-0.50859035399269],[100.71012464703489,-0.498684333357386],[100.72342478282752,-0.5036820665106706],[100.72760761420012,-0.5596291265568856],[100.70499999975027,-0.5711111101507781]]]}},{"type":"Feature","properties":{"code":"1304122001","desa":"Tanjuang Alam","kecamatan":"Tanjuang Baru","kecCode":"130412"},"geometry":{"type":"Polygon","coordinates":[[[100.49610905778684,-0.3640293282835359],[100.48272518431985,-0.36320851255638004],[100.48108016331895,-0.35716259437858405],[100.49950300026329,-0.3326969994946651],[100.51222375142503,-0.29578774537716596],[100.52696458584698,-0.28887987108592034],[100.53303767614788,-0.2784349047354409],[100.54455562274386,-0.2844444435379063],[100.55183467333154,-0.28124673133688705],[100.54724186172263,-0.31339584329283177],[100.5257028010435,-0.3240035266788761],[100.52655966069983,-0.3394867190569115],[100.50591116896531,-0.34858508824117684],[100.49610905778684,-0.3640293282835359]]]}},{"type":"Feature","properties":{"code":"1304122002","desa":"Barulak","kecamatan":"Tanjuang Baru","kecCode":"130412"},"geometry":{"type":"Polygon","coordinates":[[[100.56585802862521,-0.3187069631991853],[100.5408346373087,-0.3162351225989589],[100.55000254837897,-0.3090080033709167],[100.55225199203586,-0.28103202449383075],[100.57187814885754,-0.28199890810758355],[100.58128618790731,-0.2920974430157264],[100.56585802862521,-0.3187069631991853]]]}},{"type":"Feature","properties":{"code":"1304132001","desa":"Batu Bulek","kecamatan":"Lintau Buo Utara","kecCode":"130413"},"geometry":{"type":"Polygon","coordinates":[[[100.66112584887888,-0.3987469345772014],[100.66659736557602,-0.36552619856620655],[100.66102787493655,-0.3347499997381412],[100.67155565626858,-0.32602777739516975],[100.68505288208489,-0.32562499803085265],[100.69819544586318,-0.35169468846557633],[100.69858705834609,-0.3749513678917935],[100.72644331680567,-0.40317709299735616],[100.72668917436596,-0.41522143795440947],[100.68894221071452,-0.4174072509768784],[100.68073708235049,-0.40309131386203],[100.66112584887888,-0.3987469345772014]]]}},{"type":"Feature","properties":{"code":"1304132002","desa":"Balai Tangah","kecamatan":"Lintau Buo Utara","kecCode":"130413"},"geometry":{"type":"Polygon","coordinates":[[[100.72668917436596,-0.41522143795440947],[100.74314922026036,-0.4005622709838093],[100.7525073847081,-0.40387498938736793],[100.73609699488047,-0.41816274984316426],[100.72668917436596,-0.41522143795440947]]]}},{"type":"Feature","properties":{"code":"1304132003","desa":"Tanjuang Bonai","kecamatan":"Lintau Buo Utara","kecCode":"130413"},"geometry":{"type":"Polygon","coordinates":[[[100.83376136809272,-0.397113015708794],[100.82098383373697,-0.40481991155669],[100.81343710623753,-0.40024583283106446],[100.79630933980422,-0.41202714227780446],[100.78842910232129,-0.40442046597927656],[100.76159886689423,-0.3986980114579676],[100.75851038274799,-0.404291465426426],[100.74314922026036,-0.4005622709838093],[100.72899004125746,-0.40784908810859144],[100.69858705834609,-0.3749513678917935],[100.69209774201725,-0.3325011055695123],[100.75666900197291,-0.37083704058201383],[100.78038343364858,-0.3666297629430044],[100.77256036337013,-0.35556291270040763],[100.77835096492514,-0.3467129686406309],[100.79166750435188,-0.3532321874202996],[100.8249829003406,-0.3526363604850767],[100.8331627460639,-0.3700072064534034],[100.83376136809272,-0.397113015708794]]]}},{"type":"Feature","properties":{"code":"1304132004","desa":"Lubuak Jantan","kecamatan":"Lintau Buo Utara","kecCode":"130413"},"geometry":{"type":"Polygon","coordinates":[[[100.8290897785705,-0.3996029569638125],[100.84930263510859,-0.4269107413599474],[100.84263690057257,-0.4431040465187601],[100.81391181607749,-0.4421573580808819],[100.79207854488902,-0.4557814836186168],[100.7692873743129,-0.4398116833704214],[100.7695672316425,-0.44923806048551135],[100.75120053038023,-0.456627777139315],[100.7204219887838,-0.45350378506422334],[100.71627178301645,-0.441470282333764],[100.72059826399874,-0.4336789671253698],[100.74214749690952,-0.42939866633496254],[100.74029995937569,-0.4151835621071983],[100.75975712728966,-0.399565738520947],[100.78842910232129,-0.40442046597927656],[100.79630933980422,-0.41202714227780446],[100.81343710623753,-0.40024583283106446],[100.82098383373697,-0.40481991155669],[100.8290897785705,-0.3996029569638125]]]}},{"type":"Feature","properties":{"code":"1304132005","desa":"Tapi Selo","kecamatan":"Lintau Buo Utara","kecCode":"130413"},"geometry":{"type":"Polygon","coordinates":[[[100.7204219887838,-0.45350378506422334],[100.68534764297942,-0.44924756991682274],[100.65371081989849,-0.40836424495704166],[100.66112584887888,-0.3987469345772014],[100.68073708235049,-0.40309131386203],[100.68894221071452,-0.4174072509768784],[100.74029995937569,-0.4151835621071983],[100.74214749690952,-0.42939866633496254],[100.72059826399874,-0.4336789671253698],[100.71627178301645,-0.441470282333764],[100.7204219887838,-0.45350378506422334]]]}},{"type":"Feature","properties":{"code":"1304142001","desa":"Batu Taba","kecamatan":"Batipuah Selatan","kecCode":"130414"},"geometry":{"type":"Polygon","coordinates":[[[100.49814033490861,-0.5512065879970428],[100.51207542444132,-0.5193462366584976],[100.51867485016423,-0.5178070065088514],[100.53267507309619,-0.5358703898071673],[100.52534675584815,-0.5503635401295697],[100.52366828906037,-0.5782928459911734],[100.49814033490861,-0.5512065879970428]]]}},{"type":"Feature","properties":{"code":"1304142002","desa":"Sumpur","kecamatan":"Batipuah Selatan","kecCode":"130414"},"geometry":{"type":"Polygon","coordinates":[[[100.48515412366397,-0.5425941782717538],[100.48258124332978,-0.5263895056822585],[100.48924154685996,-0.5199545030162414],[100.50636105571823,-0.5324423189621951],[100.49814033490861,-0.5512065879970428],[100.48515412366397,-0.5425941782717538]]]}},{"type":"Feature","properties":{"code":"1304142003","desa":"Padang Laweh Malalo","kecamatan":"Batipuah Selatan","kecCode":"130414"},"geometry":{"type":"Polygon","coordinates":[[[100.41725388016249,-0.578497417474701],[100.45448390900526,-0.5578481289639259],[100.46423103833183,-0.5415603491249846],[100.49137306241698,-0.5443668364513515],[100.51189613290029,-0.570335387330306],[100.43612911566623,-0.5977185169274368],[100.41680661943002,-0.5947461244687609],[100.41725388016249,-0.578497417474701]]]}},{"type":"Feature","properties":{"code":"1304142004","desa":"Guguak Malalo","kecamatan":"Batipuah Selatan","kecCode":"130414"},"geometry":{"type":"Polygon","coordinates":[[[100.54763359471467,-0.6270215839775671],[100.48440555587176,-0.6591449996047641],[100.46345397102402,-0.6540178135397768],[100.40924976376566,-0.6571521604088846],[100.4020624584158,-0.6531046797067183],[100.39569911642114,-0.6316994444671863],[100.41578190760902,-0.6231009031871496],[100.41680661943002,-0.5947461244687609],[100.45029901998383,-0.5956974731934656],[100.51189613290029,-0.570335387330306],[100.52721214312594,-0.5830860130568293],[100.54763359471467,-0.6270215839775671]]]}}]}