{"type":"FeatureCollection","features":[{"type":"Feature","properties":{"code":"1308042001","desa":"Limo Koto","kecamatan":"Bonjol","kecCode":"130804","kabCode":"1308","province":"Sumatera Barat"},"geometry":{"type":"Polygon","coordinates":[[[100.26527777764737,-0.03233333258101516],[100.24631189677665,-0.07352308893709762],[100.23785119997297,-0.07579486635512685],[100.2274870835621,-0.0695215878731367],[100.21306664970619,-0.07004658870070589],[100.2089761939962,-0.08570727757288746],[100.20450188875122,-0.08887327787997151],[100.20182475001222,-0.09827144326248802],[100.20211811066235,-0.11180480562209309],[100.19827509711808,-0.10219421227865942],[100.19690122800932,-0.10335819400971798],[100.19609593368044,-0.09929728732877861],[100.18761804633584,-0.09110893133016502],[100.19574801925573,-0.08591411534799925],[100.19626948934553,-0.07448394799241323],[100.19951195091585,-0.07160239155700529],[100.20066858968374,-0.06532801949934734],[100.1979379089074,-0.05804947883537549],[100.21142555244734,-0.052527337507776266],[100.22180923720657,-0.05426461725752501],[100.23566005756567,-0.041558468402049166],[100.24266580868016,-0.03800284761078458],[100.26527777764737,-0.03233333258101516]]]}},{"type":"Feature","properties":{"code":"1308042002","desa":"Koto Kaciak","kecamatan":"Bonjol","kecCode":"130804","kabCode":"1308","province":"Sumatera Barat"},"geometry":{"type":"Polygon","coordinates":[[[100.18816434940527,-0.0924581859929716],[100.18009445839259,-0.09423515192522443],[100.17570166589921,-0.09128566429975218],[100.16951744457447,-0.09833843645955269],[100.15714355203335,-0.0944695395318593],[100.15172289739387,-0.07827195989540592],[100.1517862960008,-0.07079293876385527],[100.1650089516019,-0.0667861478876452],[100.1746366185851,-0.05782313386573839],[100.18468042706012,-0.055788653361164266],[100.18343210240965,-0.039694011924631525],[100.18965698658069,-0.034267932580611775],[100.2264174946717,-0.04008438873861505],[100.23050632620607,-0.04326252000084382],[100.23566005756567,-0.041558468402049166],[100.22285044439256,-0.05383381591759621],[100.21142555244734,-0.052527337507776266],[100.1979379089074,-0.05804947883537549],[100.20066858968374,-0.06532801949934734],[100.19951195091585,-0.07160239155700529],[100.19626948934553,-0.07448394799241323],[100.19574801925573,-0.08591411534799925],[100.18785336833832,-0.09035505034412762],[100.18816434940527,-0.0924581859929716]]]}},{"type":"Feature","properties":{"code":"1308042003","desa":"Ganggo Mudiak","kecamatan":"Bonjol","kecCode":"130804","kabCode":"1308","province":"Sumatera Barat"},"geometry":{"type":"Polygon","coordinates":[[[100.31580637026781,0.0861735600653838],[100.31581571602256,0.08378287878316337],[100.31931826782385,0.08321307103332469],[100.33038625482186,0.05798658674674755],[100.3300739382617,0.050371256272130426],[100.33852573267649,0.0435508482443722],[100.3534444799788,0.04516666735736005],[100.34852777843429,0.03944444396182309],[100.3488055898062,0.03413888906035717],[100.29513330275978,0.0006113772126507931],[100.294688507069,0.004461472014387249],[100.2743781927994,0.012818482372777266],[100.25780461199332,0.014110889090507499],[100.24527269507887,0.005646791959635414],[100.23060527681213,0.0021512054114344596],[100.22546830431884,0.003016683269980297],[100.22215765255368,-0.0016981654360235248],[100.20605634442482,-0.01121533540680885],[100.20289795597597,-0.009689584296019904],[100.19827222738142,-0.01309997806683189],[100.19415885244916,-0.012833368650659385],[100.1953086950403,-0.009590439436423704],[100.18749836905454,-0.001959051566729273],[100.18704777003859,0.004314860037992623],[100.18034362995462,0.012158755908323481],[100.18524671036744,0.017274324531194346],[100.18281008181987,0.02277883554939983],[100.18809946242031,0.026249012652489793],[100.18738637108423,0.033488617168547063],[100.17319968631652,0.05383974534775294],[100.18703142755838,0.05456700550187163],[100.2074408624059,0.062180562513451505],[100.24988146875484,0.062932201489502],[100.27452126864169,0.07915733905145611],[100.28066919063069,0.0925085059593172],[100.3065785238798,0.0862401728492579],[100.31580637026781,0.0861735600653838]]]}},{"type":"Feature","properties":{"code":"1308042004","desa":"Ganggo Hilia","kecamatan":"Bonjol","kecCode":"130804","kabCode":"1308","province":"Sumatera Barat"},"geometry":{"type":"Polygon","coordinates":[[[100.29513330275978,0.0006113772126507931],[100.2856423606065,-0.008346555639648165],[100.26650002465648,-0.019972222117931614],[100.26527777764737,-0.03233333258101516],[100.25370538159814,-0.03391510785791335],[100.23050632620607,-0.04326252000084382],[100.2264174946717,-0.04008438873861505],[100.19831480938103,-0.03577695540209533],[100.20286554530873,-0.031004069847183943],[100.19906342573654,-0.02633728540788396],[100.1896288836661,-0.02226800693803593],[100.18601545175176,-0.017242196051204927],[100.18131677285082,-0.02135932384976214],[100.17404769844256,-0.015655175928052583],[100.17392744559521,-0.011343872808742266],[100.18317492058617,-0.012157543422220264],[100.18660017835559,0.0012929859811126542],[100.1953086950403,-0.009590439436423704],[100.19415885244916,-0.012833368650659385],[100.19827222738142,-0.01309997806683189],[100.20282495440819,-0.009705133574112868],[100.20544738558844,-0.011350237310832756],[100.21353564975048,-0.007985041667372739],[100.21332514364052,-0.0060239386470502965],[100.22215765255368,-0.0016981654360235248],[100.22546830431884,0.003016683269980297],[100.23060527681213,0.0021512054114344596],[100.24527269507887,0.005646791959635414],[100.25780461199332,0.014110889090507499],[100.2743781927994,0.012818482372777266],[100.294688507069,0.004461472014387249],[100.29513330275978,0.0006113772126507931]]]}},{"type":"Feature","properties":{"code":"1308052001","desa":"Tanjuang Baringin","kecamatan":"Lubuk Sikaping","kecCode":"130805","kabCode":"1308","province":"Sumatera Barat"},"geometry":{"type":"Polygon","coordinates":[[[100.28066919063069,0.0925085059593172],[100.27452126864169,0.07915733905145611],[100.24988146875484,0.062932201489502],[100.2074408624059,0.062180562513451505],[100.18703142755838,0.05456700550187163],[100.17119144532897,0.053632345496400745],[100.16703126787877,0.054200830343459204],[100.15832175744323,0.064431384828518],[100.15392379924401,0.06347417162472675],[100.15028352796251,0.06549083835828355],[100.12454228339972,0.05173588214741729],[100.09743511164116,0.050793387248246724],[100.09241434234809,0.057226760342700994],[100.09372672930516,0.06276969399597085],[100.09047219973228,0.06756388449014013],[100.08976878060479,0.07861154589819735],[100.08741057204031,0.0820580159729135],[100.12850656242794,0.09350564726324999],[100.13801593528723,0.10068523192533993],[100.15477595724468,0.10750549696089881],[100.16021629084916,0.11666915512690897],[100.16979162628257,0.1201256454477763],[100.16951623588561,0.12183230957719104],[100.18402193806206,0.11889544843322897],[100.19126922909169,0.11990388881931768],[100.20367459700508,0.12841812045627207],[100.21827086540814,0.13133716423185585],[100.22816051929259,0.14052663923580547],[100.23358059566799,0.14153150211884086],[100.2417105892723,0.14114815170793768],[100.23964808768913,0.12616659397203991],[100.24146634959241,0.11988433845738371],[100.25373233697779,0.1132426562968639],[100.25793945184425,0.1012525791299642],[100.26539175682414,0.09787789473960522],[100.26745665689924,0.0931564540029751],[100.28066919063069,0.0925085059593172]]]}},{"type":"Feature","properties":{"code":"1308052002","desa":"Jambak","kecamatan":"Lubuk Sikaping","kecCode":"130805","kabCode":"1308","province":"Sumatera Barat"},"geometry":{"type":"Polygon","coordinates":[[[100.16707356209525,0.11923276254861374],[100.16021629084916,0.11666915512690897],[100.15477595724468,0.10750549696089881],[100.13801593528723,0.10068523192533993],[100.12850656242794,0.09350564726324999],[100.10033531102584,0.0846512308749382],[100.08752471939033,0.08341743027689977],[100.07867569622645,0.0905625448242782],[100.05228727703626,0.09142493800821508],[100.04829345797674,0.09573312227870434],[100.03172617602229,0.0932415181772748],[100.01954224008239,0.09581477082784436],[100.00099850277871,0.0895326331243962],[99.99554217742963,0.08552826592108026],[99.99869256640885,0.09253081813926663],[100.02230654111406,0.10769100821299203],[100.03966703770368,0.1316075490019649],[100.04228776556799,0.1447784216249258],[100.05621931536915,0.14423738228798202],[100.06413566782686,0.13964176479938992],[100.07297935621237,0.13935415801211676],[100.08617306983137,0.12865531844426656],[100.10378859167024,0.11903338824711678],[100.10657005356518,0.11932047522627938],[100.10992234124313,0.1262849042836479],[100.1235208217286,0.1336796409531666],[100.13545937584956,0.13045439241036083],[100.14130131520356,0.12523315254784145],[100.15061415741746,0.1221226655919509],[100.15894954988187,0.12162314705455073],[100.16159878355705,0.12636812125045715],[100.16707356209525,0.11923276254861374]]]}},{"type":"Feature","properties":{"code":"1308052003","desa":"Durian Tinggi","kecamatan":"Lubuk Sikaping","kecCode":"130805","kabCode":"1308","province":"Sumatera Barat"},"geometry":{"type":"Polygon","coordinates":[[[100.2417105892723,0.14114815170793768],[100.22949178661673,0.1411488064144186],[100.21827086540814,0.13133716423185585],[100.20367459700508,0.12841812045627207],[100.18904131070798,0.11930346544910962],[100.17233456099126,0.12198512957360948],[100.16707356209525,0.11923276254861374],[100.16159878355705,0.12636812125045715],[100.16699778342102,0.1306391707150648],[100.178027741687,0.1302971135751785],[100.17946098403723,0.13372180027127953],[100.19039522386055,0.1357296050853869],[100.1952614320695,0.14301204790768532],[100.20654714673348,0.14254148843948028],[100.21376069699863,0.14849225924430015],[100.22318615141984,0.1521195281235699],[100.23322426089099,0.15031938126629327],[100.2417105892723,0.14114815170793768]]]}},{"type":"Feature","properties":{"code":"1308052004","desa":"Pauah","kecamatan":"Lubuk Sikaping","kecCode":"130805","kabCode":"1308","province":"Sumatera Barat"},"geometry":{"type":"Polygon","coordinates":[[[100.16699778342102,0.1306391707150648],[100.15894954988187,0.12162314705455073],[100.15061415741746,0.1221226655919509],[100.14130131520356,0.12523315254784145],[100.13545937584956,0.13045439241036083],[100.1235208217286,0.1336796409531666],[100.14909213129687,0.14176456502409723],[100.15458838834348,0.14184102628364822],[100.1545348139306,0.14009991272406072],[100.16340190897095,0.13791560696543237],[100.16822829789771,0.14881672294694803],[100.18947733621012,0.14867198515768046],[100.20449605035246,0.1530711385509623],[100.21311388569733,0.1599811091618944],[100.2148555964087,0.16546711483039417],[100.2228606930666,0.1608836309948022],[100.22785631101998,0.15243585925700145],[100.21461414642577,0.14895499640932464],[100.20610059556611,0.14240854525888244],[100.19628976725902,0.14349637239915275],[100.19023461393635,0.135612021425941],[100.17946098403723,0.13372180027127953],[100.17725084884766,0.129999687989826],[100.16699778342102,0.1306391707150648]]]}},{"type":"Feature","properties":{"code":"1308052005","desa":"Aia Manggih","kecamatan":"Lubuk Sikaping","kecCode":"130805","kabCode":"1308","province":"Sumatera Barat"},"geometry":{"type":"Polygon","coordinates":[[[100.1235208217286,0.1336796409531666],[100.10992234124313,0.1262849042836479],[100.10657005356518,0.11932047522627938],[100.10378859167024,0.11903338824711678],[100.08617306983137,0.12865531844426656],[100.07297935621237,0.13935415801211676],[100.06413566782686,0.13964176479938992],[100.05621931536915,0.14423738228798202],[100.04228776556799,0.1447784216249258],[100.04236353704765,0.15206000289668292],[100.04806000206746,0.1478896154480034],[100.05558069329442,0.14861291858509493],[100.0606931250877,0.14508482873951775],[100.06361354123203,0.14969801988029618],[100.06237647339559,0.15141490840191352],[100.06725547176266,0.15612508512994805],[100.08437257673306,0.16172462211274655],[100.11068961943043,0.16402077925209224],[100.11653793677641,0.16660523026083132],[100.12138796708109,0.1724206989631706],[100.14006678525402,0.1810212322415951],[100.14088899942782,0.18449999966885566],[100.17510450796674,0.1947433461106944],[100.19533299921858,0.189900000472218],[100.19547199933334,0.18079999991782467],[100.2148555964087,0.16546711483039417],[100.21311388569733,0.1599811091618944],[100.20449605035246,0.1530711385509623],[100.18947733621012,0.14867198515768046],[100.16822829789771,0.14881672294694803],[100.16340190897095,0.13791560696543237],[100.1545348139306,0.14009991272406072],[100.15458838834348,0.14184102628364822],[100.14909213129687,0.14176456502409723],[100.1235208217286,0.1336796409531666]]]}},{"type":"Feature","properties":{"code":"1308052006","desa":"Sundata","kecamatan":"Lubuk Sikaping","kecCode":"130805","kabCode":"1308","province":"Sumatera Barat"},"geometry":{"type":"Polygon","coordinates":[[[100.19533299921858,0.189900000472218],[100.18831051621741,0.19037108694314353],[100.18030957892397,0.19462437299869229],[100.16947200003283,0.19329999987882657],[100.14088899942782,0.18449999966885566],[100.14006678525402,0.1810212322415951],[100.12138796708109,0.1724206989631706],[100.11375640923097,0.16516939786463394],[100.07609934720715,0.15957105338287939],[100.06725547176266,0.15612508512994805],[100.06237647339559,0.15141490840191352],[100.05819618800369,0.16438859747194198],[100.0607989204339,0.17821855354405372],[100.06517380562667,0.18726299757977818],[100.05978344375099,0.1894968047217909],[100.06088833193104,0.1951495267110076],[100.05713288897168,0.2020412248965953],[100.06414916934875,0.20603899916995552],[100.05894703018133,0.22300603065431052],[100.06059941842845,0.24418788688830306],[100.05892855540854,0.24006360678147778],[100.05155555624401,0.23661110765182475],[100.04805128403954,0.24460049674188777],[100.07290136340724,0.24495007491198076],[100.07846402459512,0.2563859898347121],[100.08365646457423,0.2601191610794084],[100.09304233263758,0.2574551272642823],[100.09699932266068,0.25960412114282794],[100.10197094760122,0.2558710101527578],[100.10705673158293,0.25791545874290817],[100.10973861604435,0.2609212340358427],[100.11167101540508,0.2736322068547375],[100.11009301278239,0.2794720552784729],[100.1118427733254,0.2799888470944062],[100.12303023255923,0.27349073360452036],[100.14934716643863,0.27528319125828793],[100.15228024144004,0.269969814053651],[100.16134565228008,0.26347837713059924],[100.17052802984477,0.26751296425263726],[100.17769213808174,0.26254710756924154],[100.17826180463862,0.2529979361228033],[100.18211264857989,0.2494076914328428],[100.18453603820768,0.2330375894524993],[100.19508842858818,0.19972267014169579],[100.19533299921858,0.189900000472218]]]}},{"type":"Feature","properties":{"code":"1308072001","desa":"Panti","kecamatan":"Panti","kecCode":"130807","kabCode":"1308","province":"Sumatera Barat"},"geometry":{"type":"Polygon","coordinates":[[[100.10460666896267,0.3617202229053037],[100.09703585761879,0.3593444056177994],[100.08813358020063,0.34693841448813023],[100.07358300455206,0.3370603429833401],[100.06182784827665,0.3236779785937747],[100.04679005141979,0.31431886267378],[100.03541447559763,0.32394649007607346],[100.03268293057285,0.34740190258710923],[100.0174681219563,0.3530280370193554],[100.00687784943322,0.3613925630121022],[100.00391260927955,0.367459997469855],[100.00952416390908,0.3747352915812563],[100.01756858881936,0.376832961150678],[100.02011556957791,0.374614386725496],[100.02201773732877,0.3766126425381389],[100.03779868805906,0.3756115307273811],[100.03820918540566,0.37894774841596285],[100.04312555599967,0.3813871981340255],[100.04312950222482,0.38454046673896725],[100.04917808779857,0.3883882556789653],[100.05716978995387,0.38901790611632237],[100.06527797769655,0.38658183784910016],[100.07484202843693,0.3899468689166292],[100.08071788032595,0.39465913476977244],[100.08540711364742,0.4043723389599144],[100.08670229477514,0.4018341193995877],[100.09812428370878,0.39868242460826153],[100.09640392020479,0.38413982416381176],[100.09994060667373,0.3776055840080787],[100.10185921672951,0.3782587148446447],[100.10220686225692,0.371149789016346],[100.10614708442046,0.3688351310239153],[100.10357420588495,0.36649889200026975],[100.10460666896267,0.3617202229053037]]]}},{"type":"Feature","properties":{"code":"1308072003","desa":"Panti Timur","kecamatan":"Panti","kecCode":"130807","kabCode":"1308","province":"Sumatera Barat"},"geometry":{"type":"Polygon","coordinates":[[[100.10460666896267,0.3617202229053037],[100.10357420588495,0.36649889200026975],[100.10614708442046,0.3688351310239153],[100.10220686225692,0.371149789016346],[100.10185921672951,0.3782587148446447],[100.09994060667373,0.3776055840080787],[100.09640392020479,0.38413982416381176],[100.09812428370878,0.39868242460826153],[100.08623812139221,0.40214029628778913],[100.07961584839272,0.418920141083031],[100.07925280737123,0.4308123998904046],[100.07701873492674,0.4339134178845742],[100.07971843225988,0.44791073509131085],[100.07757527497904,0.45047573556285864],[100.08127143103178,0.45382097884745665],[100.08205070797385,0.45822733760897794],[100.08041040031979,0.45887379008006224],[100.08255756138242,0.4613362111811421],[100.07944786222912,0.46092742434555306],[100.07510784734933,0.4657379168503916],[100.06384914742029,0.464529996042853],[100.05879401593113,0.46639438057450916],[100.06411131958178,0.4708072639174579],[100.07396176932023,0.4707560772046194],[100.08304756779108,0.4749193357275135],[100.10075328443655,0.4753425315009492],[100.1154138480707,0.4825170358927279],[100.1337146632012,0.46473378871352744],[100.1386582032136,0.45616498891283136],[100.15044855625592,0.4480259283527204],[100.15025740625435,0.44180341480157304],[100.14597765764283,0.4382620113924615],[100.14202902771751,0.42318487191095383],[100.14202731630762,0.41131413747734985],[100.14744659588376,0.40398989056910917],[100.15590938181259,0.40054235749572026],[100.16161353064,0.39039405140762745],[100.16289523542684,0.37522050460286394],[100.166507510813,0.36583839301819293],[100.16427168379123,0.3566963743391949],[100.16826742020532,0.33308798265166323],[100.14701458585449,0.33502906046800834],[100.11541627803888,0.35992992002713675],[100.10460666896267,0.3617202229053037]]]}},{"type":"Feature","properties":{"code":"1308072004","desa":"Panti Selatan","kecamatan":"Panti","kecCode":"130807","kabCode":"1308","province":"Sumatera Barat"},"geometry":{"type":"Polygon","coordinates":[[[100.17052802984477,0.26751296425263726],[100.16134565228008,0.26347837713059924],[100.15228024144004,0.269969814053651],[100.14934716643863,0.27528319125828793],[100.12303023255923,0.27349073360452036],[100.1118427733254,0.2799888470944062],[100.11009301278239,0.2794720552784729],[100.11167101540508,0.2736322068547375],[100.10973861604435,0.2609212340358427],[100.10705673158293,0.25791545874290817],[100.10197094760122,0.2558710101527578],[100.09699932266068,0.25960412114282794],[100.09304233263758,0.2574551272642823],[100.08365646457423,0.2601191610794084],[100.07846402459512,0.2563859898347121],[100.07290136340724,0.24495007491198076],[100.04805128403954,0.24460049674188777],[100.04194444937689,0.25311110770831446],[100.03391493342748,0.2550290909344952],[100.02250301959872,0.2488607309595617],[100.01966237871584,0.25061640544242625],[100.0019995246584,0.2646926723328293],[100.00060341081883,0.27769374306117034],[100.00901232465912,0.28249060364242656],[100.00985461889559,0.288125660248704],[100.01843152969138,0.2873508691258146],[100.02414192700836,0.28988610653425956],[100.0235723180081,0.29572965566824866],[100.0182594444179,0.30240771180817116],[100.022173245399,0.3108458329210817],[100.04679005141979,0.31431886267378],[100.05560819276394,0.3194280182310857],[100.06804766207,0.3294213702315685],[100.07358300455206,0.3370603429833401],[100.08813358020063,0.34693841448813023],[100.09703585761879,0.3593444056177994],[100.10946134066842,0.361506770616514],[100.12054563327438,0.3564163830109256],[100.14701458585449,0.33502906046800834],[100.16826742020532,0.33308798265166323],[100.17570652943284,0.3071781808847499],[100.17052802984477,0.26751296425263726]]]}},{"type":"Feature","properties":{"code":"1308082001","desa":"Muara Tais","kecamatan":"Mapat Tunggul","kecCode":"130808","kabCode":"1308","province":"Sumatera Barat"},"geometry":{"type":"Polygon","coordinates":[[[100.06560399992469,0.7999889988987227],[100.07027799963004,0.7899999987176736],[100.07711377617987,0.7865952472933173],[100.09116799980343,0.7883669989563149],[100.10726997073259,0.7778197922798844],[100.12132400010256,0.7812659997524934],[100.12473299992807,0.777051998781863],[100.17083299984313,0.7577779994078477],[100.18329299977216,0.7571689992032926],[100.18638923427581,0.7580550130807534],[100.18119460624614,0.7623334127044288],[100.18759282934563,0.7609618674453282],[100.19463888357767,0.7568889665062223],[100.20059571222241,0.7450554271331322],[100.21170497180707,0.7360922746156431],[100.2190549995886,0.7427389992748253],[100.23206299960782,0.7370269993723765],[100.27002858665003,0.7304114029470831],[100.27368959270056,0.727255363530976],[100.26869002582406,0.7080300435599275],[100.28454637031881,0.6895091274732085],[100.28442012798655,0.6823133568128964],[100.27368959270056,0.6771374508754013],[100.2491987250412,0.6728452376651078],[100.2285833580356,0.6619444598287051],[100.22144447758063,0.6652889009180374],[100.21042645062028,0.6538219800691061],[100.20583236826923,0.6393213986486695],[100.1526275668088,0.63733510022188],[100.14327175858483,0.6287943484771835],[100.12232255244389,0.6246034124189953],[100.11633395524791,0.6364946756768654],[100.1181611339292,0.6425254222918024],[100.11663462288958,0.6490835448438177],[100.10332940862536,0.6588415604528349],[100.09585098193729,0.6727548243233245],[100.0957636397802,0.6808323316854022],[100.08956543759494,0.685614430794607],[100.0893291892907,0.6922200861140223],[100.08562190232897,0.6992094875458869],[100.08671706524039,0.7057669733779165],[100.07626167843375,0.72979859861035],[100.07678690858904,0.7388931780514761],[100.072746039698,0.7427235174458666],[100.05367962271647,0.748663671753888],[100.06237749772339,0.7785025935493817],[100.05974153624294,0.7909247814691713],[100.06560399992469,0.7999889988987227]]]}},{"type":"Feature","properties":{"code":"1308082002","desa":"Lubuak Gadang","kecamatan":"Mapat Tunggul","kecCode":"130808","kabCode":"1308","province":"Sumatera Barat"},"geometry":{"type":"Polygon","coordinates":[[[100.20541127690899,0.6110516220513003],[100.20958484076782,0.5822429995635835],[100.21661112340466,0.5769666726285028],[100.23801732633858,0.5393133788061419],[100.23217369356115,0.5434432428035395],[100.21847042227222,0.5410815313823935],[100.20618543131269,0.5460619363984912],[100.18256886296273,0.5273022431142265],[100.1806765158086,0.5273791891084288],[100.18223654997684,0.5300210474405457],[100.18059200022071,0.5330272975755184],[100.17646398792277,0.5280309583713738],[100.16884708632402,0.5286738009638194],[100.17141162274822,0.5319401278396227],[100.1668408598179,0.5366294178131488],[100.15935541032398,0.5284745579633678],[100.15674028343737,0.5283075196853193],[100.12960569764488,0.5453049968182315],[100.12300919022204,0.5531897947544983],[100.11953068809082,0.5609443204965341],[100.12315441094738,0.5638730310848455],[100.12086519207504,0.5841043470846468],[100.11594688703927,0.5917481393033549],[100.12241948587062,0.5984463087807962],[100.11895305983592,0.610014512177756],[100.12100869779324,0.6174237675023254],[100.14755292093058,0.610710046048744],[100.16221955858582,0.6018158580423075],[100.16816279487715,0.6007615405407407],[100.19086248281741,0.6087333092140265],[100.20541127690899,0.6110516220513003]]]}},{"type":"Feature","properties":{"code":"1308082005","desa":"Pintu Padang","kecamatan":"Mapat Tunggul","kecCode":"130808","kabCode":"1308","province":"Sumatera Barat"},"geometry":{"type":"Polygon","coordinates":[[[100.12232255244389,0.6246034124189953],[100.14327175858483,0.6287943484771835],[100.1526275668088,0.63733510022188],[100.20583236826923,0.6393213986486695],[100.19780559974868,0.628138944154436],[100.20541127690899,0.6110516220513003],[100.19086248281741,0.6087333092140265],[100.17070662620989,0.6009285203628371],[100.16221955858582,0.6018158580423075],[100.13975067355476,0.6133110328918805],[100.12635657389681,0.6145488336743715],[100.12100869779324,0.6174237675023254],[100.12232255244389,0.6246034124189953]]]}},{"type":"Feature","properties":{"code":"1308122001","desa":"Simpang Tonang","kecamatan":"Duo Koto","kecCode":"130812","kabCode":"1308","province":"Sumatera Barat"},"geometry":{"type":"MultiPolygon","coordinates":[[[[99.95224896791558,0.2891461515501986],[99.93992024022695,0.288027422805097],[99.93544444390601,0.29197222701006903],[99.93166666718297,0.29049999995003956],[99.92277777797214,0.2933611102988225],[99.92305555427048,0.2968888880795736],[99.91974999806398,0.299305551675044],[99.91841666679579,0.29808333254631875],[99.9200555571183,0.3076111100206284],[99.91555327666241,0.3142180189948827],[99.91005411300699,0.31543973450329765],[99.90441400490249,0.3120588573812746],[99.90455081876537,0.3138669236684613],[99.91278676689586,0.31784893192710745],[99.92522549066393,0.31520543952682256],[99.92920010739908,0.30934590404417606],[99.934006242694,0.3129859873632807],[99.94042036221003,0.30591022403538554],[99.94417889344122,0.2970464349127619],[99.95133665786051,0.29244131069078744],[99.95224896791558,0.2891461515501986]]],[[[99.83580200016222,0.4587029998304686],[99.84931299999498,0.4699789991058054],[99.85865012030689,0.463578033081213],[99.87677500016616,0.46867699931978674],[99.88413300043764,0.4670370001350258],[99.89122099994927,0.47140399916790227],[99.9084888735627,0.472184379577259],[99.92087010277311,0.4536905186949924],[99.91944137322086,0.4357397395099695],[99.93548894685743,0.43107052240448857],[99.9418360417,0.4243920202008587],[99.9574557619739,0.4215179668092068],[99.98568051404453,0.4343937610772875],[99.97268084444545,0.41909637492892293],[99.9647895560932,0.3847157320150758],[99.95462718189896,0.37482719599900677],[99.95415152687154,0.3694628650059056],[99.94755076565538,0.36475636290779667],[99.94655215305947,0.358096661031502],[99.94118826092955,0.3492032185630609],[99.94525760325585,0.34026089974006357],[99.92872896157239,0.33630399785499704],[99.90869873126151,0.33684442565288714],[99.90453866442789,0.34264898557895185],[99.90358865659128,0.35306068151027914],[99.89719485635759,0.3555626476003073],[99.89343392483585,0.36450829481421043],[99.86558288694073,0.3802961478235485],[99.85155591097657,0.38496489098625414],[99.81689643861978,0.4110126496543185],[99.81508582634983,0.4147206866464315],[99.82356249781111,0.4184346195939431],[99.82822240513997,0.42823181596650994],[99.8269444460294,0.4594444395953023],[99.83580200016222,0.4587029998304686]]]]}},{"type":"Feature","properties":{"code":"1308122002","desa":"Cubadak","kecamatan":"Duo Koto","kecCode":"130812","kabCode":"1308","province":"Sumatera Barat"},"geometry":{"type":"Polygon","coordinates":[[[100.01756858881936,0.376832961150678],[100.00881087472214,0.3742088266573815],[100.0042218879298,0.36935075102312603],[100.00462548477837,0.364276693307252],[100.0174681219563,0.3530280370193554],[100.03268293057285,0.34740190258710923],[100.03541447559763,0.32394649007607346],[100.04679005141979,0.31431886267378],[100.022173245399,0.3108458329210817],[100.0182594444179,0.30240771180817116],[100.0235723180081,0.29572965566824866],[100.02414192700836,0.28988610653425956],[100.01843152969138,0.2873508691258146],[100.00985461889559,0.288125660248704],[100.00901232465912,0.28249060364242656],[100.00108785042401,0.2781351842801683],[100.0005267741913,0.2752765227853696],[99.9920803379373,0.2742821783729702],[99.98713896888836,0.28217066802626706],[99.98039128003359,0.2873636341029633],[99.97733555639086,0.27972003883578966],[99.97150447095464,0.2861431875379565],[99.96486435270776,0.28872186759709034],[99.95224896791558,0.2891461515501986],[99.95133665786051,0.29244131069078744],[99.94386480431734,0.2974747379359948],[99.93773927994384,0.30980532271092664],[99.934006242694,0.3129859873632807],[99.92920010739908,0.30934590404417606],[99.92522549066393,0.31520543952682256],[99.92077503723822,0.3172163452033149],[99.90903976677185,0.31683443370771175],[99.90324999708974,0.31136111027870145],[99.8842195610839,0.31003233407814074],[99.87500086709638,0.3190250760895062],[99.87324847423776,0.3171707432803824],[99.86952854640536,0.31966782785035247],[99.85786491503386,0.3198316483541006],[99.84664119423574,0.3155265397650284],[99.84949999602804,0.3023333297811683],[99.8325597031678,0.308308697043807],[99.81463899998992,0.29999999646704434],[99.80772200027012,0.2997499993276931],[99.79530600057154,0.29947200359508885],[99.78655246292588,0.320913927576673],[99.77905795635967,0.31896951327556433],[99.77224610807149,0.3133340717594969],[99.76386200202982,0.31188724964792525],[99.75658367539636,0.3174423403366424],[99.75241527724329,0.3330026702645189],[99.7600000001999,0.34586100149715693],[99.77283890069475,0.3492946895075424],[99.77683855635433,0.3585964475668264],[99.77006567299247,0.3626853033783121],[99.76823730810537,0.3673869842109801],[99.74660696893652,0.37975990636981066],[99.74341741538149,0.384573785721429],[99.74877721289813,0.3920183376376669],[99.74934758362417,0.4014390139502602],[99.76754350632778,0.3984851763040804],[99.77300653162621,0.4013892715486342],[99.77043157385809,0.41095626935664964],[99.76529400061769,0.41888999580805375],[99.76695299888183,0.42088399692812556],[99.78466771774104,0.41761479671836765],[99.79379151526625,0.4124193844856639],[99.8028853213006,0.41632366793723957],[99.81508582634983,0.4147206866464315],[99.81786854459772,0.41021393026982844],[99.85155591097657,0.38496489098625414],[99.86558288694073,0.3802961478235485],[99.89343392483585,0.36450829481421043],[99.89719485635759,0.3555626476003073],[99.90358865659128,0.35306068151027914],[99.90453866442789,0.34264898557895185],[99.90869873126151,0.33684442565288714],[99.9305715384458,0.33666283904222133],[99.94525760325585,0.34026089974006357],[99.94118826092955,0.3492032185630609],[99.94655215305947,0.358096661031502],[99.94755076565538,0.36475636290779667],[99.95415152687154,0.3694628650059056],[99.95462718189896,0.37482719599900677],[99.9647895560932,0.3847157320150758],[99.97268084444545,0.41909637492892293],[99.98625857037678,0.4354851063654376],[99.99478713182071,0.43336548524418295],[99.99832005822418,0.4290437490897815],[100.00974343391236,0.42706768764596065],[100.01164991121448,0.4254056784534408],[100.01027746932981,0.42021053421870636],[100.01636332730578,0.4172419315031553],[100.01561397260677,0.413616037687328],[100.01936104197857,0.40714403511368147],[100.01373494980817,0.40321929298495474],[100.01615938444807,0.39879599998931464],[100.01369601905611,0.3870387510045732],[100.01712094137837,0.38237042512730174],[100.01756858881936,0.376832961150678]]]}},{"type":"Feature","properties":{"code":"1308132001","desa":"Malampah","kecamatan":"Tigo Nagari","kecCode":"130813","kabCode":"1308","province":"Sumatera Barat"},"geometry":{"type":"Polygon","coordinates":[[[100.08752471939033,0.08341743027689977],[100.09047219973228,0.06756388449014013],[100.09372672930516,0.06276969399597085],[100.09241434234809,0.057226760342700994],[100.09743511164116,0.050793387248246724],[100.12454228339972,0.05173588214741729],[100.15028352796251,0.06549083835828355],[100.15392379924401,0.06347417162472675],[100.15832175744323,0.064431384828518],[100.1665934302427,0.05542051877996364],[100.16712370109796,0.05298726898801752],[100.16060991601489,0.04700419633401785],[100.15376323428592,0.03522935031485589],[100.14306548468444,0.03135234689825278],[100.13716985580425,0.03254906125380877],[100.13645662956986,0.02852832638927526],[100.13935686133016,0.02340664237651193],[100.12538155231685,0.012507629909253777],[100.1233830437925,0.005023395407776394],[100.10715261729952,0.007302160558177316],[100.088262676981,0.001999147140698132],[100.07469246668404,0.0046238311197936265],[100.05378339728598,-0.0011135827243718408],[100.04351459192492,0.0025345729094473236],[100.02824918475214,0.0025461543787186243],[100.02809128538456,0.005391325143519242],[100.03647222401399,0.009527775775643914],[100.01722200359268,0.01988900085451077],[99.99791873576112,0.03691644879381366],[99.98064035177089,0.07077574392627389],[100.00099850277871,0.0895326331243962],[100.01954224008239,0.09581477082784436],[100.03172617602229,0.0932415181772748],[100.04829345797674,0.09573312227870434],[100.05228727703626,0.09142493800821508],[100.06159455244669,0.09049125196849828],[100.07225695059786,0.0920346477778106],[100.07867569622645,0.0905625448242782],[100.08752471939033,0.08341743027689977]]]}},{"type":"Feature","properties":{"code":"1308132002","desa":"Ladang Panjang","kecamatan":"Tigo Nagari","kecCode":"130813","kabCode":"1308","province":"Sumatera Barat"},"geometry":{"type":"Polygon","coordinates":[[[100.02815410842544,0.0026348104452161556],[100.04351459192492,0.0025345729094473236],[100.05378339728598,-0.0011135827243718408],[100.07469246668404,0.0046238311197936265],[100.088262676981,0.001999147140698132],[100.10715261729952,0.007302160558177316],[100.12205568042538,0.005406755711234537],[100.12594830507025,0.0044081449150396345],[100.12808785876774,0.00020788918253098027],[100.12865840935814,-0.0041000585661871225],[100.12477156555535,-0.011136393817033527],[100.13145590256788,-0.020348362663971203],[100.12442666475884,-0.027037897750481116],[100.06597273455411,-0.043758414270398206],[100.05285429958633,-0.05646450377061449],[100.03024634699135,-0.05893882649967106],[100.03737566225709,-0.05097412110173573],[100.03519635312927,-0.0491828802306274],[100.03872092662955,-0.03730251765529534],[100.03352072460183,-0.035450526680769555],[100.0312798478867,-0.02912795365947333],[100.02397044068333,-0.02372094713741505],[100.02742395515143,-0.013987976748006973],[100.02815410842544,0.0026348104452161556]]]}},{"type":"Feature","properties":{"code":"1308132003","desa":"Binjai","kecamatan":"Tigo Nagari","kecCode":"130813","kabCode":"1308","province":"Sumatera Barat"},"geometry":{"type":"Polygon","coordinates":[[[100.13351293267579,-0.09483765093062138],[100.12683425779483,-0.09596101927817702],[100.12246417498174,-0.09372116059817101],[100.11785464677456,-0.0977646303239747],[100.10824027716711,-0.08597852209485353],[100.1031365912807,-0.08374712063935565],[100.10110611815288,-0.08568926864891419],[100.0935607971931,-0.08429051260271914],[100.09204001663352,-0.08077773731231615],[100.07976406475986,-0.08055385378718065],[100.07828066811838,-0.0856127174570997],[100.07450783766666,-0.08333486601800108],[100.06264752096637,-0.08626522056687413],[100.05725827784731,-0.08171716732191178],[100.04983763260071,-0.0812630618498249],[100.04492032131581,-0.08341717826676771],[100.03845542158051,-0.08194837852311838],[100.03191117825833,-0.08869009227467263],[100.03215105442769,-0.09277033348027071],[100.02470555191972,-0.09312145668563758],[100.01707063240383,-0.09878027787694085],[100.01482766296635,-0.09584308308453691],[100.0179570311921,-0.0899569501524297],[100.01282503374836,-0.08274277576583816],[100.01418879537664,-0.07699494507447266],[100.01019102019949,-0.07012222708061606],[100.01238960269806,-0.06641158924911833],[100.01686907724616,-0.064808510831575],[100.02053791639179,-0.06649943952305204],[100.02105119275842,-0.07228805356986633],[100.02669284499886,-0.06788411128669586],[100.03324001921156,-0.06844092113499797],[100.03393118417686,-0.0709300556981079],[100.03754121575456,-0.06672098391155855],[100.03470307318831,-0.061066969596586404],[100.03033359831699,-0.06193647012265684],[100.03039933156394,-0.05874332737687945],[100.05285429958633,-0.05646450377061449],[100.06597273455411,-0.043758414270398206],[100.12442666475884,-0.027037897750481116],[100.13145590256788,-0.020348362663971203],[100.13712320886907,-0.0422675199826815],[100.13227362642674,-0.04671913352888175],[100.13455587285527,-0.05016544981946612],[100.13260656534077,-0.053707571786896516],[100.13255545956685,-0.06697624748084892],[100.1436242550554,-0.07467282180968632],[100.14413781740643,-0.0774298814971279],[100.13809016982553,-0.0825421298230346],[100.13774796429713,-0.08679263697348438],[100.1413734624154,-0.09164612876321443],[100.13400391934543,-0.09236435432810403],[100.13351293267579,-0.09483765093062138]]]}},{"type":"Feature","properties":{"code":"1308142002","desa":"Taruang Taruang","kecamatan":"Rao","kecCode":"130814","kabCode":"1308","province":"Sumatera Barat"},"geometry":{"type":"Polygon","coordinates":[[[99.92615595623244,0.4958594685849756],[99.93514470166673,0.5008217900333609],[99.94600424559951,0.5113329437883544],[99.95161984717828,0.5125713354254822],[99.95596288198146,0.5101564866619169],[99.96071826403669,0.513415138723404],[99.95026100034492,0.5238069992077548],[99.95599796093721,0.529764908830939],[99.97315140121621,0.5325272268544062],[99.99743339773318,0.5508903164188058],[100.01085338167826,0.5534956442894967],[100.017646116675,0.5639560717844739],[100.0248807524448,0.5617417646424452],[100.02967107855748,0.563787470484779],[100.03541994257637,0.556359584804673],[100.04226962624234,0.5510323688324475],[100.05032288699171,0.5488529805667047],[100.05595140823094,0.5429723649753927],[100.0468339976909,0.5367675105118352],[100.04663490307836,0.5285637707102384],[100.03832980067983,0.5137194117468041],[99.98045013706422,0.5050075226141603],[99.97284088959542,0.4963923465743244],[99.96439741570822,0.478402297592848],[99.9606524246697,0.47523152818088565],[99.95417351979215,0.4735570256065373],[99.94501924963873,0.4757309379003004],[99.93063635258567,0.47457746474731743],[99.9276521502266,0.48029284250346016],[99.9179150582334,0.48580758241057204],[99.92615595623244,0.4958594685849756]]]}},{"type":"Feature","properties":{"code":"1308142005","desa":"Padang Mantinggi","kecamatan":"Rao","kecCode":"130814","kabCode":"1308","province":"Sumatera Barat"},"geometry":{"type":"Polygon","coordinates":[[[99.95962300040121,0.5687209992386194],[99.93984200010827,0.5934859991157714],[99.93116400011853,0.5973319993042341],[99.92861209737042,0.6034196523202501],[99.92041199981401,0.6050689999576755],[99.92295300008095,0.6160529992574986],[99.90924800029505,0.6256329994636136],[99.90953399999415,0.6288269992633434],[99.9263650629973,0.6318676115943705],[99.91595400017702,0.6495719999214223],[99.91225503014554,0.6780208585175932],[99.91878365943842,0.6649893763149743],[99.91880735837293,0.6574227072568813],[99.9233207490534,0.652622283561702],[99.94195962563629,0.6451273228461927],[99.94671396897456,0.6407703728378317],[99.96080084878018,0.6391963074488022],[99.97499919505685,0.622937386854219],[99.97832884140297,0.6126480544789676],[99.99329921158942,0.6046659768770821],[100.00051689783662,0.5889794747642226],[100.00970297880946,0.5856461987580667],[100.01909026600305,0.585881708718613],[100.02986852381338,0.5794580033360697],[100.02864395655342,0.5722734166447866],[100.03694609478652,0.5634929820852479],[100.02804849564158,0.5640450498083358],[100.0248807524448,0.5617417646424452],[100.017646116675,0.5639560717844739],[100.01085338167826,0.5534956442894967],[99.99743339773318,0.5508903164188058],[99.97315140121621,0.5325272268544062],[99.95599796093721,0.529764908830939],[99.9644730001289,0.5459159998129197],[99.96454599989806,0.5554770000421916],[99.96062205726219,0.560212061011229],[99.95962300040121,0.5687209992386194]]]}},{"type":"Feature","properties":{"code":"1308152001","desa":"Silayang","kecamatan":"Mapat Tunggul Selatan","kecCode":"130815","kabCode":"1308","province":"Sumatera Barat"},"geometry":{"type":"Polygon","coordinates":[[[100.15857904898398,0.4421889460683495],[100.1386582032136,0.45616498891283136],[100.12292338590561,0.47689353287679953],[100.11641004958419,0.4810110995445439],[100.10690907459416,0.4945439618811527],[100.10400128133413,0.5030881778144494],[100.09580027636171,0.5091626458699174],[100.09629068476731,0.5157438854949926],[100.1055152783075,0.5173218728275124],[100.11592975135699,0.5257445058162254],[100.11293529043137,0.5316804665855662],[100.10347430559477,0.5377133535869603],[100.10076535423775,0.5448938249805672],[100.11035687656862,0.5514828986000363],[100.12263000906772,0.5542196875686198],[100.12960569764488,0.5453049968182315],[100.15433931121032,0.5291934841001084],[100.15935541032398,0.5284745579633678],[100.1668408598179,0.5366294178131488],[100.17141162274822,0.5319401278396227],[100.16884708632402,0.5286738009638194],[100.17646398792277,0.5280309583713738],[100.18059200022071,0.5330272975755184],[100.18121850393088,0.5271397590030319],[100.19574667926588,0.5360698389522787],[100.19960425733068,0.5423680961041091],[100.20618543131269,0.5460619363984912],[100.21847042227222,0.5410815313823935],[100.23217369356115,0.5434432428035395],[100.23801732633858,0.5393133788061419],[100.23953215068826,0.5315593386979547],[100.22589805974768,0.5265657819962487],[100.22216241716188,0.5190742935632218],[100.22175096293664,0.5099848987136592],[100.22436930669816,0.5028405602811756],[100.23858317527338,0.49176870531144473],[100.24041601608633,0.4864572076898494],[100.23532894697337,0.47819072039053134],[100.23570299569671,0.47467465807801773],[100.24176259256966,0.46925094574966525],[100.25738056905804,0.44477641340327134],[100.24640149173553,0.4383215680956102],[100.23605858043918,0.4268957120898884],[100.23130260303276,0.41762276920824903],[100.18958261084884,0.42564663290965843],[100.15857904898398,0.4421889460683495]]]}},{"type":"Feature","properties":{"code":"1308152002","desa":"Muaro Sungai Lolo","kecamatan":"Mapat Tunggul Selatan","kecCode":"130815","kabCode":"1308","province":"Sumatera Barat"},"geometry":{"type":"Polygon","coordinates":[[[100.32256669819462,0.3185166668543856],[100.30840784384696,0.3019542664384537],[100.31528196389161,0.28884396225595543],[100.31984700443576,0.2864840063113824],[100.31576486026017,0.2744250950351293],[100.32490177889404,0.26989915881719817],[100.33352522510908,0.254883767686561],[100.33585768518405,0.21852328078032576],[100.3401694928279,0.21074434743793985],[100.33845939328643,0.20365920238245502],[100.34699711702336,0.2053168777420215],[100.34514199011079,0.19803699439023476],[100.35148785378145,0.18776962435859348],[100.35346374165839,0.1790864901490451],[100.35025457568817,0.17310753279274668],[100.35274440543002,0.17076535104908705],[100.33405581342508,0.15159159640548564],[100.32866523301414,0.15195372461470813],[100.32655198808385,0.1247875249847266],[100.32084710001372,0.1199768930849414],[100.32052003367265,0.11392502589177103],[100.32506908427085,0.10528237916069608],[100.32435001424182,0.09732291501165127],[100.31580637026781,0.0861735600653838],[100.31080978824122,0.0856178123164673],[100.27461195627683,0.094280986972484],[100.26700500567654,0.09344365429674291],[100.26539175682414,0.09787789473960522],[100.25793945184425,0.1012525791299642],[100.25373233697779,0.1132426562968639],[100.24146634959241,0.11988433845738371],[100.23964808768913,0.12616659397203991],[100.24218032406276,0.13679231326160823],[100.24076913668637,0.14392908479838412],[100.23322426089099,0.15031938126629327],[100.22854596782223,0.15112376817835338],[100.22251839400872,0.16120912981718236],[100.19547199933334,0.18079999991782467],[100.19508842858818,0.19972267014169579],[100.18453603820768,0.2330375894524993],[100.18261172105412,0.2476844986636055],[100.17826180463862,0.2529979361228033],[100.17769213808174,0.26254710756924154],[100.17052802984477,0.26751296425263726],[100.17570652943284,0.3071781808847499],[100.16602860293773,0.3380764860627627],[100.16417681430856,0.3584674110411937],[100.166507510813,0.36583839301819293],[100.16289523542684,0.37522050460286394],[100.1618036104483,0.389628176163519],[100.15590938181259,0.40054235749572026],[100.14744659588376,0.40398989056910917],[100.14202731630762,0.41131413747734985],[100.14202902771751,0.42318487191095383],[100.14597765764283,0.4382620113924615],[100.15082825541968,0.4436700899064616],[100.14921268541717,0.450227948057699],[100.15857904898398,0.4421889460683495],[100.18958261084884,0.42564663290965843],[100.21103722788583,0.42301071370032767],[100.2296384840289,0.417383708724265],[100.24640149173553,0.4383215680956102],[100.25738056905804,0.44477641340327134],[100.2648788311932,0.43330482147562654],[100.26947963507718,0.4204001256950164],[100.27611111083915,0.4119444435203963],[100.28625458488123,0.4043102398734266],[100.28966812988034,0.39861638019586537],[100.29410180105731,0.40093482793144597],[100.30138885561126,0.39638889618719236],[100.3016869889634,0.38605003095230517],[100.32019633978932,0.3672420809464751],[100.32527384641094,0.3665233859355027],[100.324517024641,0.35739597224654174],[100.33327167834533,0.35215545271802684],[100.32256669819462,0.3185166668543856]]]}},{"type":"Feature","properties":{"code":"1308162001","desa":"Alahan Mati","kecamatan":"Simpang Alahan Mati","kecCode":"130816","kabCode":"1308","province":"Sumatera Barat"},"geometry":{"type":"Polygon","coordinates":[[[100.16824628613726,-0.09837058992068783],[100.1604642222461,-0.10767842020236564],[100.15478253308748,-0.1065158243266142],[100.15286139323875,-0.10208193821658035],[100.15016384798325,-0.10311352355483866],[100.14518763020503,-0.10067516291573646],[100.14065931257727,-0.10278238598325273],[100.13490394556072,-0.0939090280740555],[100.13351293267579,-0.09483765093062138],[100.13400391934543,-0.09236435432810403],[100.1413734624154,-0.09164612876321443],[100.13774796429713,-0.08679263697348438],[100.13809016982553,-0.0825421298230346],[100.14413781740643,-0.0774298814971279],[100.1436242550554,-0.07467282180968632],[100.13255545956685,-0.06697624748084892],[100.13260656534077,-0.053707571786896516],[100.13455587285527,-0.05016544981946612],[100.13227362642674,-0.04671913352888175],[100.13712320886907,-0.0422675199826815],[100.13482625402844,-0.02863671967677954],[100.1384518789511,-0.026657730040352844],[100.1414709660123,-0.020162296530169724],[100.14686736323829,-0.019109212898409653],[100.14653450256532,-0.010684831627617143],[100.14974381242705,-0.009942900833027454],[100.15114638969419,-0.006735891440637584],[100.15785027706869,-0.009416349574255717],[100.16360323390217,-0.007573507402917745],[100.17095588140886,-0.00975236057202672],[100.17392744559521,-0.011343872808742266],[100.17404769844256,-0.015655175928052583],[100.17806051657965,-0.02019278084951593],[100.18131677285082,-0.02135932384976214],[100.18601545175176,-0.017242196051204927],[100.1896288836661,-0.02226800693803593],[100.19487354008186,-0.023615003403195754],[100.20292496801295,-0.030226265995528107],[100.19831480938103,-0.03577695540209533],[100.18965698658069,-0.034267932580611775],[100.18473954759212,-0.03724090240399919],[100.18468042706012,-0.055788653361164266],[100.1746366185851,-0.05782313386573839],[100.1650089516019,-0.0667861478876452],[100.1517862960008,-0.07079293876385527],[100.15491832801848,-0.09125304049325217],[100.15714355203335,-0.0944695395318593],[100.16824628613726,-0.09837058992068783]]]}},{"type":"Feature","properties":{"code":"1308162002","desa":"Simpang","kecamatan":"Simpang Alahan Mati","kecCode":"130816","kabCode":"1308","province":"Sumatera Barat"},"geometry":{"type":"Polygon","coordinates":[[[100.17319968631652,0.05383974534775294],[100.18869380097817,0.029180743164158543],[100.18809946242031,0.026249012652489793],[100.18281008181987,0.02277883554939983],[100.18524671036744,0.017274324531194346],[100.18022477195568,0.013145980388014745],[100.18731401882694,0.0028214683329959083],[100.18362994426654,-0.006037929400144855],[100.18414958243733,-0.010362595545704421],[100.17914550456145,-0.01310289996414316],[100.16455413566489,-0.007741034912122295],[100.15887249866694,-0.009488144251782394],[100.15043320932523,-0.0069034225470994285],[100.14560737977685,-0.013437120411674578],[100.14686736323829,-0.019109212898409653],[100.1414709660123,-0.020162296530169724],[100.1384518789511,-0.026657730040352844],[100.13482625402844,-0.02863671967677954],[100.13022746372656,-0.017131601023305694],[100.12494986694287,-0.012213381428683683],[100.12872972559643,-0.002376881085462083],[100.1264831939443,0.003726051412026011],[100.1233830437925,0.005023395407776394],[100.1246208166974,0.011598176102044624],[100.13935686133016,0.02340664237651193],[100.13645662956986,0.02852832638927526],[100.13716985580425,0.03254906125380877],[100.14306548468444,0.03135234689825278],[100.15376323428592,0.03522935031485589],[100.16703126787877,0.054200830343459204],[100.17319968631652,0.05383974534775294]]]}},{"type":"Feature","properties":{"code":"1308172001","desa":"Padang Gelugur","kecamatan":"Padang Gelugur","kecCode":"130817","kabCode":"1308","province":"Sumatera Barat"},"geometry":{"type":"Polygon","coordinates":[[[100.0589187294159,0.46545245404685864],[100.07510784734933,0.4657379168503916],[100.07944786222912,0.46092742434555306],[100.08255756138242,0.4613362111811421],[100.08041040031979,0.45887379008006224],[100.08205070797385,0.45822733760897794],[100.08127143103178,0.45382097884745665],[100.07757527497904,0.45047573556285864],[100.07971843225988,0.44791073509131085],[100.07701873492674,0.4339134178845742],[100.07925280737123,0.4308123998904046],[100.08010059466676,0.4171571757963768],[100.07018097087519,0.41483138239834133],[100.06678115492643,0.41662673496979],[100.05217705432767,0.4120646415090623],[100.05166154584373,0.4219225511128644],[100.04512975543393,0.4230357571212402],[100.04278535685881,0.42102564194885067],[100.04122497465289,0.4251573729387954],[100.03703206727612,0.42744744796320155],[100.04093304302557,0.42876473892190814],[100.04103744082526,0.4315019406793153],[100.04488094989597,0.4309486121067093],[100.04599230959747,0.436368850354058],[100.03933231183679,0.43543388457902105],[100.0351435494353,0.43882706082934547],[100.03124289204588,0.43797211043464224],[100.0315427646869,0.44028886294817277],[100.02568683457979,0.4414636329464738],[100.01911947688238,0.4523640420608915],[100.01016082276378,0.45869517752733985],[100.02352748680414,0.463288571891844],[100.03296985477505,0.46364535453088274],[100.03150251642808,0.4622989606114654],[100.03410275863546,0.45906726392960384],[100.04285015301224,0.4520285616631487],[100.0589187294159,0.46545245404685864]]]}},{"type":"Feature","properties":{"code":"1308172002","desa":"Sontang Cubadak","kecamatan":"Padang Gelugur","kecCode":"130817","kabCode":"1308","province":"Sumatera Barat"},"geometry":{"type":"Polygon","coordinates":[[[100.01936104197857,0.40714403511368147],[100.01561397260677,0.413616037687328],[100.01601866393025,0.41774458867453146],[100.01027746932981,0.42021053421870636],[100.01135041988601,0.425908332926759],[99.99783270391623,0.42922331942051706],[99.99478713182071,0.43336548524418295],[99.98625857037678,0.4354851063654376],[99.98541835537289,0.4461837840553075],[99.98757773732281,0.45376423522368997],[99.98558167405508,0.4611601616962228],[99.98872074056975,0.4669757167335935],[99.99735109897411,0.46805152173680015],[100.00415718620523,0.46591572720788427],[100.0079356473123,0.459557117452943],[100.01911947688238,0.4523640420608915],[100.02568683457979,0.4414636329464738],[100.03933231183679,0.43543388457902105],[100.04599230959747,0.436368850354058],[100.04488094989597,0.4309486121067093],[100.04103744082526,0.4315019406793153],[100.04093304302557,0.42876473892190814],[100.03703206727612,0.42744744796320155],[100.04122497465289,0.4251573729387954],[100.04278535685881,0.42102564194885067],[100.04512975543393,0.4230357571212402],[100.05166154584373,0.4219225511128644],[100.05198514260029,0.4117045655527468],[100.0427812118835,0.4117564798170896],[100.02482148082674,0.40534050410753375],[100.01936104197857,0.40714403511368147]]]}},{"type":"Feature","properties":{"code":"1308172003","desa":"Sitombol Padang Gelugua","kecamatan":"Padang Gelugur","kecCode":"130817","kabCode":"1308","province":"Sumatera Barat"},"geometry":{"type":"Polygon","coordinates":[[[100.06293894087946,0.4702073783418481],[100.04285015301224,0.4520285616631487],[100.03150251642808,0.4622989606114654],[100.04131553278569,0.46371676789585525],[100.04100195177868,0.46535388205545236],[100.05214480643775,0.47021765489487716],[100.06293894087946,0.4702073783418481]]]}},{"type":"Feature","properties":{"code":"1308172004","desa":"Bahagia Padang Gelugua","kecamatan":"Padang Gelugur","kecCode":"130817","kabCode":"1308","province":"Sumatera Barat"},"geometry":{"type":"Polygon","coordinates":[[[100.08540711364742,0.4043723389599144],[100.08071788032595,0.39465913476977244],[100.07626855465014,0.3907197354903316],[100.06527797769655,0.38658183784910016],[100.05716978995387,0.38901790611632237],[100.04640592039699,0.387450401281579],[100.03597988656259,0.3749057023169176],[100.02201773732877,0.3766126425381389],[100.01983028573915,0.3746622900135499],[100.01369601905611,0.3870387510045732],[100.01615938444807,0.39879599998931464],[100.01373494980817,0.40321929298495474],[100.01936104197857,0.40714403511368147],[100.02482148082674,0.40534050410753375],[100.0427812118835,0.4117564798170896],[100.08010059466676,0.4171571757963768],[100.08540711364742,0.4043723389599144]]]}},{"type":"Feature","properties":{"code":"1308182001","desa":"Koto Nopan","kecamatan":"Rao Utara","kecCode":"130818","kabCode":"1308","province":"Sumatera Barat"},"geometry":{"type":"Polygon","coordinates":[[[99.83334455410794,0.7496393381467139],[99.83576400020848,0.758261999244],[99.84346302609782,0.7589438652185754],[99.84817098780093,0.7630739117783578],[99.84328069125098,0.7814046203532131],[99.85014280894353,0.7911071684764974],[99.84462100035891,0.7977129991636494],[99.84694440695887,0.8063888587572077],[99.8448110001276,0.8142589986434848],[99.83848499978295,0.8212019986551796],[99.84194400011557,0.835554998630068],[99.84106400000366,0.8524909990073353],[99.8308639999737,0.8804989991451454],[99.83860599996699,0.8919719994110891],[99.85802397182891,0.8970583499600875],[99.86938699941055,0.906523933019694],[99.88021938831416,0.9042700368218878],[99.8803524672926,0.9020682833162136],[99.89050370608123,0.8961882298010916],[99.89861299999,0.8951769988187047],[99.9005718520094,0.8908746232693253],[99.9130469083882,0.8850332540920377],[99.94362700018598,0.8832059989703135],[99.95103299997307,0.8802429990311368],[99.96061600032822,0.8675759994628918],[99.96050000037478,0.8605049989445148],[99.96681907144307,0.8510729012419441],[99.97342700025591,0.8485909990266626],[99.97688454458614,0.8497639496964905],[99.98476150404024,0.8437655004341396],[100.01031499983742,0.839733998886075],[100.01865899971311,0.8313299989508536],[100.02479600033517,0.8307549994149093],[100.03428800009118,0.8207789989340055],[100.05226881305532,0.8113712332885761],[100.06560399992469,0.7999889988987227],[100.05974153624294,0.7909247814691713],[100.06252092430128,0.7815899832172198],[100.06187735055931,0.7750562880506211],[100.05348760756708,0.7509163565649403],[100.03992596421195,0.7456104041630768],[100.03505288877983,0.738595316294944],[100.02686044265539,0.7352227093383874],[100.00825203330474,0.7325717327800362],[100.00262818943948,0.7372297866009839],[99.99893321959244,0.7369620323478155],[99.99363174041252,0.7445661734575678],[99.98241684825899,0.7450081398807105],[99.98006894862311,0.7469595374174854],[99.97721675774721,0.7511534457349832],[99.97839565743368,0.7600303685568391],[99.97026424559851,0.7601040167370424],[99.95923108574605,0.7554752088690517],[99.95820839739967,0.7412482245969754],[99.95080984669715,0.7304474927407983],[99.94213084756063,0.7270386745822122],[99.93571151467474,0.7184954083329788],[99.91816277469235,0.7089251513818602],[99.91507050889692,0.7019847279278321],[99.91455313072247,0.6883513213865963],[99.90391584344148,0.6829328961724849],[99.89124546510617,0.6830254966654761],[99.88662700033586,0.6887049995658653],[99.85055599975964,0.6836109993836453],[99.83083300034275,0.6961109993446958],[99.83419199966113,0.7017309995012877],[99.83546199977154,0.710829999110278],[99.82916659885949,0.7163888363746018],[99.82494166212807,0.7358973582536007],[99.83334455410794,0.7496393381467139]]]}},{"type":"Feature","properties":{"code":"1308182002","desa":"Koto Rajo","kecamatan":"Rao Utara","kecCode":"130818","kabCode":"1308","province":"Sumatera Barat"},"geometry":{"type":"Polygon","coordinates":[[[99.91225503014554,0.6780208585175932],[99.90732899993343,0.6815069994862899],[99.89620200032209,0.6765929995106555],[99.89124546510617,0.6830254966654761],[99.90391584344148,0.6829328961724849],[99.91332289773362,0.6867484911819499],[99.91507050889692,0.7019847279278321],[99.91816277469235,0.7089251513818602],[99.93571151467474,0.7184954083329788],[99.94213084756063,0.7270386745822122],[99.95080984669715,0.7304474927407983],[99.95820839739967,0.7412482245969754],[99.95789940923042,0.7545181314629328],[99.97550698376034,0.7605695453977711],[99.97914438440586,0.7590608634193181],[99.97721675774721,0.7511534457349832],[99.98006894862311,0.7469595374174854],[99.98241684825899,0.7450081398807105],[99.99363174041252,0.7445661734575678],[99.99893321959244,0.7369620323478155],[100.00262818943948,0.7372297866009839],[100.00825203330474,0.7325717327800362],[100.02686044265539,0.7352227093383874],[100.03505288877983,0.738595316294944],[100.03992596421195,0.7456104041630768],[100.05348760756708,0.7509163565649403],[100.054582838827,0.7476103758821541],[100.07445760423509,0.7416700273205664],[100.07740474193535,0.7375527547310912],[100.07659428100135,0.7287454475294863],[100.08671706524039,0.7057669733779165],[100.08562190232897,0.6992094875458869],[100.0893291892907,0.6922200861140223],[100.08956543759494,0.685614430794607],[100.0957636397802,0.6808323316854022],[100.09585098193729,0.6727548243233245],[100.10124780184464,0.6626544736839665],[100.08705289457549,0.6630234016671659],[100.08396133384853,0.6591468766898612],[100.07578158884927,0.6584565795710693],[100.07180635427989,0.6550719495781816],[100.06906400120278,0.6477697342613894],[100.05401777859764,0.6460344896774632],[100.05566478260367,0.6398369916682469],[100.05119248284689,0.6425511941636604],[100.03557306294658,0.640161010206549],[100.03136435358208,0.6375411133187188],[100.02942658886603,0.6302793387156305],[100.01213650829327,0.6288704958733531],[100.00083043477679,0.6238106447477926],[99.98692291755866,0.6292822369818679],[99.98149166261021,0.6368225316223364],[99.97085252362511,0.6388709372294732],[99.96312263480182,0.6366456223855728],[99.95629556368937,0.6407925141465367],[99.94671396897456,0.6407703728378317],[99.94195962563629,0.6451273228461927],[99.9233207490534,0.652622283561702],[99.91880735837293,0.6574227072568813],[99.91878365943842,0.6649893763149743],[99.91225503014554,0.6780208585175932]]]}},{"type":"Feature","properties":{"code":"1308182003","desa":"Languang","kecamatan":"Rao Utara","kecCode":"130818","kabCode":"1308","province":"Sumatera Barat"},"geometry":{"type":"Polygon","coordinates":[[[100.10124780184464,0.6626544736839665],[100.10995627356323,0.6522633524422827],[100.1135209919003,0.652841741523034],[100.11680097588442,0.6487723785168837],[100.1181611339292,0.6425254222918024],[100.11633395524791,0.6364946756768654],[100.12232255244389,0.6246034124189953],[100.11889616782395,0.610818678755912],[100.12241948587062,0.5984463087807962],[100.11231190107343,0.5982442688887967],[100.10589376878244,0.6028527179043575],[100.09742402569827,0.6022261953091098],[100.08473265898509,0.5932836507563396],[100.0772440285891,0.5950119201984626],[100.06593050329013,0.5866996214341903],[100.06477420356667,0.5821620425930402],[100.0549545843866,0.5726884043059034],[100.03681072523482,0.5736757465967834],[100.03212493541746,0.5695898540514457],[100.0284301193546,0.573027370475861],[100.02986852381338,0.5794580033360697],[100.02136042644257,0.5848511495067876],[100.00831456226729,0.585895364024566],[100.00051689783662,0.5889794747642226],[99.99329921158942,0.6046659768770821],[99.97832884140297,0.6126480544789676],[99.97499919505685,0.622937386854219],[99.96312263480182,0.6366456223855728],[99.97085252362511,0.6388709372294732],[99.98149166261021,0.6368225316223364],[99.98692291755866,0.6292822369818679],[100.00247094657696,0.6239299991722889],[100.00865329281525,0.6280813533693245],[100.02942658886603,0.6302793387156305],[100.03136435358208,0.6375411133187188],[100.03557306294658,0.640161010206549],[100.05119248284689,0.6425511941636604],[100.05566478260367,0.6398369916682469],[100.05401777859764,0.6460344896774632],[100.06906400120278,0.6477697342613894],[100.07180635427989,0.6550719495781816],[100.07839814206068,0.6596506921879933],[100.08396133384853,0.6591468766898612],[100.08752842459715,0.6631908293516297],[100.10124780184464,0.6626544736839665]]]}},{"type":"Feature","properties":{"code":"1308192001","desa":"Lansek Kadok","kecamatan":"Rao Selatan","kecCode":"130819","kabCode":"1308","province":"Sumatera Barat"},"geometry":{"type":"Polygon","coordinates":[[[99.9084888735627,0.472184379577259],[99.9179150582334,0.48580758241057204],[99.9276521502266,0.48029284250346016],[99.93117126304342,0.4743380463331574],[99.9606524246697,0.47523152818088565],[99.96439741570822,0.478402297592848],[99.97284088959542,0.4963923465743244],[99.98045013706422,0.5050075226141603],[100.03832980067983,0.5137194117468041],[100.04663490307836,0.5285637707102384],[100.05157347973237,0.5224548595197988],[100.0717893157244,0.5218058205985185],[100.07237851375749,0.5360676877739695],[100.07777048631895,0.5358465462817202],[100.07873286343094,0.5392174912910975],[100.08237243593925,0.5382175378071541],[100.09693315504114,0.5468762086584252],[100.10500444629821,0.5466058526665515],[100.10076535423775,0.5448938249805672],[100.10085978395192,0.5412080857791916],[100.1159299474092,0.5268454279848236],[100.1055152783075,0.5173218728275124],[100.09629068476731,0.5157438854949926],[100.09580027636171,0.5091626458699174],[100.07480502942859,0.5086805103283022],[100.05961720407078,0.5047354075484739],[100.05743390105376,0.4996331210128704],[100.05173993704851,0.49626188012654476],[100.05169014608343,0.4914527186183285],[100.03962979497913,0.48912474076703755],[100.02718097272378,0.4909975141747509],[100.02344825833052,0.48371611456597124],[100.02242269575089,0.4744388567371829],[100.01804741575569,0.4691261774064284],[100.00234340472439,0.4654659303876962],[99.99735109897411,0.46805152173680015],[99.98872074056975,0.4669757167335935],[99.98558167405508,0.4611601616962228],[99.98757773732281,0.45376423522368997],[99.98541835537289,0.4461837840553075],[99.98607305732577,0.4349394328220447],[99.9574557619739,0.4215179668092068],[99.9418360417,0.4243920202008587],[99.93548894685743,0.43107052240448857],[99.91944137322086,0.4357397395099695],[99.92087010277311,0.4536905186949924],[99.9084888735627,0.472184379577259]]]}},{"type":"Feature","properties":{"code":"1308192002","desa":"Lubuak Layang","kecamatan":"Rao Selatan","kecCode":"130819","kabCode":"1308","province":"Sumatera Barat"},"geometry":{"type":"Polygon","coordinates":[[[100.12140872163525,0.5972353815396114],[100.11594688703927,0.5917481393033549],[100.12086519207504,0.5841043470846468],[100.12315441094738,0.5638730310848455],[100.11953068809082,0.5609443204965341],[100.12300996723627,0.5544099184628704],[100.11035687656862,0.5514828986000363],[100.10500444629821,0.5466058526665515],[100.09693315504114,0.5468762086584252],[100.08237243593925,0.5382175378071541],[100.07873286343094,0.5392174912910975],[100.07777048631895,0.5358465462817202],[100.07237851375749,0.5360676877739695],[100.0717893157244,0.5218058205985185],[100.05157347973237,0.5224548595197988],[100.04837619560499,0.5247386707660819],[100.04606273280892,0.5297937285051894],[100.0468339976909,0.5367675105118352],[100.05595140823094,0.5429723649753927],[100.05032288699171,0.5488529805667047],[100.04226962624234,0.5510323688324475],[100.03050300361076,0.562558787928508],[100.03694609478652,0.5634929820852479],[100.03212493541746,0.5695898540514457],[100.03540469457107,0.5731998829271825],[100.0549545843866,0.5726884043059034],[100.0718655296705,0.5913942308975725],[100.07747227292712,0.5950549554562861],[100.08577286702428,0.5936723620259446],[100.09742402569827,0.6022261953091098],[100.10684470561876,0.6026730252658689],[100.11124211882878,0.5985436513989436],[100.12140872163525,0.5972353815396114]]]}},{"type":"Feature","properties":{"code":"1308192003","desa":"Tanjung Betung","kecamatan":"Rao Selatan","kecCode":"130819","kabCode":"1308","province":"Sumatera Barat"},"geometry":{"type":"Polygon","coordinates":[[[100.1154138480707,0.4825170358927279],[100.09700636705026,0.4743857994344559],[100.08331503156353,0.47496117668563737],[100.07396176932023,0.4707560772046194],[100.05214480643775,0.47021765489487716],[100.04100195177868,0.46535388205545236],[100.04131553278569,0.46371676789585525],[100.02352748680414,0.463288571891844],[100.01016082276378,0.45869517752733985],[100.00412750138315,0.4633918869076885],[100.00415718620523,0.46591572720788427],[100.00868007282713,0.46788297619503777],[100.01942644067775,0.4698439928804159],[100.02718097272378,0.4909975141747509],[100.03962979497913,0.48912474076703755],[100.05169014608343,0.4914527186183285],[100.05173993704851,0.49626188012654476],[100.05743390105376,0.4996331210128704],[100.05961720407078,0.5047354075484739],[100.07119377837022,0.5082120354885434],[100.09580027636171,0.5091626458699174],[100.10400128133413,0.5030881778144494],[100.10690907459416,0.4945439618811527],[100.1154138480707,0.4825170358927279]]]}}]}