{"type":"FeatureCollection","features":[{"type":"Feature","properties":{"code":"1310012002","desa":"Koto Baru","kecamatan":"Koto Baru","kecCode":"131001","kabCode":"1310","province":"Sumatera Barat"},"geometry":{"type":"Polygon","coordinates":[[[101.77622833536947,-1.0913629462233523],[101.77541677096724,-1.0962323452214782],[101.75156937362777,-1.1008521158023252],[101.74951942837895,-1.1034936755595204],[101.75149021440193,-1.1127051398868988],[101.74904619702444,-1.1484072978753588],[101.74435378639815,-1.1577921191173555],[101.75561557190116,-1.1784387249505888],[101.76621956987731,-1.1895729236225228],[101.75186164340016,-1.1934544407365082],[101.73522070067486,-1.184231083774396],[101.72615035795268,-1.1861027015533059],[101.72550114456226,-1.1817519217934125],[101.71962252366058,-1.1803329435917518],[101.71769377644671,-1.1764682051291426],[101.71128291967106,-1.1495558508374073],[101.70596288028274,-1.140055780575952],[101.70672288655201,-1.1278956901736554],[101.69950283328915,-1.11231557606005],[101.70216285343298,-1.1077555420467327],[101.70150831785462,-1.1035010634901752],[101.69453297731513,-1.092372657351498],[101.72298700524618,-1.0911114193372438],[101.72274569285952,-1.0851349234253236],[101.72620646035988,-1.0779993048193224],[101.73556621840628,-1.0760457641981371],[101.74509281058481,-1.0839095170992237],[101.76293829086951,-1.084162155547434],[101.77622833536947,-1.0913629462233523]]]}},{"type":"Feature","properties":{"code":"1310012003","desa":"Sialang Gaung","kecamatan":"Koto Baru","kecCode":"131001","kabCode":"1310","province":"Sumatera Barat"},"geometry":{"type":"Polygon","coordinates":[[[101.72483393843554,-1.0813814850590115],[101.72298700524618,-1.0911114193372438],[101.69453297731513,-1.092372657351498],[101.68159647699588,-1.0641440993814508],[101.67274743044959,-1.0584112603885119],[101.67153604095556,-1.0420575152774345],[101.6661330705848,-1.0404366248875063],[101.66795749194476,-1.039291624247443],[101.66585435089763,-1.0374201521588118],[101.67554421589288,-1.0357323117392334],[101.6894457256398,-1.0436825128711982],[101.69673249241065,-1.0499902812529558],[101.69957569366342,-1.0634353131007375],[101.71309153904336,-1.0680907364047],[101.71768139188276,-1.0655616989224053],[101.72431739303335,-1.0697831588701474],[101.72278252099659,-1.074786599121147],[101.72483393843554,-1.0813814850590115]]]}},{"type":"Feature","properties":{"code":"1310012005","desa":"Ampang Kuranji","kecamatan":"Koto Baru","kecCode":"131001","kabCode":"1310","province":"Sumatera Barat"},"geometry":{"type":"Polygon","coordinates":[[[101.69950283328915,-1.11231557606005],[101.70672288655201,-1.1278956901736554],[101.70596288028274,-1.140055780575952],[101.71128291967106,-1.1495558508374073],[101.7196083125736,-1.1825045725068737],[101.70710118007548,-1.1799189793591023],[101.68955097959413,-1.165453103675665],[101.68593364192411,-1.1599122681407115],[101.67425896957582,-1.1579336211459328],[101.67234087123425,-1.1550007251128651],[101.67076990220924,-1.159036483152211],[101.66971915591438,-1.1563831143971297],[101.66704060883713,-1.1586982796073264],[101.66169735794675,-1.1490427291547123],[101.65253639683732,-1.1449106294426905],[101.65003266267729,-1.1400062746960185],[101.6455918284002,-1.1435440151664624],[101.6418946839925,-1.1386760595801546],[101.63404703344389,-1.138730237438112],[101.63382084765408,-1.134207784294474],[101.62146594609656,-1.1355173392849673],[101.61179129673103,-1.1289115571611956],[101.6161440388164,-1.130866620334629],[101.62502228455084,-1.1259956763012149],[101.64592243986874,-1.130935713448758],[101.65162248059305,-1.1301757071802887],[101.66492257861415,-1.1233356570596593],[101.6759426596261,-1.1237156601938973],[101.69456279703553,-1.1172556123082282],[101.69950283328915,-1.11231557606005]]]}},{"type":"Feature","properties":{"code":"1310012008","desa":"Koto Padang","kecamatan":"Koto Baru","kecCode":"131001","kabCode":"1310","province":"Sumatera Barat"},"geometry":{"type":"Polygon","coordinates":[[[101.68159647699588,-1.0641440993814508],[101.70150831785462,-1.1035010634901752],[101.7002628386591,-1.1115555706909372],[101.69456279703553,-1.1172556123082282],[101.6759426596261,-1.1237156601938973],[101.66492257861415,-1.1233356570596593],[101.646262740633,-1.1309697437949426],[101.62502228455084,-1.1259956763012149],[101.6161440388164,-1.130866620334629],[101.60388737020605,-1.1263415411706013],[101.598116978216,-1.1274155187513932],[101.59479847177211,-1.1251891175264443],[101.5856542722269,-1.1276102174775333],[101.56446861543428,-1.1218178406672916],[101.56534070241155,-1.1264727531562668],[101.56135816984373,-1.1272700138404124],[101.5640368563159,-1.1328432681364353],[101.55722801985729,-1.1351879931629114],[101.56149847757273,-1.1422111740302254],[101.55559994208375,-1.1475452743127013],[101.55447358258982,-1.1538716865398464],[101.55075611800048,-1.15725058245538],[101.54634023991018,-1.1526719567574426],[101.55174994440448,-1.148704854761729],[101.54678187178604,-1.1433072713360233],[101.53822123422263,-1.1490063272963484],[101.535576760659,-1.148111658343513],[101.53277361341155,-1.1528021093418175],[101.52626752292792,-1.1529011345915094],[101.52278774555803,-1.1580239625419528],[101.5109594627091,-1.1497231121472227],[101.53912649089487,-1.1376147687354505],[101.54507133427471,-1.1269989761625117],[101.56035807786303,-1.1206294998992528],[101.58710987891784,-1.101521070210272],[101.60876609787715,-1.0954513343874164],[101.60902952279429,-1.082296008344623],[101.62787492868506,-1.0726636828839013],[101.62820808343633,-1.0621419746853398],[101.63058781187804,-1.0576109519019468],[101.63936568967489,-1.0544553819318438],[101.64158802057074,-1.0489770996411063],[101.64589194565684,-1.0459339808995571],[101.65586393787048,-1.0465150787382418],[101.66075641437708,-1.0436893234370703],[101.66174037521817,-1.0458980197089056],[101.6661330705848,-1.0404366248875063],[101.67153604095556,-1.0420575152774345],[101.67274743044959,-1.0584112603885119],[101.68159647699588,-1.0641440993814508]]]}},{"type":"Feature","properties":{"code":"1310022001","desa":"Sungai Dareh","kecamatan":"Pulau Punjung","kecCode":"131002","kabCode":"1310","province":"Sumatera Barat"},"geometry":{"type":"Polygon","coordinates":[[[101.55191924177967,-0.9708189578433967],[101.55760525757665,-0.9801008309929484],[101.54567213895807,-0.9833656155315113],[101.53125165204214,-0.9993991444378978],[101.52613259764132,-1.0016399267216587],[101.5140208628726,-0.9947189313217699],[101.50434601295818,-0.9841457036612232],[101.4982728084434,-0.9868449045655943],[101.48373614440759,-0.9832107387855606],[101.46867389858166,-0.9836914327138797],[101.47022894870707,-0.9752553494646509],[101.45719801777436,-0.959815530489429],[101.45971535328101,-0.9582831189995314],[101.47050355759319,-0.9607624887238713],[101.48090834944081,-0.9587938583780982],[101.49457513343572,-0.9625773287047318],[101.526068538932,-0.963777792333902],[101.5348084914188,-0.9556383333740809],[101.53425007268277,-0.96075521051057],[101.53801945693242,-0.9615499494956805],[101.54221999955342,-0.9687389986229721],[101.55191924177967,-0.9708189578433967]]]}},{"type":"Feature","properties":{"code":"1310022002","desa":"Tebing Tinggi","kecamatan":"Pulau Punjung","kecCode":"131002","kabCode":"1310","province":"Sumatera Barat"},"geometry":{"type":"Polygon","coordinates":[[[101.60902952279429,-1.082296008344623],[101.60876609787715,-1.0954513343874164],[101.58710987891784,-1.101521070210272],[101.56035807786303,-1.1206294998992528],[101.54507133427471,-1.1269989761625117],[101.53912649089487,-1.1376147687354505],[101.5109594627091,-1.1497231121472227],[101.50031890459383,-1.1407360925220427],[101.48524048356153,-1.142044204999972],[101.47359851326081,-1.134937178539824],[101.46911713125064,-1.134757604611764],[101.46264821244512,-1.1380361424823524],[101.45995518988018,-1.1454768183205783],[101.45303122940777,-1.1508656333564018],[101.41662224472088,-1.1638909264246875],[101.40762196907865,-1.1700938320574032],[101.40303562179656,-1.159909406497944],[101.40286430094682,-1.150543848734068],[101.41165878922179,-1.134473920667212],[101.41348621521672,-1.1237035283395442],[101.41839787785982,-1.1158365396776917],[101.43248716335198,-1.1027166828963657],[101.44116386831791,-1.0865303987447021],[101.44244877738925,-1.0798024724993889],[101.43977188416515,-1.0649225138728118],[101.44138115981274,-1.056970686766516],[101.46298271258217,-1.0556370767099108],[101.50206576572258,-1.0445739352714505],[101.50574257466013,-1.045224590274444],[101.50827168588968,-1.050718127765081],[101.51530194802655,-1.0479096619301882],[101.51794623273251,-1.0508537761063832],[101.52022582076506,-1.0493405372632003],[101.52365796374407,-1.0511456717605652],[101.5269408453438,-1.0445904989848687],[101.53225198863845,-1.0419432024523303],[101.53513098560654,-1.0371647716776449],[101.53394171943484,-1.0324476764651795],[101.53792770000342,-1.025691152678149],[101.55136873887625,-1.0183388586132625],[101.55936549881875,-1.0070015966208525],[101.56422058691061,-1.004603230631744],[101.56629513401327,-1.007092684454142],[101.58135154683644,-0.994104440756164],[101.5921424733965,-0.9984725279687922],[101.5927782913851,-1.001933871930761],[101.59713535561224,-1.005090550764874],[101.59624749992224,-1.0087707843166884],[101.59099715979112,-1.010121271950112],[101.5889910187206,-1.0153315814524988],[101.59168284608653,-1.0185441171788128],[101.59161640597243,-1.0330582945500166],[101.59104057456297,-1.0413197825181748],[101.58700976908561,-1.0465355616971372],[101.58812732241807,-1.049218006433201],[101.57951367341734,-1.0571844412274614],[101.57249902261185,-1.0588881366947158],[101.57126884088437,-1.0623395449468045],[101.57312482035422,-1.0663846289556436],[101.56705941565956,-1.0676416185726743],[101.56477513406524,-1.0704969714616919],[101.56435741786059,-1.0756015998318942],[101.56689247270953,-1.0755884841192036],[101.55560380557125,-1.0810444542300823],[101.55843377869598,-1.087173948204178],[101.55260885721304,-1.08869680259872],[101.54957583875404,-1.094217151577501],[101.52999439622447,-1.1104156017577536],[101.53050045643094,-1.119756623318267],[101.54246390468552,-1.1190464916518414],[101.55820375280102,-1.107082265497044],[101.56637571057063,-1.1061696298884243],[101.56789094141385,-1.1000209551737201],[101.57538633021505,-1.0933314713484967],[101.58179841906184,-1.0941676726772418],[101.58953472364863,-1.0877968968936218],[101.60902952279429,-1.082296008344623]]]}},{"type":"Feature","properties":{"code":"1310022006","desa":"Empat Koto Pulau Punjung","kecamatan":"Pulau Punjung","kecCode":"131002","kabCode":"1310","province":"Sumatera Barat"},"geometry":{"type":"Polygon","coordinates":[[[101.52952187263638,-0.9617762980625701],[101.526068538932,-0.963777792333902],[101.49457513343572,-0.9625773287047318],[101.49519237143085,-0.9533891550197287],[101.50624658531171,-0.9301991018671387],[101.51775074440137,-0.9319941001057473],[101.5194103802849,-0.9340686445081254],[101.51733583408156,-0.939047557549008],[101.52319476342763,-0.9453835043884093],[101.52952187263638,-0.9617762980625701]]]}},{"type":"Feature","properties":{"code":"1310022007","desa":"Sungai Kambut","kecamatan":"Pulau Punjung","kecCode":"131002","kabCode":"1310","province":"Sumatera Barat"},"geometry":{"type":"Polygon","coordinates":[[[101.49457513343572,-0.9625773287047318],[101.48090834944081,-0.9587938583780982],[101.47050355759319,-0.9607624887238713],[101.45971535328101,-0.9582831189995314],[101.45719801777436,-0.959815530489429],[101.47022894870707,-0.9752553494646509],[101.46867389858166,-0.9836914327138797],[101.47222795095921,-1.0080442076473268],[101.46314253470028,-1.0159182353028282],[101.45667468968524,-1.0161020261519151],[101.45044376656665,-1.00936804746921],[101.43693043838908,-1.0071001020623502],[101.43621829224047,-0.999559799328009],[101.44052837858185,-0.9932810664578062],[101.43692547323207,-0.9919348874762995],[101.43436467169232,-0.9852625024611721],[101.42147314826722,-0.980064086492873],[101.41675988955734,-0.9678230076438491],[101.44436600968368,-0.9329381049666163],[101.45526850793533,-0.929303937387896],[101.46435392329498,-0.9208242172344052],[101.47586211674336,-0.9177957457509862],[101.49700555576187,-0.9228054129078301],[101.50624658531171,-0.9301991018671387],[101.49519237143085,-0.9533891550197287],[101.49457513343572,-0.9625773287047318]]]}},{"type":"Feature","properties":{"code":"1310022008","desa":"Gunung Selasih","kecamatan":"Pulau Punjung","kecCode":"131002","kabCode":"1310","province":"Sumatera Barat"},"geometry":{"type":"Polygon","coordinates":[[[101.39844990493924,-0.9503743748151476],[101.39602187660834,-0.9410251793165743],[101.39989317383095,-0.9359031202864961],[101.40353255658225,-0.9364927598860441],[101.40568045059239,-0.9306509185646603],[101.42036388938203,-0.9270194426567764],[101.42121858077297,-0.9165568657820871],[101.41882777807956,-0.9111666657903411],[101.42160480631678,-0.9071358045595623],[101.41338019144274,-0.8993005331876309],[101.4156600726543,-0.8995872478474746],[101.41911811970549,-0.8952408199070799],[101.42570171466247,-0.9003635354422156],[101.45247264699515,-0.8595797429496619],[101.4575195164126,-0.8651682254658948],[101.48742249605141,-0.8759435847492733],[101.48423230577636,-0.878699840442914],[101.48423452260522,-0.8820479435715948],[101.48772185967611,-0.886350293940002],[101.49278931637387,-0.8850714004352871],[101.49754792159933,-0.8955906858601828],[101.5033474489257,-0.8995214651378294],[101.50696322357396,-0.9062788306902576],[101.52394839440295,-0.9157051286650123],[101.53301705179558,-0.9287717473799467],[101.54319555443135,-0.937945298987798],[101.55055889307852,-0.9398629053980659],[101.54935560197953,-0.9431745733934882],[101.55882617808572,-0.9519806467252779],[101.53829256395072,-0.9516508203652699],[101.52952187263638,-0.9617762980625701],[101.52319476342763,-0.9453835043884093],[101.51733583408156,-0.939047557549008],[101.5194103802849,-0.9340686445081254],[101.51775074440137,-0.9319941001057473],[101.50624658531171,-0.9301991018671387],[101.49700555576187,-0.9228054129078301],[101.47586211674336,-0.9177957457509862],[101.46435392329498,-0.9208242172344052],[101.45526850793533,-0.929303937387896],[101.44436600968368,-0.9329381049666163],[101.41675988955734,-0.9678230076438491],[101.41348739872456,-0.9552195298895699],[101.4072762588923,-0.9525576130785438],[101.40638895268808,-0.9578814467006266],[101.40372703587404,-0.9578814467006266],[101.39844990493924,-0.9503743748151476]]]}},{"type":"Feature","properties":{"code":"1310022009","desa":"Sikabau","kecamatan":"Pulau Punjung","kecCode":"131002","kabCode":"1310","province":"Sumatera Barat"},"geometry":{"type":"Polygon","coordinates":[[[101.46867389858166,-0.9836914327138797],[101.48373614440759,-0.9832107387855606],[101.4982728084434,-0.9868449045655943],[101.50434601295818,-0.9841457036612232],[101.5140208628726,-0.9947189313217699],[101.52613259764132,-1.0016399267216587],[101.53125165204214,-0.9993991444378978],[101.54567213895807,-0.9833656155315113],[101.55760525757665,-0.9801008309929484],[101.55713457939736,-0.9774650295948225],[101.56265668385895,-0.9759579313225423],[101.56546048041689,-0.9787316176759739],[101.56484100041189,-0.9862409990204644],[101.5731490004261,-0.9931169986405274],[101.58135154683644,-0.994104440756164],[101.56629513401327,-1.007092684454142],[101.56422058691061,-1.004603230631744],[101.55936549881875,-1.0070015966208525],[101.55136873887625,-1.0183388586132625],[101.53792770000342,-1.025691152678149],[101.53394171943484,-1.0324476764651795],[101.53513098560654,-1.0371647716776449],[101.53225198863845,-1.0419432024523303],[101.5269408453438,-1.0445904989848687],[101.52365796374407,-1.0511456717605652],[101.52022582076506,-1.0493405372632003],[101.51794623273251,-1.0508537761063832],[101.51530194802655,-1.0479096619301882],[101.50827168588968,-1.050718127765081],[101.50574257466013,-1.045224590274444],[101.50206576572258,-1.0445739352714505],[101.46298271258217,-1.0556370767099108],[101.44138115981274,-1.056970686766516],[101.4504973050067,-1.0458273401907836],[101.4557916048987,-1.043328905738316],[101.46008058415168,-1.0306285332283327],[101.45561909514521,-1.0232522029831084],[101.45667468968524,-1.0161020261519151],[101.46314253470028,-1.0159182353028282],[101.47222795095921,-1.0080442076473268],[101.46867389858166,-0.9836914327138797]]]}},{"type":"Feature","properties":{"code":"1310032003","desa":"Sungai Rumbai","kecamatan":"Sungai Rumbai","kecCode":"131003","kabCode":"1310","province":"Sumatera Barat"},"geometry":{"type":"Polygon","coordinates":[[[101.71962252366058,-1.1803329435917518],[101.72550114456226,-1.1817519217934125],[101.7260887436007,-1.1977226087732835],[101.7286261825523,-1.2032612832373188],[101.7337845139442,-1.20665133434355],[101.73430171135495,-1.213094613470436],[101.74102515358805,-1.2230864384220923],[101.73982789693997,-1.2337166678117883],[101.73533333266721,-1.2315555546693537],[101.73083333289208,-1.232861109475455],[101.72674300038919,-1.2347979982496287],[101.7223611112763,-1.2413611093410353],[101.71996005990889,-1.2405551728971538],[101.717343759407,-1.2316078277631797],[101.71932088295245,-1.2266070090359658],[101.71139010896644,-1.2248984032703096],[101.70790241396531,-1.221225047733485],[101.70943546937148,-1.217649247054856],[101.70730978681729,-1.2162844116375051],[101.7090629692807,-1.210375875693957],[101.713549621318,-1.2075991433366995],[101.71400899322053,-1.2019030344547446],[101.71777391143695,-1.1998922025226222],[101.71606508533546,-1.1964778886069831],[101.72565639092977,-1.1879131762249373],[101.71962252366058,-1.1803329435917518]]]}},{"type":"Feature","properties":{"code":"1310032004","desa":"Kurnia Koto Salak","kecamatan":"Sungai Rumbai","kecCode":"131003","kabCode":"1310","province":"Sumatera Barat"},"geometry":{"type":"Polygon","coordinates":[[[101.73620363179226,-1.1856032072976024],[101.75186164340016,-1.1934544407365082],[101.76621956987731,-1.1895729236225228],[101.77438521440614,-1.1981468504582096],[101.78242414625743,-1.2015921064481707],[101.767808784348,-1.2102877655158655],[101.75870967141424,-1.2109876970716922],[101.75241028740491,-1.214137389072871],[101.75240913087674,-1.2191314475963253],[101.74753796830264,-1.213808420666099],[101.74681083225414,-1.2025885175025337],[101.73620363179226,-1.1856032072976024]]]}},{"type":"Feature","properties":{"code":"1310032007","desa":"Sungai Rumbai Timur","kecamatan":"Sungai Rumbai","kecCode":"131003","kabCode":"1310","province":"Sumatera Barat"},"geometry":{"type":"Polygon","coordinates":[[[101.72615035795268,-1.1861027015533059],[101.73554410857383,-1.184575067262063],[101.74681083225414,-1.2025885175025337],[101.74763314355475,-1.213961347681899],[101.75127035444336,-1.2184591333211332],[101.766428611891,-1.2255446399041103],[101.7637791506873,-1.2288989753346615],[101.74803100003066,-1.2327999987437774],[101.74495878462028,-1.2358852120523174],[101.73982789693997,-1.2337166678117883],[101.7408715853554,-1.2215754802595387],[101.73430171135495,-1.213094613470436],[101.7337845139442,-1.20665133434355],[101.7286261825523,-1.2032612832373188],[101.7260887436007,-1.1977226087732835],[101.72615035795268,-1.1861027015533059]]]}},{"type":"Feature","properties":{"code":"1310032008","desa":"Kurnia Selatan","kecamatan":"Sungai Rumbai","kecCode":"131003","kabCode":"1310","province":"Sumatera Barat"},"geometry":{"type":"Polygon","coordinates":[[[101.75240913087674,-1.2191314475963253],[101.75241028740491,-1.214137389072871],[101.75870967141424,-1.2109876970716922],[101.767808784348,-1.2102877655158655],[101.78242414625743,-1.2015921064481707],[101.787523965059,-1.2037777441027486],[101.79033940963608,-1.2159780117174108],[101.79591300028477,-1.2225109982182922],[101.7637791506873,-1.2288989753346615],[101.766428611891,-1.2255446399041103],[101.75240913087674,-1.2191314475963253]]]}},{"type":"Feature","properties":{"code":"1310042001","desa":"Sitiung","kecamatan":"Sitiung","kecCode":"131004","kabCode":"1310","province":"Sumatera Barat"},"geometry":{"type":"Polygon","coordinates":[[[101.62792050003111,-0.9507551666547597],[101.63019174505303,-0.9547285432204661],[101.62751825666226,-0.9586362845652575],[101.62998835078183,-0.9635961355760134],[101.63357959102535,-0.9628090210431819],[101.64207294580983,-0.968426438346904],[101.64516513965951,-0.9674484013411765],[101.64635378170173,-0.959289830888603],[101.64983695041495,-0.9580755797532107],[101.65385078658458,-0.9600310934870345],[101.65621544958337,-0.9655565874872124],[101.66162223307964,-0.9696200626318624],[101.66065609230485,-0.973335323878073],[101.66292590740476,-0.9718414303514143],[101.66582575155722,-0.9740485600042006],[101.66456123461336,-0.9785174666139916],[101.66702615043651,-0.9866675465671179],[101.6742737130615,-0.9895262773098137],[101.67366041139893,-0.9947474686089111],[101.68368052093932,-0.9960869188627948],[101.68115848557572,-1.0074729969551535],[101.68464906740058,-1.0115668916680454],[101.68405624689831,-1.0147683027806753],[101.68108882858662,-1.0152171256351705],[101.67500832157685,-1.0109156691928725],[101.6720164057326,-1.012012322279732],[101.66897847427725,-1.0066251817815688],[101.67063265307456,-1.0070206109868183],[101.66755559031827,-1.0051025693047029],[101.66376703791853,-1.0102811435307533],[101.65829521005593,-1.007427495756278],[101.6554855148447,-1.0099515617862973],[101.65860232493742,-1.0115373534355045],[101.6596262894218,-1.0157413449517922],[101.65760856957989,-1.0174262436890014],[101.66119770540985,-1.01837725786595],[101.66018998358095,-1.0206736164533998],[101.65563737976133,-1.0161378956116767],[101.65543339733347,-1.0186662882800341],[101.65257715591109,-1.0169662638452848],[101.65375604840294,-1.0229372136381487],[101.6501580515529,-1.0191278581250243],[101.64393627364018,-1.018576601590414],[101.64464904481763,-1.0174488679336826],[101.6442373990368,-1.0168678825102409],[101.639396781936,-1.0243129515366405],[101.62917764343355,-1.0200839309884833],[101.62273008172791,-1.0234666436267816],[101.62181778786065,-1.0201157552976778],[101.61435565059287,-1.0181037308645329],[101.60719768292675,-1.0095000517576354],[101.60999792806199,-1.0059259373078417],[101.60918693742728,-1.0025953934419969],[101.60212566037097,-0.9985403575353392],[101.59646818455913,-1.0010605888561865],[101.59161289232117,-0.9961449629062555],[101.59049464561143,-0.9919499034565239],[101.58709131601148,-0.9901670748438354],[101.58815984190322,-0.9811535494999435],[101.59206256773336,-0.9861892187550713],[101.59878303500908,-0.9834410003026314],[101.5997279652734,-0.9797847975351748],[101.59672106492525,-0.9744497817428094],[101.59956698842585,-0.9681281934791606],[101.60487268902347,-0.9724666525269658],[101.60367585235876,-0.9815605538792748],[101.6077804490086,-0.9809451666895526],[101.61088285286144,-0.9787108829069382],[101.61120776892345,-0.9714506533390769],[101.61452378244667,-0.9686783393510753],[101.61191521431573,-0.9604544313532526],[101.60711398482259,-0.9569144830472591],[101.60509273783963,-0.9509400276970552],[101.61093407105061,-0.9502536732062192],[101.61358817185669,-0.9450888828891199],[101.62792050003111,-0.9507551666547597]]]}},{"type":"Feature","properties":{"code":"1310042002","desa":"Siguntur","kecamatan":"Sitiung","kecCode":"131004","kabCode":"1310","province":"Sumatera Barat"},"geometry":{"type":"Polygon","coordinates":[[[101.55713457939736,-0.9774650295948225],[101.55191924177967,-0.9708189578433967],[101.54221999955342,-0.9687389986229721],[101.53801945693242,-0.9615499494956805],[101.53419296573281,-0.9602888364871582],[101.53510274959228,-0.954848354500524],[101.53829256395072,-0.9516508203652699],[101.55851050255768,-0.9527547633565625],[101.55868182340748,-0.951198598073483],[101.54935560197953,-0.9431745733934882],[101.55055889307852,-0.9398629053980659],[101.54319555443135,-0.937945298987798],[101.53301705179558,-0.9287717473799467],[101.52394839440295,-0.9157051286650123],[101.50696322357396,-0.9062788306902576],[101.5033474489257,-0.8995214651378294],[101.49754792159933,-0.8955906858601828],[101.49278931637387,-0.8850714004352871],[101.48772185967611,-0.886350293940002],[101.48423452260522,-0.8820479435715948],[101.48423230577636,-0.878699840442914],[101.48755649143895,-0.8758278159217744],[101.51897327829418,-0.8909960666190107],[101.52779610240826,-0.8914055360400129],[101.53888807432524,-0.899241651875416],[101.54909005556168,-0.9026780846167041],[101.55511274695579,-0.9088595099423326],[101.56658194759886,-0.9126774818599579],[101.57638850502552,-0.9214226953709709],[101.58665507826929,-0.9267717432852677],[101.60290682678868,-0.9303466725208743],[101.62163950805687,-0.9403844132588073],[101.6121582938702,-0.9460361468931372],[101.61093407105061,-0.9502536732062192],[101.60508308901342,-0.950955639028496],[101.60711398482259,-0.9569144830472591],[101.61191521431573,-0.9604544313532526],[101.61453896390213,-0.9686000776487348],[101.61120776892345,-0.9714506533390769],[101.61088285286144,-0.9787108829069382],[101.60419583586919,-0.9822233263475206],[101.60487268902347,-0.9724666525269658],[101.59956698842585,-0.9681281934791606],[101.59672106492525,-0.9744497817428094],[101.5997279652734,-0.9797847975351748],[101.59878303500908,-0.9834410003026314],[101.59206256773336,-0.9861892187550713],[101.5881392780053,-0.9811870438502099],[101.58709131601148,-0.9901670748438354],[101.5908054270289,-0.9924151677165282],[101.59202044708604,-0.9985905855709175],[101.58116410563899,-0.9933903808510296],[101.5731490004261,-0.9931169986405274],[101.56484100041189,-0.9862409990204644],[101.56546048041689,-0.9787316176759739],[101.56323251257044,-0.9760459713534438],[101.55713457939736,-0.9774650295948225]]]}},{"type":"Feature","properties":{"code":"1310042004","desa":"Gunung Medan","kecamatan":"Sitiung","kecCode":"131004","kabCode":"1310","province":"Sumatera Barat"},"geometry":{"type":"Polygon","coordinates":[[[101.6437466246071,-1.0487414682720395],[101.64158802057074,-1.0489770996411063],[101.63936568967489,-1.0544553819318438],[101.63058781187804,-1.0576109519019468],[101.62820808343633,-1.0621419746853398],[101.62787492868506,-1.0726636828839013],[101.62386130835273,-1.0759574975380413],[101.61926210795995,-1.0760507509388733],[101.61779492339707,-1.0790490546642768],[101.61041120701168,-1.0826264003781931],[101.58953472364863,-1.0877968968936218],[101.58227976140192,-1.0940014581782447],[101.57538633021505,-1.0933314713484967],[101.56789094141385,-1.1000209551737201],[101.56637571057063,-1.1061696298884243],[101.55820375280102,-1.107082265497044],[101.54246390468552,-1.1190464916518414],[101.53050045643094,-1.119756623318267],[101.52999439622447,-1.1104156017577536],[101.54957583875404,-1.094217151577501],[101.55260885721304,-1.08869680259872],[101.55843377869598,-1.087173948204178],[101.55560380557125,-1.0810444542300823],[101.56689247270953,-1.0755884841192036],[101.56435741786059,-1.0756015998318942],[101.56477513406524,-1.0704969714616919],[101.56705941565956,-1.0676416185726743],[101.57312482035422,-1.0663846289556436],[101.57126884088437,-1.0623395449468045],[101.57249902261185,-1.0588881366947158],[101.57951367341734,-1.0571844412274614],[101.58812732241807,-1.049218006433201],[101.58700976908561,-1.0465355616971372],[101.59104057456297,-1.0413197825181748],[101.59161640597243,-1.0330582945500166],[101.59168284608653,-1.0185441171788128],[101.5889910187206,-1.0153315814524988],[101.59099715979112,-1.010121271950112],[101.59624749992224,-1.0087707843166884],[101.59713535561224,-1.005090550764874],[101.5927782913851,-1.001933871930761],[101.5930322554343,-0.9970981696303141],[101.59646818455913,-1.0010605888561865],[101.60212566037097,-0.9985403575353392],[101.60918693742728,-1.0025953934419969],[101.60999792806199,-1.0059259373078417],[101.60719768292675,-1.0095000517576354],[101.61435565059287,-1.0181037308645329],[101.62181778786065,-1.0201157552976778],[101.6225938407332,-1.0234189309950172],[101.62917764343355,-1.0200839309884833],[101.639396781936,-1.0243129515366405],[101.6442373990368,-1.0168678825102409],[101.64393627364018,-1.018576601590414],[101.6501580515529,-1.0191278581250243],[101.65293272356637,-1.0218590137403274],[101.6543727773818,-1.0266320638712045],[101.64982720626061,-1.0301494086169307],[101.6522810208525,-1.030700023934969],[101.65043773441396,-1.0380965691410795],[101.64342223464847,-1.0346166505816106],[101.63950626630123,-1.0423710414254181],[101.6437466246071,-1.0487414682720395]]]}},{"type":"Feature","properties":{"code":"1310042005","desa":"Sungai Duo","kecamatan":"Sitiung","kecCode":"131004","kabCode":"1310","province":"Sumatera Barat"},"geometry":{"type":"Polygon","coordinates":[[[101.68993397567247,-1.0442463949880396],[101.67554421589288,-1.0357323117392334],[101.66813044956062,-1.0356846332816254],[101.66557557185523,-1.0378358538815973],[101.66789828507785,-1.0395068787776542],[101.66174037521817,-1.0458980197089056],[101.66075641437708,-1.0436893234370703],[101.65586393787048,-1.0465150787382418],[101.64644505659412,-1.0458170168729581],[101.64379889860031,-1.0487541765918698],[101.63941047321482,-1.0428732768147502],[101.64342223464847,-1.0346166505816106],[101.65043773441396,-1.0380965691410795],[101.6522810208525,-1.030700023934969],[101.64982720626061,-1.0301494086169307],[101.6543727773818,-1.0266320638712045],[101.65172067756724,-1.0173415923035416],[101.65543339733347,-1.0186662882800341],[101.65557527258085,-1.0161086154844776],[101.66013534796798,-1.0206736650168016],[101.66111591206975,-1.020022449736213],[101.65767300240718,-1.0177824759429128],[101.6596262894218,-1.0157413449517922],[101.65827877944217,-1.0109589571601776],[101.65696208563178,-1.0122047475196867],[101.65548396081618,-1.0099882271461056],[101.657224999734,-1.0079139993050537],[101.66376703791853,-1.0102811435307533],[101.66763666779804,-1.0050935778828645],[101.67063265307456,-1.0070206109868183],[101.66897847427725,-1.0066251817815688],[101.6720164057326,-1.012012322279732],[101.67500832157685,-1.0109156691928725],[101.68298624521913,-1.01544190128774],[101.68464906740058,-1.0115668916680454],[101.68111187641205,-1.0046961368941845],[101.68427299430327,-1.0029147283110504],[101.68913115088196,-1.0032813351440681],[101.68853428163186,-1.0063956559099299],[101.6994116789059,-1.0142190301505098],[101.70485419786303,-1.0161566905430188],[101.7080557969375,-1.0145934134212542],[101.71143889988537,-1.0201708774438296],[101.71070137666725,-1.0280977132897684],[101.69956324075103,-1.0272054554193084],[101.70026263541234,-1.0402909131324258],[101.68993397567247,-1.0442463949880396]]]}},{"type":"Feature","properties":{"code":"1310052001","desa":"Silago","kecamatan":"Sembilan Koto","kecCode":"131005","kabCode":"1310","province":"Sumatera Barat"},"geometry":{"type":"Polygon","coordinates":[[[101.27388517975731,-0.953396721915439],[101.27958050263815,-0.9589590683343436],[101.28367586414987,-0.9559543848184181],[101.2873767551332,-0.9619530661058209],[101.2939381620166,-0.9529662191504055],[101.29696729540444,-0.9527393291916403],[101.30076361075209,-0.9580219432871167],[101.31184916510693,-0.9514496869898528],[101.31814571984914,-0.9630699692271365],[101.31398789142808,-0.9744711010711887],[101.30525274401896,-0.9861179645701568],[101.30719388658865,-0.9987353998024978],[101.31592903489712,-0.9987353989031666],[101.32854647104283,-1.0094116906687824],[101.34504619322728,-1.0278525563016558],[101.34914824209771,-1.042133414460741],[101.34431504800114,-1.0435739889820754],[101.34213447802382,-1.0472639972652182],[101.33825218928718,-1.0443522802662886],[101.30234102791616,-1.0414405632673995],[101.30234102791616,-1.039499420699946],[101.28390015956477,-1.0327054167673613],[101.27613558568878,-1.0453228528990626],[101.26837101001416,-1.0453228528990626],[101.26254757870781,-1.0443522802662886],[101.2528418586649,-1.0317348459332525],[101.24701842735855,-1.0278525563016558],[101.24410671125577,-1.0288231298337107],[101.24507728388959,-1.0336759894000764],[101.24119499605227,-1.0375582754344432],[101.23537156384663,-1.032705417666692],[101.23245984774381,-1.0288231298337107],[101.23343041857902,-1.004558829303692],[101.24454891420105,-0.9924622058567543],[101.25288926732588,-0.9919900734743123],[101.25571539944615,-0.9895933298621562],[101.25821246603255,-0.9925575699664132],[101.2614598352033,-0.9858015336119675],[101.2704130933896,-0.9861878454903484],[101.27190389055215,-0.9682982624724142],[101.2689222944284,-0.9653166663520354],[101.26991616040254,-0.9588565375273318],[101.27388517975731,-0.953396721915439]]]}},{"type":"Feature","properties":{"code":"1310052002","desa":"Lubuak Karak","kecamatan":"Sembilan Koto","kecCode":"131005","kabCode":"1310","province":"Sumatera Barat"},"geometry":{"type":"Polygon","coordinates":[[[101.19946802692795,-0.9792025278798066],[101.20158238162168,-0.9783160949182875],[101.20032216523578,-0.9771448520610188],[101.20454588158724,-0.9676841595146329],[101.20171109708951,-0.9642432247671473],[101.20097936190808,-0.9570849558361578],[101.19099169810845,-0.9512475130989069],[101.19794300156832,-0.9520822350427962],[101.20820504132968,-0.9464066441932877],[101.21119567743862,-0.9408792670127522],[101.20780552020862,-0.9237215855500348],[101.2099082511649,-0.921799839560383],[101.21824106257503,-0.9214281128869407],[101.22537506061065,-0.9298193793214244],[101.23257676320712,-0.9324698522594483],[101.24027556966189,-0.9298285685940509],[101.25801003223727,-0.9334392198005883],[101.27337291332935,-0.9492482311597871],[101.27388517975731,-0.953396721915439],[101.26991616040254,-0.9588565375273318],[101.2689222944284,-0.9653166663520354],[101.27190389055215,-0.9682982624724142],[101.2704130933896,-0.9861878454903484],[101.2614598352033,-0.9858015336119675],[101.25821246603255,-0.9925575699664132],[101.25571539944615,-0.9895933298621562],[101.25288926732588,-0.9919900734743123],[101.24454891420105,-0.9924622058567543],[101.23343041857902,-1.004558829303692],[101.20916612161926,-0.99582368370292],[101.19946802692795,-0.9792025278798066]]]}},{"type":"Feature","properties":{"code":"1310052003","desa":"Koto Nan Empat Dibawuh","kecamatan":"Sembilan Koto","kecCode":"131005","kabCode":"1310","province":"Sumatera Barat"},"geometry":{"type":"Polygon","coordinates":[[[101.31814571984914,-0.9630699692271365],[101.32550206896535,-0.9668782338626146],[101.33656383535275,-0.9648615041764887],[101.35303764267314,-0.9550917892869836],[101.35805700362788,-0.9567529657072348],[101.37598286082044,-0.9731832206412857],[101.39672058418768,-0.9751453506873455],[101.39729584093038,-0.9708355737175034],[101.40033814129224,-0.9717101095477506],[101.40319029799393,-0.9693621712435996],[101.39850837706001,-0.9632259863134977],[101.3968394961459,-0.9532060269710017],[101.39971066721357,-0.9536813195711816],[101.39844990493924,-0.9503743748151476],[101.40372703587404,-0.9578814467006266],[101.40638895268808,-0.9578814467006266],[101.4072762588923,-0.9525576130785438],[101.41348739872456,-0.9552195298895699],[101.41437470402938,-0.9640925856266326],[101.42147314826722,-0.980064086492873],[101.43436467169232,-0.9852625024611721],[101.43692547323207,-0.9919348874762995],[101.44052837858185,-0.9932810664578062],[101.43621829224047,-0.999559799328009],[101.43693043838908,-1.0071001020623502],[101.43192561227727,-1.0046150747029952],[101.42398297083747,-1.0066138215455416],[101.41683388037933,-1.0277481935755788],[101.4091958114376,-1.0317456890591332],[101.40384202319085,-1.038027466134461],[101.37628072617463,-1.047621451697782],[101.35980533874545,-1.0406472515063725],[101.34912222291234,-1.0421520601047052],[101.34504619322728,-1.0278525563016558],[101.32854647104283,-1.0094116906687824],[101.31592903489712,-0.9987353989031666],[101.30719388658865,-0.9987353998024978],[101.30525274401896,-0.9861179645701568],[101.31398789142808,-0.9744711010711887],[101.31814571984914,-0.9630699692271365]]]}},{"type":"Feature","properties":{"code":"1310052004","desa":"Banai","kecamatan":"Sembilan Koto","kecCode":"131005","kabCode":"1310","province":"Sumatera Barat"},"geometry":{"type":"Polygon","coordinates":[[[101.16659896716867,-1.1027659963213376],[101.16955453961036,-1.0977811423590824],[101.1743330351415,-1.0974965114283897],[101.16522528062227,-1.0737445915396857],[101.15824177963445,-1.0711327948455223],[101.1655021890748,-1.06193726020955],[101.16559277688519,-1.0554978121946443],[101.15838501735469,-1.045111762230016],[101.14398025958137,-1.0400313526024885],[101.1423147223466,-1.0370423892357883],[101.15209751518825,-1.0337989420121008],[101.16535483156031,-1.0363746731943009],[101.17529960489291,-1.0351010182405238],[101.18394613040965,-1.0298565192119902],[101.18531979717096,-1.0230239784304198],[101.1825043337081,-1.0061286885635277],[101.18850237468492,-0.9990921356767721],[101.18678844762884,-0.9946297905206454],[101.18842115691092,-0.9902780466875881],[101.1991390126554,-0.9848191438875454],[101.19946802692795,-0.9792025278798066],[101.20916612161926,-0.99582368370292],[101.23343041857902,-1.004558829303692],[101.23245984774381,-1.0288231298337107],[101.24119499605227,-1.0375582754344432],[101.24507728388959,-1.0336759894000764],[101.24410671125577,-1.0288231298337107],[101.24701842735855,-1.0278525563016558],[101.2528418586649,-1.0317348459332525],[101.26254757870781,-1.0443522802662886],[101.27613558568878,-1.0453228528990626],[101.28390015956477,-1.0327054167673613],[101.30234102791616,-1.039499420699946],[101.30234102791616,-1.0414405632673995],[101.33825218928718,-1.0443522802662886],[101.34213447802382,-1.0472639972652182],[101.34302976840917,-1.045478914052169],[101.34866946102686,-1.0601350368176716],[101.34388674407802,-1.0654174404718297],[101.33988211067094,-1.0767175011085028],[101.34430790828338,-1.0934570086121413],[101.34179746967753,-1.1021218973760425],[101.34466958593269,-1.1175032864987604],[101.35071392400845,-1.1314626415233948],[101.34349794467448,-1.1352017357030828],[101.33475713243574,-1.134001392583064],[101.31392291810822,-1.1445869508481443],[101.30555528135119,-1.145755593765431],[101.29949165371691,-1.1436200861202879],[101.29891334197718,-1.148606087617484],[101.29549073900647,-1.1484926768123116],[101.29462633403813,-1.1581198689428236],[101.29238005959212,-1.1575042236477324],[101.29378376820641,-1.1606949984785295],[101.29124804516123,-1.16300964477983],[101.29384528723028,-1.162004299860255],[101.2955846138389,-1.164983030740635],[101.29202435883712,-1.1691371503529122],[101.29274464295099,-1.174079911546871],[101.27445146126598,-1.1733069109742684],[101.26326773871523,-1.1667144406154224],[101.25683944498444,-1.1528051220706834],[101.25767335574083,-1.143170680505173],[101.24982319158708,-1.1472671355879422],[101.23232759704104,-1.151063737815107],[101.21453189333226,-1.1348017415391194],[101.19796077666858,-1.1070447349894479],[101.17648852122835,-1.0995637083696794],[101.16659896716867,-1.1027659963213376]]]}},{"type":"Feature","properties":{"code":"1310062001","desa":"Timpeh","kecamatan":"Timpeh","kecCode":"131006","kabCode":"1310","province":"Sumatera Barat"},"geometry":{"type":"Polygon","coordinates":[[[101.49225751037584,-0.8661719677936256],[101.49914638919455,-0.8428038884463603],[101.50491848090326,-0.8389777174096911],[101.52058891664522,-0.8479826380402148],[101.52782011070961,-0.8389123322003482],[101.5338823030259,-0.8369128587056953],[101.54017396995283,-0.8309601498618999],[101.54775060710489,-0.8211332857543728],[101.56443615800235,-0.8343895759851602],[101.57742709698302,-0.8389922972186344],[101.58758253110898,-0.847296188221182],[101.5945398447381,-0.8467351146870499],[101.60916667390296,-0.8372222614620877],[101.63157071241851,-0.8368602168897643],[101.63676848627671,-0.8316995373737678],[101.63595662689686,-0.8418161846279559],[101.63027361033892,-0.8450636239422069],[101.62347742644215,-0.864765860689081],[101.6286308502336,-0.8737967330558376],[101.62562533933799,-0.879104333015672],[101.63077661195113,-0.8840258234446533],[101.62887158975211,-0.8881298319332577],[101.62631306439647,-0.8896779968473968],[101.62122745038657,-0.8868527937299162],[101.61019399465721,-0.8999289290706753],[101.60790252927836,-0.9062566902808477],[101.59051718262197,-0.9117453462514307],[101.58281545876645,-0.9086605727113594],[101.55878836159366,-0.9106424428763257],[101.54909005556168,-0.9026780846167041],[101.53888807432524,-0.899241651875416],[101.52779610240826,-0.8914055360400129],[101.51897327829418,-0.8909960666190107],[101.49420968133175,-0.8774176868957264],[101.4575195164126,-0.8651682254658948],[101.45247264699515,-0.8595797429496619],[101.45408772776648,-0.8577054703721804],[101.45116311268754,-0.8544676699916229],[101.45091618313539,-0.8492586609089288],[101.45912320457228,-0.8544273291026148],[101.46221526442298,-0.8599258848102724],[101.48273148566959,-0.8695741165799731],[101.49225751037584,-0.8661719677936256]]]}},{"type":"Feature","properties":{"code":"1310062002","desa":"Taratak Tinggi","kecamatan":"Timpeh","kecCode":"131006","kabCode":"1310","province":"Sumatera Barat"},"geometry":{"type":"MultiPolygon","coordinates":[[[[101.54870623480498,-0.8542919586517519],[101.5527217122373,-0.8552697384513902],[101.55738163665325,-0.8608145894592379],[101.56839519488237,-0.8628505403554405],[101.56402628838254,-0.8652867138433219],[101.56301616176648,-0.8745484475749499],[101.55616778841278,-0.8830232430410281],[101.54218072166303,-0.8794227910457647],[101.5379009307834,-0.8741168044696778],[101.53853349682349,-0.8677956874507539],[101.54421651158282,-0.862112670899174],[101.54584023124174,-0.8556177958679104],[101.54178093434267,-0.8531822177312111],[101.54208232144202,-0.847615970952577],[101.54870623480498,-0.8542919586517519]]],[[[101.45089459670832,-0.8488033080771948],[101.45435873486774,-0.8439927472238018],[101.4542166671655,-0.8342083320161195],[101.47687249966617,-0.8341591660798875],[101.49404382656137,-0.8453359053825495],[101.49550494789507,-0.8556177958679104],[101.49225751037584,-0.8661719677936256],[101.48273148566959,-0.8695741165799731],[101.46221526442298,-0.8599258848102724],[101.45912320457228,-0.8544273291026148],[101.45089459670832,-0.8488033080771948]]]]}},{"type":"Feature","properties":{"code":"1310062003","desa":"Tabek","kecamatan":"Timpeh","kecCode":"131006","kabCode":"1310","province":"Sumatera Barat"},"geometry":{"type":"Polygon","coordinates":[[[101.62792050003111,-0.9507551666547597],[101.6145027014386,-0.9470353836173415],[101.61508102486948,-0.9434015379959122],[101.62163950805687,-0.9403844132588073],[101.61488348698339,-0.9354072242183173],[101.58665507826929,-0.9267717432852677],[101.5643407003631,-0.9116477770041199],[101.58281545876645,-0.9086605727113594],[101.59051718262197,-0.9117453462514307],[101.60008758167662,-0.9072188650443248],[101.60540898893373,-0.9073823986642979],[101.62122745038657,-0.8868527937299162],[101.62631306439647,-0.8896779968473968],[101.63077661195113,-0.8840258234446533],[101.65057009573336,-0.9051412197795277],[101.65300567387281,-0.9148835314270692],[101.6416396425555,-0.9238139863935996],[101.62792050003111,-0.9507551666547597]]]}},{"type":"Feature","properties":{"code":"1310062004","desa":"Panyubarangan","kecamatan":"Timpeh","kecCode":"131006","kabCode":"1310","province":"Sumatera Barat"},"geometry":{"type":"Polygon","coordinates":[[[101.6742737130615,-0.9895262773098137],[101.66702615043651,-0.9866675465671179],[101.66456123461336,-0.9785174666139916],[101.66582575155722,-0.9740485600042006],[101.66292590740476,-0.9718414303514143],[101.66065609230485,-0.973335323878073],[101.66049948706171,-0.9676888863513248],[101.65621544958337,-0.9655565874872124],[101.65233356194437,-0.959030108480651],[101.64635378170173,-0.959289830888603],[101.64516513965951,-0.9674484013411765],[101.64207294580983,-0.968426438346904],[101.63357959102535,-0.9628090210431819],[101.63029258333609,-0.9638063278223498],[101.62761366843607,-0.9591463413584029],[101.63019174505303,-0.9547285432204661],[101.62792050003111,-0.9507551666547597],[101.6416396425555,-0.9238139863935996],[101.65300567387281,-0.9148835314270692],[101.65057009573336,-0.9051412197795277],[101.62583413943406,-0.8804492574429075],[101.6286308502336,-0.8737967330558376],[101.62347742644215,-0.864765860689081],[101.63027361033892,-0.8450636239422069],[101.63595662689686,-0.8418161846279559],[101.63676848627671,-0.8316995373737678],[101.643297153341,-0.8241238427197092],[101.65109607772187,-0.8246849171530737],[101.66940300014839,-0.8353179991923055],[101.67840443681536,-0.846897894675144],[101.6927777668805,-0.8511111402153126],[101.70196953426665,-0.8572777591027667],[101.711111140167,-0.8586111092552536],[101.71342167207257,-0.8696868394037125],[101.7284085753955,-0.86938760078514],[101.7357773441492,-0.8764010231089026],[101.73454298057412,-0.8964874619245533],[101.71394030120399,-0.9003407574133806],[101.6894830196257,-0.9401237276769091],[101.6931074250677,-0.9437639809679409],[101.68568090365085,-0.9483554525819263],[101.68922289701912,-0.9517002426082383],[101.69001233630036,-0.9588251376981328],[101.69785596328217,-0.9647966630570015],[101.69640916095409,-0.982515866815559],[101.69139222457159,-0.9825390693242965],[101.68726140908683,-0.9856413076984423],[101.68146436029207,-0.9845221814529761],[101.6742737130615,-0.9895262773098137]]]}},{"type":"Feature","properties":{"code":"1310062005","desa":"Ranah Palabi","kecamatan":"Timpeh","kecCode":"131006","kabCode":"1310","province":"Sumatera Barat"},"geometry":{"type":"Polygon","coordinates":[[[101.68323563441703,-1.0029227826392646],[101.68352433388094,-0.9958441037093108],[101.67366041139893,-0.9947474686089111],[101.67308473107555,-0.9909499724556396],[101.6806094188896,-0.9848098107234081],[101.68726140908683,-0.9856413076984423],[101.69139222457159,-0.9825390693242965],[101.6961813024252,-0.9827455968333332],[101.69584228859082,-0.9716846407474004],[101.69814229842835,-0.9664223792091294],[101.69483623230633,-0.9610689524957915],[101.69001233630036,-0.9588251376981328],[101.68922289701912,-0.9517002426082383],[101.6859657720028,-0.9481161178047339],[101.6931074250677,-0.9437639809679409],[101.69854715342842,-0.9461147935052681],[101.70036251142085,-0.9514036623855807],[101.72224596837678,-0.9515656707553692],[101.72183354468238,-0.9557204468727578],[101.72637968057784,-0.9598114709497164],[101.7338673549945,-0.9568178544908134],[101.73737220456364,-0.9601525595197263],[101.7340324633276,-0.9741315467445765],[101.72635597265008,-0.9783905183141187],[101.72785458222324,-0.9838208415589239],[101.72459000362583,-0.9857662523087843],[101.72423734977394,-0.9902497495194108],[101.71580374144958,-0.9891209654545811],[101.70755192658021,-0.9925350428485114],[101.71180406420626,-0.9999438467134564],[101.71231426129418,-1.0065188585334752],[101.70848833486882,-1.009045840165559],[101.70284635527516,-1.0086919047801473],[101.69631023642829,-1.0043037213171564],[101.68323563441703,-1.0029227826392646]]]}},{"type":"Feature","properties":{"code":"1310072001","desa":"Koto Salak","kecamatan":"Koto Salak","kecCode":"131007","kabCode":"1310","province":"Sumatera Barat"},"geometry":{"type":"Polygon","coordinates":[[[101.77438521440614,-1.1981468504582096],[101.75561557190116,-1.1784387249505888],[101.74435378639815,-1.1577921191173555],[101.74904619702444,-1.1484072978753588],[101.75149021440193,-1.1127051398868988],[101.75025855958488,-1.101312403214174],[101.77348636990013,-1.0966919653363691],[101.77622924997995,-1.1057797908689428],[101.78094443144045,-1.1091865783584653],[101.77490229040842,-1.1157841145984144],[101.78120327341242,-1.1245743445736835],[101.78935692907906,-1.125762076500692],[101.78449102933757,-1.1295683248561021],[101.79263435359262,-1.1350930067684941],[101.79249456657107,-1.1379383187269394],[101.78691098985034,-1.1373167873690444],[101.79011062840283,-1.1434132753247794],[101.78865320238344,-1.1475436186608485],[101.80087832187712,-1.1543897194201886],[101.80844027040223,-1.1510622530344063],[101.81617843838427,-1.1528970246897772],[101.81729795943335,-1.155136066785397],[101.8120735296697,-1.1655849263009528],[101.81505891823457,-1.1734215718370282],[101.8266272997102,-1.173794745519608],[101.82811999444225,-1.1797655226426462],[101.8322249022575,-1.1797655226426462],[101.83819567938713,-1.1879753409619538],[101.84009948300478,-1.1873697015239715],[101.81716483458949,-1.2171973278346306],[101.79591300028477,-1.2225109982182922],[101.79033940963608,-1.2159780117174108],[101.787523965059,-1.2037777441027486],[101.77438521440614,-1.1981468504582096]]]}},{"type":"Feature","properties":{"code":"1310072002","desa":"Ampalu","kecamatan":"Koto Salak","kecCode":"131007","kabCode":"1310","province":"Sumatera Barat"},"geometry":{"type":"Polygon","coordinates":[[[101.78935692907906,-1.125762076500692],[101.78120327341242,-1.1245743445736835],[101.77490229040842,-1.1157841145984144],[101.78094443144045,-1.1091865783584653],[101.78821471633613,-1.1148804623176602],[101.78961545538903,-1.108925880186047],[101.79558418925899,-1.1096374777474576],[101.8020639242108,-1.12167354804241],[101.80810675592208,-1.1216533690544217],[101.80880332401426,-1.119787816303373],[101.81876801822948,-1.1222791964737038],[101.82214921641325,-1.1267748723034494],[101.8184174795831,-1.1338651731722387],[101.82615333900542,-1.1396784574214478],[101.82024688138853,-1.1418659377869198],[101.81638204669417,-1.1367891866014632],[101.80572288700169,-1.136949067175337],[101.80535564075028,-1.132687336485706],[101.80252191025801,-1.1352148703015332],[101.78935692907906,-1.125762076500692]]]}},{"type":"Feature","properties":{"code":"1310072003","desa":"Padukuan","kecamatan":"Koto Salak","kecCode":"131007","kabCode":"1310","province":"Sumatera Barat"},"geometry":{"type":"Polygon","coordinates":[[[101.8650990000189,-1.1563559989381589],[101.83819567938713,-1.1879753409619538],[101.8322249022575,-1.1797655226426462],[101.82811999444225,-1.1797655226426462],[101.8266272997102,-1.173794745519608],[101.81505891823457,-1.1734215718370282],[101.8120735296697,-1.1655849263009528],[101.81729795943335,-1.155136066785397],[101.81617843838427,-1.1528970246897772],[101.80844027040223,-1.1510622530344063],[101.80087832187712,-1.1543897194201886],[101.78865320238344,-1.1475436186608485],[101.79011062840283,-1.1434132753247794],[101.78691098985034,-1.1373167873690444],[101.79249456657107,-1.1379383187269394],[101.79275358121286,-1.1355710701798656],[101.78449102933757,-1.1295683248561021],[101.78522582671059,-1.1279178800457572],[101.78995026938945,-1.1252355045575593],[101.80252191025801,-1.1352148703015332],[101.80535564075028,-1.132687336485706],[101.80572288700169,-1.136949067175337],[101.81638204669417,-1.1367891866014632],[101.82024688138853,-1.1418659377869198],[101.82615333900542,-1.1396784574214478],[101.81943928299658,-1.135770070363338],[101.81928637126907,-1.1311678356631043],[101.82495694930383,-1.1306841137174484],[101.82883091841224,-1.1332332420541864],[101.84178415601406,-1.1267557410255893],[101.84811149904651,-1.126405243748352],[101.84594873024975,-1.1299648737172998],[101.84843754555634,-1.1295033857106087],[101.85433538227214,-1.1368802744347954],[101.85638561800192,-1.1348699829952322],[101.85425169495981,-1.1290386106817651],[101.8636455058355,-1.1360676937996361],[101.87139541356753,-1.1332293093189119],[101.87108829958542,-1.1300929650555362],[101.88157841191422,-1.1313639274390996],[101.88420111109245,-1.1347291653507916],[101.87410599989202,-1.1421839983166342],[101.87145599999445,-1.1486339989765069],[101.86590700040777,-1.1513749985708959],[101.8650990000189,-1.1563559989381589]]]}},{"type":"Feature","properties":{"code":"1310072004","desa":"Pulau Mainan","kecamatan":"Koto Salak","kecCode":"131007","kabCode":"1310","province":"Sumatera Barat"},"geometry":{"type":"Polygon","coordinates":[[[101.8200876348365,-1.1307486535640077],[101.82214921641325,-1.124909006588403],[101.81876801822948,-1.1222791964737038],[101.80880332401426,-1.119787816303373],[101.80810675592208,-1.1216533690544217],[101.8020639242108,-1.12167354804241],[101.79814881921271,-1.11400315387761],[101.80108359842939,-1.1127953373914106],[101.80401297631782,-1.1153050493422592],[101.81038437533867,-1.1092269228447236],[101.81237712370533,-1.1040404291887298],[101.80903770262795,-1.1017882183203818],[101.8111038006,-1.0933958106463049],[101.81376609243131,-1.095497255569652],[101.81496739962586,-1.1018013250398764],[101.82936002734345,-1.1069327001470202],[101.8309549273281,-1.1119537347345283],[101.83650162195232,-1.112452018502723],[101.83870393393947,-1.1161899264766202],[101.84720020882264,-1.1211126606680044],[101.85812741594752,-1.1222674360392846],[101.86284964089828,-1.1298594183150052],[101.86704798557611,-1.1300106483100874],[101.86991543255124,-1.1339191711657837],[101.8636455058355,-1.1360676937996361],[101.85425169495981,-1.1290386106817651],[101.85638561800192,-1.1348699829952322],[101.85433538227214,-1.1368802744347954],[101.84843754555634,-1.1295033857106087],[101.84594873024975,-1.1299648737172998],[101.84735110337078,-1.126080845696167],[101.82883091841224,-1.1332332420541864],[101.8200876348365,-1.1307486535640077]]]}},{"type":"Feature","properties":{"code":"1310072005","desa":"Simalidu","kecamatan":"Koto Salak","kecCode":"131007","kabCode":"1310","province":"Sumatera Barat"},"geometry":{"type":"Polygon","coordinates":[[[101.8840412017401,-1.1344008327646442],[101.87612362440579,-1.1299923183281386],[101.87108829958542,-1.1300929650555362],[101.86991543255124,-1.1339191711657837],[101.86704798557611,-1.1300106483100874],[101.86284964089828,-1.1298594183150052],[101.85812741594752,-1.1222674360392846],[101.84720020882264,-1.1211126606680044],[101.83126399283906,-1.1105760668909506],[101.84547598542844,-1.1118670185056554],[101.84701508517811,-1.10685677668202],[101.84472460006032,-1.1025077326137382],[101.85269037476102,-1.1002186585347853],[101.8601485981793,-1.1089650618488993],[101.86637629542975,-1.1120190920648239],[101.8730434014319,-1.1040281624360246],[101.87529831206751,-1.0945145178076272],[101.8778835373954,-1.0936312972244682],[101.88197691140539,-1.1015297351781927],[101.89263978080128,-1.101884006910043],[101.89261938597593,-1.106798287474205],[101.88475775726477,-1.1130934464615614],[101.8840412017401,-1.1344008327646442]]]}},{"type":"Feature","properties":{"code":"1310082001","desa":"Tiumang","kecamatan":"Tiumang","kecCode":"131008","kabCode":"1310","province":"Sumatera Barat"},"geometry":{"type":"Polygon","coordinates":[[[101.73556621840628,-1.0760457641981371],[101.72620646035988,-1.0779993048193224],[101.72483393843554,-1.0813814850590115],[101.72278252099659,-1.074786599121147],[101.7244887462587,-1.070146444506847],[101.71866983674362,-1.065847745385948],[101.72264381855746,-1.0650789113723569],[101.72247429005647,-1.0613729401228855],[101.73938631092953,-1.058115972491577],[101.7488877472718,-1.0660681125619331],[101.73556621840628,-1.0760457641981371]]]}},{"type":"Feature","properties":{"code":"1310082002","desa":"Sungai Langkok","kecamatan":"Tiumang","kecCode":"131008","kabCode":"1310","province":"Sumatera Barat"},"geometry":{"type":"Polygon","coordinates":[[[101.77348636990013,-1.0966919653363691],[101.77541677096724,-1.0962323452214782],[101.77626217865667,-1.091159887399496],[101.78470851778394,-1.0892829213524562],[101.78095458928294,-1.0827135473823695],[101.77344673228093,-1.0817750643588349],[101.76969280377995,-1.0770826564357483],[101.77407224134095,-1.0630571490801584],[101.78684620538814,-1.0625223222599351],[101.79162282763143,-1.0692095919542204],[101.81335645663525,-1.0696872533685964],[101.81216230084954,-1.0665824492287008],[101.82537601898814,-1.0635809987754248],[101.8282960097531,-1.067706011829726],[101.82473401726116,-1.0874969586024383],[101.83256761410416,-1.1049852848082147],[101.83087610894533,-1.1062538019351857],[101.82496423561105,-1.1066996714159754],[101.81496739962586,-1.1018013250398764],[101.81376609243131,-1.095497255569652],[101.8111038006,-1.0933958106463049],[101.80903770262795,-1.1017882183203818],[101.81237712370533,-1.1040404291887298],[101.8048736086302,-1.1148559333088857],[101.79838677083285,-1.113271749647492],[101.79225761409765,-1.108475074326535],[101.78961545538903,-1.108925880186047],[101.78821471633613,-1.1148804623176602],[101.77622924997995,-1.1057797908689428],[101.77348636990013,-1.0966919653363691]]]}},{"type":"Feature","properties":{"code":"1310082003","desa":"Koto Beringin","kecamatan":"Tiumang","kecCode":"131008","kabCode":"1310","province":"Sumatera Barat"},"geometry":{"type":"Polygon","coordinates":[[[101.72264381855746,-1.0650789113723569],[101.71309153904336,-1.0680907364047],[101.69919513204974,-1.0628809152342014],[101.69673249241065,-1.0499902812529558],[101.68993397567247,-1.0442463949880396],[101.70026263541234,-1.0402909131324258],[101.70058658380383,-1.0331878364947116],[101.7136332330873,-1.0319257414264285],[101.72904957257975,-1.0340637752673083],[101.74171181384916,-1.046589590267667],[101.73923816291097,-1.058474756122185],[101.72247429005647,-1.0613729401228855],[101.72264381855746,-1.0650789113723569]]]}},{"type":"Feature","properties":{"code":"1310082004","desa":"Sipangkur","kecamatan":"Tiumang","kecCode":"131008","kabCode":"1310","province":"Sumatera Barat"},"geometry":{"type":"Polygon","coordinates":[[[101.77622833536947,-1.0913629462233523],[101.76293829086951,-1.084162155547434],[101.74509281058481,-1.0839095170992237],[101.73556621840628,-1.0760457641981371],[101.7488877472718,-1.0660681125619331],[101.7425656526828,-1.062104719370327],[101.73884901367107,-1.054888581763676],[101.74366249462848,-1.044802565418353],[101.74359777941406,-1.0384726575264456],[101.74817934140354,-1.0377771973998722],[101.74823572799653,-1.0358036666482575],[101.75655405402641,-1.0367279223969923],[101.76875432165468,-1.047989710585399],[101.77438521440614,-1.0639439066968779],[101.76969280377995,-1.0770826564357483],[101.77344673228093,-1.0817750643588349],[101.78095458928294,-1.0827135473823695],[101.78470851778394,-1.0892829213524562],[101.77622833536947,-1.0913629462233523]]]}},{"type":"Feature","properties":{"code":"1310092001","desa":"Padang Laweh","kecamatan":"Padang Laweh","kecCode":"131009","kabCode":"1310","province":"Sumatera Barat"},"geometry":{"type":"Polygon","coordinates":[[[101.71296693707455,-1.0058308807663203],[101.70755192658021,-0.9925350428485114],[101.71580374144958,-0.9891209654545811],[101.72423734977394,-0.9902497495194108],[101.72459000362583,-0.9857662523087843],[101.72785458222324,-0.9838208415589239],[101.72716590028614,-0.9767080693301372],[101.7340324633276,-0.9741315467445765],[101.73324964755324,-0.9800026502066823],[101.73554216783684,-0.9834518353346441],[101.72673499102706,-1.0002884219550274],[101.7322482794346,-1.0031530351631466],[101.73528808957371,-1.0023279665420632],[101.7372106458547,-1.0100202457088314],[101.73149121125043,-1.0122589874308934],[101.72867381784248,-1.0233557797016934],[101.72587147458891,-1.0241233132956362],[101.71486005764557,-1.0190086934574942],[101.71394145773218,-1.0131833906684946],[101.71996262297671,-1.0096778045584855],[101.71722288692678,-1.0057587767220184],[101.71296693707455,-1.0058308807663203]]]}},{"type":"Feature","properties":{"code":"1310092002","desa":"Batu Rijal","kecamatan":"Padang Laweh","kecCode":"131009","kabCode":"1310","province":"Sumatera Barat"},"geometry":{"type":"Polygon","coordinates":[[[101.70058658380383,-1.0331878364947116],[101.70000953741027,-1.0268583701699587],[101.71075690620631,-1.0280316742733568],[101.71005357880968,-1.0163915287100422],[101.6976668493457,-1.0132022854246743],[101.68853428163186,-1.0063956559099299],[101.68913115088196,-1.0032813351440681],[101.70557834366569,-1.0089586149204062],[101.71722288692678,-1.0057587767220184],[101.71981151888654,-1.0107873809030932],[101.71394145773218,-1.0131833906684946],[101.7138498312048,-1.0172482777488276],[101.72587147458891,-1.0241233132956362],[101.72867381784248,-1.0233557797016934],[101.73244082968061,-1.0116126060062307],[101.74179340304318,-1.0136172137304786],[101.73664646066565,-1.0348381832789233],[101.74359777941406,-1.0384726575264456],[101.7423017808026,-1.046619088930062],[101.72904957257975,-1.0340637752673083],[101.7136332330873,-1.0319257414264285],[101.70058658380383,-1.0331878364947116]]]}},{"type":"Feature","properties":{"code":"1310092003","desa":"Muaro Sopan","kecamatan":"Padang Laweh","kecCode":"131009","kabCode":"1310","province":"Sumatera Barat"},"geometry":{"type":"Polygon","coordinates":[[[101.73692704284882,-1.011742018448569],[101.73528808957371,-1.0023279665420632],[101.7322482794346,-1.0031530351631466],[101.72673499102706,-1.0002884219550274],[101.73554216783684,-0.9834518353346441],[101.74702648968082,-0.9827967637610895],[101.74706277282877,-0.9980034838581544],[101.74979939092918,-1.0039547519880612],[101.74233808193695,-1.015032226821321],[101.73692704284882,-1.011742018448569]]]}},{"type":"Feature","properties":{"code":"1310092004","desa":"Sopan Jaya","kecamatan":"Padang Laweh","kecCode":"131009","kabCode":"1310","province":"Sumatera Barat"},"geometry":{"type":"Polygon","coordinates":[[[101.69854715342842,-0.9461147935052681],[101.6894830196257,-0.9401237276769091],[101.71394030120399,-0.9003407574133806],[101.73229046483316,-0.8982024789570593],[101.71505501987332,-0.908606654757481],[101.69816670063277,-0.9355101408344969],[101.69861107723948,-0.9383333213767486],[101.72222225055646,-0.9461111287678919],[101.7254348843125,-0.9514446345986179],[101.7386201173246,-0.948302621908386],[101.74333313681488,-0.9496491992895272],[101.75382521506167,-0.9751920803600908],[101.76190467665958,-0.975697046990471],[101.77333333316686,-0.9683332604891225],[101.80337504042586,-0.9640933410571549],[101.82358471786051,-0.9776111091725561],[101.8210344401873,-0.991757223708344],[101.81767216463872,-0.9929773555106552],[101.81519440020145,-1.0015555550253648],[101.82322222182813,-1.0073611096015178],[101.82052779991805,-1.0132777772150383],[101.81919940592792,-1.0302154116604862],[101.81979363566778,-1.034014907006693],[101.82563888902358,-1.0383611101166437],[101.82153202428354,-1.0591740329715331],[101.82537601898814,-1.0635809987754248],[101.81216230084954,-1.0665824492287008],[101.81335645663525,-1.0696872533685964],[101.79162282763143,-1.0692095919542204],[101.78684620538814,-1.0625223222599351],[101.77407224134095,-1.0630571490801584],[101.76875432165468,-1.047989710585399],[101.75655405402641,-1.0367279223969923],[101.74823572799653,-1.0358036666482575],[101.7448034995819,-1.03878995273315],[101.73688461643194,-1.0355552783959887],[101.73930841255327,-1.0184729664158882],[101.74979939092918,-1.0039547519880612],[101.74706277282877,-0.9980034838581544],[101.74702648968082,-0.9827967637610895],[101.73554216783684,-0.9834518353346441],[101.73324964755324,-0.9800026502066823],[101.73737220456364,-0.9601525595197263],[101.7338673549945,-0.9568178544908134],[101.72637968057784,-0.9598114709497164],[101.72183354468238,-0.9557204468727578],[101.72224596837678,-0.9515656707553692],[101.70036251142085,-0.9514036623855807],[101.69854715342842,-0.9461147935052681]]]}},{"type":"Feature","properties":{"code":"1310102001","desa":"Sungai Limau","kecamatan":"Asam Jujuhan","kecCode":"131010","kabCode":"1310","province":"Sumatera Barat"},"geometry":{"type":"Polygon","coordinates":[[[101.64405210092376,-1.402893575012091],[101.65608326273245,-1.4075677042146277],[101.69416217244634,-1.405409529157253],[101.69370999961683,-1.4084299984730977],[101.69943900030967,-1.40915099844653],[101.70209100029949,-1.414169998767507],[101.71052399978281,-1.4199499982085382],[101.71207999959238,-1.4235609983520245],[101.71021299983016,-1.425198998343928],[101.71282099958948,-1.428823998233745],[101.72180200006231,-1.4310949986375952],[101.70121400032592,-1.4536029987566748],[101.70092699968136,-1.462129998068817],[101.6923499998527,-1.4749059981669077],[101.69107999974227,-1.4899319985997828],[101.68402089275008,-1.4956610244672712],[101.6807126520673,-1.493788707915184],[101.67879909170478,-1.4859826384293264],[101.68341655642898,-1.470811285970208],[101.68341669042798,-1.4582783888086939],[101.67945906188622,-1.45234171127963],[101.66626678268591,-1.4497030635271946],[101.65901115224294,-1.436510456988288],[101.65769202756506,-1.4266160510971688],[101.6497767120257,-1.420019700163639],[101.64643435556108,-1.4128572170095286],[101.64405210092376,-1.402893575012091]]]}},{"type":"Feature","properties":{"code":"1310102002","desa":"Alahan Nan Tigo","kecamatan":"Asam Jujuhan","kecCode":"131010","kabCode":"1310","province":"Sumatera Barat"},"geometry":{"type":"Polygon","coordinates":[[[101.64405210092376,-1.402893575012091],[101.6497767120257,-1.420019700163639],[101.65769202756506,-1.4266160510971688],[101.65901115224294,-1.436510456988288],[101.66626678268591,-1.4497030635271946],[101.67945906188622,-1.45234171127963],[101.68341669042798,-1.4582783888086939],[101.68341655642898,-1.470811285970208],[101.67879909170478,-1.4859826384293264],[101.68148143302174,-1.4952045124093658],[101.67980638905368,-1.498057220392302],[101.65616195970671,-1.4984238344198908],[101.65631112935516,-1.5122903182556677],[101.64216446891514,-1.5125779403314517],[101.64176468519213,-1.5205594558570876],[101.62276277837958,-1.527015276029926],[101.62135824778493,-1.5372839284948678],[101.6183814117728,-1.5406266240001445],[101.61927722196629,-1.5449022204370257],[101.60354467364783,-1.5601110683301476],[101.59635546533252,-1.5423279713375457],[101.62472704701565,-1.4977874597516263],[101.59555989267493,-1.4761928039069463],[101.56069090076453,-1.4442519011919739],[101.56651861194445,-1.447384737200054],[101.57065887390799,-1.4454216826509407],[101.58215523857348,-1.4476702737480105],[101.59465097935923,-1.440960193649346],[101.60937389389015,-1.4373446024667589],[101.61716900784346,-1.423392633574024],[101.62480707768452,-1.4194665226771432],[101.62638109181397,-1.4127778581342516],[101.6363534131795,-1.4093407266196878],[101.63960137680213,-1.4035586362549595],[101.64405210092376,-1.402893575012091]]]}},{"type":"Feature","properties":{"code":"1310102003","desa":"Lubuk Besar","kecamatan":"Asam Jujuhan","kecCode":"131010","kabCode":"1310","province":"Sumatera Barat"},"geometry":{"type":"Polygon","coordinates":[[[101.56040109693315,-1.445946857946929],[101.62472704701565,-1.4977874597516263],[101.59635546533252,-1.5423279713375457],[101.60354467364783,-1.5601110683301476],[101.5899029996238,-1.5696929984814652],[101.58666300039721,-1.578472998668578],[101.57489600005043,-1.5757569984284092],[101.56758190558054,-1.579257404443473],[101.56627099980687,-1.587792998576308],[101.55975000036226,-1.59025099861025],[101.55255599955977,-1.5991179983126798],[101.54075899962817,-1.6076949981318898],[101.52325333267521,-1.6360961090229393],[101.5178418520199,-1.6360213762603095],[101.50812542464871,-1.645293118547107],[101.50086762234297,-1.6451868411644457],[101.49722462611567,-1.647461221220491],[101.49221000009152,-1.6453894422333504],[101.48668113812408,-1.648172811587259],[101.48836590736079,-1.6499643060671796],[101.48506999998055,-1.6521686091508576],[101.49036749966045,-1.656769720597906],[101.47654599989805,-1.6767259978361981],[101.45890400021948,-1.68327699775764],[101.45291900031167,-1.6828459985668556],[101.44445500029809,-1.6875199982670541],[101.43987200029265,-1.6951829982060274],[101.43692487878018,-1.6958658732198955],[101.4292163173792,-1.6835593012428334],[101.42997099966196,-1.6796829983980393],[101.42663055605537,-1.6775361089330207],[101.43017192529419,-1.6644665323478312],[101.42977931366443,-1.6491047322578762],[101.43249190008116,-1.6393073011622017],[101.4409508836764,-1.6269935912660398],[101.45119446305408,-1.6195696733947613],[101.47300222407345,-1.5917799486096151],[101.48837830091793,-1.5793020539843334],[101.50129877441896,-1.5778386861457507],[101.50972920363988,-1.5730202778083173],[101.51729588979354,-1.5567554720501335],[101.51818818813445,-1.5451377546792886],[101.52579056568213,-1.52886581010278],[101.52811054136843,-1.5250110828931442],[101.53724053342391,-1.5198892936596375],[101.54088110777694,-1.5141785869821862],[101.53974997827896,-1.5082586449371171],[101.5356629498853,-1.5056268041531928],[101.529773785332,-1.4955438383081665],[101.52698981522786,-1.4857820995058577],[101.53534172284229,-1.4848541097718857],[101.55736720433303,-1.4623574959692225],[101.56040109693315,-1.445946857946929]]]}},{"type":"Feature","properties":{"code":"1310102004","desa":"Tanjung Alam","kecamatan":"Asam Jujuhan","kecCode":"131010","kabCode":"1310","province":"Sumatera Barat"},"geometry":{"type":"Polygon","coordinates":[[[101.71148900021721,-1.3364069983917921],[101.72466399984374,-1.3426559987759559],[101.72737499985641,-1.3494719983271137],[101.72813207883246,-1.354902038285429],[101.72461111071424,-1.3551388873365242],[101.72405017927241,-1.3587504999183488],[101.72817225694416,-1.365286480262286],[101.72185212017928,-1.3656981692101269],[101.71658318836353,-1.3733281127686932],[101.70694882592761,-1.3677001014512922],[101.7028245907823,-1.362201122162905],[101.7002003016027,-1.3464553898007465],[101.70378099999321,-1.3468489987782235],[101.7078650003695,-1.3427509986601782],[101.70777599986258,-1.3380309986374477],[101.71018000010696,-1.33927399840065],[101.71148900021721,-1.3364069983917921]]]}},{"type":"Feature","properties":{"code":"1310102005","desa":"Sinamar","kecamatan":"Asam Jujuhan","kecCode":"131010","kabCode":"1310","province":"Sumatera Barat"},"geometry":{"type":"Polygon","coordinates":[[[101.69416217244634,-1.405409529157253],[101.65608326273245,-1.4075677042146277],[101.64644534257855,-1.4030428921492537],[101.6535497772005,-1.400203596655309],[101.65713979256742,-1.3913046503358502],[101.67057838978093,-1.3910843128375168],[101.67211671161698,-1.3886037245317815],[101.66109868915322,-1.3784583601260276],[101.64663799894451,-1.3732231232151888],[101.64649715971619,-1.3674328966839204],[101.6305427702327,-1.3628341612457568],[101.61197312076297,-1.349639793834286],[101.5968602152268,-1.3488879830875975],[101.59027045002131,-1.3284187217630334],[101.59205398640239,-1.3266305862510324],[101.59044717939389,-1.3235375272570007],[101.5935207536799,-1.32145777937719],[101.59066166140661,-1.3182838173719549],[101.6021715365872,-1.308233754123374],[101.6017050627385,-1.303134698851876],[101.60692758324143,-1.3067414101285362],[101.6111657552954,-1.3057208882500742],[101.61524069140482,-1.30951385182026],[101.62075129173877,-1.306737578117293],[101.62098658136567,-1.30064318738056],[101.62739845167725,-1.2956629631281043],[101.63620742173521,-1.298226241397966],[101.6392099828545,-1.2966240919800605],[101.64000950443511,-1.2990010361180704],[101.64708632627297,-1.3007892363813365],[101.65021481586115,-1.2994093903797272],[101.6531643664424,-1.302781812975217],[101.66236321059374,-1.3021116885492803],[101.665186714895,-1.304609728199296],[101.66147367856745,-1.310029072520586],[101.66754311762082,-1.3084467279727308],[101.67024471342285,-1.3033092051001198],[101.67585724741411,-1.306839035133831],[101.67843035257874,-1.306110961093282],[101.68015876231708,-1.3098791591329386],[101.68699021042994,-1.3043212832438835],[101.68987433443306,-1.3056377009609295],[101.68996595556445,-1.30258842366201],[101.6934389997101,-1.3026199988590343],[101.69251000003652,-1.30607399895722],[101.69445699989068,-1.307649998787987],[101.68992300034624,-1.315800998747532],[101.68875699963586,-1.3240099986838076],[101.68474099969744,-1.327451998228687],[101.6756440001705,-1.3253929986077848],[101.67200899981553,-1.3311609983947243],[101.67513299998802,-1.3480149985879593],[101.68247000019038,-1.3512829982028327],[101.69365299968628,-1.3473299984760532],[101.69723800043346,-1.3488569987452053],[101.7002003016027,-1.3464553898007465],[101.7028245907823,-1.362201122162905],[101.7124478052221,-1.371824336592062],[101.71658318836353,-1.3733281127686932],[101.71796329696866,-1.3717251350752226],[101.71031099985281,-1.3811039983087072],[101.7062270003758,-1.3824009987634924],[101.70493900033466,-1.3865489984892805],[101.69493100016558,-1.3940869980599409],[101.69692400034239,-1.4004039988818147],[101.69416217244634,-1.405409529157253]]]}},{"type":"Feature","properties":{"code":"1310112001","desa":"Koto Besar","kecamatan":"Koto Besar","kecCode":"131011","kabCode":"1310","province":"Sumatera Barat"},"geometry":{"type":"Polygon","coordinates":[[[101.69755118124209,-1.1703202282883467],[101.70710118007548,-1.1799189793591023],[101.72367928896806,-1.1834525190963057],[101.72566497855597,-1.1874248533477147],[101.71606508533546,-1.1964778886069831],[101.71777391143695,-1.1998922025226222],[101.71400899322053,-1.2019030344547446],[101.71351714500031,-1.2076469144244122],[101.70888759608572,-1.2106719756786226],[101.70790241396531,-1.221225047733485],[101.71057972357545,-1.2240167070380423],[101.69914743200842,-1.2344949644920062],[101.70214091267303,-1.2361621052160559],[101.7013147423815,-1.2393360177586088],[101.70236882336258,-1.2392103375027759],[101.70967707763508,-1.236954675036472],[101.70942699955644,-1.2305799961951838],[101.71345753343847,-1.2314029190339078],[101.7121101907328,-1.2360949222620499],[101.70225367236912,-1.2418892631917269],[101.70426449890755,-1.2456215324163573],[101.7012334139909,-1.2466229113257739],[101.69788016403838,-1.242455169682458],[101.68920400406158,-1.2425377697142856],[101.6851322578475,-1.2343073865978134],[101.68299978900909,-1.2345908744901386],[101.6829057199231,-1.2240596424710954],[101.66911479621092,-1.2191984057198637],[101.6561631522078,-1.224399116758069],[101.65642487830553,-1.236335039449432],[101.65294147037262,-1.238135519055852],[101.65191956983232,-1.242569804464872],[101.64955342295218,-1.242665452760315],[101.64950223623924,-1.2480206232590503],[101.63508968494108,-1.2476591740379417],[101.6373956114184,-1.2619188019016556],[101.63746902487564,-1.2973491613856654],[101.62734401571377,-1.295668778144489],[101.62098658136567,-1.30064318738056],[101.62075129173877,-1.306737578117293],[101.61517716599347,-1.3095276069509445],[101.6111657552954,-1.3057208882500742],[101.60692758324143,-1.3067414101285362],[101.60181922807499,-1.3030434851134103],[101.6021715365872,-1.308233754123374],[101.59089437537517,-1.3176373136395543],[101.5935207536799,-1.32145777937719],[101.59044717939389,-1.3235375272570007],[101.59205398640239,-1.3266305862510324],[101.59050017644205,-1.3283975535207238],[101.58493564106702,-1.3251113759094013],[101.54889543687494,-1.3259690989139488],[101.5508213539224,-1.311263204968445],[101.55689694883517,-1.3049787829869757],[101.55605126955048,-1.3017627731795485],[101.56109172230519,-1.2989307603955282],[101.56094941358462,-1.291292701354828],[101.56395005375201,-1.2899948069739189],[101.56682954444794,-1.2849403086131317],[101.56523447089415,-1.2845970796567323],[101.57139510480033,-1.27742306089872],[101.57059526126237,-1.2743487114005512],[101.5744203989823,-1.2659511254300602],[101.57259350628533,-1.2622365791448868],[101.57525819660856,-1.2597391294500966],[101.57290595144853,-1.2589117765510436],[101.57913209736847,-1.248188510497042],[101.57812598622534,-1.2436268532075032],[101.58211552541121,-1.2422728833991006],[101.58279206560137,-1.2377354736305715],[101.5876344004073,-1.2336986292101977],[101.5901448785833,-1.2345575833866402],[101.59232614643456,-1.2283711812127962],[101.59081028786456,-1.2273496682814684],[101.59604262176964,-1.2269927093753406],[101.596570125411,-1.2237737416977532],[101.59959009560646,-1.2276331723616298],[101.60112302870488,-1.2267605062219198],[101.60142737996966,-1.229536398612434],[101.61464547331002,-1.2260585062254536],[101.61942391398253,-1.228259660782597],[101.62624564222268,-1.221895864637438],[101.62536487408971,-1.217579316671891],[101.63080544871251,-1.2090516500628865],[101.65947187942373,-1.2002705697900067],[101.6620240762502,-1.1844319833260566],[101.67532361579231,-1.186296129537355],[101.68005225021123,-1.1843576957278417],[101.68768216140269,-1.174224605269416],[101.69054430957225,-1.1749216221224512],[101.69755118124209,-1.1703202282883467]]]}},{"type":"Feature","properties":{"code":"1310112002","desa":"Koto Tinggi","kecamatan":"Koto Besar","kecCode":"131011","kabCode":"1310","province":"Sumatera Barat"},"geometry":{"type":"Polygon","coordinates":[[[101.63720790222298,-1.2580423632592306],[101.63508968494108,-1.2476591740379417],[101.64950223623924,-1.2480206232590503],[101.64955342295218,-1.242665452760315],[101.65191956983232,-1.242569804464872],[101.65294147037262,-1.238135519055852],[101.65642487830553,-1.236335039449432],[101.6561631522078,-1.224399116758069],[101.66911479621092,-1.2191984057198637],[101.6829057199231,-1.2240596424710954],[101.68299978900909,-1.2345908744901386],[101.6851322578475,-1.2343073865978134],[101.68871112971493,-1.2407778180558633],[101.67651143405548,-1.2436952394545056],[101.67662258486445,-1.2470660531628142],[101.68130042827221,-1.2483833881883177],[101.68179316322396,-1.2506525162036672],[101.67938755229373,-1.2498011334194912],[101.67439552443396,-1.2556628632479476],[101.6672722679009,-1.2569250401545038],[101.6570053942836,-1.2668781681778116],[101.6439988070993,-1.2664297221393568],[101.64065935544494,-1.2631534271779745],[101.6427597157883,-1.2623650077288742],[101.64166891189079,-1.258091338539141],[101.63720790222298,-1.2580423632592306]]]}},{"type":"Feature","properties":{"code":"1310112003","desa":"Koto Gadang","kecamatan":"Koto Besar","kecCode":"131011","kabCode":"1310","province":"Sumatera Barat"},"geometry":{"type":"Polygon","coordinates":[[[101.69299366442611,-1.3022738003411025],[101.68015876231708,-1.3098791591329386],[101.67843035257874,-1.306110961093282],[101.67585724741411,-1.306839035133831],[101.67024471342285,-1.3033092051001198],[101.66754311762082,-1.3084467279727308],[101.66147367856745,-1.310029072520586],[101.66496387728118,-1.3040074765074308],[101.66196442871546,-1.301980726575146],[101.6531643664424,-1.302781812975217],[101.65021481586115,-1.2994093903797272],[101.64708632627297,-1.3007892363813365],[101.64000950443511,-1.2990010361180704],[101.63933944655825,-1.2966922426046217],[101.63746902487564,-1.2973491613856654],[101.63744282042988,-1.2894795673879151],[101.63829579591429,-1.2876297302896282],[101.66184987756985,-1.2872630560074658],[101.6625899593592,-1.2838627922001338],[101.67580577471675,-1.2799130992805179],[101.68738178604066,-1.2669731401830506],[101.69143384789385,-1.270347493622972],[101.70080944390075,-1.2705396481670348],[101.6916666670831,-1.2811388878184486],[101.69583657969446,-1.283599768380886],[101.69638444398696,-1.291818054716613],[101.68843404229727,-1.3002027219258931],[101.69299366442611,-1.3022738003411025]]]}},{"type":"Feature","properties":{"code":"1310112004","desa":"Bonjol","kecamatan":"Koto Besar","kecCode":"131011","kabCode":"1310","province":"Sumatera Barat"},"geometry":{"type":"Polygon","coordinates":[[[101.61179129673103,-1.1289115571611956],[101.62146594609656,-1.1355173392849673],[101.61247344869075,-1.1348876924449696],[101.61123290407532,-1.1329451451363561],[101.60919582542702,-1.134964964893005],[101.61094814004468,-1.138563829584868],[101.61518958742958,-1.1390447591355914],[101.61983083202733,-1.145263788713222],[101.62280235934145,-1.157160087275306],[101.62919143903372,-1.1621459871491349],[101.63692022438892,-1.1630125190130922],[101.63638820255358,-1.171127233126815],[101.62536525630162,-1.1848764327773675],[101.60170309861917,-1.1995948290979306],[101.58110052986562,-1.2077449657083763],[101.58099508255707,-1.2105528739635791],[101.58750820394052,-1.2173647204454932],[101.596570125411,-1.2237737416977532],[101.59609071841196,-1.2268844336991307],[101.59081028786456,-1.2273496682814684],[101.59232614643456,-1.2283711812127962],[101.5901448785833,-1.2345575833866402],[101.5876344004073,-1.2336986292101977],[101.58279206560137,-1.2377354736305715],[101.58211552541121,-1.2422728833991006],[101.57812598622534,-1.2436268532075032],[101.57913209736847,-1.248188510497042],[101.57290595144853,-1.2589117765510436],[101.57525819660856,-1.2597391294500966],[101.57259350628533,-1.2622365791448868],[101.5744203989823,-1.2659511254300602],[101.57059526126237,-1.2743487114005512],[101.57139510480033,-1.27742306089872],[101.56523447089415,-1.2845970796567323],[101.56682954444794,-1.2849403086131317],[101.56395005375201,-1.2899948069739189],[101.56094941358462,-1.291292701354828],[101.56109172230519,-1.2989307603955282],[101.55605126955048,-1.3017627731795485],[101.55689694883517,-1.3049787829869757],[101.5508213539224,-1.311263204968445],[101.55030911357478,-1.3238445764875213],[101.54233020337625,-1.3338558942445402],[101.51504730319057,-1.337689205898294],[101.51933033342823,-1.3185583381242358],[101.52368474735329,-1.312633481284158],[101.52568349419795,-1.3042458813857047],[101.51333409109547,-1.2990348614188363],[101.5009133052049,-1.2970361136770676],[101.46860531718168,-1.2813295458906426],[101.47013015458305,-1.2713524653239159],[101.46777448930128,-1.2589495246945375],[101.45511099797426,-1.2528105158931615],[101.44711600879684,-1.2412998727043552],[101.44735038561186,-1.230258578496334],[101.44467349328714,-1.220398686786633],[101.45014625284732,-1.2109879183049101],[101.43562202283812,-1.2077994403426013],[101.42048865143016,-1.1948075840678707],[101.410780451057,-1.1841238036477104],[101.40762196907865,-1.1700938320574032],[101.41662224472088,-1.1638909264246875],[101.45303122940777,-1.1508656333564018],[101.45995518988018,-1.1454768183205783],[101.46264821244512,-1.1380361424823524],[101.46887361822296,-1.1347877076185702],[101.47359851326081,-1.134937178539824],[101.48524048356153,-1.142044204999972],[101.50053753967575,-1.1408208104572932],[101.5217515880654,-1.1580323927868101],[101.52626752292792,-1.1529011345915094],[101.53098693120198,-1.153623003309961],[101.535576760659,-1.148111658343513],[101.53822123422263,-1.1490063272963484],[101.54138877057532,-1.1450988215738753],[101.54702307355603,-1.1433668406296469],[101.55174994440448,-1.148704854761729],[101.54634023991018,-1.1526719567574426],[101.54980441943849,-1.1575081195107886],[101.55413286723808,-1.1543695943914565],[101.55559994208375,-1.1475452743127013],[101.56149847757273,-1.1422111740302254],[101.55722801985729,-1.1351879931629114],[101.5640368563159,-1.1328432681364353],[101.56135816984373,-1.1272700138404124],[101.56534070241155,-1.1264727531562668],[101.56446861543428,-1.1218178406672916],[101.5856542722269,-1.1276102174775333],[101.59479847177211,-1.1251891175264443],[101.61179129673103,-1.1289115571611956]]]}},{"type":"Feature","properties":{"code":"1310112005","desa":"Abai Siat","kecamatan":"Koto Besar","kecCode":"131011","kabCode":"1310","province":"Sumatera Barat"},"geometry":{"type":"Polygon","coordinates":[[[101.61247344869075,-1.1348876924449696],[101.63382084765408,-1.134207784294474],[101.63404703344389,-1.138730237438112],[101.6418946839925,-1.1386760595801546],[101.6455918284002,-1.1435440151664624],[101.65003266267729,-1.1400062746960185],[101.65253639683732,-1.1449106294426905],[101.66169735794675,-1.1490427291547123],[101.66704060883713,-1.1586982796073264],[101.66971915591438,-1.1563831143971297],[101.67076990220924,-1.159036483152211],[101.67234087123425,-1.1550007251128651],[101.67425896957582,-1.1579336211459328],[101.68593364192411,-1.1599122681407115],[101.68955097959413,-1.165453103675665],[101.69755118124209,-1.1703202282883467],[101.69054430957225,-1.1749216221224512],[101.68768216140269,-1.174224605269416],[101.68005225021123,-1.1843576957278417],[101.67532361579231,-1.186296129537355],[101.6620240762502,-1.1844319833260566],[101.65947187942373,-1.2002705697900067],[101.63080544871251,-1.2090516500628865],[101.62536487408971,-1.217579316671891],[101.62624564222268,-1.221895864637438],[101.61955925655451,-1.228180616670141],[101.61763631896099,-1.2260124537421617],[101.60945518360988,-1.2264358464670773],[101.60142737996966,-1.229536398612434],[101.60112302870488,-1.2267605062219198],[101.59959009560646,-1.2276331723616298],[101.59278709304998,-1.22209438278433],[101.58037530757446,-1.209377898919821],[101.60170309861917,-1.1995948290979306],[101.62536525630162,-1.1848764327773675],[101.63638820255358,-1.171127233126815],[101.63692022438892,-1.1630125190130922],[101.62919143903372,-1.1621459871491349],[101.62280235934145,-1.157160087275306],[101.61983083202733,-1.145263788713222],[101.60919582542702,-1.134964964893005],[101.6121488455928,-1.1327030260581463],[101.61247344869075,-1.1348876924449696]]]}},{"type":"Feature","properties":{"code":"1310112006","desa":"Koto Laweh","kecamatan":"Koto Besar","kecCode":"131011","kabCode":"1310","province":"Sumatera Barat"},"geometry":{"type":"Polygon","coordinates":[[[101.63744282042988,-1.2894795673879151],[101.63720790222298,-1.2580423632592306],[101.64166891189079,-1.258091338539141],[101.64207768433772,-1.265215317219875],[101.65026936783708,-1.2653035470077658],[101.65169953990191,-1.2677331671358758],[101.66052313473494,-1.2648139911599778],[101.66690422934676,-1.2571862572356407],[101.67134823373407,-1.2546893174565068],[101.67439552443396,-1.2556628632479476],[101.67973301066996,-1.2496638060438576],[101.68642399996769,-1.2572979979997554],[101.69001170767422,-1.2555709660247243],[101.6895599997942,-1.2644869985636944],[101.67574937823126,-1.2799538601529044],[101.6625899593592,-1.2838627922001338],[101.66184987756985,-1.2872630560074658],[101.63829579591429,-1.2876297302896282],[101.63744282042988,-1.2894795673879151]]]}},{"type":"Feature","properties":{"code":"1310112007","desa":"Koto Ranah","kecamatan":"Koto Besar","kecCode":"131011","kabCode":"1310","province":"Sumatera Barat"},"geometry":{"type":"Polygon","coordinates":[[[101.71057972357545,-1.2240167070380423],[101.71941051838076,-1.2268059705486123],[101.717148128983,-1.23051105326789],[101.71996005990889,-1.2405551728971538],[101.7223611112763,-1.2413611093410353],[101.71858900028218,-1.2463289984922912],[101.72113888944824,-1.2539722205408195],[101.71763888902358,-1.2528333316934848],[101.71757000005549,-1.260002998632015],[101.71395100043837,-1.2584169983401077],[101.70741100011763,-1.2705669983491097],[101.70373200043156,-1.26748499831828],[101.70080944390075,-1.2705396481670348],[101.69143384789385,-1.270347493622972],[101.68738178604066,-1.2669731401830506],[101.69090399971986,-1.2602099982851351],[101.69001170767422,-1.2555709660247243],[101.68527649741246,-1.256510715293742],[101.68130042827221,-1.2483833881883177],[101.67662258486445,-1.2470660531628142],[101.67651143405548,-1.2436952394545056],[101.68869856888392,-1.2405613125687533],[101.69000259574324,-1.242721509302033],[101.69788016403838,-1.242455169682458],[101.69775221569228,-1.2446173503201812],[101.70311157344042,-1.2466710277531505],[101.70225367236912,-1.2418892631917269],[101.7121101907328,-1.2360949222620499],[101.71410143633227,-1.2329210591822544],[101.70942699955644,-1.2305799961951838],[101.70967707763508,-1.236954675036472],[101.70132784640305,-1.2393351355236912],[101.70225995323432,-1.236419026235857],[101.69914743200842,-1.2344949644920062],[101.71057972357545,-1.2240167070380423]]]}}]}