{"type":"FeatureCollection","features":[{"type":"Feature","properties":{"code":"1311012001","desa":"Lubuk Gadang","kecamatan":"Sangir","kecCode":"131101","kabCode":"1311","province":"Sumatera Barat"},"geometry":{"type":"Polygon","coordinates":[[[101.24362382657841,-1.4306301192873905],[101.24865771967808,-1.4387900198372985],[101.24539001323859,-1.4446112181204676],[101.24715311162684,-1.4491278409593331],[101.24383511959513,-1.451748331399686],[101.24694935043225,-1.4605427764974945],[101.24520555958895,-1.4634076460124184],[101.24910342638208,-1.46448298966344],[101.24900088927966,-1.4705005360294257],[101.2514386869459,-1.4698235461789848],[101.2509163795873,-1.4751197436346277],[101.25561533727809,-1.4824341447652156],[101.25313945871908,-1.4877466918956912],[101.25729537428214,-1.493841733741597],[101.25156721085811,-1.5033378757643803],[101.25590181271853,-1.512063775435234],[101.26226730858944,-1.5157565491336817],[101.26362239535734,-1.5249377962403639],[101.26634080308565,-1.5247129720243353],[101.27160462855085,-1.531971391256943],[101.27674921740254,-1.5332861982881834],[101.27331065236477,-1.5443105105981363],[101.26650679455297,-1.5533929941578628],[101.2626914540474,-1.5564246213622668],[101.25850135525343,-1.5530856742312913],[101.26065819392055,-1.5633414852767575],[101.26290235226179,-1.5643556003849697],[101.26217239593937,-1.5679621506830261],[101.2659682814111,-1.5696847516982848],[101.26507144958777,-1.57512198353506],[101.26977926560068,-1.577872052792315],[101.27077506241926,-1.5718324811300874],[101.27768938305864,-1.5699553298226518],[101.28500143786611,-1.5716020793187937],[101.28094855673055,-1.583880691373428],[101.2831022073011,-1.5926933171657318],[101.28765817008855,-1.5945578518841559],[101.30461300858353,-1.5804900395201258],[101.31092303337134,-1.5826760989567592],[101.31348194903278,-1.5805548572571608],[101.31142375879948,-1.584875154496358],[101.3125007356205,-1.5918399387859492],[101.31033275255452,-1.5957266647732544],[101.30456819896328,-1.5973147308079247],[101.3005900344026,-1.6134618018205367],[101.30445106676335,-1.6264183426178584],[101.30381498887073,-1.6336300537614012],[101.29348247823383,-1.6404549062388238],[101.297311738446,-1.6468988301796061],[101.2972990930787,-1.6524478657330233],[101.29238508320509,-1.6617912758929076],[101.29247014737946,-1.6695789668334209],[101.27851520621185,-1.6815079098864771],[101.27718013655414,-1.6882322981989002],[101.27106607404015,-1.6906983309773507],[101.26862731499864,-1.6937149529935305],[101.26984662122464,-1.6954252440887108],[101.26599133822974,-1.6959594638665272],[101.2597946855763,-1.688404059716311],[101.26487998392416,-1.677269754924327],[101.26215011973233,-1.6692259046897315],[101.26209876394688,-1.6538983256022062],[101.25490449964298,-1.6246513528650912],[101.25945164907438,-1.617575083218794],[101.2511222487928,-1.6127735047940215],[101.25098266232008,-1.60975668222901],[101.24623676901172,-1.6061399111359411],[101.24825092933696,-1.5935046891120546],[101.2467294464069,-1.5851634051981611],[101.23767329228866,-1.5728553403465648],[101.23709617574798,-1.5590250290420564],[101.22675152336416,-1.5490701509379765],[101.22269042782101,-1.5513598482471684],[101.21671308743906,-1.547464630861085],[101.2075219738601,-1.5536917498405003],[101.19891390964925,-1.5532911063660395],[101.19701133090824,-1.5337091035805877],[101.19057050872203,-1.5263165045995026],[101.18133788963195,-1.5254862531854783],[101.18513828070711,-1.5222075957050711],[101.18444135558417,-1.5188729860043013],[101.19169913720548,-1.514549404441009],[101.18339615720697,-1.4931905652256818],[101.1865573002792,-1.4838798750998345],[101.20117698343108,-1.477079422128813],[101.18941333575691,-1.46728045499113],[101.18219501189037,-1.465755883790801],[101.18085016660193,-1.4599502114033418],[101.18791993056038,-1.4568230159431568],[101.1917478238031,-1.4420676170169677],[101.1993930180734,-1.4385608123256683],[101.19665681635904,-1.431295874806803],[101.20221218584372,-1.430335629988441],[101.20524917930622,-1.4248789916812863],[101.21465392863597,-1.4175505098655166],[101.23020915942521,-1.4247816571570597],[101.23251800959854,-1.4284978536982007],[101.24362382657841,-1.4306301192873905]]]}},{"type":"Feature","properties":{"code":"1311012002","desa":"Lubuk Gadang Timur","kecamatan":"Sangir","kecCode":"131101","kabCode":"1311","province":"Sumatera Barat"},"geometry":{"type":"Polygon","coordinates":[[[101.31042280257032,-1.7009527309865657],[101.26862731499864,-1.6937149529935305],[101.27106607404015,-1.6906983309773507],[101.27718013655414,-1.6882322981989002],[101.27851520621185,-1.6815079098864771],[101.29247014737946,-1.6695789668334209],[101.29238508320509,-1.6617912758929076],[101.2972990930787,-1.6524478657330233],[101.297311738446,-1.6468988301796061],[101.29348247823383,-1.6404549062388238],[101.30381498887073,-1.6336300537614012],[101.30445106676335,-1.6264183426178584],[101.3005900344026,-1.6134618018205367],[101.30456819896328,-1.5973147308079247],[101.31033275255452,-1.5957266647732544],[101.3125007356205,-1.5918399387859492],[101.31142375879948,-1.584875154496358],[101.31348194903278,-1.5805548572571608],[101.31092303337134,-1.5826760989567592],[101.30461300858353,-1.5804900395201258],[101.28953109368506,-1.594594025314758],[101.28408257624993,-1.5937007862839732],[101.28094855673055,-1.583880691373428],[101.28508801200222,-1.5716882460618646],[101.27768938305864,-1.5699553298226518],[101.27077506241926,-1.5718324811300874],[101.26830154278201,-1.5777957408201337],[101.26507144958777,-1.57512198353506],[101.2659682814111,-1.5696847516982848],[101.26217239593937,-1.5679621506830261],[101.26290235226179,-1.5643556003849697],[101.26065819392055,-1.5633414852767575],[101.25850135525343,-1.5530856742312913],[101.2626914540474,-1.5564246213622668],[101.26966175478623,-1.5496260003103426],[101.27208373787425,-1.5500878219655623],[101.27321395725839,-1.5556937684165872],[101.28010080181058,-1.5544812970395223],[101.27993107455949,-1.55191272086347],[101.28331515057378,-1.5529161709115575],[101.28615288484782,-1.547094730710682],[101.3019004473478,-1.5471520319141516],[101.30606969985682,-1.543405995867544],[101.30534453062562,-1.5401948828686214],[101.3075242777233,-1.5383053748763742],[101.32682983163147,-1.5403078718917838],[101.33227789221104,-1.535854393151659],[101.33986802009308,-1.5375918635576835],[101.34931097622064,-1.546802067035544],[101.34953093870195,-1.5423283238718164],[101.35797628857489,-1.5362662286889839],[101.35639492338709,-1.5339410180515891],[101.36042140942055,-1.5301427143070643],[101.36020753265153,-1.5247137589311608],[101.36254320960148,-1.5217335001026036],[101.37222697359603,-1.5211871080008492],[101.37021328181754,-1.5202303408608273],[101.37402890381092,-1.5172722593138446],[101.37337294820304,-1.5144320788870205],[101.38421988004346,-1.5192512741314077],[101.38288944639089,-1.5261168596021497],[101.38698896726707,-1.5301436073338905],[101.41223840767645,-1.535675527889425],[101.41209997863113,-1.5399317421375516],[101.40677714325062,-1.5419733452728297],[101.40434234842068,-1.5471443705896823],[101.40286763023698,-1.5543799299551833],[101.40443853541012,-1.5628245405760595],[101.40213355861691,-1.5691312621470708],[101.40366668506954,-1.5711883749902562],[101.39920307905892,-1.5768694058388042],[101.39842835988094,-1.5844867211172804],[101.39218380663745,-1.5881442198078104],[101.38301513743869,-1.5996634488242178],[101.38167947242977,-1.6060995000998253],[101.38336056343933,-1.6126945533116146],[101.38053995765297,-1.6161360915042513],[101.37917233343647,-1.6316273525998974],[101.3815935224232,-1.6354622290740115],[101.38475661972228,-1.6605751991336786],[101.39272498177257,-1.665017571246589],[101.40295080763372,-1.6790369155482945],[101.40135276721651,-1.6859044120784272],[101.39774348657272,-1.6892564830160381],[101.39114245735857,-1.6897139249729471],[101.37318888935583,-1.6752722203679251],[101.36855119887878,-1.6794405204902765],[101.3365027776811,-1.6807055545429659],[101.33108333262975,-1.6854166647672644],[101.33268256015208,-1.6910833460333843],[101.33056282661323,-1.6952158405477689],[101.31848888855143,-1.695005553872611],[101.31042280257032,-1.7009527309865657]]]}},{"type":"Feature","properties":{"code":"1311012003","desa":"Lubuk Gadang Selatan","kecamatan":"Sangir","kecCode":"131101","kabCode":"1311","province":"Sumatera Barat"},"geometry":{"type":"Polygon","coordinates":[[[101.18133788963195,-1.5254862531854783],[101.19057050872203,-1.5263165045995026],[101.19701133090824,-1.5337091035805877],[101.19891390964925,-1.5532911063660395],[101.2075219738601,-1.5536917498405003],[101.21671308743906,-1.547464630861085],[101.22269042782101,-1.5513598482471684],[101.22675152336416,-1.5490701509379765],[101.23655145908263,-1.5581670704151513],[101.23767329228866,-1.5728553403465648],[101.2467294464069,-1.5851634051981611],[101.24825092933696,-1.5935046891120546],[101.24623676901172,-1.6061399111359411],[101.25098266232008,-1.60975668222901],[101.2511222487928,-1.6127735047940215],[101.25945164907438,-1.617575083218794],[101.25490449964298,-1.6246513528650912],[101.26209876394688,-1.6538983256022062],[101.26215011973233,-1.6692259046897315],[101.26487998392416,-1.677269754924327],[101.2597946855763,-1.688404059716311],[101.26599133822974,-1.6959594638665272],[101.25978601431318,-1.7004023198146694],[101.2528805555932,-1.7138333312317684],[101.23914783780253,-1.7222490987961183],[101.23381840139814,-1.7209482564375533],[101.2283333328171,-1.7236111094428563],[101.22623410472022,-1.7184059386666157],[101.21594805216091,-1.7250833958581049],[101.21347292813316,-1.7224790626376216],[101.20783902714942,-1.7221986054605543],[101.20552482960727,-1.716772083650053],[101.20000000019989,-1.7147222202418135],[101.19619930425455,-1.7082190300789566],[101.19467555323428,-1.6849706639854758],[101.19101111806873,-1.6760186162965793],[101.18303232568132,-1.6876568633910811],[101.18270617664881,-1.6946718271528838],[101.16917726411951,-1.7106048649146959],[101.16261224196148,-1.7090467463041723],[101.1558291665828,-1.6991641646992766],[101.13844770679628,-1.6854266040745338],[101.14347840820204,-1.6699096340596118],[101.14679650365575,-1.6659899308322248],[101.14562121744528,-1.6336429347510895],[101.14872793804396,-1.6266658819101034],[101.14831996509442,-1.6094910521745227],[101.15232913198389,-1.6049195607983502],[101.15069040893529,-1.5994267382687755],[101.1598344133276,-1.5894645972398023],[101.15289895592213,-1.578334894278757],[101.15629740040475,-1.5708558056979678],[101.15752449925627,-1.5560178544039993],[101.16322704908912,-1.5508987793244138],[101.16248712558047,-1.543011966007421],[101.16616177074917,-1.5392907449540307],[101.16768953094714,-1.532186670068752],[101.18133788963195,-1.5254862531854783]]]}},{"type":"Feature","properties":{"code":"1311012004","desa":"Lubuk Gadang Utara","kecamatan":"Sangir","kecCode":"131101","kabCode":"1311","province":"Sumatera Barat"},"geometry":{"type":"Polygon","coordinates":[[[101.26854159341984,-1.549626009303529],[101.27331065236477,-1.5443105105981363],[101.27674921740254,-1.5332861982881834],[101.27160462855085,-1.531971391256943],[101.26634080308565,-1.5247129720243353],[101.26362239535734,-1.5249377962403639],[101.26226730858944,-1.5157565491336817],[101.25590181271853,-1.512063775435234],[101.25156721085811,-1.5033378757643803],[101.25729537428214,-1.493841733741597],[101.25313945871908,-1.4877466918956912],[101.25561533727809,-1.4824341447652156],[101.2509163795873,-1.4751197436346277],[101.2514386869459,-1.4698235461789848],[101.24900088927966,-1.4705005360294257],[101.24910342638208,-1.46448298966344],[101.24520555958895,-1.4634076460124184],[101.24694935043225,-1.4605427764974945],[101.24383511959513,-1.451748331399686],[101.24715311162684,-1.4491278409593331],[101.24539001323859,-1.4446112181204676],[101.24865771967808,-1.4387900198372985],[101.24760202531324,-1.4351197444784172],[101.25960858077144,-1.4348199195018112],[101.26645750900688,-1.439129955476427],[101.26672887583703,-1.4459034719535442],[101.27585848478128,-1.4492926318315553],[101.27869418658746,-1.4558568373979166],[101.29060556589423,-1.459429567791121],[101.29284231562042,-1.4706352751561624],[101.29036123088615,-1.4790012454601944],[101.29099751832086,-1.4876111847479139],[101.2992608858812,-1.49832023341966],[101.30580660499089,-1.4980813474040966],[101.30931109483122,-1.5025070236031934],[101.31564569089596,-1.5026310257240951],[101.32123308074215,-1.509361907141667],[101.32946036300541,-1.5032058319057728],[101.33793347405064,-1.5060094180192776],[101.34481342080277,-1.5124596785831879],[101.35942054492227,-1.5108585121243303],[101.37222697359603,-1.5211871080008492],[101.36254320960148,-1.5217335001026036],[101.36020753265153,-1.5247137589311608],[101.36042140942055,-1.5301427143070643],[101.35639492338709,-1.5339410180515891],[101.35797628857489,-1.5362662286889839],[101.34953093870195,-1.5423283238718164],[101.34931097622064,-1.546802067035544],[101.33986802009308,-1.5375918635576835],[101.33227789221104,-1.535854393151659],[101.32682983163147,-1.5403078718917838],[101.3075242777233,-1.5383053748763742],[101.30534453062562,-1.5401948828686214],[101.30606969985682,-1.543405995867544],[101.3019004473478,-1.5471520319141516],[101.28615288484782,-1.547094730710682],[101.28331515057378,-1.5529161709115575],[101.27993107455949,-1.55191272086347],[101.28010080181058,-1.5544812970395223],[101.27321395725839,-1.5556937684165872],[101.27208373787425,-1.5500878219655623],[101.26854159341984,-1.549626009303529]]]}},{"type":"Feature","properties":{"code":"1311022001","desa":"Pasir Talang","kecamatan":"Sungai Pagu","kecCode":"131102","kabCode":"1311","province":"Sumatera Barat"},"geometry":{"type":"Polygon","coordinates":[[[100.97830509010787,-1.4896351845533167],[100.97569573956679,-1.482726016137672],[100.9772883705619,-1.4813188433364233],[100.98567910640571,-1.4782525733475012],[101.00159528279613,-1.4639413270963602],[101.01327035444335,-1.4574475024732594],[101.0152182482236,-1.4537584043040568],[101.02442811806327,-1.4543117121922673],[101.03139340957823,-1.450598055336606],[101.03465419033868,-1.4586057834018944],[101.03004383025859,-1.4678175993642495],[101.01854261734798,-1.4759022689270582],[100.99426213079278,-1.4864221533006012],[100.97830509010787,-1.4896351845533167]]]}},{"type":"Feature","properties":{"code":"1311022002","desa":"Koto Baru","kecamatan":"Sungai Pagu","kecCode":"131102","kabCode":"1311","province":"Sumatera Barat"},"geometry":{"type":"Polygon","coordinates":[[[101.20261459378855,-1.4257831439851],[101.1934565275967,-1.4354840625368892],[101.18901497655997,-1.436118570212538],[101.18964948423637,-1.4392911049937038],[101.18076638126354,-1.4513467472343946],[101.16178713376928,-1.471576350925168],[101.1488756885622,-1.467057521149975],[101.12416831541547,-1.4651701499468623],[101.10042607400418,-1.476344232652274],[101.09828133661442,-1.4793468639153016],[101.08391159664289,-1.4842797613450864],[101.0646218294339,-1.4962860002286134],[101.06197093471093,-1.4912501574042925],[101.0512093863042,-1.4891349429610417],[101.05180487959159,-1.4860196779070705],[101.06120284623444,-1.4790354250938165],[101.0612168252963,-1.4748610230714114],[101.09041015080787,-1.4674891480675663],[101.12884384127032,-1.4491301989817686],[101.1777438506982,-1.4391786159935953],[101.19164174876776,-1.4273396680976758],[101.20261459378855,-1.4257831439851]]]}},{"type":"Feature","properties":{"code":"1311022004","desa":"Sako Pasia Talang","kecamatan":"Sungai Pagu","kecCode":"131102","kabCode":"1311","province":"Sumatera Barat"},"geometry":{"type":"Polygon","coordinates":[[[101.007492580818,-1.551485432275467],[101.00147092634222,-1.5482167356860244],[100.9920728661699,-1.536016163201131],[100.9913958484397,-1.5300690904085112],[100.98783592888509,-1.5294227404601701],[101.03816533336351,-1.495485323019991],[101.04704460702304,-1.4822777724466623],[101.05151849678128,-1.4854097424076296],[101.05817669409919,-1.4812986652477562],[101.05094698481552,-1.4877354692558775],[101.05033753674796,-1.4970481594739926],[101.04405213269983,-1.4989481463667464],[101.007492580818,-1.551485432275467]]]}},{"type":"Feature","properties":{"code":"1311022005","desa":"Pasar Muara Labuh","kecamatan":"Sungai Pagu","kecCode":"131102","kabCode":"1311","province":"Sumatera Barat"},"geometry":{"type":"Polygon","coordinates":[[[101.0882138606812,-1.468300822186181],[101.0612168252963,-1.4748610230714114],[101.05920301570666,-1.480763666656995],[101.05197952073836,-1.485283919159634],[101.04927351556034,-1.4841492661190894],[101.05347017131142,-1.4808481633590234],[101.05431938223376,-1.4767494186023984],[101.0654933957037,-1.4703701658091852],[101.0882138606812,-1.468300822186181]]]}},{"type":"Feature","properties":{"code":"1311022006","desa":"Pulakek Koto Baru","kecamatan":"Sungai Pagu","kecCode":"131102","kabCode":"1311","province":"Sumatera Barat"},"geometry":{"type":"Polygon","coordinates":[[[101.0646218294339,-1.4962860002286134],[101.08391159664289,-1.4842797613450864],[101.09828133661442,-1.4793468639153016],[101.10042607400418,-1.476344232652274],[101.12416831541547,-1.4651701499468623],[101.1488756885622,-1.467057521149975],[101.16178713376928,-1.471576350925168],[101.16490369744774,-1.4818031021774112],[101.15792411480611,-1.4837066243051367],[101.15284805609298,-1.4779960579219167],[101.13317832621887,-1.4754580281185135],[101.13000578963555,-1.4773615511455482],[101.12619874537585,-1.4887826830126576],[101.10589450872465,-1.4989348013269304],[101.0887628095561,-1.5122594571203392],[101.07472225203037,-1.511445974465151],[101.0646218294339,-1.4962860002286134]]]}},{"type":"Feature","properties":{"code":"1311022007","desa":"Bomas","kecamatan":"Sungai Pagu","kecCode":"131102","kabCode":"1311","province":"Sumatera Barat"},"geometry":{"type":"Polygon","coordinates":[[[101.0512093863042,-1.4891349429610417],[101.06197093471093,-1.4912501574042925],[101.07472225203037,-1.511445974465151],[101.06782406522846,-1.5097214273169672],[101.05266720622664,-1.5230015082132349],[101.05013198500318,-1.5161291085793382],[101.05648040724503,-1.507721738884347],[101.05116145873437,-1.5013733166494843],[101.0512093863042,-1.4891349429610417]]]}},{"type":"Feature","properties":{"code":"1311022008","desa":"Sako Utara Pasia Talang","kecamatan":"Sungai Pagu","kecCode":"131102","kabCode":"1311","province":"Sumatera Barat"},"geometry":{"type":"Polygon","coordinates":[[[100.98783592888509,-1.5294227404601701],[100.98323786793333,-1.5278091372767846],[100.97876104458658,-1.5191677217174464],[100.98157116607649,-1.5052647856612236],[100.97822616740375,-1.5032548143803246],[100.9754443628671,-1.4967754373658528],[101.0279375029135,-1.4831163434889931],[101.03274171455853,-1.4767679212541325],[101.0368596085841,-1.4788268669156364],[101.0354869778418,-1.4820868697588563],[101.04704460702304,-1.4822777724466623],[101.03816533336351,-1.495485323019991],[100.98783592888509,-1.5294227404601701]]]}},{"type":"Feature","properties":{"code":"1311022009","desa":"Sako Selatan Pasia Talang","kecamatan":"Sungai Pagu","kecCode":"131102","kabCode":"1311","province":"Sumatera Barat"},"geometry":{"type":"Polygon","coordinates":[[[101.01394162100905,-1.5906521996644154],[101.01350367005841,-1.5853467176079434],[101.01916036256073,-1.5737152460057162],[101.0203041976806,-1.565444376310005],[101.00925171229676,-1.5561931088882137],[101.007492580818,-1.551485432275467],[101.04405213269983,-1.4989481463667464],[101.05033753674796,-1.4970481594739926],[101.05201935440977,-1.5032606860539346],[101.05648040724503,-1.507721738884347],[101.05013198500318,-1.5161291085793382],[101.05259588908906,-1.5249496043388027],[101.04244376986412,-1.5338327082010892],[101.0367332025753,-1.5427158111640469],[101.03927123238151,-1.552867930377756],[101.03482968134477,-1.5636545545691203],[101.02087051875945,-1.5858623142248356],[101.01394162100905,-1.5906521996644154]]]}},{"type":"Feature","properties":{"code":"1311022010","desa":"Pasir Talang Barat","kecamatan":"Sungai Pagu","kecCode":"131102","kabCode":"1311","province":"Sumatera Barat"},"geometry":{"type":"Polygon","coordinates":[[[100.9754443628671,-1.4967754373658528],[100.97830509010787,-1.4896351845533167],[100.99426213079278,-1.4864221533006012],[101.01854261734798,-1.4759022689270582],[101.03274690274742,-1.4639572432979173],[101.04090101167242,-1.466942535631972],[101.04401354458945,-1.4710434603453448],[101.0368131945733,-1.478771171901399],[101.0313690829169,-1.4771110791641493],[101.0279375029135,-1.4831163434889931],[100.9754443628671,-1.4967754373658528]]]}},{"type":"Feature","properties":{"code":"1311022011","desa":"Pasir Talang Timur","kecamatan":"Sungai Pagu","kecCode":"131102","kabCode":"1311","province":"Sumatera Barat"},"geometry":{"type":"Polygon","coordinates":[[[101.03274690274742,-1.4639572432979173],[101.03465419033868,-1.4586057834018944],[101.03139340957823,-1.450598055336606],[101.04383950239115,-1.433796224815167],[101.04373641940032,-1.4246872966908166],[101.04912733076178,-1.408249373237632],[101.05186356125444,-1.4056362680299412],[101.05867254789985,-1.4056212691368533],[101.06593420020322,-1.4105639601837008],[101.07601182138853,-1.4058754760026904],[101.07724775607913,-1.4032441811073184],[101.07274318774795,-1.3954150134340437],[101.07255304498709,-1.3854000804024582],[101.07584886962968,-1.3753851051027308],[101.0790813145511,-1.3734714080453996],[101.09492662976021,-1.3732800413074306],[101.10434324474498,-1.3686383776307076],[101.13025033598426,-1.3671233653244539],[101.1524337770972,-1.3624188471307215],[101.20219570037135,-1.3697786964001237],[101.19932080970766,-1.3944810692888743],[101.2109372959195,-1.4079711922447404],[101.07067890280916,-1.4486546599673669],[101.0529072002072,-1.4571893367917612],[101.04512322705534,-1.4660362474383022],[101.04401354458945,-1.4710434603453448],[101.04090101167242,-1.466942535631972],[101.03274690274742,-1.4639572432979173]]]}},{"type":"Feature","properties":{"code":"1311022012","desa":"Pasir Talang Selatan","kecamatan":"Sungai Pagu","kecCode":"131102","kabCode":"1311","province":"Sumatera Barat"},"geometry":{"type":"Polygon","coordinates":[[[101.20261459378855,-1.4257831439851],[101.19164174876776,-1.4273396680976758],[101.1777438506982,-1.4391786159935953],[101.12884384127032,-1.4491301989817686],[101.0882138606812,-1.468300822186181],[101.0654933957037,-1.4703701658091852],[101.05431938223376,-1.4767494186023984],[101.05099945216305,-1.4833475106233491],[101.0354869778418,-1.4820868697588563],[101.05097749881257,-1.4590055239570263],[101.07067890280916,-1.4486546599673669],[101.2109372959195,-1.4079711922447404],[101.20644640357868,-1.4135611982124923],[101.20261459378855,-1.4257831439851]]]}},{"type":"Feature","properties":{"code":"1311032001","desa":"Pakan Rabaa","kecamatan":"Koto Parik Gadang Diateh","kecCode":"131103","kabCode":"1311","province":"Sumatera Barat"},"geometry":{"type":"Polygon","coordinates":[[[100.97569573956679,-1.482726016137672],[100.96399131584661,-1.4784172005430687],[100.95806417921858,-1.4798727406825445],[100.94524773299655,-1.4712455380088725],[100.96159224028968,-1.4558950019275252],[101.00099844861955,-1.441875033496279],[101.01283084226964,-1.431377892977385],[101.01562025057416,-1.421143901283354],[101.02141719234957,-1.4217105020507528],[101.02558450592028,-1.4190274125008138],[101.03320266656988,-1.4089320441054782],[101.04080441009552,-1.4130175112714862],[101.04555515164901,-1.418046490469951],[101.04459275565118,-1.430215887056844],[101.03900084041652,-1.4428090810635255],[101.034044485065,-1.4482574707888753],[101.02442811806327,-1.4543117121922673],[101.0152182482236,-1.4537584043040568],[101.01327035444335,-1.4574475024732594],[101.00159528279613,-1.4639413270963602],[100.98567910640571,-1.4782525733475012],[100.97569573956679,-1.482726016137672]]]}},{"type":"Feature","properties":{"code":"1311032002","desa":"Pakan Rabaa Timur","kecamatan":"Koto Parik Gadang Diateh","kecCode":"131103","kabCode":"1311","province":"Sumatera Barat"},"geometry":{"type":"Polygon","coordinates":[[[100.94322647342307,-1.2851436417302693],[100.97302497881975,-1.2985500207165346],[100.9786679683521,-1.3119480153233996],[100.98358596581971,-1.3130179531495572],[100.9928549876676,-1.3095109973721348],[101.00005597800107,-1.3062499612078844],[101.00508098220159,-1.29987699017911],[101.00672203269573,-1.2853920344790932],[101.00317396890357,-1.279632014376666],[101.00147200462936,-1.262428023224593],[101.00464297369433,-1.2587659577766825],[101.01303703163374,-1.2612689904627223],[101.01681798925887,-1.2689629747440507],[101.02731702915763,-1.275353035589632],[101.03386598312869,-1.2770569693772258],[101.04371098567348,-1.274890984607282],[101.05056700506327,-1.2789459944335848],[101.05263397807568,-1.2773800301374876],[101.05543798417567,-1.2814970176418825],[101.06275902231106,-1.278870984679768],[101.07450998055123,-1.2843990255599964],[101.07681198328645,-1.2902109563295412],[101.08423098637098,-1.297307021852648],[101.09461700307229,-1.3016170254516457],[101.10645999703132,-1.2935980225859107],[101.11436301614032,-1.2989030387935128],[101.11891699502335,-1.2992549812812637],[101.12181299817138,-1.2933449731474689],[101.13296500613016,-1.298562977249231],[101.15149203223156,-1.2954220212624392],[101.16855500071277,-1.3043889815094154],[101.18022610994706,-1.2988759413209627],[101.18143998696587,-1.3030308658264913],[101.17099813405667,-1.3172630625691204],[101.17202053821734,-1.3250716150831288],[101.16198979869033,-1.3331861412386152],[101.15613101683302,-1.344717018274059],[101.1524337770972,-1.3624188471307215],[101.13025033598426,-1.3671233653244539],[101.10434324474498,-1.3686383776307076],[101.09492662976021,-1.3732800413074306],[101.0790813145511,-1.3734714080453996],[101.07584886962968,-1.3753851051027308],[101.07255304498709,-1.3854000804024582],[101.07274318774795,-1.3954150134340437],[101.07724775607913,-1.4032441811073184],[101.07601182138853,-1.4058754760026904],[101.06593420020322,-1.4105639601837008],[101.06227393159674,-1.4064495780153095],[101.05186356125444,-1.4056362680299412],[101.04506417127453,-1.4176466689758143],[101.03764268156453,-1.4111305663470217],[101.0257262327795,-1.406871151411736],[101.02560742873993,-1.4003414258525848],[101.00678699522369,-1.374811504911888],[100.99216815923323,-1.3704546160573476],[100.98034930397728,-1.3621745121229354],[100.98022091856056,-1.3568095219267267],[100.95772004104712,-1.3287782365424232],[100.9598321294493,-1.3201185944232185],[100.9570096422812,-1.3156335593719133],[100.95583156457506,-1.304863351405188],[100.94322647342307,-1.2851436417302693]]]}},{"type":"Feature","properties":{"code":"1311032003","desa":"Pakan Rabaa Utara","kecamatan":"Koto Parik Gadang Diateh","kecCode":"131103","kabCode":"1311","province":"Sumatera Barat"},"geometry":{"type":"Polygon","coordinates":[[[100.93267071957807,-1.4207635240311474],[100.9296321073359,-1.4145549868438334],[100.92664418717953,-1.4137856447132484],[100.916756272584,-1.4014214234952092],[100.91298045638301,-1.3994117390980205],[100.90514787487456,-1.4015945744651253],[100.8940747455531,-1.393350294125021],[100.89304422321237,-1.3882833554423506],[100.89662470036967,-1.3779508313271538],[100.90652958787022,-1.370576461603966],[100.9034064015842,-1.3658012441069656],[100.90399067492979,-1.3601684313091786],[100.89942304973403,-1.3569761024498677],[100.88814740477898,-1.3377883300733653],[100.8946951806381,-1.3326931625711183],[100.89264096990489,-1.3178150142797311],[100.89539702775066,-1.302913975544383],[100.91027599624027,-1.2904290302342716],[100.93880499795232,-1.283565031167584],[100.94419292536325,-1.286033678275214],[100.9503274726348,-1.2989499708137042],[100.95477690533,-1.3020600836517453],[100.95815219676655,-1.3128535453885473],[100.9570096422812,-1.3156335593719133],[100.9598321294493,-1.3201185944232185],[100.95980684321131,-1.3246448813768388],[100.95725169930654,-1.3269081512083203],[100.96025845936047,-1.333552989089945],[100.98022091856056,-1.3568095219267267],[100.98034930397728,-1.3621745121229354],[100.99216815923323,-1.3704546160573476],[100.986718798234,-1.373241894764201],[100.98493144782809,-1.3773778660576692],[100.98204759991688,-1.376987152897242],[100.97800862859538,-1.3813482424849803],[100.97100658358703,-1.3826320085165442],[100.96237881073357,-1.388803642023755],[100.95854424542063,-1.3950023721042208],[100.95064693880522,-1.399748286990972],[100.94286372108392,-1.412965355988822],[100.93267071957807,-1.4207635240311474]]]}},{"type":"Feature","properties":{"code":"1311032004","desa":"Pakan Rabaa Tengah","kecamatan":"Koto Parik Gadang Diateh","kecCode":"131103","kabCode":"1311","province":"Sumatera Barat"},"geometry":{"type":"Polygon","coordinates":[[[100.93854532320813,-1.445587128229585],[100.93649631325432,-1.4381792065995382],[100.94006151362798,-1.4313385179602345],[100.93267071957807,-1.4207635240311474],[100.94286372108392,-1.412965355988822],[100.95064693880522,-1.399748286990972],[100.95854424542063,-1.3950023721042208],[100.96237881073357,-1.388803642023755],[100.97100658358703,-1.3826320085165442],[100.97800862859538,-1.3813482424849803],[100.98204759991688,-1.376987152897242],[100.98493144782809,-1.3773778660576692],[100.986718798234,-1.373241894764201],[100.9915563729283,-1.370602589607366],[101.00678699522369,-1.374811504911888],[101.02560742873993,-1.4003414258525848],[101.0257262327795,-1.406871151411736],[101.03320266656988,-1.4089320441054782],[101.02558450592028,-1.4190274125008138],[101.02141719234957,-1.4217105020507528],[101.01562025057416,-1.421143901283354],[101.01283084226964,-1.431377892977385],[101.00099844861955,-1.441875033496279],[100.96159224028968,-1.4558950019275252],[100.94524773299655,-1.4712455380088725],[100.94151267407074,-1.4710694723361606],[100.93498145383109,-1.4616976939617103],[100.93854532320813,-1.445587128229585]]]}},{"type":"Feature","properties":{"code":"1311042001","desa":"Lubuk Malako","kecamatan":"Sangir Jujuan","kecCode":"131104","kabCode":"1311","province":"Sumatera Barat"},"geometry":{"type":"Polygon","coordinates":[[[101.41223840767645,-1.535675527889425],[101.39998995976889,-1.5342862533955621],[101.38356194322915,-1.526983217896996],[101.38472467940049,-1.5201451993448167],[101.38067786329282,-1.5149097259122735],[101.37773568265567,-1.5009657286101588],[101.35710283372883,-1.4839398760679938],[101.34102303558467,-1.4542830561946352],[101.33448677644361,-1.4517422780630513],[101.34178324689941,-1.450696131801549],[101.34755411642936,-1.4467796202681416],[101.35320911281036,-1.4341812722467833],[101.34840366909413,-1.4293070978486073],[101.36016389394858,-1.427761281963578],[101.37750670267224,-1.4309119488298874],[101.3864390777013,-1.427314827024135],[101.39273469355135,-1.4301208332132507],[101.39926588501264,-1.4389033407102216],[101.40943647091642,-1.4416962194954281],[101.41462611040674,-1.4413462896904226],[101.42282833396051,-1.433648503974709],[101.42956770678431,-1.4333430141685441],[101.42977022961246,-1.4409827351563662],[101.42606059362156,-1.4443988378235846],[101.42461535161726,-1.451712093217936],[101.42398155800252,-1.4629240562671146],[101.42796677504668,-1.4803086573662274],[101.42467740303977,-1.492963856930015],[101.42815234295631,-1.4978627680803849],[101.42685602058896,-1.5018604838978575],[101.43339619178089,-1.5064115282880497],[101.43240653103665,-1.5125691062910547],[101.43490796922747,-1.5130525404536177],[101.42546043375205,-1.5204532396283537],[101.42245257742455,-1.5190292782832024],[101.41398456193804,-1.524783490563839],[101.41223840767645,-1.535675527889425]]]}},{"type":"Feature","properties":{"code":"1311042002","desa":"Bidar Alam","kecamatan":"Sangir Jujuan","kecCode":"131104","kabCode":"1311","province":"Sumatera Barat"},"geometry":{"type":"Polygon","coordinates":[[[101.39706219256618,-1.4357902232373068],[101.39273469355135,-1.4301208332132507],[101.3864390777013,-1.427314827024135],[101.37750670267224,-1.4309119488298874],[101.36016389394858,-1.427761281963578],[101.34840366909413,-1.4293070978486073],[101.3473254458127,-1.4257588694844705],[101.35297054785259,-1.420669728339127],[101.35703082860994,-1.4011863892759409],[101.3618255137365,-1.3998679471850348],[101.3607554257224,-1.3876788860223113],[101.36962699938657,-1.3921737650527686],[101.41316316344925,-1.3977899853588789],[101.41800955869422,-1.4078222690106783],[101.41362461008777,-1.4082849702028517],[101.41111564637002,-1.4131088248346995],[101.40645114530417,-1.41411895234896],[101.40281105028981,-1.4200115181316995],[101.40026283296343,-1.4200820906304956],[101.39472518821691,-1.4295070495147517],[101.39706219256618,-1.4357902232373068]]]}},{"type":"Feature","properties":{"code":"1311042004","desa":"Padang Air Dingin","kecamatan":"Sangir Jujuan","kecCode":"131104","kabCode":"1311","province":"Sumatera Barat"},"geometry":{"type":"Polygon","coordinates":[[[101.24760202531324,-1.4351197444784172],[101.24362382657841,-1.4306301192873905],[101.23251800959854,-1.4284978536982007],[101.23020915942521,-1.4247816571570597],[101.21990177134973,-1.4207888993020086],[101.2181243368687,-1.4180255578500034],[101.21109067169719,-1.419419672495177],[101.20503072498802,-1.4258643239874733],[101.20180242504193,-1.4252664861681767],[101.21071759604028,-1.4075665944512095],[101.23199462305347,-1.411194596278046],[101.3021845575713,-1.4321610549898272],[101.31376156534401,-1.4389106180241782],[101.32534355805882,-1.450543127444044],[101.34102303558467,-1.4542830561946352],[101.35710283372883,-1.4839398760679938],[101.37773568265567,-1.5009657286101588],[101.37671219121471,-1.5030127123891845],[101.38275997189525,-1.518379910210016],[101.37337294820304,-1.5144320788870205],[101.37402890381092,-1.5172722593138446],[101.37021328181754,-1.5202303408608273],[101.37222697359603,-1.5211871080008492],[101.36997031198034,-1.5209482228846978],[101.35942054492227,-1.5108585121243303],[101.34481342080277,-1.5124596785831879],[101.33793347405064,-1.5060094180192776],[101.32946036300541,-1.5032058319057728],[101.32123308074215,-1.509361907141667],[101.31564569089596,-1.5026310257240951],[101.30931109483122,-1.5025070236031934],[101.30580660499089,-1.4980813474040966],[101.2992608858812,-1.49832023341966],[101.29099751832086,-1.4876111847479139],[101.29036123088615,-1.4790012454601944],[101.29284231562042,-1.4706352751561624],[101.29060556589423,-1.459429567791121],[101.27869418658746,-1.4558568373979166],[101.27585848478128,-1.4492926318315553],[101.26672887583703,-1.4459034719535442],[101.26645750900688,-1.439129955476427],[101.25960858077144,-1.4348199195018112],[101.24760202531324,-1.4351197444784172]]]}},{"type":"Feature","properties":{"code":"1311042005","desa":"Padang Limau Sundai","kecamatan":"Sangir Jujuan","kecCode":"131104","kabCode":"1311","province":"Sumatera Barat"},"geometry":{"type":"Polygon","coordinates":[[[101.20219570037135,-1.3697786964001237],[101.1524337770972,-1.3624188471307215],[101.15613101683302,-1.344717018274059],[101.16198979869033,-1.3331861412386152],[101.17202053821734,-1.3250716150831288],[101.17085552496256,-1.3191289579618293],[101.20746791741048,-1.3309954826689536],[101.2558163285608,-1.340926182499864],[101.29576389728605,-1.3540359398946695],[101.35909353523851,-1.3843209101361829],[101.36206229443938,-1.3990066898448368],[101.35997389238126,-1.4018549488815917],[101.35703082860994,-1.4011863892759409],[101.35297054785259,-1.420669728339127],[101.34694047842036,-1.423140134520742],[101.29797300724856,-1.4071724800547853],[101.20219570037135,-1.3697786964001237]]]}},{"type":"Feature","properties":{"code":"1311042006","desa":"Padang Gantiang","kecamatan":"Sangir Jujuan","kecCode":"131104","kabCode":"1311","province":"Sumatera Barat"},"geometry":{"type":"Polygon","coordinates":[[[101.21071759604028,-1.4075665944512095],[101.20302294265474,-1.4010543400214353],[101.19932080970766,-1.3944810692888743],[101.20219570037135,-1.3697786964001237],[101.29797300724856,-1.4071724800547853],[101.35031577435359,-1.4235017734987334],[101.3473254458127,-1.4257588694844705],[101.34845305896158,-1.431136726281107],[101.35320911281036,-1.4341812722467833],[101.34755411642936,-1.4467796202681416],[101.34178324689941,-1.450696131801549],[101.32534355805882,-1.450543127444044],[101.31376156534401,-1.4389106180241782],[101.29434326073294,-1.4287882744641847],[101.23199462305347,-1.411194596278046],[101.21071759604028,-1.4075665944512095]]]}},{"type":"Feature","properties":{"code":"1311052001","desa":"Abai","kecamatan":"Sangir Batang Hari","kecCode":"131105","kabCode":"1311","province":"Sumatera Barat"},"geometry":{"type":"Polygon","coordinates":[[[101.46870235403048,-1.279679925758654],[101.47413756419728,-1.2853865261315944],[101.48903299028034,-1.2921679908169363],[101.52568349419795,-1.3042458813857047],[101.51348406563716,-1.335365164379557],[101.51423180605309,-1.3402499849520835],[101.50084515368098,-1.343468926549424],[101.49476736442237,-1.3391131240759608],[101.49203138573989,-1.34042167812103],[101.48336097872622,-1.338192104087963],[101.47980884280388,-1.3321424843004708],[101.46180456742688,-1.356998933538656],[101.44380703876391,-1.3662301343876178],[101.38316980104553,-1.3641058970462914],[101.34246962657208,-1.3561619722828047],[101.32745166156496,-1.3504387839146756],[101.32725147697413,-1.339728459104984],[101.33236648892239,-1.3228928122761163],[101.34204687686194,-1.3110256832244747],[101.35401034040494,-1.3022166286401016],[101.37017463794922,-1.303140476096644],[101.37684165401917,-1.310557120251209],[101.40049759558764,-1.30805546082993],[101.41387279869076,-1.3023116123365628],[101.4161021362047,-1.3096217614724661],[101.42001785633907,-1.3092926986368485],[101.43620875672877,-1.3036901651129909],[101.45406500459636,-1.3014735943773112],[101.45875692509208,-1.2819250454726117],[101.46870235403048,-1.279679925758654]]]}},{"type":"Feature","properties":{"code":"1311052002","desa":"Dusun Tangah","kecamatan":"Sangir Batang Hari","kecCode":"131105","kabCode":"1311","province":"Sumatera Barat"},"geometry":{"type":"Polygon","coordinates":[[[101.41104378334397,-1.1843706774415745],[101.43309979501959,-1.2064193533227392],[101.45014625284732,-1.2109879183049101],[101.44467349328714,-1.220398686786633],[101.44735038561186,-1.230258578496334],[101.44711600879684,-1.2412998727043552],[101.45511099797426,-1.2528105158931615],[101.46796928605373,-1.2593878182864278],[101.45196951228318,-1.2679655411604827],[101.43020052103724,-1.274112952327743],[101.41602170084087,-1.281659986487615],[101.39499004485474,-1.2837606193232127],[101.37950066872092,-1.2801020837144104],[101.36381327356376,-1.2712071168950394],[101.36185567699795,-1.2664876735526434],[101.3653858298922,-1.2525216275719326],[101.3628873540682,-1.2326774472293995],[101.3662483040161,-1.1957358067262],[101.37016019303854,-1.1850597775627214],[101.41104378334397,-1.1843706774415745]]]}},{"type":"Feature","properties":{"code":"1311052003","desa":"Lubuk Ulang Aling","kecamatan":"Sangir Batang Hari","kecCode":"131105","kabCode":"1311","province":"Sumatera Barat"},"geometry":{"type":"Polygon","coordinates":[[[101.44138115981274,-1.056970686766516],[101.43977188416515,-1.0649225138728118],[101.44244877738925,-1.0798024724993889],[101.44116386831791,-1.0865303987447021],[101.43248716335198,-1.1027166828963657],[101.41617024725917,-1.1186209999091947],[101.40866408727787,-1.1397256115741867],[101.37839567981683,-1.1183711583525455],[101.36548661241727,-1.1062949333282865],[101.34253949670045,-1.0717652088995329],[101.34388674407802,-1.0654174404718297],[101.34866946102686,-1.0601350368176716],[101.34267321869413,-1.0467862612070777],[101.34431504800114,-1.0435739889820754],[101.35980533874545,-1.0406472515063725],[101.37628072617463,-1.047621451697782],[101.40384202319085,-1.038027466134461],[101.4091958114376,-1.0317456890591332],[101.41683388037933,-1.0277481935755788],[101.42262667807881,-1.0079701152020555],[101.42890369684817,-1.0047102526530416],[101.45044376656665,-1.00936804746921],[101.45680882536703,-1.0164469449344857],[101.45561909514521,-1.0232522029831084],[101.46008058415168,-1.0306285332283327],[101.4557916048987,-1.043328905738316],[101.4504973050067,-1.0458273401907836],[101.44138115981274,-1.056970686766516]]]}},{"type":"Feature","properties":{"code":"1311052004","desa":"Ranah Pantai Cermin","kecamatan":"Sangir Batang Hari","kecCode":"131105","kabCode":"1311","province":"Sumatera Barat"},"geometry":{"type":"Polygon","coordinates":[[[101.41316316344925,-1.3977899853588789],[101.3661823270528,-1.3907585127422943],[101.35909353523851,-1.3843209101361829],[101.32332059606868,-1.3665326771154407],[101.32742395974799,-1.3499454689007366],[101.34246962657208,-1.3561619722828047],[101.38316980104553,-1.3641058970462914],[101.44204879401667,-1.366274467367077],[101.43197114135518,-1.3797170188847276],[101.42585243564145,-1.3947498892386947],[101.41316316344925,-1.3977899853588789]]]}},{"type":"Feature","properties":{"code":"1311052005","desa":"Sitapus","kecamatan":"Sangir Batang Hari","kecCode":"131105","kabCode":"1311","province":"Sumatera Barat"},"geometry":{"type":"Polygon","coordinates":[[[101.46796928605373,-1.2593878182864278],[101.47013015458305,-1.2713524653239159],[101.46870235403048,-1.279679925758654],[101.45875692509208,-1.2819250454726117],[101.45361371939772,-1.3016653604142767],[101.43620875672877,-1.3036901651129909],[101.4164633246228,-1.3096214116362066],[101.41360188062235,-1.3022831739748095],[101.40049759558764,-1.30805546082993],[101.37684165401917,-1.310557120251209],[101.37127103383119,-1.3036504249711365],[101.34366106640516,-1.2982237196989779],[101.33907721833901,-1.29579796935353],[101.33776226201881,-1.2922976595659887],[101.33970904783432,-1.2842208941445943],[101.34446916122289,-1.2793253824315114],[101.3439701193256,-1.2661592744167165],[101.36759177424102,-1.27257464758054],[101.38217318494458,-1.2809415792597123],[101.4057223949726,-1.283391730010865],[101.41602170084087,-1.281659986487615],[101.43020052103724,-1.274112952327743],[101.44887345494605,-1.2692544135426111],[101.46796928605373,-1.2593878182864278]]]}},{"type":"Feature","properties":{"code":"1311052006","desa":"Lubuk Ulang Aling Selatan","kecamatan":"Sangir Batang Hari","kecCode":"131105","kabCode":"1311","province":"Sumatera Barat"},"geometry":{"type":"Polygon","coordinates":[[[101.18022610994706,-1.2988759413209627],[101.18709100384682,-1.2953269827073335],[101.1886880118423,-1.2835769759629976],[101.19199799810917,-1.2806940075919258],[101.1975560142987,-1.2881779893839151],[101.20359798356014,-1.2898520360020178],[101.20568796842507,-1.2929050176083927],[101.21060696863674,-1.2924009628906807],[101.20885003510107,-1.286648034841839],[101.21539199774257,-1.2817239543654149],[101.22166397401327,-1.2830169672261904],[101.2286780357628,-1.2891369715541314],[101.23540700432983,-1.2869030412050089],[101.24085497137985,-1.295066022832252],[101.24739800961049,-1.29051196121668],[101.24859302874535,-1.2866129882617792],[101.25265496875187,-1.2915289793364033],[101.25477201061982,-1.2868859702739872],[101.25799800200627,-1.285770022232629],[101.25808599257454,-1.2802009578779745],[101.26112499782043,-1.2766720415554587],[101.25697099241744,-1.2715710257619057],[101.26257202497901,-1.2631060257116284],[101.25354999833381,-1.2627579862815612],[101.24877698776783,-1.2584709765485678],[101.23584099286758,-1.2543179550085193],[101.23569598618086,-1.251099017008553],[101.23140996389878,-1.2489959883789403],[101.2354279909091,-1.2426380297331758],[101.23466501238049,-1.2325880357323662],[101.24031800507191,-1.2223839653821595],[101.24441499075924,-1.2195799565872862],[101.24507097424612,-1.213411026442166],[101.23544300419132,-1.2022410410480837],[101.2335819804241,-1.1949650292776732],[101.22128822377253,-1.1848293325838732],[101.21165499358312,-1.1645340100354005],[101.19769302871038,-1.1619649868963402],[101.17689503188029,-1.1351939700572327],[101.16710702117217,-1.1094709736667618],[101.16659896716867,-1.1027659963213376],[101.17648852122835,-1.0995637083696794],[101.19796077666858,-1.1070447349894479],[101.21453189333226,-1.1348017415391194],[101.23232759704104,-1.151063737815107],[101.24982319158708,-1.1472671355879422],[101.25767335574083,-1.143170680505173],[101.25683944498444,-1.1528051220706834],[101.26326773871523,-1.1667144406154224],[101.27445146126598,-1.1733069109742684],[101.29274464295099,-1.174079911546871],[101.29202435883712,-1.1691371503529122],[101.2955846138389,-1.164983030740635],[101.29384528723028,-1.162004299860255],[101.29124804516123,-1.16300964477983],[101.29378376820641,-1.1606949984785295],[101.29254055080582,-1.1571865795040426],[101.29462633403813,-1.1581198689428236],[101.29549073900647,-1.1484926768123116],[101.29891334197718,-1.148606087617484],[101.29949165371691,-1.1436200861202879],[101.31101697025701,-1.1449928013972999],[101.32301161689263,-1.1550162528072636],[101.33543131100622,-1.172711799000101],[101.33805176367805,-1.180602400261517],[101.34908185774162,-1.1857113615653394],[101.37016019303854,-1.1850597775627214],[101.3662483040161,-1.1957358067262],[101.36292771384296,-1.2310185182149191],[101.3653858298922,-1.2525216275719326],[101.36185567699795,-1.2664876735526434],[101.36443791567733,-1.2716051451409882],[101.3439701193256,-1.2661592744167165],[101.34446916122289,-1.2793253824315114],[101.33764522424774,-1.2890449772041646],[101.33981918690601,-1.296390434622924],[101.35769217655273,-1.3015954552123599],[101.34736335673357,-1.3064305135981946],[101.33236648892239,-1.3228928122761163],[101.32725147697413,-1.339728459104984],[101.32742395974799,-1.3499454689007366],[101.32332059606868,-1.3665326771154407],[101.29576389728605,-1.3540359398946695],[101.2558163285608,-1.340926182499864],[101.20746791741048,-1.3309954826689536],[101.17085552496256,-1.3191289579618293],[101.18115477057627,-1.30508814684292],[101.18022610994706,-1.2988759413209627]]]}},{"type":"Feature","properties":{"code":"1311052007","desa":"Lubuk Ulang Aling Tengah","kecamatan":"Sangir Batang Hari","kecCode":"131105","kabCode":"1311","province":"Sumatera Barat"},"geometry":{"type":"Polygon","coordinates":[[[101.40866408727787,-1.1397256115741867],[101.40286430094682,-1.150543848734068],[101.40275008704691,-1.1553979484655672],[101.41104378334397,-1.1843706774415745],[101.40869779027088,-1.184837602749404],[101.34908185774162,-1.1857113615653394],[101.34411393441057,-1.1838500374266294],[101.33805176367805,-1.180602400261517],[101.33543131100622,-1.172711799000101],[101.32301161689263,-1.1550162528072636],[101.31101697025701,-1.1449928013972999],[101.33475713243574,-1.134001392583064],[101.34349794467448,-1.1352017357030828],[101.35071392400845,-1.1314626415233948],[101.34466958593269,-1.1175032864987604],[101.34179746967753,-1.1021218973760425],[101.34430790828338,-1.0934570086121413],[101.33988211067094,-1.0767175011085028],[101.34253949670045,-1.0717652088995329],[101.36548661241727,-1.1062949333282865],[101.37839567981683,-1.1183711583525455],[101.40866408727787,-1.1397256115741867]]]}},{"type":"Feature","properties":{"code":"1311062001","desa":"Alam Pauh Duo","kecamatan":"Pauh Duo","kecCode":"131106","kabCode":"1311","province":"Sumatera Barat"},"geometry":{"type":"Polygon","coordinates":[[[101.13166666658343,-1.6847194419694531],[101.12376693809374,-1.6775743445091265],[101.13046164159151,-1.6537290264285807],[101.13314028669492,-1.6512000878717377],[101.1328283766283,-1.6395318259039608],[101.13654010084501,-1.6282402099011686],[101.13414763170789,-1.6149367880005037],[101.12595620631396,-1.6033054791755894],[101.12193343987639,-1.5839379611005475],[101.12694867294294,-1.5822637580004653],[101.13181774279467,-1.5741500844022747],[101.12192833622377,-1.5680291582692456],[101.11924741583562,-1.5578416561290507],[101.11281320366646,-1.5465817852951642],[101.10128524042157,-1.5396113892359935],[101.0953872139488,-1.528619611699661],[101.08466352789958,-1.5200406621503169],[101.08165817258663,-1.5128939638967454],[101.09193534703871,-1.5109904408696944],[101.10589450872465,-1.4989348013269304],[101.12619874537585,-1.4887826830126576],[101.13000578963555,-1.4773615511455482],[101.13317832621887,-1.4754580281185135],[101.15284805609298,-1.4779960579219167],[101.15792411480611,-1.4837066243051367],[101.16490369744774,-1.4818031021774112],[101.16173115996516,-1.4716509847623729],[101.18076638126354,-1.4513467472343946],[101.18964948423637,-1.4392911049937038],[101.18901497655997,-1.436118570212538],[101.1934565275967,-1.4354840625368892],[101.19853258720916,-1.4285044790036716],[101.20503072498802,-1.4258643239874733],[101.20221218584372,-1.430335629988441],[101.19665681635904,-1.431295874806803],[101.1993930180734,-1.4385608123256683],[101.1917478238031,-1.4420676170169677],[101.18791993056038,-1.4568230159431568],[101.18085016660193,-1.4599502114033418],[101.18219501189037,-1.465755883790801],[101.18941333575691,-1.46728045499113],[101.20117698343108,-1.477079422128813],[101.18708769344238,-1.482847171004972],[101.18335107239415,-1.491881642458602],[101.19169913720548,-1.514549404441009],[101.18444135558417,-1.5188729860043013],[101.18513828070711,-1.5222075957050711],[101.18133788963195,-1.5254862531854783],[101.16843953495663,-1.5312268946965455],[101.16616177074917,-1.5392907449540307],[101.16248712558047,-1.543011966007421],[101.16322704908912,-1.5508987793244138],[101.15752449925627,-1.5560178544039993],[101.15629740040475,-1.5708558056979678],[101.15289895592213,-1.578334894278757],[101.1598344133276,-1.5894645972398023],[101.15069040893529,-1.5994267382687755],[101.15232913198389,-1.6049195607983502],[101.1475854833834,-1.6132840499190015],[101.14872793804396,-1.6266658819101034],[101.14564320227203,-1.633454736324646],[101.14700344755111,-1.646481951244219],[101.14525191444436,-1.649606040446126],[101.14679650365575,-1.6659899308322248],[101.14347840820204,-1.6699096340596118],[101.13902115140506,-1.6847463568796355],[101.13166666658343,-1.6847194419694531]]]}},{"type":"Feature","properties":{"code":"1311062002","desa":"Kapau Alam Pauh Duo","kecamatan":"Pauh Duo","kecCode":"131106","kabCode":"1311","province":"Sumatera Barat"},"geometry":{"type":"Polygon","coordinates":[[[101.01349914197186,-1.5965416879671097],[101.01394162100905,-1.5906521996644154],[101.02087051875945,-1.5858623142248356],[101.03482968134477,-1.5636545545691203],[101.03927123238151,-1.552867930377756],[101.0367332025753,-1.5427158111640469],[101.04054024773431,-1.5363707380045286],[101.06442609288995,-1.5122699054439266],[101.08667421864031,-1.5437668182611968],[101.06522684564247,-1.565549303810292],[101.02970342517301,-1.6160541965408812],[101.01810629327088,-1.6073438758258234],[101.01349914197186,-1.5965416879671097]]]}},{"type":"Feature","properties":{"code":"1311062003","desa":"Luak Kapau Alam Pauh Duo","kecamatan":"Pauh Duo","kecCode":"131106","kabCode":"1311","province":"Sumatera Barat"},"geometry":{"type":"Polygon","coordinates":[[[101.04512375405807,-1.6256678997400653],[101.03465639997295,-1.6170285778025129],[101.02970342517301,-1.6160541965408812],[101.06522684564247,-1.565549303810292],[101.08667421864031,-1.5437668182611968],[101.06442609288995,-1.5122699054439266],[101.06782406522846,-1.5097214273169672],[101.08165817258663,-1.5128939638967454],[101.08441161340527,-1.5188650629770624],[101.08030702934599,-1.5176278332640543],[101.0796367996986,-1.5306973253129645],[101.08615806534249,-1.5340094843382122],[101.08994032608524,-1.541789842206783],[101.1072073417455,-1.5567115509601197],[101.10700106244911,-1.5644273303112721],[101.11014551770153,-1.5696389780048636],[101.1145106848203,-1.5706105228047211],[101.1157537619266,-1.5775846636409518],[101.12193343987639,-1.5839379611005475],[101.12595620631396,-1.6033054791755894],[101.13046056240505,-1.6077931132676784],[101.13523577091415,-1.618968689746926],[101.13661279844194,-1.6295557768595732],[101.1328283766283,-1.6395318259039608],[101.13314028669492,-1.6512000878717377],[101.13046164159151,-1.6537290264285807],[101.12376693809374,-1.6775743445091265],[101.10876009230446,-1.6697852919950458],[101.09653544495491,-1.6710743649259152],[101.09075383572099,-1.666525285554436],[101.06537828787775,-1.6578772743672736],[101.05935550565215,-1.6433696485570517],[101.0598629759956,-1.6387139275775253],[101.06532886113808,-1.635330455911337],[101.04512375405807,-1.6256678997400653]]]}},{"type":"Feature","properties":{"code":"1311062004","desa":"Pauh Duo Nan Batigo","kecamatan":"Pauh Duo","kecCode":"131106","kabCode":"1311","province":"Sumatera Barat"},"geometry":{"type":"Polygon","coordinates":[[[101.08030702934599,-1.5176278332640543],[101.0953872139488,-1.528619611699661],[101.10128524042157,-1.5396113892359935],[101.11281320366646,-1.5465817852951642],[101.11924741583562,-1.5578416561290507],[101.12192833622377,-1.5680291582692456],[101.13181774279467,-1.5741500844022747],[101.12694867294294,-1.5822637580004653],[101.12193343987639,-1.5839379611005475],[101.11684890505296,-1.579281943344761],[101.11460589964263,-1.5707443850925025],[101.11014551770153,-1.5696389780048636],[101.10700106244911,-1.5644273303112721],[101.1072073417455,-1.5567115509601197],[101.08994032608524,-1.541789842206783],[101.08615806534249,-1.5340094843382122],[101.0796367996986,-1.5306973253129645],[101.08030702934599,-1.5176278332640543]]]}},{"type":"Feature","properties":{"code":"1311072001","desa":"Sungai Kunyit","kecamatan":"Sangir Balai Janggo","kecCode":"131107","kabCode":"1311","province":"Sumatera Barat"},"geometry":{"type":"Polygon","coordinates":[[[101.6535497772005,-1.400203596655309],[101.63960137680213,-1.4035586362549595],[101.6363534131795,-1.4093407266196878],[101.62638109181397,-1.4127778581342516],[101.62480707768452,-1.4194665226771432],[101.61716900784346,-1.423392633574024],[101.60937389389015,-1.4373446024667589],[101.59465097935923,-1.440960193649346],[101.58215523857348,-1.4476702737480105],[101.57065887390799,-1.4454216826509407],[101.56651861194445,-1.447384737200054],[101.56069090076453,-1.4442519011919739],[101.55736720433303,-1.4623574959692225],[101.54629391043566,-1.4725688166537674],[101.52606920892693,-1.4692582970926518],[101.51864185923448,-1.4656174151754766],[101.5062975786704,-1.4679271547757362],[101.50618639998241,-1.4705100499573218],[101.4762195612838,-1.4696648455156647],[101.47262416167574,-1.4678120883186887],[101.43720481075349,-1.478006060181683],[101.4367418415628,-1.4684344875223712],[101.44125231394321,-1.4535480133075387],[101.44089079367522,-1.4245128551937545],[101.43055606531021,-1.4206716960557755],[101.4217053730046,-1.4087765989879777],[101.43259239212522,-1.409040449284089],[101.43761241767902,-1.4069107062932096],[101.44188880912127,-1.410062788692417],[101.4583339694372,-1.4020061474004033],[101.46511559420935,-1.387862708347627],[101.46521658807511,-1.3731913330801993],[101.48959361325471,-1.373490844193405],[101.48939621026693,-1.3573361424333323],[101.49611854633388,-1.3584690076216481],[101.51210594183577,-1.3464393602846363],[101.51348406563716,-1.335365164379557],[101.51504730319057,-1.337689205898294],[101.54233020337625,-1.3338558942445402],[101.55125318138926,-1.32493291534211],[101.58697008110443,-1.3253255278706857],[101.59169355071684,-1.3302508988742585],[101.5968602152268,-1.3488879830875975],[101.61197312076297,-1.349639793834286],[101.6305427702327,-1.3628341612457568],[101.64649715971619,-1.3674328966839204],[101.64663799894451,-1.3732231232151888],[101.66109868915322,-1.3784583601260276],[101.67211671161698,-1.3886037245317815],[101.67057838978093,-1.3910843128375168],[101.65713979256742,-1.3913046503358502],[101.6535497772005,-1.400203596655309]]]}},{"type":"Feature","properties":{"code":"1311072002","desa":"Talao Sungai Kunyit","kecamatan":"Sangir Balai Janggo","kecCode":"131107","kabCode":"1311","province":"Sumatera Barat"},"geometry":{"type":"Polygon","coordinates":[[[101.54629391043566,-1.4725688166537674],[101.53534172284229,-1.4848541097718857],[101.52698981522786,-1.4857820995058577],[101.529773785332,-1.4955438383081665],[101.5356629498853,-1.5056268041531928],[101.53974997827896,-1.5082586449371171],[101.54088110777694,-1.5141785869821862],[101.53724053342391,-1.5198892936596375],[101.52811054136843,-1.5250110828931442],[101.52579056568213,-1.52886581010278],[101.51818818813445,-1.5451377546792886],[101.51729588979354,-1.5567554720501335],[101.50972920363988,-1.5730202778083173],[101.5056531874447,-1.576482393388634],[101.48712908414002,-1.580087277242862],[101.48517316660845,-1.5837849594410738],[101.47300222407345,-1.5917799486096151],[101.45119446305408,-1.6195696733947613],[101.4409508836764,-1.6269935912660398],[101.43138544977874,-1.6415915845525968],[101.43017192529419,-1.6644665323478312],[101.42667411741665,-1.6774940809159316],[101.41191111110895,-1.672552775724315],[101.40242402974525,-1.6787164295470594],[101.39272498177257,-1.665017571246589],[101.38475661972228,-1.6605751991336786],[101.3815935224232,-1.6354622290740115],[101.37917233343647,-1.6316273525998974],[101.38053995765297,-1.6161360915042513],[101.38336056343933,-1.6126945533116146],[101.3818141324163,-1.604264472137685],[101.3856150963597,-1.5955411166489122],[101.39218380663745,-1.5881442198078104],[101.39744099330726,-1.5863271135353816],[101.39920307905892,-1.5768694058388042],[101.40219585375569,-1.575252209863804],[101.40434234842068,-1.5471443705896823],[101.40677714325062,-1.5419733452728297],[101.41209997863113,-1.5399317421375516],[101.41340326175117,-1.525621215344098],[101.42245257742455,-1.5190292782832024],[101.42546043375205,-1.5204532396283537],[101.43490796922747,-1.5130525404536177],[101.43240653103665,-1.5125691062910547],[101.43339619178089,-1.5064115282880497],[101.42685602058896,-1.5018604838978575],[101.42815234295631,-1.4978627680803849],[101.42467740303977,-1.492963856930015],[101.42775243242886,-1.4795919390651755],[101.47262416167574,-1.4678120883186887],[101.4762195612838,-1.4696648455156647],[101.50618639998241,-1.4705100499573218],[101.5062975786704,-1.4679271547757362],[101.51864185923448,-1.4656174151754766],[101.52606920892693,-1.4692582970926518],[101.54629391043566,-1.4725688166537674]]]}},{"type":"Feature","properties":{"code":"1311072003","desa":"Sungai Kunyit Barat","kecamatan":"Sangir Balai Janggo","kecCode":"131107","kabCode":"1311","province":"Sumatera Barat"},"geometry":{"type":"Polygon","coordinates":[[[101.42775243242886,-1.4795919390651755],[101.4239801613554,-1.4616242004648297],[101.42606059362156,-1.4443988378235846],[101.42977022961246,-1.4409827351563662],[101.42956770678431,-1.4333430141685441],[101.42282833396051,-1.433648503974709],[101.41462611040674,-1.4413462896904226],[101.40943647091642,-1.4416962194954281],[101.39926588501264,-1.4389033407102216],[101.39472518821691,-1.4295070495147517],[101.40568666580701,-1.4147177956102446],[101.41111564637002,-1.4131088248346995],[101.41362461008777,-1.4082849702028517],[101.41976737986072,-1.407011030164013],[101.42708076566487,-1.4135063368697844],[101.43055606531021,-1.4206716960557755],[101.44089079367522,-1.4245128551937545],[101.44125231394321,-1.4535480133075387],[101.4367418415628,-1.4684344875223712],[101.43720481075349,-1.478006060181683],[101.42775243242886,-1.4795919390651755]]]}},{"type":"Feature","properties":{"code":"1311072004","desa":"Talunan Maju","kecamatan":"Sangir Balai Janggo","kecCode":"131107","kabCode":"1311","province":"Sumatera Barat"},"geometry":{"type":"Polygon","coordinates":[[[101.41800955869422,-1.4078222690106783],[101.41296677579612,-1.3974757640349247],[101.42585243564145,-1.3947498892386947],[101.43760150080867,-1.371008744127313],[101.44204879401667,-1.366274467367077],[101.46180456742688,-1.356998933538656],[101.47980884280388,-1.3321424843004708],[101.48336097872622,-1.338192104087963],[101.49203138573989,-1.34042167812103],[101.49476736442237,-1.3391131240759608],[101.50084515368098,-1.343468926549424],[101.51423180605309,-1.3402499849520835],[101.51210594183577,-1.3464393602846363],[101.50031852687856,-1.3558120712560746],[101.49611854633388,-1.3584690076216481],[101.48939621026693,-1.3573361424333323],[101.48959361325471,-1.373490844193405],[101.46521658807511,-1.3731913330801993],[101.46511559420935,-1.387862708347627],[101.4583339694372,-1.4020061474004033],[101.44188880912127,-1.410062788692417],[101.43761241767902,-1.4069107062932096],[101.43259239212522,-1.409040449284089],[101.41800955869422,-1.4078222690106783]]]}}]}