{"type":"FeatureCollection","features":[{"type":"Feature","properties":{"code":"1312012001","desa":"Aia Bangih","kecamatan":"Sungai Beremas","kecCode":"131201","kabCode":"1312","province":"Sumatera Barat"},"geometry":{"type":"MultiPolygon","coordinates":[[[[99.29392196023036,0.1442210398078108],[99.29407352297477,0.13775551595019955],[99.2922913067984,0.13968049949917194],[99.29392196023036,0.1442210398078108]]],[[[99.27999252473529,0.17804590799306852],[99.28274301757624,0.1768316037976496],[99.28397599979263,0.17169900021661247],[99.27917501041844,0.17347102977017217],[99.27999252473529,0.17804590799306852]]],[[[99.26199815718928,0.20165212152258596],[99.2616852578684,0.20194360618653584],[99.2618637184359,0.20204354244951492],[99.26199815718928,0.20165212152258596]]],[[[99.28610960267609,0.22752722114983862],[99.29162313030325,0.2266440077612084],[99.29653331625956,0.21556929114872625],[99.29639969319135,0.2122986888959051],[99.2922299325654,0.20894498299085104],[99.28130178474964,0.21320670558649188],[99.27972648099232,0.21921707266455515],[99.2811745189889,0.22275666753696136],[99.28540355483022,0.22462674837445643],[99.28610960267609,0.22752722114983862]]],[[[99.19172617032653,0.23425652785438783],[99.19100566857679,0.23450208773885262],[99.19118200044903,0.23476399999596756],[99.19172617032653,0.23425652785438783]]],[[[99.19140150787337,0.2466433904042334],[99.19090324928561,0.24705170599508977],[99.19169132699318,0.2472401598289459],[99.19140150787337,0.2466433904042334]]],[[[99.36230496969863,0.12468499957358788],[99.35974864588337,0.12516582030632356],[99.36188333334921,0.12655000014084136],[99.36230496969863,0.12468499957358788]]],[[[99.29924657177189,0.18753063851836524],[99.29914777494992,0.1853179879274914],[99.29680966443452,0.1845857752069056],[99.29661364910066,0.18641254109739322],[99.29924657177189,0.18753063851836524]]],[[[99.31234697982931,0.1943810299431328],[99.31213398979185,0.18450698020658907],[99.30436637710669,0.1814089164853753],[99.30247999965235,0.18681100011859636],[99.30551666666086,0.19209999940054742],[99.31234697982931,0.1943810299431328]]],[[[99.30020446216628,0.22382758112755177],[99.3017119714304,0.22426225135090727],[99.3019025530604,0.22346580455325296],[99.30020446216628,0.22382758112755177]]],[[[99.17530999965682,0.2403789999219829],[99.17509499963461,0.24944699990010125],[99.19614299989955,0.2719529999267788],[99.18729300007196,0.29226899968765085],[99.19035199994487,0.3081019995629579],[99.19366299974769,0.3116280002833906],[99.20985600005439,0.31842900004210695],[99.22349400034788,0.3292609995271649],[99.24166600018582,0.32828899967036373],[99.24551163255586,0.3325678795319507],[99.24608243765442,0.3382362659125735],[99.25814593818455,0.3383611502683213],[99.26275299955137,0.3445899995433451],[99.26844297056668,0.3420987758551513],[99.2763909998448,0.34530999947062935],[99.28805499993837,0.33916699947800616],[99.29469951317206,0.34308622606468153],[99.31576332801522,0.3337715672306866],[99.31898387130865,0.33746448482060176],[99.33820604457337,0.33367469405859274],[99.38811457892473,0.32979154287648593],[99.38458033231653,0.32554346389558425],[99.38258958943806,0.30973183191202797],[99.38801552489662,0.2851138783838195],[99.40097398576091,0.27227754007185073],[99.41134974299632,0.2723878976786115],[99.42328011868261,0.2625510421032175],[99.44036168784169,0.2623317882879215],[99.44069866740962,0.25799079764855676],[99.44477622324415,0.2558852653064527],[99.4440266122384,0.2504304157509064],[99.44551887169865,0.25125200129778763],[99.44698340506017,0.24742203062542303],[99.45227543776132,0.2440016579771956],[99.45527190687305,0.2370877069669159],[99.45582870143345,0.21873254492633457],[99.43472050055072,0.21840655867140146],[99.43581422005023,0.18784985737488372],[99.43249011083003,0.18531942684279626],[99.42853287259406,0.17389716003136782],[99.42810979463138,0.15256836716575572],[99.42460685072562,0.14684783449567657],[99.41991339328852,0.15088072999288182],[99.41182751143053,0.15302635141384027],[99.39817982723729,0.15124603101031742],[99.39172897671095,0.1601332016068058],[99.38953147969407,0.1712476988306828],[99.38711314965218,0.1736776885802025],[99.39233079223231,0.18641264092210116],[99.38867237263196,0.1861567001633785],[99.3852324730003,0.1890252631939171],[99.38210062984024,0.1864748874974864],[99.37750493320617,0.19077720818818047],[99.37381720919689,0.19010072645470227],[99.37134029461896,0.19621826214354354],[99.376494284084,0.19882331302311212],[99.37716900044903,0.20700599969556144],[99.3633889999025,0.2165019996253488],[99.35887387442982,0.21557901461866114],[99.35834690138846,0.22049976490557796],[99.36101675741747,0.22244406319412682],[99.36141582438084,0.2271453483250561],[99.35299699011904,0.23234823752118328],[99.3349940097658,0.23809532177534637],[99.32700832137698,0.2383375604634396],[99.30409739527862,0.2348390268369416],[99.29737979144426,0.22893028314997552],[99.28582325943592,0.22906216333191112],[99.28492352729897,0.22465742335012454],[99.27918226614871,0.22405894701217485],[99.27214958573484,0.21942690068543896],[99.26750089744854,0.2222697709844878],[99.26383384885308,0.21494648005551478],[99.26424891205772,0.21033024920634272],[99.26621120308458,0.21073601791714305],[99.26616754099926,0.20944783081843518],[99.26424382189491,0.21010601314693858],[99.26285077474353,0.20189379633580673],[99.25869051455567,0.20487027261577484],[99.25735008134124,0.21088096075180493],[99.24963087826251,0.2115826540795194],[99.2488641396684,0.21440395683729352],[99.24338287881686,0.21655513247113126],[99.23924415829133,0.21298134897180407],[99.24013599168272,0.20877282487238122],[99.23826241158112,0.20973535756607453],[99.23664698726871,0.20731944400517063],[99.23284370667174,0.21524881234200544],[99.22095811542475,0.21016820216568577],[99.21611255295204,0.2121338575541772],[99.21497206600809,0.215607604965806],[99.20974098126135,0.21570941001994579],[99.20479076018552,0.22467559774928003],[99.20376454379874,0.23294704570903482],[99.19173001942492,0.23564177878144277],[99.19326668920638,0.2435742713630854],[99.1911718992638,0.2537078132811225],[99.18292655861387,0.2532781109127463],[99.17846209824728,0.24985827336114944],[99.17712158319453,0.24340063206124976],[99.1827159760615,0.23972992592716136],[99.17826160788695,0.23659581288180792],[99.17774703289932,0.23078133972884213],[99.16878384439893,0.22602141700191763],[99.16715112612364,0.22817637518430953],[99.17530999965682,0.2403789999219829]]]]}},{"type":"Feature","properties":{"code":"1312022001","desa":"Ujung Gading","kecamatan":"Lembah Melintang","kecCode":"131202","kabCode":"1312","province":"Sumatera Barat"},"geometry":{"type":"Polygon","coordinates":[[[99.63676039187861,0.5458736750195043],[99.64254128705079,0.5453329414521345],[99.64873699991267,0.5410689993296673],[99.65145857865052,0.536907318217672],[99.64952600032473,0.5316469992149887],[99.65532699984124,0.5317209990301643],[99.66080999998155,0.52462999938817],[99.66537500005626,0.5161769989919548],[99.66000199959268,0.5090379998344456],[99.66305500008826,0.49472199976711145],[99.67557547582759,0.4744507107010032],[99.66643575040962,0.46854090581403246],[99.66160544403607,0.4445321449452751],[99.65408634640784,0.4353236294949594],[99.65150105183214,0.42820281283054334],[99.63907776942357,0.4252409676208998],[99.6373169724004,0.4226459837523698],[99.623424612356,0.4216702840846714],[99.60956663159482,0.4139132402408568],[99.59968624702276,0.39011521301026125],[99.59664139888149,0.37585542686601187],[99.58803726740604,0.3689740259178244],[99.58493445076437,0.35551896662928445],[99.58914133720297,0.3426889127797546],[99.59108915723886,0.3224105820220812],[99.58842793290285,0.3067471358285177],[99.59124200421519,0.29388807884296547],[99.58927741002451,0.29198680412104594],[99.59021863328336,0.28780773281867733],[99.59357687627187,0.2869308335701106],[99.59562883060612,0.27190231863288167],[99.59310167630139,0.2545280291604637],[99.58744484530344,0.2435196321528741],[99.59036570301485,0.2341786609544776],[99.58921429560331,0.2279292037147853],[99.5836819046962,0.2217298153306695],[99.57913682100751,0.2224914763516239],[99.57801604540424,0.2140402719015909],[99.57423558690287,0.21333197665074644],[99.57476809257348,0.20422584002203412],[99.55169265798986,0.20404482268216553],[99.51501509257251,0.17205407774103254],[99.48598798156017,0.19565331073283765],[99.49394535479432,0.199059275342616],[99.50811035331019,0.21574545214953125],[99.51545205966488,0.22021303945386264],[99.51504638088583,0.2301888258960788],[99.50571492720218,0.23785638359913813],[99.5088315628264,0.24412551170986665],[99.5104367717397,0.2424619970522669],[99.5118602753315,0.24398820861597287],[99.51226090441723,0.2473512063164068],[99.51878522685676,0.24842579004029258],[99.52513985172283,0.25533993710280833],[99.52839334078008,0.255161389301229],[99.5286915119038,0.25811322415723303],[99.53884390901925,0.2624575602745584],[99.53613923663652,0.2685957381023666],[99.53745946568188,0.2861536871228433],[99.54567345956258,0.3063719845367289],[99.55633978055647,0.3166297012454863],[99.55575127590072,0.3335223255218019],[99.55225601760117,0.3322012250348934],[99.55010523227071,0.33394574522637843],[99.55127930259776,0.33705823946910435],[99.54651547680787,0.3531497179900154],[99.5526708074119,0.39074209713294944],[99.55687742405394,0.39501663596709147],[99.55652969578885,0.40000364740291705],[99.55179721496954,0.40088993467427425],[99.5542153228789,0.4067510376752077],[99.56894821988448,0.41523808550476854],[99.57418771059439,0.42909878310237043],[99.59025950207445,0.4526832114546753],[99.59073588285473,0.4629758398452281],[99.5859826870514,0.4890669728155],[99.58682994644492,0.5161743522871806],[99.59812899985353,0.5242809994821158],[99.607242736663,0.5251722420179522],[99.61937388239879,0.530648149199195],[99.62447473002482,0.537218141003519],[99.63676039187861,0.5458736750195043]]]}},{"type":"Feature","properties":{"code":"1312032003","desa":"Lingkuang Aua","kecamatan":"Pasaman","kecCode":"131203","kabCode":"1312","province":"Sumatera Barat"},"geometry":{"type":"Polygon","coordinates":[[[99.8678503638033,0.2177971177990888],[99.87241191767595,0.2006525952166536],[99.86528709902046,0.18302179121795262],[99.86861834256251,0.17278772667898354],[99.84655447530884,0.13330341856878658],[99.8521382597729,0.10974074121946786],[99.8462561423072,0.10315799972651785],[99.84594188501006,0.0853402374665623],[99.8528318466125,0.08544061080000705],[99.85952926876081,0.09083540632737314],[99.86720708773696,0.09246005678282795],[99.86780973333258,0.08879778628952223],[99.87997528443191,0.07919078034167217],[99.87910998373883,0.07410036935370247],[99.86201618559852,0.07109636482589947],[99.85099295066418,0.061566138497672215],[99.83814436986682,0.05806614437216109],[99.8371293167646,0.05423031101942128],[99.7986893040682,0.05417258623527558],[99.80191615340782,0.06027151495104865],[99.79951488980038,0.06216244836880298],[99.8032301177758,0.0697799003441147],[99.80190159967913,0.07196187236203504],[99.79633256139861,0.07305311332879481],[99.79547490943958,0.06920529650980964],[99.79409771733583,0.07453692095880096],[99.78600487022862,0.07516337430622731],[99.78631520288434,0.07867470078879153],[99.77557354388398,0.07940732989555119],[99.76933267786085,0.08755750607608266],[99.75295711787675,0.0957795524772155],[99.74442073233098,0.08725905526360146],[99.7237108645648,0.08335563246326323],[99.72255789143361,0.07928516329097769],[99.71906046306998,0.07729289246655567],[99.72385411307692,0.07728978530894681],[99.72352981035255,0.07429261113201985],[99.71484690456104,0.07383471501754217],[99.70738597328408,0.07954211218978324],[99.70684762381883,0.07380988383653252],[99.7149145938335,0.07188510713161608],[99.71647975143946,0.06911596325384999],[99.70510090568227,0.06485285030625411],[99.70019226655988,0.06768709250960059],[99.70339101298492,0.06182627009717092],[99.70085300656109,0.05842580214372135],[99.6976541162445,0.06483911226274092],[99.69354421988987,0.06216692249597563],[99.6712026302972,0.08621854145609419],[99.65870470775609,0.07878658994106603],[99.64510069464143,0.10108400211194776],[99.65307195340795,0.11108659824367406],[99.64899652357074,0.11398507092678327],[99.65109876259787,0.11911378314135862],[99.6495851577289,0.11994607241915102],[99.65445810455793,0.12411724407670775],[99.65648204141314,0.12326242408371367],[99.65674595376282,0.12572130545322469],[99.66105150842041,0.1261213050131197],[99.6589120446552,0.13542290928832476],[99.74882553257231,0.13691427392142083],[99.75505803400114,0.12702398872400786],[99.76738240357514,0.11896607129408739],[99.77733169330303,0.11596830446397086],[99.78749557026441,0.1184977448425115],[99.7919719997081,0.11690000030403216],[99.82505444070995,0.11906308745835105],[99.82400000000007,0.1319000004371449],[99.85151145928648,0.1711933833764706],[99.84734144505171,0.1748459663726671],[99.84468092758281,0.17383003013732426],[99.84390740090589,0.17600133619583233],[99.83204509940185,0.17818203477372632],[99.81590947404304,0.193239390069631],[99.82751529429544,0.19291221401168795],[99.82737847593597,0.18917645991403337],[99.83596238165863,0.19483957716677844],[99.84144109023418,0.1937390758809168],[99.84371942461183,0.19614233418197966],[99.84249995021258,0.20044915687886866],[99.84368373231841,0.20730795336745925],[99.84694359397173,0.20955654446453087],[99.84652718897864,0.2147378193546701],[99.85015763336814,0.214200363816141],[99.85037792859855,0.21790138070038106],[99.8678503638033,0.2177971177990888]]]}},{"type":"Feature","properties":{"code":"1312032004","desa":"Aua Kuniang","kecamatan":"Pasaman","kecCode":"131203","kabCode":"1312","province":"Sumatera Barat"},"geometry":{"type":"Polygon","coordinates":[[[99.98861016712554,0.0781541435115018],[99.98064035177089,0.07077574392627389],[99.99791873576112,0.03691644879381366],[100.01722200359268,0.01988900085451077],[100.03647222401399,0.009527775775643914],[100.02809128538456,0.005391325143519242],[100.02815410842544,0.0026348104452161556],[100.02035901065987,0.006622363024277796],[100.01746983156754,0.014195202330863271],[100.00887677704166,0.02374406890716549],[100.00026320358404,0.024938183322632434],[99.99330122786944,0.02200188155702153],[99.98753805563682,0.02557050114917115],[99.9772368189241,0.05202504296320961],[99.9410091375617,0.054714550075257024],[99.92530732177556,0.052005843336887875],[99.90656615090721,0.05957866016041152],[99.88131376521812,0.05814920665553468],[99.88178074268717,0.03596783131014409],[99.87089862037509,0.03425367852618777],[99.87100566757755,0.06473342933188574],[99.86830587941283,0.06517548208994067],[99.85196002943188,0.05977054131059756],[99.8518493642568,0.039577593087206445],[99.84179429806846,0.039550560365851695],[99.8416307455625,0.06005718852127069],[99.85099295066418,0.061566138497672215],[99.86214762960945,0.07115157150823276],[99.8685309392515,0.07099633503343285],[99.87995738522523,0.0757882088739957],[99.87997528443191,0.07919078034167217],[99.86780973333258,0.08879778628952223],[99.86720708773696,0.09246005678282795],[99.85952926876081,0.09083540632737314],[99.8528318466125,0.08544061080000705],[99.84594188501006,0.0853402374665623],[99.8462561423072,0.10315799972651785],[99.8521382597729,0.10974074121946786],[99.84655447530884,0.13330341856878658],[99.86842798756163,0.1720834082302112],[99.86521571443376,0.18245071812203337],[99.86909662720763,0.19359865933410345],[99.87215459465885,0.19252896162692937],[99.87383938727794,0.18758631284826388],[99.88793475758308,0.18218104921225298],[99.89228737376334,0.1646470482384921],[99.89545916570802,0.16480090605266579],[99.90802435933676,0.1526713467344891],[99.91694327870943,0.14978671012098987],[99.92494182200754,0.1432814470208845],[99.9319182813037,0.1299021574133162],[99.93890922957735,0.12462797176406805],[99.94289128820246,0.12480750971916307],[99.96585881493239,0.09732452030149288],[99.97119278841649,0.09482969932514627],[99.97446601399541,0.08909501132604801],[99.98861016712554,0.0781541435115018]]]}},{"type":"Feature","properties":{"code":"1312032006","desa":"Aia Gadang","kecamatan":"Pasaman","kecCode":"131203","kabCode":"1312","province":"Sumatera Barat"},"geometry":{"type":"Polygon","coordinates":[[[99.81693000671447,0.19141594177817722],[99.83204509940185,0.17818203477372632],[99.84390740090589,0.17600133619583233],[99.84468092758281,0.17383003013732426],[99.84734144505171,0.1748459663726671],[99.85151145928648,0.1711933833764706],[99.82400000000007,0.1319000004371449],[99.82607681968955,0.12081032899832105],[99.82367547064649,0.11851261872980774],[99.7919719997081,0.11690000030403216],[99.78749557026441,0.1184977448425115],[99.77733169330303,0.11596830446397086],[99.76738240357514,0.11896607129408739],[99.75505803400114,0.12702398872400786],[99.74882553257231,0.13691427392142083],[99.6589120446552,0.13542290928832476],[99.66214294094402,0.13802652395055426],[99.6625034144011,0.1425446099863186],[99.66437665725698,0.14147962292797045],[99.66744112590732,0.1457347184194873],[99.66722084776397,0.1487371976971568],[99.66382677488582,0.14881801527271635],[99.66558278571704,0.1522650168467503],[99.66275258866108,0.1593796497727418],[99.66559507225486,0.1628418543859271],[99.66540631085263,0.1701153183769303],[99.66738253057939,0.17246993324786822],[99.66295505033536,0.1770730573775968],[99.66346678436469,0.1802769928872305],[99.6673122503601,0.18298138737646386],[99.66863276269191,0.18129754983927576],[99.67477911356531,0.18916398901524667],[99.6767937253502,0.18711294749520752],[99.67742762958146,0.18906904219104176],[99.67851022356803,0.18729953973245134],[99.68298856856762,0.18808837736630193],[99.68823079141792,0.1942025531880001],[99.76252475241544,0.19490013211740947],[99.76376887273533,0.19059087405642877],[99.81693000671447,0.19141594177817722]]]}},{"type":"Feature","properties":{"code":"1312042001","desa":"Kajai","kecamatan":"Talamau","kecCode":"131204","kabCode":"1312","province":"Sumatera Barat"},"geometry":{"type":"Polygon","coordinates":[[[100.04228776556799,0.1447784216249258],[100.03966703770368,0.1316075490019649],[100.02230654111406,0.10769100821299203],[99.99869256640885,0.09253081813926663],[99.99489152242586,0.08408201667773785],[99.98861016712554,0.0781541435115018],[99.97446601399541,0.08909501132604801],[99.97119278841649,0.09482969932514627],[99.96585881493239,0.09732452030149288],[99.94289128820246,0.12480750971916307],[99.93890922957735,0.12462797176406805],[99.9319182813037,0.1299021574133162],[99.92494182200754,0.1432814470208845],[99.91694327870943,0.14978671012098987],[99.90802435933676,0.1526713467344891],[99.89545916570802,0.16480090605266579],[99.89228737376334,0.1646470482384921],[99.88797848891618,0.18213365314184876],[99.87383938727794,0.18758631284826388],[99.87215459465885,0.19252896162692937],[99.86909662720763,0.19359865933410345],[99.87241191767595,0.2006525952166536],[99.8678503638033,0.2177971177990888],[99.88772403743444,0.21422970689577453],[99.88784320659873,0.21931585419793106],[99.89524302444606,0.2180289144589378],[99.90214094325,0.22265688415880053],[99.9103099098745,0.20920537899100178],[99.91765599322956,0.20457359616570822],[99.92168577977498,0.2045733641405742],[99.93127892987877,0.20694232589610573],[99.94701599998847,0.22126999916360932],[99.95712362525516,0.22300703789499624],[99.96059463333573,0.21885314671052816],[99.95270807541743,0.21210415294700757],[99.95508527496553,0.20827450513129042],[99.95582181072801,0.1940864947788084],[99.96216713840278,0.18505044411570648],[99.98191941165156,0.17922032096053575],[99.98594615758917,0.18144408177595178],[99.99960676773821,0.18159951070574856],[100.00146207361585,0.1714981923958519],[99.99791218959591,0.16621026240778203],[100.0085629334327,0.15489260024007462],[100.00427648397259,0.14894527923464265],[100.04228776556799,0.1447784216249258]]]}},{"type":"Feature","properties":{"code":"1312042002","desa":"Talu","kecamatan":"Talamau","kecCode":"131204","kabCode":"1312","province":"Sumatera Barat"},"geometry":{"type":"Polygon","coordinates":[[[100.05819618800369,0.16438859747194198],[100.06361354123203,0.14969801988029618],[100.0606931250877,0.14508482873951775],[100.05558069329442,0.14861291858509493],[100.04806000206746,0.1478896154480034],[100.04236353704765,0.15206000289668292],[100.04228776556799,0.1447784216249258],[100.00427648397259,0.14894527923464265],[100.0085629334327,0.15489260024007462],[99.99791218959591,0.16621026240778203],[100.00146207361585,0.1714981923958519],[99.99971485905354,0.18146708823255508],[99.98594615758917,0.18144408177595178],[99.98191941165156,0.17922032096053575],[99.96216713840278,0.18505044411570648],[99.95582181072801,0.1940864947788084],[99.95508527496553,0.20827450513129042],[99.95270813836991,0.21315726715572894],[99.96065411899245,0.21963100901816032],[99.97118661726863,0.2208391231799666],[99.97407801858576,0.22540922960007548],[99.98197421903507,0.22722379169044996],[99.98551798586641,0.23913117529598985],[99.99357149842596,0.24605799830272435],[99.9964724982073,0.2535012812755447],[100.00336649057112,0.2548394895657063],[100.00799199973108,0.2590749537563168],[100.02250301959872,0.2488607309595617],[100.03391493342748,0.2550290909344952],[100.04194444937689,0.25311110770831446],[100.05155555624401,0.23661110765182475],[100.05892855540854,0.24006360678147778],[100.06059941842845,0.24418788688830306],[100.05894703018133,0.22300603065431052],[100.06414916934875,0.20603899916995552],[100.05713288897168,0.2020412248965953],[100.06088833193104,0.1951495267110076],[100.05978344375099,0.1894968047217909],[100.06517380562667,0.18726299757977818],[100.0607989204339,0.17821855354405372],[100.05819618800369,0.16438859747194198]]]}},{"type":"Feature","properties":{"code":"1312042003","desa":"Sinuruik","kecamatan":"Talamau","kecCode":"131204","kabCode":"1312","province":"Sumatera Barat"},"geometry":{"type":"Polygon","coordinates":[[[100.0005267741913,0.2752765227853696],[100.0019995246584,0.2646926723328293],[100.00890685396818,0.2589301557124401],[100.00336649057112,0.2548394895657063],[99.9964724982073,0.2535012812755447],[99.99357149842596,0.24605799830272435],[99.98551798586641,0.23913117529598985],[99.98197421903507,0.22722379169044996],[99.97407801858576,0.22540922960007548],[99.97118661726863,0.2208391231799666],[99.96065411899245,0.21963100901816032],[99.95712362525516,0.22300703789499624],[99.94701599998847,0.22126999916360932],[99.93127892987877,0.20694232589610573],[99.91765599322956,0.20457359616570822],[99.9103099098745,0.20920537899100178],[99.90214094325,0.22265688415880053],[99.89524302444606,0.2180289144589378],[99.88784320659873,0.21931585419793106],[99.88701079141497,0.2141699109730198],[99.87904033124636,0.21495065111116343],[99.87647280007972,0.21759321361248915],[99.84841285057263,0.21828206462139355],[99.84881260192009,0.23101693962163175],[99.84513776159848,0.248477424615487],[99.84600911382961,0.26690897327191415],[99.82710469262751,0.2624808167426591],[99.82150971340262,0.2717485552475929],[99.8148710178832,0.27496082567398344],[99.81080213960712,0.28438349308561167],[99.79742023385676,0.29173419984707855],[99.79504964522499,0.2997102295082353],[99.81463899998992,0.29999999646704434],[99.8325597031678,0.308308697043807],[99.84949999602804,0.3023333297811683],[99.84664119423574,0.3155265397650284],[99.85786491503386,0.3198316483541006],[99.86952854640536,0.31966782785035247],[99.87324847423776,0.3171707432803824],[99.87500086709638,0.3190250760895062],[99.8842195610839,0.31003233407814074],[99.90324999708974,0.31136111027870145],[99.91005411300699,0.31543973450329765],[99.91555327666241,0.3142180189948827],[99.9200555571183,0.3076111100206284],[99.91841666679579,0.29808333254631875],[99.91974999806398,0.299305551675044],[99.92305555427048,0.2968888880795736],[99.92277777797214,0.2933611102988225],[99.93166666718297,0.29049999995003956],[99.93544444390601,0.29197222701006903],[99.93992024022695,0.288027422805097],[99.9485555817747,0.2898359144716196],[99.96486435270776,0.28872186759709034],[99.97150447095464,0.2861431875379565],[99.97733555639086,0.27972003883578966],[99.98039128003359,0.2873636341029633],[99.98713896888836,0.28217066802626706],[99.9920803379373,0.2742821783729702],[100.0005267741913,0.2752765227853696]]]}},{"type":"Feature","properties":{"code":"1312052001","desa":"Kinali","kecamatan":"Kinali","kecCode":"131205","kabCode":"1312","province":"Sumatera Barat"},"geometry":{"type":"MultiPolygon","coordinates":[[[[99.7516698417898,-0.1475264105502898],[99.75077040642917,-0.14796423199810702],[99.75110352970421,-0.14723611658869135],[99.7516698417898,-0.1475264105502898]]],[[[99.75223524466088,-0.1479185041700625],[99.75195732357166,-0.14787472157561052],[99.75209247818536,-0.14762345099625748],[99.75223524466088,-0.1479185041700625]]],[[[99.88187811138577,-0.16911336100352295],[99.80652925012485,-0.17989794373376902],[99.80547504323867,-0.1819495860009554],[99.78780548023876,-0.18217172843859958],[99.78781444018432,-0.17322805973331418],[99.77061731443756,-0.1758219797038061],[99.75379855505933,-0.15311537600240918],[99.75227258900884,-0.14728727812049608],[99.75132488883258,-0.14642846154036973],[99.75013211890223,-0.14683644348272537],[99.74936093855653,-0.146358379172077],[99.76086913740083,-0.14392398724112856],[99.76857669156112,-0.1467626837865712],[99.78175404021685,-0.13065275117724465],[99.79280491491494,-0.11194073455191245],[99.79079516756299,-0.09575771853667606],[99.80837651156678,-0.0775514284688317],[99.81591121872782,-0.06035687480236877],[99.82193910640466,-0.05327674436662682],[99.82043192809107,-0.03709381108893864],[99.81310767398003,-0.02689826001650553],[99.80826683834397,-0.026628334799953995],[99.80817261457456,-0.013255924106722381],[99.82362690995397,-0.007283739544777002],[99.8243621237131,-0.0018238375979632128],[99.82894594120228,0.0018143148767853683],[99.84796861156222,0.003167290934240254],[99.84682846276341,0.006814183919863705],[99.86101603156465,0.0074082203048799885],[99.86575239655593,0.014129881872792925],[99.87991557484395,0.01424953757020041],[99.88217226523788,0.0009397259865819315],[99.88432201724736,0.004654275869004865],[99.8891679394489,0.005009258964594446],[99.88600234743045,0.0025726960702428608],[99.88687962979115,-0.00044309587162913216],[99.89690774959301,-0.00030666601940906873],[99.89694341220877,-0.003588123988715287],[99.91063039677545,-0.0042199858588792705],[99.91071598255662,-7.689193486351385e-05],[99.91243630199382,0.00010979922777575545],[99.91019734443192,0.004249505405630934],[99.91226572578266,0.006654935569460671],[99.90250820568917,0.008064231669962691],[99.89962396207625,0.025649587529796063],[99.9174191936409,0.030280811876157363],[99.95953338385863,0.053295580866787616],[99.9772368189241,0.05202504296320961],[99.98753805563682,0.02557050114917115],[99.99330122786944,0.02200188155702153],[100.00026320358404,0.024938183322632434],[100.00887677704166,0.02374406890716549],[100.01746983156754,0.014195202330863271],[100.02035901065987,0.006622363024277796],[100.02815410842544,0.0026348104452161556],[100.02742395515143,-0.013987976748006973],[100.02397044068333,-0.02372094713741505],[100.0312798478867,-0.02912795365947333],[100.03352072460183,-0.035450526680769555],[100.03872092662955,-0.03730251765529534],[100.03519635312927,-0.0491828802306274],[100.03737566225709,-0.05097412110173573],[100.02981147082276,-0.06077655782383904],[100.03158372430947,-0.06266490389204686],[100.03527488822554,-0.061755288206815216],[100.03754121575456,-0.06672098391155855],[100.03598353511211,-0.06928610669087819],[100.0331038744443,-0.07125071257054581],[100.03324001921156,-0.06844092113499797],[100.02669284499886,-0.06788411128669586],[100.02105119275842,-0.07228805356986633],[100.02082720401235,-0.06702138265565169],[100.01736442742644,-0.06487481784591109],[100.01094373386627,-0.06808808202313804],[100.01051244239532,-0.07282456392094629],[100.01424117189265,-0.07729045510386907],[100.01282503374836,-0.08274277576583816],[100.016694627655,-0.08593452186447374],[100.0178986517015,-0.09079901326220184],[100.01589944440387,-0.09735027758426448],[100.0025714323258,-0.10881221259176106],[100.00414400394271,-0.11271999620470449],[99.9989439961685,-0.12144500194931492],[99.98636900172811,-0.13159799620329315],[99.98245433290121,-0.13936733288008457],[99.98290588609778,-0.14599577342279874],[99.98558976525551,-0.14727462286072326],[99.9885514458926,-0.14571810324478557],[99.9855305457981,-0.14138918960115937],[99.99392672343957,-0.14193892897953211],[99.98728948931851,-0.15888384163814115],[99.88187811138577,-0.16911336100352295]]]]}},{"type":"Feature","properties":{"code":"1312052002","desa":"Katiagan","kecamatan":"Kinali","kecCode":"131205","kabCode":"1312","province":"Sumatera Barat"},"geometry":{"type":"Polygon","coordinates":[[[99.80837222809589,-0.017675416567380253],[99.80826683834397,-0.026628334799953995],[99.81310767398003,-0.02689826001650553],[99.82043192809107,-0.03709381108893864],[99.82193910640466,-0.05327674436662682],[99.81591121872782,-0.06035687480236877],[99.80837651156678,-0.0775514284688317],[99.79079516756299,-0.09575771853667606],[99.79280491491494,-0.11194073455191245],[99.78175404021685,-0.13065275117724465],[99.76857669156112,-0.1467626837865712],[99.76086913740083,-0.14392398724112856],[99.74936093855653,-0.146358379172077],[99.74773000003955,-0.13492000010690977],[99.75612999979974,-0.12129000019758035],[99.75893999988114,-0.11181000010628026],[99.75691626627275,-0.08402073217698229],[99.76211845130553,-0.079800292060552],[99.76276208530203,-0.06932588730221192],[99.75683715021437,-0.05362285115360746],[99.7559976555674,-0.044225938526733316],[99.76014432969713,-0.0436228063985665],[99.76054213491165,-0.040052965527123154],[99.76187523055751,-0.04184505895543009],[99.7597788290298,-0.03816010935881005],[99.76188943894653,-0.029401871865945214],[99.76580761333075,-0.02880824287385335],[99.76838483109515,-0.02381047824427416],[99.77475660243533,-0.021397741988212374],[99.78452349436382,-0.023580607032992217],[99.7884131197697,-0.0231114496078164],[99.79037346196576,-0.018416581139652916],[99.80837222809589,-0.017675416567380253]]]}},{"type":"Feature","properties":{"code":"1312062001","desa":"Muaro Kiawai","kecamatan":"Gunung Tuleh","kecCode":"131206","kabCode":"1312","province":"Sumatera Barat"},"geometry":{"type":"Polygon","coordinates":[[[99.8477846750228,0.2198239558649937],[99.85096935425234,0.21496528398017797],[99.84652718897864,0.2147378193546701],[99.84686031225368,0.20931264832590854],[99.84368373231841,0.20730795336745925],[99.84349932543357,0.19572592649140827],[99.84095330065433,0.19359036218891534],[99.83576607584375,0.19477414249480432],[99.82737847593597,0.18917645991403337],[99.82751529429544,0.19291221401168795],[99.81693264262742,0.19376882005827112],[99.81672144224079,0.19132148238648217],[99.76376887273533,0.19059087405642877],[99.76252475241544,0.19490013211740947],[99.68823079141792,0.1942025531880001],[99.68780326540843,0.19461458118022332],[99.69155742143788,0.19519386508644956],[99.69337509428522,0.19938699998698672],[99.69826195992158,0.1969740541888546],[99.700704734436,0.20108225261889767],[99.70457198830665,0.19892166108328732],[99.70726466822993,0.1999628754626064],[99.70408373827392,0.20521676701063282],[99.70591367067941,0.20680552732188254],[99.704886522595,0.21190822035100465],[99.70777659741206,0.21506582818483835],[99.70753223542437,0.22196760417332323],[99.70159557767384,0.23316618531038813],[99.7016376506571,0.24015563980229615],[99.69362962940392,0.24526372876370203],[99.7069384058828,0.25076365413881435],[99.71124763696895,0.2556915594318846],[99.72733517467863,0.25728977791306823],[99.74642213127639,0.23796391014009752],[99.76455139443135,0.2289997728650604],[99.76616181401657,0.23826085099095506],[99.76286180392917,0.2369264513296301],[99.76204359173839,0.2389174334255622],[99.76598203774091,0.24179587191147564],[99.76069015702518,0.25005259886865383],[99.76205120539885,0.25247532389468863],[99.75692818588715,0.2534293364112626],[99.75591059759608,0.25716456710339664],[99.76389358442144,0.2618395749435256],[99.76823805094534,0.27257440627891155],[99.77849806183615,0.27838336928565904],[99.78414778189466,0.28809744312023744],[99.78999679621522,0.29149586691465307],[99.79622581456977,0.28919762694537776],[99.79742023385676,0.29173419984707855],[99.79988041385008,0.29116495597220293],[99.80901754382465,0.2859539360054482],[99.8148710178832,0.27496082567398344],[99.82150971340262,0.2717485552475929],[99.82710469262751,0.2624808167426591],[99.84600911382961,0.26690897327191415],[99.84513776159848,0.248477424615487],[99.84881260192009,0.23101693962163175],[99.8477846750228,0.2198239558649937]]]}},{"type":"Feature","properties":{"code":"1312062002","desa":"Rabi Jonggor","kecamatan":"Gunung Tuleh","kecCode":"131206","kabCode":"1312","province":"Sumatera Barat"},"geometry":{"type":"Polygon","coordinates":[[[99.68918411505489,0.4691895337451547],[99.69923700038731,0.46914499931749687],[99.70449199990594,0.46074599961280616],[99.71312499961907,0.45394299976187036],[99.72058500009774,0.45131499908313777],[99.72518399994169,0.45319199930440063],[99.73822699977626,0.47590199974515635],[99.74194400031541,0.47833299943331714],[99.74827600003742,0.47714899969287744],[99.7823330003677,0.4817669995085335],[99.80701299995008,0.4693329998930506],[99.80978099989329,0.46271699967219576],[99.8269444460294,0.4594444395953023],[99.82822240513997,0.42823181596650994],[99.82356249781111,0.4184346195939431],[99.81288249902815,0.41402231991095995],[99.79974778543203,0.41584252884447187],[99.79474870508874,0.41231229591450863],[99.78466771774104,0.41761479671836765],[99.76695299888183,0.42088399692812556],[99.76529400061769,0.41888999580805375],[99.77043157385809,0.41095626935664964],[99.77300653162621,0.4013892715486342],[99.76754350632778,0.3984851763040804],[99.74934758362417,0.4014390139502602],[99.74877721289813,0.3920183376376669],[99.74348129692436,0.38560067929658487],[99.74660696893652,0.37975990636981066],[99.76823730810537,0.3673869842109801],[99.77006567299247,0.3626853033783121],[99.77683855635433,0.3585964475668264],[99.77283890069475,0.3492946895075424],[99.7600000001999,0.34586100149715693],[99.75241527724329,0.3330026702645189],[99.75658367539636,0.3174423403366424],[99.76386200202982,0.31188724964792525],[99.77224610807149,0.3133340717594969],[99.77905795635967,0.31896951327556433],[99.78655246292588,0.320913927576673],[99.79736074370338,0.29281359674251206],[99.79622581456977,0.28919762694537776],[99.78999679621522,0.29149586691465307],[99.78585974842872,0.2899642890962763],[99.78175076578526,0.28154263636864124],[99.76823805094534,0.27257440627891155],[99.76389358442144,0.2618395749435256],[99.75591059759608,0.25716456710339664],[99.75692818588715,0.2534293364112626],[99.76205120539885,0.25247532389468863],[99.76069015702518,0.25005259886865383],[99.76598203774091,0.24179587191147564],[99.76204359173839,0.2389174334255622],[99.76286180392917,0.2369264513296301],[99.76616181401657,0.23826085099095506],[99.76455139443135,0.2289997728650604],[99.74642213127639,0.23796391014009752],[99.72733517467863,0.25728977791306823],[99.70923368978299,0.2548755937485378],[99.7069384058828,0.25076365413881435],[99.69362962940392,0.24526372876370203],[99.6928618853678,0.24118556768998217],[99.68861974730355,0.24092965570951475],[99.68193596157545,0.2557099316819599],[99.6829314040611,0.26801189913001133],[99.67569642025364,0.27270154163772664],[99.66916396074822,0.2731427319459758],[99.67022382706801,0.2810073221158486],[99.67359418392454,0.28259408503287425],[99.67624496623228,0.28077823061673135],[99.67631642636206,0.2830617271003876],[99.67506869526414,0.28834245801544706],[99.6684409912588,0.2966079812414898],[99.67029404073746,0.301405856258103],[99.66779760097857,0.30237542165013925],[99.66975205441383,0.30321545678871276],[99.67047283765139,0.30908932476675455],[99.6769342803928,0.3108190888821672],[99.6808766384462,0.3150239140699623],[99.6802300969415,0.3176377702115797],[99.68178734590936,0.3167079143844563],[99.68114365075894,0.323342955051626],[99.67661429261557,0.3321094096499895],[99.68000551464286,0.33278204498309927],[99.67975877035104,0.3367799370676717],[99.68247641455497,0.3362355972188855],[99.68664258598658,0.34849839019868245],[99.68545014071151,0.3506201130355951],[99.69363118882835,0.35946168350776714],[99.69029908103784,0.3700549849356083],[99.68381711306937,0.37087596793667177],[99.6820479235729,0.3751461945216191],[99.67928049290047,0.37373289014269934],[99.67198828343258,0.37690920117706517],[99.67062475203073,0.38915359762510093],[99.67242751861515,0.4003458628234517],[99.68352917263326,0.4132999026060721],[99.68632355868533,0.4208989040902918],[99.68303337369133,0.4512136185089368],[99.68918411505489,0.4691895337451547]]]}},{"type":"Feature","properties":{"code":"1312072001","desa":"Batahan","kecamatan":"Ranah Batahan","kecCode":"131207","kabCode":"1312","province":"Sumatera Barat"},"geometry":{"type":"Polygon","coordinates":[[[99.47710954157212,0.5264841370444128],[99.50258599964423,0.5384659998037871],[99.52012600001494,0.552061999044554],[99.51968400031642,0.5456299992147738],[99.51251999999806,0.5379309994144075],[99.5187460002278,0.5345879990389651],[99.52799400042282,0.5224969990528144],[99.53971336907676,0.518365782475084],[99.53616228536121,0.5125658405677851],[99.53588890225109,0.5036277152834782],[99.53239812707197,0.5004204918524378],[99.53421452557996,0.49807454734535606],[99.53365258599807,0.4880786394716502],[99.53111118643214,0.48041511702665524],[99.52418286424783,0.47290646952895793],[99.5297605935766,0.46733358305566136],[99.52669193228688,0.4526211636294934],[99.53206475288606,0.4411215883971276],[99.52957046070829,0.42994635186169133],[99.52471274839468,0.42820729595097645],[99.52310823375802,0.42309533181085346],[99.5166727463502,0.4177090276822281],[99.50705967806176,0.4132872896144025],[99.5041764533807,0.41669920593744486],[99.49736850455291,0.4093508643929722],[99.49872137269323,0.40331741081868633],[99.49279958793066,0.3751956968042575],[99.48255293467025,0.3788546478998654],[99.46594239262737,0.3788352989861219],[99.4657021324475,0.37338512050922057],[99.4629650475989,0.37274571602503187],[99.46370524540083,0.3683500070351102],[99.4533460815565,0.3551393771832099],[99.45219366690425,0.3490352180104656],[99.45526246039428,0.3464942753029486],[99.45410778484644,0.344547120767554],[99.46159571556989,0.3402430661839272],[99.45964253467531,0.3397635800451125],[99.4616463240187,0.33806328491447935],[99.46048795585453,0.3362703937874641],[99.45719536787196,0.33777324186377233],[99.45784456777265,0.3321150070304406],[99.45578067673686,0.3307058359356327],[99.43832767228427,0.3271483337626263],[99.42341285142201,0.33778663546699933],[99.41136946422942,0.34114357533411377],[99.40397555582727,0.33822892204875676],[99.39955892140716,0.34052932578685374],[99.39354969106545,0.33956667618130093],[99.38876479505933,0.33565716497068365],[99.38811457892473,0.32979154287648593],[99.35830111240648,0.3328202976462645],[99.3633612702065,0.36078203755738786],[99.37736120985203,0.36351215085845834],[99.3947337897327,0.3811912016862183],[99.39434566841794,0.3977588667333773],[99.36724999988762,0.3902999994088528],[99.36247199988291,0.3902999994088528],[99.35381352507419,0.3966203996680321],[99.36599799970797,0.43154699941177943],[99.37858213126042,0.44292826882906805],[99.37678584788863,0.44456377320230545],[99.37800713981773,0.447222744733628],[99.37914520758534,0.4456782328656172],[99.38333699980272,0.4470379997038608],[99.38702399985776,0.45353299974082967],[99.39772999983967,0.46315899937023614],[99.40150054331548,0.47453514085330784],[99.4119799995774,0.4862609999013247],[99.42163419386304,0.48268378548839325],[99.42795699981576,0.47582599983779894],[99.44047999995212,0.47884799979972376],[99.44833299966824,0.4913889998527878],[99.46972200037011,0.5136109993736322],[99.47194400031543,0.5205559994775225],[99.47710954157212,0.5264841370444128]]]}},{"type":"Feature","properties":{"code":"1312072002","desa":"Desa Baru","kecamatan":"Ranah Batahan","kecCode":"131207","kabCode":"1312","province":"Sumatera Barat"},"geometry":{"type":"Polygon","coordinates":[[[99.31898387130865,0.33746448482060176],[99.33965199974006,0.36679199994051237],[99.35381352507419,0.3966203996680321],[99.36247199988291,0.3902999994088528],[99.36724999988762,0.3902999994088528],[99.38652799856834,0.3967999996763872],[99.39499714630131,0.3972465805208705],[99.39370078526309,0.3798810135729874],[99.37508937757275,0.36205470415623126],[99.3633612702065,0.36078203755738786],[99.35830111240648,0.3328202976462645],[99.33820604457337,0.33367469405859274],[99.31898387130865,0.33746448482060176]]]}},{"type":"Feature","properties":{"code":"1312082001","desa":"Parit","kecamatan":"Koto Balingka","kecCode":"131208","kabCode":"1312","province":"Sumatera Barat"},"geometry":{"type":"Polygon","coordinates":[[[99.53971336907676,0.518365782475084],[99.55857899982105,0.5103890000813862],[99.57336900017928,0.5088559995355547],[99.58241099986782,0.515683999640067],[99.58682994644492,0.5161743522871806],[99.5859826870514,0.4890669728155],[99.59073588285473,0.4629758398452281],[99.59025950207445,0.4526832114546753],[99.57418771059439,0.42909878310237043],[99.56894821988448,0.41523808550476854],[99.5542153228789,0.4067510376752077],[99.55179721496954,0.40088993467427425],[99.55652969578885,0.40000364740291705],[99.55687742405394,0.39501663596709147],[99.5526708074119,0.39074209713294944],[99.54651547680787,0.3531497179900154],[99.55127930259776,0.33705823946910435],[99.55010523227071,0.33394574522637843],[99.55225601760117,0.3322012250348934],[99.55575127590072,0.3335223255218019],[99.55646361990017,0.31751095321270917],[99.54567345956258,0.3063719845367289],[99.53745946568188,0.2861536871228433],[99.53613923663652,0.2685957381023666],[99.53884390901925,0.2624575602745584],[99.5286915119038,0.25811322415723303],[99.52839334078008,0.255161389301229],[99.52513985172283,0.25533993710280833],[99.51878522685676,0.24842579004029258],[99.51226090441723,0.2473512063164068],[99.5105437559896,0.24247286715785712],[99.5088315628264,0.24412551170986665],[99.50571492720218,0.23785638359913813],[99.51504638088583,0.2301888258960788],[99.51553766163386,0.22037101796160416],[99.50811035331019,0.21574545214953125],[99.49394535479432,0.199059275342616],[99.48598798156017,0.19565331073283765],[99.51501509257251,0.17205407774103254],[99.50771657436046,0.16943467907760582],[99.50766896155339,0.16718462208560217],[99.48017117286138,0.16540800509032041],[99.48123030083775,0.13794700139866403],[99.47574238680176,0.13858653088870282],[99.47505253035007,0.13256359848304256],[99.42600127383979,0.1484772288749208],[99.42869860056004,0.15758225304224607],[99.42853287259406,0.17389716003136782],[99.43249011083003,0.18531942684279626],[99.43581422005023,0.18784985737488372],[99.43472050055072,0.21840655867140146],[99.45582870143345,0.21873254492633457],[99.45550985309727,0.23608833264634255],[99.45227543776132,0.2440016579771956],[99.44698340506017,0.24742203062542303],[99.44551887169865,0.25125200129778763],[99.4440266122384,0.2504304157509064],[99.44477622324415,0.2558852653064527],[99.44069866740962,0.25799079764855676],[99.44036168784169,0.2623317882879215],[99.42328011868261,0.2625510421032175],[99.41134974299632,0.2723878976786115],[99.40097398576091,0.27227754007185073],[99.38801552489662,0.2851138783838195],[99.38258958943806,0.30973183191202797],[99.38452801425649,0.3253184562178594],[99.38811457892473,0.32979154287648593],[99.38886724942408,0.3357860818865594],[99.39904870183618,0.34050627706210473],[99.40382390584863,0.33821874801846147],[99.41136946422942,0.34114357533411377],[99.42341285142201,0.33778663546699933],[99.43832767228427,0.3271483337626263],[99.45578067673686,0.3307058359356327],[99.45784456777265,0.3321150070304406],[99.45719536787196,0.33777324186377233],[99.46048795585453,0.3362703937874641],[99.4616463240187,0.33806328491447935],[99.45964253467531,0.3397635800451125],[99.46159571556989,0.3402430661839272],[99.45410778484644,0.344547120767554],[99.45526246039428,0.3464942753029486],[99.45219366690425,0.3490352180104656],[99.4533460815565,0.3551393771832099],[99.46370524540083,0.3683500070351102],[99.4629650475989,0.37274571602503187],[99.4657021324475,0.37338512050922057],[99.46615571361536,0.37909904316224746],[99.48255293467025,0.3788546478998654],[99.49279958793066,0.3751956968042575],[99.49872137269323,0.40331741081868633],[99.49736850455291,0.4093508643929722],[99.5041764533807,0.41669920593744486],[99.50705967806176,0.4132872896144025],[99.5168076365632,0.4178093209760066],[99.52310823375802,0.42309533181085346],[99.52471274839468,0.42820729595097645],[99.52930871482539,0.429635743114466],[99.52916251923494,0.43328190854858517],[99.53190151784082,0.43532285607801674],[99.53206475288606,0.4411215883971276],[99.52669193228688,0.4526211636294934],[99.5297605935766,0.46733358305566136],[99.52418286424783,0.47290646952895793],[99.53111118643214,0.48041511702665524],[99.53365258599807,0.4880786394716502],[99.53421452557996,0.49807454734535606],[99.53239812707197,0.5004204918524378],[99.53588890225109,0.5036277152834782],[99.53616228536121,0.5125658405677851],[99.53971336907676,0.518365782475084]]]}},{"type":"Feature","properties":{"code":"1312092001","desa":"Sungai Aua","kecamatan":"Sungai Aur","kecCode":"131209","kabCode":"1312","province":"Sumatera Barat"},"geometry":{"type":"Polygon","coordinates":[[[99.67557547582759,0.4744507107010032],[99.68121500027212,0.4695439997305613],[99.68918411505489,0.4691895337451547],[99.68303337369133,0.4512136185089368],[99.68632355868533,0.4208989040902918],[99.68352917263326,0.4132999026060721],[99.67237143059708,0.4002094446624582],[99.67139214263335,0.3784701256723565],[99.67637033442344,0.37457271843715884],[99.6820479235729,0.3751461945216191],[99.68381711306937,0.37087596793667177],[99.69029908103784,0.3700549849356083],[99.69363698765692,0.3596178130093879],[99.68545014071151,0.3506201130355951],[99.68664258598658,0.34849839019868245],[99.68247641455497,0.3362355972188855],[99.67975877035104,0.3367799370676717],[99.68000551464286,0.33278204498309927],[99.67668107537139,0.33234503022719614],[99.68195382031263,0.3170990169513184],[99.6802300969415,0.3176377702115797],[99.6808766384462,0.3150239140699623],[99.67741458041858,0.3111445877044982],[99.67047283765139,0.30908932476675455],[99.66975205441383,0.30321545678871276],[99.66792601787148,0.30279190308513876],[99.67046214471223,0.29957593194859256],[99.6684409912588,0.2966079812414898],[99.67506869526414,0.28834245801544706],[99.67639477170142,0.28105109391844935],[99.67299501600723,0.2824289614114959],[99.66827852873115,0.27724183912943046],[99.66923528238242,0.27302304926890775],[99.67569642025364,0.27270154163772664],[99.6829314040611,0.26801189913001133],[99.68193596157545,0.2557099316819599],[99.68806222609095,0.24129123443301564],[99.6936045374195,0.2416886511399583],[99.69362962940392,0.24526372876370203],[99.7016376506571,0.24015563980229615],[99.70159557767384,0.23316618531038813],[99.70763976106615,0.22152560717323205],[99.70777659741206,0.21506582818483835],[99.704886522595,0.21190822035100465],[99.70591367067941,0.20680552732188254],[99.70408373827392,0.20521676701063282],[99.70726466822993,0.1999628754626064],[99.700704734436,0.20108225261889767],[99.69826195992158,0.1969740541888546],[99.69337509428522,0.19938699998698672],[99.69163231427994,0.19526866889552122],[99.6878233220887,0.19481109204034847],[99.68298856856762,0.18808837736630193],[99.67851022356803,0.18729953973245134],[99.67742762958146,0.18906904219104176],[99.6767937253502,0.18711294749520752],[99.67477911356531,0.18916398901524667],[99.66863276269191,0.18129754983927576],[99.6673122503601,0.18298138737646386],[99.66349729566372,0.18033264023744394],[99.66295505033536,0.1770730573775968],[99.66738253057939,0.17246993324786822],[99.66540631085263,0.1701153183769303],[99.66559507225486,0.1628418543859271],[99.66275258866108,0.1593796497727418],[99.66558278571704,0.1522650168467503],[99.66382677488582,0.14881801527271635],[99.66722084776397,0.1487371976971568],[99.66744112590732,0.1457347184194873],[99.65889128200712,0.13657516026267488],[99.6584350055711,0.1324442818299674],[99.66171742222133,0.12980016709882264],[99.66012243140517,0.12477943018698125],[99.65674595376282,0.12572130545322469],[99.65648204141314,0.12326242408371367],[99.65445810455793,0.12411724407670775],[99.6495851577289,0.11994607241915102],[99.65109876259787,0.11911378314135862],[99.64906878859375,0.11383628618833166],[99.65334876383446,0.11229157916747726],[99.64966944758697,0.10570893929783945],[99.64297759044348,0.10548353232118346],[99.64252128522917,0.10915934120856527],[99.62343661560736,0.11892171313350962],[99.59505733123092,0.10170358643760892],[99.5970787257027,0.09834143859651433],[99.58246489264074,0.0984594683196715],[99.57241059537272,0.08856696899134596],[99.47505253035007,0.13256359848304256],[99.47574238680176,0.13858653088870282],[99.48123030083775,0.13794700139866403],[99.48017117286138,0.16540800509032041],[99.50766896155339,0.16718462208560217],[99.50771657436046,0.16943467907760582],[99.51225791686943,0.1696021157553304],[99.55169265798986,0.20404482268216553],[99.57476809257348,0.20422584002203412],[99.57423558690287,0.21333197665074644],[99.57801604540424,0.2140402719015909],[99.57913682100751,0.2224914763516239],[99.5836819046962,0.2217298153306695],[99.58936150383037,0.22824219116886685],[99.59036570301485,0.2341786609544776],[99.58744484530344,0.2435196321528741],[99.59310167630139,0.2545280291604637],[99.59553822840654,0.26618401358358745],[99.59357687627187,0.2869308335701106],[99.59021863328336,0.28780773281867733],[99.58927741002451,0.29198680412104594],[99.59124200421519,0.29388807884296547],[99.58842793290285,0.3067471358285177],[99.59108915723886,0.3224105820220812],[99.58914133720297,0.3426889127797546],[99.58493445076437,0.35551896662928445],[99.58803726740604,0.3689740259178244],[99.59664139888149,0.37585542686601187],[99.59968624702276,0.39011521301026125],[99.60956663159482,0.4139132402408568],[99.623424612356,0.4216702840846714],[99.6373169724004,0.4226459837523698],[99.63907776942357,0.4252409676208998],[99.65150105183214,0.42820281283054334],[99.65408634640784,0.4353236294949594],[99.66160544403607,0.4445321449452751],[99.66643575040962,0.46854090581403246],[99.67557547582759,0.4744507107010032]]]}},{"type":"Feature","properties":{"code":"1312102001","desa":"Koto Baru","kecamatan":"Luhak Nan Duo","kecCode":"131210","kabCode":"1312","province":"Sumatera Barat"},"geometry":{"type":"Polygon","coordinates":[[[99.7986893040682,0.05417258623527558],[99.83676462009123,0.054149187674355774],[99.8405365170467,0.0591282652910929],[99.84179429806846,0.039550560365851695],[99.8518493642568,0.039577593087206445],[99.85196002943188,0.05977054131059756],[99.87100566757755,0.06473342933188574],[99.87089862037509,0.03425367852618777],[99.88178074268717,0.03596783131014409],[99.88131376521812,0.05814920665553468],[99.90656615090721,0.05957866016041152],[99.92530732177556,0.052005843336887875],[99.9410091375617,0.054714550075257024],[99.95953338385863,0.053295580866787616],[99.9174191936409,0.030280811876157363],[99.89962396207625,0.025649587529796063],[99.90250820568917,0.008064231669962691],[99.91226572578266,0.006654935569460671],[99.91019734443192,0.004249505405630934],[99.91243630199382,0.00010979922777575545],[99.91071598255662,-7.689193486351385e-05],[99.91063039677545,-0.0042199858588792705],[99.89694341220877,-0.003588123988715287],[99.89690774959301,-0.00030666601940906873],[99.88687962979115,-0.00044309587162913216],[99.88600234743045,0.0025726960702428608],[99.8891679394489,0.005009258964594446],[99.88432201724736,0.004654275869004865],[99.88217226523788,0.0009397259865819315],[99.87991557484395,0.01424953757020041],[99.86510736681157,0.01397651328981303],[99.86101603156465,0.0074082203048799885],[99.84682846276341,0.006814183919863705],[99.84796861156222,0.003167290934240254],[99.82894594120228,0.0018143148767853683],[99.8243621237131,-0.0018238375979632128],[99.82362690995397,-0.007283739544777002],[99.80817261457456,-0.013255924106722381],[99.80837222809589,-0.017675416567380253],[99.79037346196576,-0.018416581139652916],[99.7884131197697,-0.0231114496078164],[99.77475660243533,-0.021397741988212374],[99.76838483109515,-0.02381047824427416],[99.76613095557917,-0.028559310531764363],[99.76188943894653,-0.029401871865945214],[99.7597788290298,-0.03816010935881005],[99.76147221107374,-0.038859334946807544],[99.76187523055751,-0.04184505895543009],[99.76054213491165,-0.040052965527123154],[99.76014432969713,-0.0436228063985665],[99.7559976555674,-0.044225938526733316],[99.75683715021437,-0.05362285115360746],[99.74730935474298,-0.037886094025557406],[99.75038215741068,-0.02556354559248496],[99.7543025693082,-0.02011038856104139],[99.75263457242761,-0.005139837627607918],[99.75683461682416,-0.00041484007232773585],[99.76872615258992,0.0016648889216726998],[99.7744706486016,0.01061520541555226],[99.7769522864189,0.018699067387155287],[99.77510063358746,0.023114110002369796],[99.77923750600617,0.03010739830413365],[99.79300139339966,0.03435710056136819],[99.79506157023535,0.040800498398689836],[99.80093420974606,0.04233177494412144],[99.7986893040682,0.05417258623527558]]]}},{"type":"Feature","properties":{"code":"1312102002","desa":"Kapa","kecamatan":"Luhak Nan Duo","kecCode":"131210","kabCode":"1312","province":"Sumatera Barat"},"geometry":{"type":"Polygon","coordinates":[[[99.70671088459972,0.06549862918517464],[99.71654683366948,0.06984395995267027],[99.70684762381883,0.07380988383653252],[99.70738597328408,0.07954211218978324],[99.71484690456104,0.07383471501754217],[99.72352981035255,0.07429261113201985],[99.72385411307692,0.07728978530894681],[99.71906046306998,0.07729289246655567],[99.72255789143361,0.07928516329097769],[99.7237108645648,0.08335563246326323],[99.74442073233098,0.08725905526360146],[99.75295711787675,0.0957795524772155],[99.76933267786085,0.08755750607608266],[99.77557354388398,0.07940732989555119],[99.78631520288434,0.07867470078879153],[99.78600487022862,0.07516337430622731],[99.79409771733583,0.07453692095880096],[99.79547490943958,0.06920529650980964],[99.79633256139861,0.07305311332879481],[99.80190159967913,0.07196187236203504],[99.8032301177758,0.0697799003441147],[99.79951488980038,0.06216244836880298],[99.80191615340782,0.06027151495104865],[99.79863224658094,0.05450959727912375],[99.80093420974606,0.04233177494412144],[99.79506157023535,0.040800498398689836],[99.79300139339966,0.03435710056136819],[99.77923750600617,0.03010739830413365],[99.77510063358746,0.023114110002369796],[99.7769522864189,0.018699067387155287],[99.7372051783763,0.014232445954737324],[99.73724572341148,0.01660461199471576],[99.73046692071188,0.016665887302236802],[99.72875343342427,0.019492897157753434],[99.7333550637852,0.022285048391366035],[99.70671088459972,0.06549862918517464]]]}},{"type":"Feature","properties":{"code":"1312112001","desa":"Sasak","kecamatan":"Sasak Ranah Pasisie","kecCode":"131211","kabCode":"1312","province":"Sumatera Barat"},"geometry":{"type":"Polygon","coordinates":[[[99.64297759044348,0.10548353232118346],[99.64828355094517,0.10318832846317422],[99.64510069464143,0.10108400211194776],[99.65870470775609,0.07878658994106603],[99.6712026302972,0.08621854145609419],[99.69354421988987,0.06216692249597563],[99.69727900542182,0.06507876450065568],[99.6988789164289,0.05957389914949599],[99.70158087735564,0.05846028934553894],[99.70335829744754,0.0620871661203796],[99.70012353857048,0.06762763922851144],[99.70671088459972,0.06549862918517464],[99.7333550637852,0.022285048391366035],[99.72875343342427,0.019492897157753434],[99.73046692071188,0.016665887302236802],[99.74108533841768,0.014160626995550133],[99.7769522864189,0.018699067387155287],[99.76866609856164,0.0015943631875879219],[99.75683461682416,-0.00041484007232773585],[99.75263457242761,-0.005139837627607918],[99.7543025693082,-0.02011038856104139],[99.75038215741068,-0.02556354559248496],[99.74730935474298,-0.037886094025557406],[99.73022000015294,-0.021019999749589284],[99.69235603830059,0.0009901006115594299],[99.66171999967831,0.03362999958726115],[99.64647900010584,0.04635199989303747],[99.6177494495775,0.06594333494319822],[99.57241059537272,0.08856696899134596],[99.58246489264074,0.0984594683196715],[99.5970787257027,0.09834143859651433],[99.59505733123092,0.10170358643760892],[99.62343661560736,0.11892171313350962],[99.64252128522917,0.10915934120856527],[99.64297759044348,0.10548353232118346]]]}}]}