{"type":"FeatureCollection","features":[{"type":"Feature","properties":{"code":"1371011001","desa":"Belakang Pondok","kecamatan":"Padang Selatan","kecCode":"137101","kabCode":"1371","province":"Sumatera Barat"},"geometry":{"type":"Polygon","coordinates":[[[100.36377176555459,-0.9513440778034558],[100.36334505792814,-0.9612936589006881],[100.36018253979246,-0.95150229283289],[100.36377176555459,-0.9513440778034558]]]}},{"type":"Feature","properties":{"code":"1371011002","desa":"Alang Laweh","kecamatan":"Padang Selatan","kecCode":"137101","kabCode":"1371","province":"Sumatera Barat"},"geometry":{"type":"Polygon","coordinates":[[[100.36399262196197,-0.9569476455476509],[100.36377176555459,-0.9513440778034558],[100.36785423438545,-0.9506397044960755],[100.36753348937907,-0.9548982219079659],[100.36399262196197,-0.9569476455476509]]]}},{"type":"Feature","properties":{"code":"1371011003","desa":"Ranah Parak Rumbio","kecamatan":"Padang Selatan","kecCode":"137101","kabCode":"1371","province":"Sumatera Barat"},"geometry":{"type":"Polygon","coordinates":[[[100.3649631244487,-0.9595106585174851],[100.36420150839295,-0.9564665927898466],[100.36762710071018,-0.9543246639852764],[100.37037608808606,-0.9565065056014895],[100.36981046937774,-0.95857449304685],[100.3649631244487,-0.9595106585174851]]]}},{"type":"Feature","properties":{"code":"1371011004","desa":"Pasa Gadang","kecamatan":"Padang Selatan","kecCode":"137101","kabCode":"1371","province":"Sumatera Barat"},"geometry":{"type":"Polygon","coordinates":[[[100.36334505792814,-0.9612936589006881],[100.36996498459642,-0.958378290654269],[100.37441779424586,-0.9611043552074763],[100.37215058088465,-0.9629812996707721],[100.3648944755996,-0.9616347321821729],[100.36285474934725,-0.9636272781991194],[100.36334505792814,-0.9612936589006881]]]}},{"type":"Feature","properties":{"code":"1371011005","desa":"Batang Arau","kecamatan":"Padang Selatan","kecCode":"137101","kabCode":"1371","province":"Sumatera Barat"},"geometry":{"type":"Polygon","coordinates":[[[100.3543682860676,-0.9665563368250678],[100.36594680560067,-0.96238625604508],[100.36367476557801,-0.968724412518707],[100.34757275597799,-0.9689284596975921],[100.34795724403165,-0.9638841110854324],[100.3543682860676,-0.9665563368250678]]]}},{"type":"Feature","properties":{"code":"1371011006","desa":"Seberang Palinggam","kecamatan":"Padang Selatan","kecCode":"137101","kabCode":"1371","province":"Sumatera Barat"},"geometry":{"type":"Polygon","coordinates":[[[100.36566801936368,-0.9618934437521519],[100.37226311934755,-0.9629600927576046],[100.37659378397602,-0.9660263843302889],[100.37180286880742,-0.9689044100274488],[100.36477678582008,-0.9690075505747814],[100.36566801936368,-0.9618934437521519]]]}},{"type":"Feature","properties":{"code":"1371011007","desa":"Seberang Padang","kecamatan":"Padang Selatan","kecCode":"137101","kabCode":"1371","province":"Sumatera Barat"},"geometry":{"type":"Polygon","coordinates":[[[100.37226311934755,-0.9629600927576046],[100.37441779424586,-0.9611043552074763],[100.37186495260556,-0.9596954467147174],[100.37081022591127,-0.9548209935267226],[100.37362303097814,-0.9518466261568476],[100.37869312179019,-0.9583888666814607],[100.37625466042431,-0.960665181179253],[100.37621238059693,-0.9651657529182778],[100.37226311934755,-0.9629600927576046]]]}},{"type":"Feature","properties":{"code":"1371011008","desa":"Mata Air","kecamatan":"Padang Selatan","kecCode":"137101","kabCode":"1371","province":"Sumatera Barat"},"geometry":{"type":"Polygon","coordinates":[[[100.36581609273856,-0.9765855888621913],[100.37659378397602,-0.9660263843302889],[100.37625466042431,-0.960665181179253],[100.37875443397,-0.9583387024978047],[100.3794386426793,-0.9721040701600443],[100.38513165070513,-0.9733382349835306],[100.38578824303305,-0.9783846493384736],[100.38062822091568,-0.9756619653368368],[100.37401630540825,-0.9820515090721487],[100.36872051893685,-0.9820371468990889],[100.36581609273856,-0.9765855888621913]]]}},{"type":"Feature","properties":{"code":"1371011009","desa":"Rawang","kecamatan":"Padang Selatan","kecCode":"137101","kabCode":"1371","province":"Sumatera Barat"},"geometry":{"type":"Polygon","coordinates":[[[100.37129919899888,-0.9830124391739338],[100.38062822091568,-0.9756619653368368],[100.38578824303305,-0.9783846493384736],[100.38589565985687,-0.9840967517636566],[100.37913188572799,-0.9933826484800438],[100.37760871207246,-0.9903987986585763],[100.37081418202892,-0.9878919753301384],[100.37281461600179,-0.9857230335892591],[100.37129919899888,-0.9830124391739338]]]}},{"type":"Feature","properties":{"code":"1371011010","desa":"Teluk Bayur","kecamatan":"Padang Selatan","kecCode":"137101","kabCode":"1371","province":"Sumatera Barat"},"geometry":{"type":"MultiPolygon","coordinates":[[[[100.363135098606,-1.0192466162990608],[100.36226006634905,-1.0186956772250935],[100.36280764825443,-1.018396272231905],[100.363135098606,-1.0192466162990608]]],[[[100.37107689288433,-0.988019098997778],[100.37786901004681,-0.9906022441909543],[100.37954606939564,-0.9957784028379496],[100.37392872043415,-0.9962986255674869],[100.37088305031256,-0.9988168460042026],[100.37262164127576,-1.0015957951902672],[100.36797039531756,-1.0015801622751486],[100.36472966404284,-1.0056861249905835],[100.36674921130712,-0.9951032592956993],[100.37107689288433,-0.988019098997778]]]]}},{"type":"Feature","properties":{"code":"1371011011","desa":"Air Manis","kecamatan":"Padang Selatan","kecCode":"137101","kabCode":"1371","province":"Sumatera Barat"},"geometry":{"type":"MultiPolygon","coordinates":[[[[100.1731990001338,-1.0401719984764088],[100.17110899998043,-1.0375579984432919],[100.17180399965491,-1.034727999241312],[100.17654599979812,-1.0389039984596156],[100.1731990001338,-1.0401719984764088]]],[[[100.33732091722663,-0.9907646347726393],[100.34168914743627,-0.9940909419322436],[100.3377011317019,-0.9962992047308599],[100.33732091722663,-0.9907646347726393]]],[[[100.35467736956502,-0.9898587647637463],[100.3537980601324,-0.9916572811501425],[100.35229218313782,-0.9918732470440282],[100.35467736956502,-0.9898587647637463]]],[[[100.36613684044289,-0.976950699223401],[100.37283157361826,-0.9855258716200842],[100.36679517655618,-0.994990746913298],[100.3646732630607,-1.0054288505372304],[100.36317284405158,-1.0013597078649383],[100.36522302762069,-0.993518536940447],[100.3573380174356,-0.989516249868954],[100.36004214392982,-0.9788850123392658],[100.35831456336648,-0.9752989387048648],[100.36613684044289,-0.976950699223401]]],[[[100.2082511470728,-0.9851013160717247],[100.20663846479339,-0.9834806577068554],[100.20778686936859,-0.9812372386108404],[100.21051974089339,-0.9834145692277204],[100.2082511470728,-0.9851013160717247]]],[[[100.23121338758786,-0.9563470953730924],[100.22981608664314,-0.9562336908632013],[100.23069495900522,-0.9553833216150553],[100.23121338758786,-0.9563470953730924]]],[[[100.2360116861904,-0.9547305235275518],[100.23539426383428,-0.9541729537522158],[100.23566517380878,-0.9539492959568641],[100.2360116861904,-0.9547305235275518]]],[[[100.13909341213132,-0.9513540332984809],[100.13798863097058,-0.9488232439369054],[100.1411891121878,-0.947609518005575],[100.14179307079365,-0.9502624748710196],[100.13909341213132,-0.9513540332984809]]]]}},{"type":"Feature","properties":{"code":"1371011012","desa":"Bukit Gado-Gado","kecamatan":"Padang Selatan","kecCode":"137101","kabCode":"1371","province":"Sumatera Barat"},"geometry":{"type":"Polygon","coordinates":[[[100.35063327930247,-0.9679831247394034],[100.37043850373402,-0.9681009656049249],[100.37180286880742,-0.9689044100274488],[100.36581609273856,-0.9765855888621913],[100.35453331436103,-0.9739471254707343],[100.35063327930247,-0.9679831247394034]]]}},{"type":"Feature","properties":{"code":"1371021001","desa":"Sawahan","kecamatan":"Padang Timur","kecCode":"137102","kabCode":"1371","province":"Sumatera Barat"},"geometry":{"type":"Polygon","coordinates":[[[100.36785423438545,-0.9506397044960755],[100.36371945289049,-0.9513598258318413],[100.36313015593201,-0.9433089312076937],[100.36636343902153,-0.9428205300894567],[100.36649930320031,-0.9465823312514272],[100.37159219182627,-0.9448547551865808],[100.36785423438545,-0.9506397044960755]]]}},{"type":"Feature","properties":{"code":"1371021002","desa":"Jati Baru","kecamatan":"Padang Timur","kecCode":"137102","kabCode":"1371","province":"Sumatera Barat"},"geometry":{"type":"Polygon","coordinates":[[[100.36636343902153,-0.9428205300894567],[100.36211156579616,-0.9442029949167988],[100.36126018570906,-0.931199347630762],[100.36645924559777,-0.9302935315812567],[100.36636343902153,-0.9428205300894567]]]}},{"type":"Feature","properties":{"code":"1371021003","desa":"Jati","kecamatan":"Padang Timur","kecCode":"137102","kabCode":"1371","province":"Sumatera Barat"},"geometry":{"type":"Polygon","coordinates":[[[100.36639188277921,-0.9432235001099906],[100.36645924559777,-0.9302935315812567],[100.36974113974183,-0.9290876954021404],[100.37396389022142,-0.9362770853724601],[100.36639188277921,-0.9432235001099906]]]}},{"type":"Feature","properties":{"code":"1371021004","desa":"Sawahan Timur","kecamatan":"Padang Timur","kecCode":"137102","kabCode":"1371","province":"Sumatera Barat"},"geometry":{"type":"Polygon","coordinates":[[[100.37172752180777,-0.9467949084997838],[100.37159219182627,-0.9448547551865808],[100.36649930320031,-0.9465823312514272],[100.36639188277921,-0.9432235001099906],[100.37396389022142,-0.9362770853724601],[100.37901895965734,-0.9429112285162904],[100.37172752180777,-0.9467949084997838]]]}},{"type":"Feature","properties":{"code":"1371021005","desa":"Simpang Haru","kecamatan":"Padang Timur","kecCode":"137102","kabCode":"1371","province":"Sumatera Barat"},"geometry":{"type":"Polygon","coordinates":[[[100.3742926014225,-0.9457185090447743],[100.37901895965734,-0.9429112285162904],[100.38281765101384,-0.9465765405167581],[100.38083476461274,-0.9490944434928028],[100.37565040234425,-0.9484561092018154],[100.3742926014225,-0.9457185090447743]]]}},{"type":"Feature","properties":{"code":"1371021006","desa":"Kubu Marapalam","kecamatan":"Padang Timur","kecCode":"137102","kabCode":"1371","province":"Sumatera Barat"},"geometry":{"type":"Polygon","coordinates":[[[100.38083476461274,-0.9490944434928028],[100.38281765101384,-0.9465765405167581],[100.39065620671863,-0.9516459667242155],[100.39210072297003,-0.9559590487025204],[100.38861378789606,-0.9560531573585727],[100.38083476461274,-0.9490944434928028]]]}},{"type":"Feature","properties":{"code":"1371021007","desa":"Andalas","kecamatan":"Padang Timur","kecCode":"137102","kabCode":"1371","province":"Sumatera Barat"},"geometry":{"type":"Polygon","coordinates":[[[100.38199588560171,-0.9457998158515432],[100.37444309397368,-0.9373354848968831],[100.37922998287745,-0.9352143718003285],[100.38469765407352,-0.9380955891913695],[100.38834166923272,-0.9373637595819455],[100.39026640906758,-0.9400185591582989],[100.38372177543965,-0.9427473198790303],[100.38199588560171,-0.9457998158515432]]]}},{"type":"Feature","properties":{"code":"1371021008","desa":"Kubu Dalam Parak Karakah","kecamatan":"Padang Timur","kecCode":"137102","kabCode":"1371","province":"Sumatera Barat"},"geometry":{"type":"Polygon","coordinates":[[[100.38281765101384,-0.9465765405167581],[100.38372177543965,-0.9427473198790303],[100.39025890782237,-0.9400546552472795],[100.39210855606505,-0.94324558925805],[100.39672363758585,-0.9439064371771543],[100.40113518903779,-0.9507602810992628],[100.39222792038225,-0.9535205261853945],[100.38281765101384,-0.9465765405167581]]]}},{"type":"Feature","properties":{"code":"1371021009","desa":"Parak Gadang Timur","kecamatan":"Padang Timur","kecCode":"137102","kabCode":"1371","province":"Sumatera Barat"},"geometry":{"type":"Polygon","coordinates":[[[100.37911603607625,-0.9601652228733873],[100.37644013840173,-0.9551907758658117],[100.37936327589455,-0.9508406580070615],[100.384870144042,-0.9515767818792508],[100.387510150673,-0.9548428695354522],[100.38497948181771,-0.961687387487949],[100.38257929829604,-0.9584315152308553],[100.37911603607625,-0.9601652228733873]]]}},{"type":"Feature","properties":{"code":"1371021010","desa":"Ganting Parak Gadang","kecamatan":"Padang Timur","kecCode":"137102","kabCode":"1371","province":"Sumatera Barat"},"geometry":{"type":"Polygon","coordinates":[[[100.36762710071018,-0.9543246639852764],[100.3695080552526,-0.9482154632130438],[100.3742926014225,-0.9457185090447743],[100.37565040234425,-0.9484561092018154],[100.38213150156757,-0.9504872361345106],[100.37903281461273,-0.9509974116381313],[100.37648088488497,-0.9551497919615753],[100.3748826214359,-0.9522888569806405],[100.3714924543134,-0.9526383659029225],[100.37161389156789,-0.9589589199462565],[100.36762710071018,-0.9543246639852764]]]}},{"type":"Feature","properties":{"code":"1371031001","desa":"Flamboyan Baru","kecamatan":"Padang Barat","kecCode":"137103","kabCode":"1371","province":"Sumatera Barat"},"geometry":{"type":"Polygon","coordinates":[[[100.36129885565771,-0.9233520972891738],[100.36130681016124,-0.9261024291484459],[100.34967853383735,-0.9271986172858135],[100.3495451697738,-0.9232853271239626],[100.36129885565771,-0.9233520972891738]]]}},{"type":"Feature","properties":{"code":"1371031002","desa":"Rimbo Kaluang","kecamatan":"Padang Barat","kecCode":"137103","kabCode":"1371","province":"Sumatera Barat"},"geometry":{"type":"Polygon","coordinates":[[[100.34967853383735,-0.9271986172858135],[100.36130681016124,-0.9261024291484459],[100.3612599986501,-0.931163000631004],[100.35028163628856,-0.9311235770505005],[100.34967853383735,-0.9271986172858135]]]}},{"type":"Feature","properties":{"code":"1371031003","desa":"Ujung Gurun","kecamatan":"Padang Barat","kecCode":"137103","kabCode":"1371","province":"Sumatera Barat"},"geometry":{"type":"Polygon","coordinates":[[[100.36126018570906,-0.931199347630762],[100.3612757017123,-0.936554942609538],[100.35762590661034,-0.9368323978496056],[100.35823939623121,-0.9344811671274774],[100.35445964999292,-0.9346698988518837],[100.35331550910354,-0.9316094186982394],[100.36126018570906,-0.931199347630762]]]}},{"type":"Feature","properties":{"code":"1371031004","desa":"Purus","kecamatan":"Padang Barat","kecCode":"137103","kabCode":"1371","province":"Sumatera Barat"},"geometry":{"type":"Polygon","coordinates":[[[100.34880215259733,-0.9308028383397772],[100.35437463977786,-0.9333851471633293],[100.35447658242839,-0.943083259830279],[100.35094428105377,-0.943339035113802],[100.34880215259733,-0.9308028383397772]]]}},{"type":"Feature","properties":{"code":"1371031005","desa":"Padang Pasir","kecamatan":"Padang Barat","kecCode":"137103","kabCode":"1371","province":"Sumatera Barat"},"geometry":{"type":"Polygon","coordinates":[[[100.3612757017123,-0.936554942609538],[100.36184274584609,-0.9426668665288381],[100.35447658242839,-0.943083259830279],[100.35445964999292,-0.9346698988518837],[100.3612757017123,-0.936554942609538]]]}},{"type":"Feature","properties":{"code":"1371031006","desa":"Olo","kecamatan":"Padang Barat","kecCode":"137103","kabCode":"1371","province":"Sumatera Barat"},"geometry":{"type":"Polygon","coordinates":[[[100.35094428105377,-0.943339035113802],[100.35600580222602,-0.943033828594075],[100.35719536157671,-0.9516401957745664],[100.35173831766929,-0.9515517159752139],[100.35094428105377,-0.943339035113802]]]}},{"type":"Feature","properties":{"code":"1371031007","desa":"Kampung Jawa","kecamatan":"Padang Barat","kecCode":"137103","kabCode":"1371","province":"Sumatera Barat"},"geometry":{"type":"Polygon","coordinates":[[[100.36184274584609,-0.9426668665288381],[100.36344643940173,-0.9514476329383019],[100.35953650910267,-0.9514394230273517],[100.35719536157671,-0.9516401957745664],[100.35600580222602,-0.943033828594075],[100.36184274584609,-0.9426668665288381]]]}},{"type":"Feature","properties":{"code":"1371031008","desa":"Belakang Tangsi","kecamatan":"Padang Barat","kecCode":"137103","kabCode":"1371","province":"Sumatera Barat"},"geometry":{"type":"Polygon","coordinates":[[[100.36018253979246,-0.95150229283289],[100.35808074143313,-0.9598269275976543],[100.35296258635434,-0.9603449272031028],[100.35225036376333,-0.9521200659239512],[100.36018253979246,-0.95150229283289]]]}},{"type":"Feature","properties":{"code":"1371031009","desa":"Kampung Pondok","kecamatan":"Padang Barat","kecCode":"137103","kabCode":"1371","province":"Sumatera Barat"},"geometry":{"type":"Polygon","coordinates":[[[100.36025127317775,-0.9517671090009249],[100.36334505792814,-0.9612936589006881],[100.35892196367774,-0.9652237223179868],[100.3578102469454,-0.9558416556993645],[100.36025127317775,-0.9517671090009249]]]}},{"type":"Feature","properties":{"code":"1371031010","desa":"Berok Nipah","kecamatan":"Padang Barat","kecCode":"137103","kabCode":"1371","province":"Sumatera Barat"},"geometry":{"type":"Polygon","coordinates":[[[100.35892196367774,-0.9652237223179868],[100.35390352542743,-0.9665537224958353],[100.35097598755185,-0.9645908882806281],[100.35296258635434,-0.9603449272031028],[100.35807343084423,-0.9598287505234776],[100.35892196367774,-0.9652237223179868]]]}},{"type":"Feature","properties":{"code":"1371041001","desa":"Air Tawar Timur","kecamatan":"Padang Utara","kecCode":"137104","kabCode":"1371","province":"Sumatera Barat"},"geometry":{"type":"Polygon","coordinates":[[[100.35857545399409,-0.8905519571114989],[100.35621591892959,-0.8997644727462935],[100.35072883586712,-0.9035602080270064],[100.35227712399012,-0.8924542948320536],[100.35857545399409,-0.8905519571114989]]]}},{"type":"Feature","properties":{"code":"1371041002","desa":"Air Tawar Barat","kecamatan":"Padang Utara","kecCode":"137104","kabCode":"1371","province":"Sumatera Barat"},"geometry":{"type":"Polygon","coordinates":[[[100.35195640056747,-0.8896616894407484],[100.35072883586712,-0.9035602080270064],[100.34435245460215,-0.9045005049830611],[100.3437484294465,-0.8914730031798468],[100.35195640056747,-0.8896616894407484]]]}},{"type":"Feature","properties":{"code":"1371041003","desa":"Ulak Karang Utara","kecamatan":"Padang Utara","kecCode":"137104","kabCode":"1371","province":"Sumatera Barat"},"geometry":{"type":"Polygon","coordinates":[[[100.35072883586712,-0.9035602080270064],[100.35473092958881,-0.9070385078067886],[100.34984144242867,-0.9113626838219172],[100.34468650417885,-0.9117021095454727],[100.34207353566518,-0.9059383023979212],[100.35072883586712,-0.9035602080270064]]]}},{"type":"Feature","properties":{"code":"1371041004","desa":"Ulak Karang Selatan","kecamatan":"Padang Utara","kecCode":"137104","kabCode":"1371","province":"Sumatera Barat"},"geometry":{"type":"Polygon","coordinates":[[[100.34524668198883,-0.9119823805628481],[100.34984144242867,-0.9113626838219172],[100.35473092958881,-0.9070385078067886],[100.36020633405514,-0.9159018517651034],[100.35722945667413,-0.9130050644114924],[100.35631604764757,-0.9159498692670984],[100.34818906227548,-0.9186651752306307],[100.34524668198883,-0.9119823805628481]]]}},{"type":"Feature","properties":{"code":"1371041005","desa":"Lolong Belanti","kecamatan":"Padang Utara","kecCode":"137104","kabCode":"1371","province":"Sumatera Barat"},"geometry":{"type":"Polygon","coordinates":[[[100.36129885565771,-0.9233520972891738],[100.34950949816488,-0.9233116107100869],[100.34791910917959,-0.918937578978742],[100.35631604764757,-0.9159498692670984],[100.35722945667413,-0.9130050644114924],[100.36215749237441,-0.9192387178648734],[100.36129885565771,-0.9233520972891738]]]}},{"type":"Feature","properties":{"code":"1371041006","desa":"Alai Parak Kopi","kecamatan":"Padang Utara","kecCode":"137104","kabCode":"1371","province":"Sumatera Barat"},"geometry":{"type":"Polygon","coordinates":[[[100.37062729031724,-0.9295085646294698],[100.36126018570906,-0.931199347630762],[100.36133187426663,-0.9233510855519013],[100.36674091955784,-0.9226460989069111],[100.37313105775216,-0.9173171202633652],[100.37150971590073,-0.9196466395526991],[100.37420648234337,-0.9283886775575808],[100.37856990837463,-0.9285494097893482],[100.37973994074571,-0.9313628263921621],[100.37444309397368,-0.9373354848968831],[100.37062729031724,-0.9295085646294698]]]}},{"type":"Feature","properties":{"code":"1371041007","desa":"Gunung Pangilun","kecamatan":"Padang Utara","kecCode":"137104","kabCode":"1371","province":"Sumatera Barat"},"geometry":{"type":"Polygon","coordinates":[[[100.36133187426663,-0.9233510855519013],[100.36215749237441,-0.9192387178648734],[100.3563958606805,-0.9096674635656433],[100.36032113161495,-0.908201302432853],[100.36505527797873,-0.9105578850203966],[100.36982741440369,-0.9083593735706983],[100.36839454707074,-0.9159631522536494],[100.37020084079619,-0.9183497677009627],[100.36674091955784,-0.9226460989069111],[100.36133187426663,-0.9233510855519013]]]}},{"type":"Feature","properties":{"code":"1371051001","desa":"Bungus Timur","kecamatan":"Bungus Teluk Kabung","kecCode":"137105","kabCode":"1371","province":"Sumatera Barat"},"geometry":{"type":"Polygon","coordinates":[[[100.48401730955123,-1.0018610448315712],[100.47722361138064,-1.0046619428714276],[100.46389111078622,-1.0207719429299043],[100.46434584038826,-1.0229021481723133],[100.4506582415846,-1.027254786830805],[100.4436830997953,-1.031959462405871],[100.43812222556033,-1.0284970635391164],[100.43034067158476,-1.032514868412442],[100.41551183220537,-1.0259381280954503],[100.4150164145759,-1.0209519494317993],[100.41881748823653,-1.0187434024474205],[100.41697884140046,-1.01335271142588],[100.41899855324073,-1.013783519061029],[100.41950323838381,-1.011160746141277],[100.41671428873349,-1.0009381578509253],[100.41112327731747,-0.9988973892865872],[100.41816433671482,-0.99362708061467],[100.42205223002644,-0.9851392395830206],[100.42432780798201,-0.983253685909842],[100.42860054188155,-0.9829497159578946],[100.42596668931132,-0.9833472756570244],[100.43400051121465,-0.9855093996374354],[100.44822472469133,-0.9944204058654856],[100.47450232582172,-0.9890009347398586],[100.48150580794675,-0.9941251935116568],[100.48401730955123,-1.0018610448315712]]]}},{"type":"Feature","properties":{"code":"1371051002","desa":"Bungus Barat","kecamatan":"Bungus Teluk Kabung","kecCode":"137105","kabCode":"1371","province":"Sumatera Barat"},"geometry":{"type":"Polygon","coordinates":[[[100.41112327731747,-0.9988973892865872],[100.41671428873349,-1.0009381578509253],[100.41950323838381,-1.011160746141277],[100.41899855324073,-1.013783519061029],[100.41697884140046,-1.01335271142588],[100.41881748823653,-1.0187434024474205],[100.4150164145759,-1.0209519494317993],[100.41621363525115,-1.0284607174386708],[100.41269631658177,-1.029975759422575],[100.41345437941611,-1.0327111904148563],[100.41045982136369,-1.0304561997421102],[100.40854005477979,-1.0335954128427902],[100.40391519493032,-1.0324493204258565],[100.40214885628471,-1.0346188871955027],[100.39859526885662,-1.0291421994027574],[100.39598754608846,-1.029598360724973],[100.38524344992533,-1.0431245797696957],[100.37973192598764,-1.0432729939874863],[100.41112327731747,-0.9988973892865872]]]}},{"type":"Feature","properties":{"code":"1371051003","desa":"Bungus Selatan","kecamatan":"Bungus Teluk Kabung","kecCode":"137105","kabCode":"1371","province":"Sumatera Barat"},"geometry":{"type":"MultiPolygon","coordinates":[[[[100.3972148050193,-1.0419308889348733],[100.39667069179905,-1.0418424945710723],[100.39722727771674,-1.041687133090489],[100.3972148050193,-1.0419308889348733]]],[[[100.41566382482573,-1.0260015392928807],[100.42547453981818,-1.0317181527174482],[100.43077070040755,-1.032509067785274],[100.43812222556033,-1.0284970635391164],[100.4436830997953,-1.031959462405871],[100.44158038862412,-1.0370679326798704],[100.43083245325515,-1.0383707274666183],[100.42100455401702,-1.0453175900664307],[100.41380922131856,-1.047387833011507],[100.41062874911755,-1.0386030745114765],[100.40130926001439,-1.0351160477105428],[100.40391519493032,-1.0324493204258565],[100.40854005477979,-1.0335954128427902],[100.41045982136369,-1.0304561997421102],[100.4130758583642,-1.0330859091327664],[100.41566382482573,-1.0260015392928807]]]]}},{"type":"Feature","properties":{"code":"1371051004","desa":"Teluk Kabung Utara","kecamatan":"Bungus Teluk Kabung","kecCode":"137105","kabCode":"1371","province":"Sumatera Barat"},"geometry":{"type":"Polygon","coordinates":[[[100.46016469974114,-1.0291811679262546],[100.45957904593627,-1.033415506165698],[100.44889194430782,-1.043826388210614],[100.44479664395003,-1.0545332218521235],[100.43565059090213,-1.0584593327490817],[100.43372467565331,-1.0669214594654033],[100.41972619920477,-1.0695407124386438],[100.41179891638694,-1.0674557610815056],[100.41464617178347,-1.0606427355883834],[100.41377624767573,-1.0570101777961847],[100.41013619133224,-1.0523954829889726],[100.40545050673556,-1.0531500555536115],[100.41230188112695,-1.046787184810802],[100.42076002385606,-1.0454286536410498],[100.4314099097396,-1.0381642925877494],[100.44105630420512,-1.037324348280676],[100.44573320242539,-1.0296338677579662],[100.46496757319501,-1.0224159027289412],[100.46549795466694,-1.02708019065033],[100.46016469974114,-1.0291811679262546]]]}},{"type":"Feature","properties":{"code":"1371051005","desa":"Teluk Kabung Tengah","kecamatan":"Bungus Teluk Kabung","kecCode":"137105","kabCode":"1371","province":"Sumatera Barat"},"geometry":{"type":"MultiPolygon","coordinates":[[[[100.42184971709081,-1.1039367805243756],[100.42973168217144,-1.1078628914213096],[100.43267626489778,-1.112770529592796],[100.43194852810217,-1.1158219427815796],[100.41703130874792,-1.1268390937899895],[100.4033791513268,-1.1285642030144618],[100.39678397220263,-1.1338208599777846],[100.3906136292157,-1.1334393873513828],[100.39761846032377,-1.120349165929356],[100.42073930077817,-1.1085180574237012],[100.42184971709081,-1.1039367805243756]]],[[[100.43356856323868,-1.0675905145974514],[100.42783766677495,-1.0703802205744801],[100.42843249995997,-1.0726963876294107],[100.42533780599501,-1.0724078599362954],[100.42406011128514,-1.0801296377655307],[100.42614333324826,-1.0851293314408093],[100.42101690620528,-1.0916230706283336],[100.42408046204376,-1.0986424806382578],[100.42121758991988,-1.1016336590350997],[100.41495657458631,-1.09426021741226],[100.39772877206524,-1.0858473240813094],[100.37029061741809,-1.0932077183398352],[100.36617358404374,-1.0907752221797875],[100.3644237038909,-1.0756826143590128],[100.36872884755832,-1.0768588889231023],[100.3693242796918,-1.073928278067396],[100.36971603876424,-1.0762018442370263],[100.37090928263733,-1.0736686401956974],[100.37371369792884,-1.0739840908928646],[100.3776181864302,-1.0643497680378222],[100.38150863291712,-1.063570178132591],[100.38155467280995,-1.0660664766951438],[100.38786324789065,-1.0675107591211972],[100.38959855542907,-1.0772125787936104],[100.39745472885272,-1.066156582468787],[100.3974870360979,-1.07103571662808],[100.40158839608767,-1.072248742886862],[100.40401427144155,-1.0702471856629767],[100.40777212728193,-1.0750537625196888],[100.41297053696076,-1.0708638076218198],[100.41088666478781,-1.0673731529557342],[100.41972619920477,-1.0695407124386438],[100.42331293564354,-1.0673580479426914],[100.43356856323868,-1.0675905145974514]]]]}},{"type":"Feature","properties":{"code":"1371051006","desa":"Teluk Kabung Selatan","kecamatan":"Bungus Teluk Kabung","kecCode":"137105","kabCode":"1371","province":"Sumatera Barat"},"geometry":{"type":"MultiPolygon","coordinates":[[[[100.17426280098755,-1.1358025979424016],[100.17226762265271,-1.1370268297539088],[100.17196067234721,-1.1369054779351238],[100.17426280098755,-1.1358025979424016]]],[[[100.17153236932347,-1.1349602677339967],[100.17082566856982,-1.1361952086723692],[100.17090419197496,-1.136587819402345],[100.17075071637252,-1.1361452396416039],[100.17153236932347,-1.1349602677339967]]],[[[100.3513427742497,-1.1332757817855954],[100.349178330016,-1.1318014709964204],[100.35122550895017,-1.1244065661536793],[100.35578615720544,-1.1234767741783984],[100.3513427742497,-1.1332757817855954]]],[[[100.33823385590777,-1.123503922912235],[100.33798154301387,-1.1230782908754702],[100.33871703916007,-1.123023421438874],[100.33823385590777,-1.123503922912235]]],[[[100.3424237136835,-1.1232580140908996],[100.33911963326454,-1.1228512219515945],[100.34118353329347,-1.1198068711388385],[100.3424237136835,-1.1232580140908996]]],[[[100.38227491285699,-1.1209517278873404],[100.37988343567207,-1.1195364360066926],[100.38028360880155,-1.1185516109181535],[100.38144415692237,-1.1185340939234514],[100.38227491285699,-1.1209517278873404]]],[[[100.35650889287115,-1.119335289141497],[100.3559235529297,-1.1193201409610272],[100.3566265116043,-1.1191820716446874],[100.35650889287115,-1.119335289141497]]],[[[100.3674060986126,-1.116460379595249],[100.36979384540967,-1.1202474337202486],[100.36464667010777,-1.1172129574636114],[100.3674060986126,-1.116460379595249]]],[[[100.42129121921447,-1.1032606351373528],[100.42073930077817,-1.1085180574237012],[100.39761846032377,-1.120349165929356],[100.3906136292157,-1.1334393873513828],[100.38156266688361,-1.135487416142575],[100.37286256425597,-1.1320739080194913],[100.3657198122196,-1.1346094035333496],[100.36422327018782,-1.1319337378868324],[100.36023552155211,-1.1332125027884932],[100.36360247627334,-1.124812064168523],[100.37358157133251,-1.1250917605191835],[100.37448116677251,-1.1199402208131035],[100.38074911587903,-1.1243722920911707],[100.38267515433495,-1.1290685221329682],[100.38812215191585,-1.1258616116660474],[100.38485989536791,-1.1215899164881225],[100.38558975456357,-1.115563842750557],[100.3827544853313,-1.111097431759473],[100.37174227428659,-1.102481026346292],[100.37308801709838,-1.097158818698435],[100.37011850876223,-1.0930795469620098],[100.39772877206524,-1.0858473240813094],[100.41495657458631,-1.09426021741226],[100.42129121921447,-1.1032606351373528]]],[[[100.29670957508687,-1.0770243398977193],[100.29635084991185,-1.0753805113996648],[100.29754620179585,-1.074118680732112],[100.29804150611068,-1.075790318965794],[100.29670957508687,-1.0770243398977193]]]]}},{"type":"Feature","properties":{"code":"1371061001","desa":"Cangkeh Nan Xx","kecamatan":"Lubuk Begalung","kecCode":"137106","kabCode":"1371","province":"Sumatera Barat"},"geometry":{"type":"Polygon","coordinates":[[[100.42141377972222,-0.9507219510943447],[100.41708547941143,-0.9547660161713768],[100.41252853906086,-0.955261677516559],[100.41523671790026,-0.9491993548052546],[100.41830980925035,-0.9481290455590814],[100.42141377972222,-0.9507219510943447]]]}},{"type":"Feature","properties":{"code":"1371061002","desa":"Kampung Baru Nan Xx","kecamatan":"Lubuk Begalung","kecCode":"137106","kabCode":"1371","province":"Sumatera Barat"},"geometry":{"type":"Polygon","coordinates":[[[100.41252853906086,-0.955261677516559],[100.4196587734337,-0.9523620069364341],[100.42088719878524,-0.9574215828695212],[100.42428683666822,-0.9589264058570037],[100.4151995696045,-0.9612629263683931],[100.41025943622408,-0.9593550767029981],[100.41252853906086,-0.955261677516559]]]}},{"type":"Feature","properties":{"code":"1371061003","desa":"Tanah Sirah Piai Nan Xx","kecamatan":"Lubuk Begalung","kecCode":"137106","kabCode":"1371","province":"Sumatera Barat"},"geometry":{"type":"Polygon","coordinates":[[[100.4174022862865,-0.9487721012908022],[100.41073981988681,-0.9573071612263888],[100.40482562540232,-0.945576408067729],[100.41059135170957,-0.9424460640810275],[100.4155445099712,-0.9443759885053746],[100.4174022862865,-0.9487721012908022]]]}},{"type":"Feature","properties":{"code":"1371061004","desa":"Tanjung Saba Pitameh Nan XX","kecamatan":"Lubuk Begalung","kecCode":"137106","kabCode":"1371","province":"Sumatera Barat"},"geometry":{"type":"Polygon","coordinates":[[[100.40467117943142,-0.9611533637623326],[100.40070849759915,-0.9488003777745968],[100.40569743538838,-0.9473294421410425],[100.41091510944482,-0.9603583630744565],[100.40467117943142,-0.9611533637623326]]]}},{"type":"Feature","properties":{"code":"1371061005","desa":"Lubuk Begalung Nan Xx","kecamatan":"Lubuk Begalung","kecCode":"137106","kabCode":"1371","province":"Sumatera Barat"},"geometry":{"type":"Polygon","coordinates":[[[100.39710518395712,-0.9625981731911393],[100.39085561609386,-0.9537880511114798],[100.39608050091442,-0.953637505500491],[100.39994015191655,-0.9507714057129454],[100.40408484663838,-0.9594005859957337],[100.39710518395712,-0.9625981731911393]]]}},{"type":"Feature","properties":{"code":"1371061006","desa":"Gurun Laweh Nan Xx","kecamatan":"Lubuk Begalung","kecCode":"137106","kabCode":"1371","province":"Sumatera Barat"},"geometry":{"type":"Polygon","coordinates":[[[100.387510150673,-0.9548428695354522],[100.39210072297003,-0.9559590487025204],[100.39564784427267,-0.9616078685333842],[100.38497948181771,-0.961687387487949],[100.387510150673,-0.9548428695354522]]]}},{"type":"Feature","properties":{"code":"1371061007","desa":"Tanjung Aua Nan Xx","kecamatan":"Lubuk Begalung","kecCode":"137106","kabCode":"1371","province":"Sumatera Barat"},"geometry":{"type":"Polygon","coordinates":[[[100.37924342774203,-0.960763203684896],[100.38185705455948,-0.9582556537042153],[100.38370384655529,-0.9593066706938962],[100.38327992143127,-0.9617740803344249],[100.37924342774203,-0.960763203684896]]]}},{"type":"Feature","properties":{"code":"1371061008","desa":"Koto Baru Nan Xx","kecamatan":"Lubuk Begalung","kecCode":"137106","kabCode":"1371","province":"Sumatera Barat"},"geometry":{"type":"Polygon","coordinates":[[[100.38513165070513,-0.9733382349835306],[100.3794386426793,-0.9721040701600443],[100.37924342774203,-0.960763203684896],[100.38641923256161,-0.9626011157728612],[100.38413265499808,-0.9656482059205512],[100.38513165070513,-0.9733382349835306]]]}},{"type":"Feature","properties":{"code":"1371061009","desa":"Banuaran Nan Xx","kecamatan":"Lubuk Begalung","kecCode":"137106","kabCode":"1371","province":"Sumatera Barat"},"geometry":{"type":"Polygon","coordinates":[[[100.38641923256161,-0.9626011157728612],[100.39149334424252,-0.9637159981175015],[100.39098482169219,-0.9748969516432524],[100.38513165070513,-0.9733382349835306],[100.38413265499808,-0.9656482059205512],[100.38641923256161,-0.9626011157728612]]]}},{"type":"Feature","properties":{"code":"1371061010","desa":"Parak Laweh Pulau Aia Nan Xx","kecamatan":"Lubuk Begalung","kecCode":"137106","kabCode":"1371","province":"Sumatera Barat"},"geometry":{"type":"Polygon","coordinates":[[[100.39564784427267,-0.9616078685333842],[100.39706287894877,-0.9689519823649811],[100.39524786899403,-0.9707967319983981],[100.39863915127584,-0.9746491551448977],[100.39528265027415,-0.9775391706035451],[100.39095562789998,-0.9754332911231538],[100.3905753918409,-0.9621802807198095],[100.39564784427267,-0.9616078685333842]]]}},{"type":"Feature","properties":{"code":"1371061011","desa":"Batung Taba Nan Xx","kecamatan":"Lubuk Begalung","kecCode":"137106","kabCode":"1371","province":"Sumatera Barat"},"geometry":{"type":"Polygon","coordinates":[[[100.40408484663838,-0.9594005859957337],[100.40467117943142,-0.9611533637623326],[100.41053793287936,-0.9604095201096392],[100.40878312174372,-0.9657310613598402],[100.40024993598581,-0.9720279875150654],[100.39642670572795,-0.9721501217440213],[100.39710518395712,-0.9625981731911393],[100.40408484663838,-0.9594005859957337]]]}},{"type":"Feature","properties":{"code":"1371061012","desa":"Pegambiran Ampalu Nan XX","kecamatan":"Lubuk Begalung","kecCode":"137106","kabCode":"1371","province":"Sumatera Barat"},"geometry":{"type":"Polygon","coordinates":[[[100.42432780798201,-0.983253685909842],[100.42035269931768,-0.9868290459207117],[100.41816433671482,-0.99362708061467],[100.41112327731747,-0.9988973892865872],[100.39949799843396,-0.9930789663112498],[100.39330048782733,-0.9859966028588438],[100.39190673290942,-0.9807936237304182],[100.39863915127584,-0.9746491551448977],[100.39730638837919,-0.9726693507226658],[100.40899138584382,-0.9657168673600052],[100.41316649383867,-0.9708963067338708],[100.41638771162366,-0.9715046971980463],[100.42432780798201,-0.983253685909842]]]}},{"type":"Feature","properties":{"code":"1371061013","desa":"Pampangan Nan Xx","kecamatan":"Lubuk Begalung","kecCode":"137106","kabCode":"1371","province":"Sumatera Barat"},"geometry":{"type":"Polygon","coordinates":[[[100.38604182576971,-0.9836324695633046],[100.38513165070513,-0.9733382349835306],[100.38574750284504,-0.9731512470446273],[100.3942537763907,-0.9762001888963789],[100.39257117002352,-0.9843216488247647],[100.39847391074244,-0.993288379744656],[100.39014826782834,-0.9956744133306155],[100.38590097574951,-0.9899575579883492],[100.38238944601619,-0.989808290313961],[100.38604182576971,-0.9836324695633046]]]}},{"type":"Feature","properties":{"code":"1371061014","desa":"Gates Nan Xx","kecamatan":"Lubuk Begalung","kecCode":"137106","kabCode":"1371","province":"Sumatera Barat"},"geometry":{"type":"Polygon","coordinates":[[[100.37913188572799,-0.9933826484800438],[100.38527631924677,-0.9896436739102277],[100.3897318277617,-0.995579368480248],[100.39917380182955,-0.9926218130367293],[100.41112327731747,-0.9988973892865872],[100.37943759676772,-1.0425563188537963],[100.37751998136213,-1.0385122942462883],[100.38625612971668,-1.026912229667871],[100.39162626134294,-1.0095223189714555],[100.38916318013672,-1.0074095740665578],[100.38594993034506,-1.008438503706802],[100.38756250740386,-1.0027812958992086],[100.38518020869975,-0.9955769771829084],[100.38243211435065,-0.9933550779641056],[100.37954606939564,-0.9957784028379496],[100.37913188572799,-0.9933826484800438]]]}},{"type":"Feature","properties":{"code":"1371061015","desa":"Kampung Jua Nan Xx","kecamatan":"Lubuk Begalung","kecCode":"137106","kabCode":"1371","province":"Sumatera Barat"},"geometry":{"type":"Polygon","coordinates":[[[100.43222086440142,-0.9821973656180092],[100.42432780798201,-0.983253685909842],[100.41638771162366,-0.9715046971980463],[100.40878312174372,-0.9657310613598402],[100.41122812477818,-0.959770186671903],[100.41537516942861,-0.9612721669024084],[100.42495350859758,-0.9597420315965856],[100.4314573525748,-0.9762504636966999],[100.43222086440142,-0.9821973656180092]]]}},{"type":"Feature","properties":{"code":"1371071001","desa":"Indarung","kecamatan":"Lubuk Kilangan","kecCode":"137107","kabCode":"1371","province":"Sumatera Barat"},"geometry":{"type":"Polygon","coordinates":[[[100.53851000763079,-0.9589240136603331],[100.53188690006044,-0.9594757378425041],[100.52733618121981,-0.9642644029020099],[100.52611670682063,-0.9807430719388904],[100.52314336737253,-0.9711524579339903],[100.50689697341664,-0.9581909169061451],[100.49353206305432,-0.9560122229170505],[100.48091141992616,-0.9622266497644498],[100.4773772002976,-0.9610016400393864],[100.4764491413149,-0.9549331165026339],[100.47483853377139,-0.9577192305874248],[100.46778226863681,-0.9573612203738614],[100.4574742843108,-0.9615530998208499],[100.45984414808902,-0.9506167807771492],[100.46358281059827,-0.950482032657192],[100.46636533009598,-0.9464641810191105],[100.46561315062644,-0.9433386726870455],[100.46885640899615,-0.9413364562600998],[100.48512229126077,-0.9387778373778317],[100.49047851577097,-0.9420776352215448],[100.51629638706866,-0.9374999987778889],[100.52684772344371,-0.9203333690608168],[100.52728271472557,-0.9110107395355082],[100.53527831993857,-0.8967895495954442],[100.54528808457752,-0.8936767567777915],[100.55529785281372,-0.8956909171007511],[100.56438896537848,-0.8936029710012307],[100.56558301144692,-0.9027170279592551],[100.56235001614037,-0.9111499743732032],[100.55337099867273,-0.9274769610560882],[100.54373297060016,-0.9385390260060159],[100.53851000763079,-0.9589240136603331]]]}},{"type":"Feature","properties":{"code":"1371071002","desa":"Padang Besi","kecamatan":"Lubuk Kilangan","kecCode":"137107","kabCode":"1371","province":"Sumatera Barat"},"geometry":{"type":"Polygon","coordinates":[[[100.45984414808902,-0.9506167807771492],[100.4574742843108,-0.9615530998208499],[100.44566888291268,-0.9522305988985362],[100.44990845700976,-0.9454772380271812],[100.45984414808902,-0.9506167807771492]]]}},{"type":"Feature","properties":{"code":"1371071003","desa":"Batu Gadang","kecamatan":"Lubuk Kilangan","kecCode":"137107","kabCode":"1371","province":"Sumatera Barat"},"geometry":{"type":"Polygon","coordinates":[[[100.52314336737253,-0.9711524579339903],[100.52632490976684,-0.9847575106498478],[100.52341007031856,-0.987672350994176],[100.52418339464798,-0.9918958937717088],[100.5276372220802,-0.9938291654727114],[100.52466325310672,-1.0008168896690768],[100.51000577324787,-0.9975748750653636],[100.50682324429731,-1.0016497005536376],[100.49625027832775,-1.0054952771613865],[100.48848949689283,-1.0015307274416432],[100.48401730955123,-1.0018610448315712],[100.48150580794675,-0.9941251935116568],[100.47450232582172,-0.9890009347398586],[100.46340667477831,-0.9907991147798003],[100.46479171256753,-0.985549553467484],[100.46323130428134,-0.9808443607822556],[100.45891459443305,-0.9779503226561356],[100.45609174843548,-0.9643768469359278],[100.4625148395882,-0.95891413550701],[100.47419169009447,-0.9579423335010647],[100.4764491413149,-0.9549331165026339],[100.4773772002976,-0.9610016400393864],[100.48091141992616,-0.9622266497644498],[100.49353206305432,-0.9560122229170505],[100.50689697341664,-0.9581909169061451],[100.52314336737253,-0.9711524579339903]]]}},{"type":"Feature","properties":{"code":"1371071004","desa":"Banda Buek","kecamatan":"Lubuk Kilangan","kecCode":"137107","kabCode":"1371","province":"Sumatera Barat"},"geometry":{"type":"Polygon","coordinates":[[[100.41980012707425,-0.9525311082591849],[100.42498620165195,-0.9483709479007615],[100.44179611080195,-0.9441526094998957],[100.44740869785316,-0.9479176095503716],[100.44634464339065,-0.952119999374119],[100.4312417374163,-0.9519689960081719],[100.42175904834147,-0.9576868280141554],[100.41980012707425,-0.9525311082591849]]]}},{"type":"Feature","properties":{"code":"1371071005","desa":"Koto Lalang","kecamatan":"Lubuk Kilangan","kecCode":"137107","kabCode":"1371","province":"Sumatera Barat"},"geometry":{"type":"Polygon","coordinates":[[[100.43240682981138,-0.96148067651725],[100.42212309930163,-0.9572661035777223],[100.43631018696561,-0.9510148557878415],[100.44502594589072,-0.950698986006641],[100.45012288596246,-0.9570246149242222],[100.4481492266056,-0.9600436785996997],[100.43240682981138,-0.96148067651725]]]}},{"type":"Feature","properties":{"code":"1371071006","desa":"Baringin","kecamatan":"Lubuk Kilangan","kecCode":"137107","kabCode":"1371","province":"Sumatera Barat"},"geometry":{"type":"Polygon","coordinates":[[[100.46340667477831,-0.9907991147798003],[100.44822472469133,-0.9944204058654856],[100.4377367572456,-0.988287869484909],[100.4404460287613,-0.9700949532351134],[100.44355903472172,-0.969239386804799],[100.4417640265886,-0.9689458166130317],[100.44098996301642,-0.9618212129034491],[100.43491377185313,-0.9629807906545118],[100.43184950375166,-0.9613915555012167],[100.4481492266056,-0.9600436785996997],[100.45012288596246,-0.9570246149242222],[100.4574742843108,-0.9615530998208499],[100.45621421901103,-0.9704703293574064],[100.45891459443305,-0.9779503226561356],[100.46323130428134,-0.9808443607822556],[100.46340667477831,-0.9907991147798003]]]}},{"type":"Feature","properties":{"code":"1371071007","desa":"Tarantang","kecamatan":"Lubuk Kilangan","kecCode":"137107","kabCode":"1371","province":"Sumatera Barat"},"geometry":{"type":"Polygon","coordinates":[[[100.4377367572456,-0.988287869484909],[100.42596668931132,-0.9833472756570244],[100.43224202275121,-0.9819514891722533],[100.42427217232296,-0.9588195322238127],[100.43336886697966,-0.9627701226668058],[100.44098996301642,-0.9618212129034491],[100.4417640265886,-0.9689458166130317],[100.44355903472172,-0.969239386804799],[100.4404460287613,-0.9700949532351134],[100.4377367572456,-0.988287869484909]]]}},{"type":"Feature","properties":{"code":"1371081001","desa":"Limau Manis","kecamatan":"Pauh","kecCode":"137108","kabCode":"1371","province":"Sumatera Barat"},"geometry":{"type":"Polygon","coordinates":[[[100.55871695202575,-0.8829748424278024],[100.56438896537848,-0.8936029710012307],[100.55529785281372,-0.8956909171007511],[100.53967285262011,-0.8944091790404393],[100.53271484381504,-0.8989868145847721],[100.5206909179516,-0.898681640440627],[100.51147575560167,-0.9038609341242752],[100.48775177402518,-0.9098935828053412],[100.47132942231501,-0.9187978917821301],[100.46400542630943,-0.927910351544187],[100.46022866402171,-0.9241171847272264],[100.45312499921941,-0.9279174786714068],[100.43907518766986,-0.9387760405323439],[100.44096739273105,-0.9454111972120963],[100.43595149056887,-0.9461895955157248],[100.43448340758322,-0.9362072997804207],[100.44420987138851,-0.9312276933623276],[100.43950100406812,-0.9216949615228262],[100.45601844739348,-0.9099998457988615],[100.46740579983786,-0.8927203565611318],[100.47290039044073,-0.8743286118984156],[100.48968505831884,-0.8613891591192923],[100.517272948288,-0.8500976537332476],[100.5363606297393,-0.8495528210559692],[100.54215997720127,-0.8594529826081381],[100.55053298830683,-0.857950024814565],[100.55563598261455,-0.8599710181864259],[100.55871695202575,-0.8829748424278024]]]}},{"type":"Feature","properties":{"code":"1371081002","desa":"Koto Lua","kecamatan":"Pauh","kecCode":"137108","kabCode":"1371","province":"Sumatera Barat"},"geometry":{"type":"Polygon","coordinates":[[[100.45241730831219,-0.9387232386371458],[100.44740869785316,-0.9479176095503716],[100.44506928601879,-0.9467374598075581],[100.43907518766986,-0.9387760405323439],[100.46022866402171,-0.9241171847272264],[100.46400542630943,-0.927910351544187],[100.46279252775304,-0.9313502223936795],[100.45740359040342,-0.9392469984002675],[100.45241730831219,-0.9387232386371458]]]}},{"type":"Feature","properties":{"code":"1371081003","desa":"Limau Manis Selatan","kecamatan":"Pauh","kecCode":"137108","kabCode":"1371","province":"Sumatera Barat"},"geometry":{"type":"Polygon","coordinates":[[[100.53271484381504,-0.8989868145847721],[100.52728271472557,-0.9110107395355082],[100.52684772344371,-0.9203333690608168],[100.51629638706866,-0.9374999987778889],[100.49047851577097,-0.9420776352215448],[100.48512229126077,-0.9387778373778317],[100.46885640899615,-0.9413364562600998],[100.46561315062644,-0.9433386726870455],[100.46636533009598,-0.9464641810191105],[100.46316415999802,-0.9505698145826464],[100.45660719756414,-0.9503188102026069],[100.44944593927873,-0.9456573173741197],[100.45241730831219,-0.9387232386371458],[100.45740359040342,-0.9392469984002675],[100.46593510342232,-0.9238732391258033],[100.47868220741798,-0.9137064546676642],[100.51147575560167,-0.9038609341242752],[100.5206909179516,-0.898681640440627],[100.53271484381504,-0.8989868145847721]]]}},{"type":"Feature","properties":{"code":"1371081004","desa":"Piai Tangah","kecamatan":"Pauh","kecCode":"137108","kabCode":"1371","province":"Sumatera Barat"},"geometry":{"type":"Polygon","coordinates":[[[100.42141377972222,-0.9507219510943447],[100.41615619735069,-0.9470242185342261],[100.42599224084927,-0.9368212120819689],[100.4297810432606,-0.9478373387626051],[100.42141377972222,-0.9507219510943447]]]}},{"type":"Feature","properties":{"code":"1371081005","desa":"Cupak Tangah","kecamatan":"Pauh","kecCode":"137108","kabCode":"1371","province":"Sumatera Barat"},"geometry":{"type":"Polygon","coordinates":[[[100.43590773675271,-0.945942379080077],[100.4297810432606,-0.9478373387626051],[100.42843277425317,-0.9459241426276435],[100.42854019557365,-0.9405954463712858],[100.42521077765531,-0.9340809238513231],[100.42692672458871,-0.9324015190724673],[100.42410690570921,-0.9270487263812371],[100.43275840267818,-0.9244242105753843],[100.43590773675271,-0.945942379080077]]]}},{"type":"Feature","properties":{"code":"1371081006","desa":"Pisang","kecamatan":"Pauh","kecCode":"137108","kabCode":"1371","province":"Sumatera Barat"},"geometry":{"type":"Polygon","coordinates":[[[100.40070849759915,-0.9488003777745968],[100.39672363758585,-0.9439064371771543],[100.39208748674815,-0.9431381130791425],[100.4022013659004,-0.9411221945815229],[100.40125493286892,-0.9357223493608625],[100.407132030319,-0.9334944525633909],[100.41546532556436,-0.9354974235214494],[100.41922452858915,-0.9435980065878625],[100.41667145762172,-0.9469372585890128],[100.41059135170957,-0.9424460640810275],[100.40070849759915,-0.9488003777745968]]]}},{"type":"Feature","properties":{"code":"1371081007","desa":"Binuang Kampung Dalam","kecamatan":"Pauh","kecCode":"137108","kabCode":"1371","province":"Sumatera Barat"},"geometry":{"type":"Polygon","coordinates":[[[100.42599224084927,-0.9368212120819689],[100.41888164497196,-0.942801471656621],[100.41546532556436,-0.9354974235214494],[100.41141526830006,-0.9333387529376886],[100.41846434875077,-0.9305734500643501],[100.41863282234692,-0.9265045115381995],[100.42410690570921,-0.9270487263812371],[100.42692672458871,-0.9324015190724673],[100.42599224084927,-0.9368212120819689]]]}},{"type":"Feature","properties":{"code":"1371081008","desa":"Kapalo Koto","kecamatan":"Pauh","kecCode":"137108","kabCode":"1371","province":"Sumatera Barat"},"geometry":{"type":"Polygon","coordinates":[[[100.43950100406812,-0.9216949615228262],[100.44420987138851,-0.9312276933623276],[100.43442991770661,-0.9361669076301185],[100.43275840267818,-0.9244242105753843],[100.43950100406812,-0.9216949615228262]]]}},{"type":"Feature","properties":{"code":"1371081009","desa":"Lambung Bukit","kecamatan":"Pauh","kecCode":"137108","kabCode":"1371","province":"Sumatera Barat"},"geometry":{"type":"Polygon","coordinates":[[[100.5438840000466,-0.8105609987847064],[100.54970598524307,-0.827399016226472],[100.54231297076704,-0.8379730101093473],[100.53647597498632,-0.842032003033026],[100.5363606297393,-0.8495528210559692],[100.517272948288,-0.8500976537332476],[100.48968505831884,-0.8613891591192923],[100.47290039044073,-0.8743286118984156],[100.46740579983786,-0.8927203565611318],[100.45487925907058,-0.911331676996463],[100.442871093826,-0.920593260541346],[100.42410690570921,-0.9270487263812371],[100.43241691570812,-0.9168663009140349],[100.43080711395719,-0.9074554433994947],[100.43983650155337,-0.8962802878029632],[100.44510459879825,-0.8846721626011097],[100.45206260670398,-0.8788795456718457],[100.45348167394012,-0.8625526417266497],[100.4615001677986,-0.8422470066522991],[100.47310447629059,-0.8324336998245723],[100.47605323726712,-0.822963713684215],[100.47464561480336,-0.8178100578733932],[100.47183799702599,-0.813360212394408],[100.46527671784632,-0.8098468768263248],[100.47344398475217,-0.8074169149557838],[100.47464561480336,-0.8028202047909114],[100.48865318159909,-0.8006858815528227],[100.48799705422071,-0.797903059886064],[100.51281698201814,-0.7950109678928539],[100.52339197416033,-0.7894999691653923],[100.5438840000466,-0.8105609987847064]]]}},{"type":"Feature","properties":{"code":"1371091001","desa":"Pasar Ambacang","kecamatan":"Kuranji","kecCode":"137109","kabCode":"1371","province":"Sumatera Barat"},"geometry":{"type":"Polygon","coordinates":[[[100.39025890782237,-0.9400546552472795],[100.39555724836839,-0.9337231438642003],[100.39258530197016,-0.9232628089992633],[100.39459309779329,-0.9246840696802943],[100.39527930299748,-0.9220775286242658],[100.40232276898064,-0.9220428453702334],[100.41065788265523,-0.9237194046940889],[100.41484260530204,-0.9271450024035042],[100.41863282234692,-0.9265045115381995],[100.41846434875077,-0.9305734500643501],[100.40125493286892,-0.9357223493608625],[100.4022013659004,-0.9411221945815229],[100.39208748674815,-0.9431381130791425],[100.39025890782237,-0.9400546552472795]]]}},{"type":"Feature","properties":{"code":"1371091002","desa":"Anduring","kecamatan":"Kuranji","kecCode":"137109","kabCode":"1371","province":"Sumatera Barat"},"geometry":{"type":"Polygon","coordinates":[[[100.38998512541325,-0.9394012006547292],[100.38834166923272,-0.9373637595819455],[100.37709147958815,-0.9357884405379973],[100.37905226874726,-0.927982864779951],[100.38233656228259,-0.9302802396014042],[100.39507055506213,-0.9293655886120843],[100.3945436368794,-0.9363630866403544],[100.38998512541325,-0.9394012006547292]]]}},{"type":"Feature","properties":{"code":"1371091003","desa":"Lubuk Lintah","kecamatan":"Kuranji","kecCode":"137109","kabCode":"1371","province":"Sumatera Barat"},"geometry":{"type":"Polygon","coordinates":[[[100.39527930299748,-0.9220775286242658],[100.39459309779329,-0.9246840696802943],[100.3918271204253,-0.9243192902696725],[100.39457498544728,-0.9264639089465281],[100.3936991078276,-0.9290067438275886],[100.38233656228259,-0.9302802396014042],[100.37993686889142,-0.9273529535392875],[100.38430350999903,-0.9262827009503917],[100.38280126086954,-0.9210053703719159],[100.37761733477224,-0.9201452749558083],[100.37582518108728,-0.9165310075753107],[100.38313520972217,-0.9157442257916236],[100.39527930299748,-0.9220775286242658]]]}},{"type":"Feature","properties":{"code":"1371091004","desa":"Ampang","kecamatan":"Kuranji","kecCode":"137109","kabCode":"1371","province":"Sumatera Barat"},"geometry":{"type":"Polygon","coordinates":[[[100.38430350999903,-0.9262827009503917],[100.37420648234337,-0.9283886775575808],[100.37150971590073,-0.9196466395526991],[100.37313105775216,-0.9173171202633652],[100.37478226788743,-0.9169558536046358],[100.37581076225695,-0.9164631654181898],[100.37657073435194,-0.9163171910611235],[100.37712288571265,-0.9167674906023121],[100.37853616940873,-0.9165572399000245],[100.37921329955418,-0.9167111867470267],[100.37704276960817,-0.9167861929035218],[100.3765655389685,-0.9163649045922523],[100.37582518108728,-0.9165310075753107],[100.37761733477224,-0.9201452749558083],[100.38280126086954,-0.9210053703719159],[100.38430350999903,-0.9262827009503917]]]}},{"type":"Feature","properties":{"code":"1371091005","desa":"Kalumbuk","kecamatan":"Kuranji","kecCode":"137109","kabCode":"1371","province":"Sumatera Barat"},"geometry":{"type":"Polygon","coordinates":[[[100.39300110261883,-0.9209597882340973],[100.38462084657488,-0.9171204376327942],[100.38625144964476,-0.9149112683175331],[100.38142585841672,-0.9070873248060677],[100.38162422188037,-0.903139113069877],[100.3839127788517,-0.9051744758094318],[100.38861507842317,-0.9037029691064268],[100.3952503196466,-0.9127502424093434],[100.40199055492023,-0.9070787695555115],[100.40456446857542,-0.9082683064218185],[100.39300110261883,-0.9209597882340973]]]}},{"type":"Feature","properties":{"code":"1371091006","desa":"Korong Gadang","kecamatan":"Kuranji","kecCode":"137109","kabCode":"1371","province":"Sumatera Barat"},"geometry":{"type":"Polygon","coordinates":[[[100.41233637192607,-0.92590514487141],[100.41065788265523,-0.9237194046940889],[100.39300110261883,-0.9209597882340973],[100.41099739021746,-0.9013423908309895],[100.41516304004232,-0.9094047536098006],[100.41233637192607,-0.92590514487141]]]}},{"type":"Feature","properties":{"code":"1371091007","desa":"Kuranji","kecamatan":"Kuranji","kecCode":"137109","kabCode":"1371","province":"Sumatera Barat"},"geometry":{"type":"Polygon","coordinates":[[[100.42410690570921,-0.9270487263812371],[100.41233637192607,-0.92590514487141],[100.41516304004232,-0.9094047536098006],[100.40740013081142,-0.8929710380845565],[100.41053581137868,-0.8904304488106579],[100.41351509084882,-0.8918590515568652],[100.42316245928015,-0.8798885337450759],[100.4160671230993,-0.8697643267898009],[100.439981460576,-0.8550510386185073],[100.43670463591029,-0.8498973828076661],[100.439981460576,-0.844276426671791],[100.45942115736057,-0.8440418223285069],[100.4615001677986,-0.8422470066522991],[100.45348167394012,-0.8625526417266497],[100.45206260670398,-0.8788795456718457],[100.44510459879825,-0.8846721626011097],[100.43983650155337,-0.8962802878029632],[100.43080711395719,-0.9074554433994947],[100.43241691570812,-0.9168663009140349],[100.42410690570921,-0.9270487263812371]]]}},{"type":"Feature","properties":{"code":"1371091008","desa":"Gunung Sarik","kecamatan":"Kuranji","kecCode":"137109","kabCode":"1371","province":"Sumatera Barat"},"geometry":{"type":"Polygon","coordinates":[[[100.40456446857542,-0.9082683064218185],[100.40199055492023,-0.9070787695555115],[100.39583778378676,-0.9128017420862207],[100.3902454377768,-0.9071578964056208],[100.39209556535809,-0.9043655374285874],[100.39612770093271,-0.9058876031176342],[100.39890098529231,-0.9004325835901482],[100.39879035878806,-0.8933391557786473],[100.39546394280677,-0.8886928542981988],[100.3968410485756,-0.8857383718380571],[100.40099030286024,-0.8847789921675524],[100.40215739534756,-0.8779727250796133],[100.39809747881566,-0.8737991846077328],[100.41204261737295,-0.8734207139183309],[100.4160671230993,-0.8697643267898009],[100.42316245928015,-0.8798885337450759],[100.41351509084882,-0.8918590515568652],[100.41053581137868,-0.8904304488106579],[100.40743827735467,-0.8922157280758536],[100.41156196571221,-0.9002647386202876],[100.40456446857542,-0.9082683064218185]]]}},{"type":"Feature","properties":{"code":"1371091009","desa":"Sungai Sapih","kecamatan":"Kuranji","kecCode":"137109","kabCode":"1371","province":"Sumatera Barat"},"geometry":{"type":"Polygon","coordinates":[[[100.39098930391333,-0.9082736960587785],[100.38880868087597,-0.9064285893944939],[100.38861507842317,-0.9037029691064268],[100.3839127788517,-0.9051744758094318],[100.38162422188037,-0.903139113069877],[100.38394251583452,-0.8972345773107845],[100.38306894857315,-0.8900698971129447],[100.38618682885914,-0.8842471043317712],[100.38361816544601,-0.8784813078839103],[100.38791465763539,-0.8782672863242581],[100.39111137339125,-0.8716239916793459],[100.39889786644345,-0.8709134975860959],[100.39781702703424,-0.8731801227881633],[100.40215739534756,-0.8779727250796133],[100.40205933507029,-0.8827540687582804],[100.39546394280677,-0.8886928542981988],[100.39879035878806,-0.8933391557786473],[100.39890098529231,-0.9004325835901482],[100.39612770093271,-0.9058876031176342],[100.39191627471638,-0.9044761648319192],[100.39098930391333,-0.9082736960587785]]]}},{"type":"Feature","properties":{"code":"1371101001","desa":"Surau Gadang","kecamatan":"Nanggalo","kecCode":"137110","kabCode":"1371","province":"Sumatera Barat"},"geometry":{"type":"Polygon","coordinates":[[[100.37362867872058,-0.8939630847290874],[100.37726356306302,-0.9036250527437251],[100.37392147369712,-0.9052622505403639],[100.36736963470092,-0.9019680950431522],[100.36346588094568,-0.8938789108836604],[100.37201205381331,-0.8886600668151086],[100.37531095233861,-0.8922812994448163],[100.37362867872058,-0.8939630847290874]]]}},{"type":"Feature","properties":{"code":"1371101002","desa":"Kampung Olo","kecamatan":"Nanggalo","kecCode":"137110","kabCode":"1371","province":"Sumatera Barat"},"geometry":{"type":"Polygon","coordinates":[[[100.3701791023837,-0.9094763018730568],[100.36353944458978,-0.9099443279510712],[100.35893861372608,-0.8981561431873072],[100.36477428030882,-0.8959498705883641],[100.36580732704657,-0.9005206523994634],[100.37251992525438,-0.9044126664002675],[100.37326211955121,-0.9067467182727026],[100.3701791023837,-0.9094763018730568]]]}},{"type":"Feature","properties":{"code":"1371101003","desa":"Kurao Pagang","kecamatan":"Nanggalo","kecCode":"137110","kabCode":"1371","province":"Sumatera Barat"},"geometry":{"type":"Polygon","coordinates":[[[100.35621591892959,-0.8997644727462935],[100.35878334487552,-0.8903267120127741],[100.36874198755275,-0.8858852374233676],[100.37324333181436,-0.8865833271675572],[100.3837157769616,-0.8784459033736235],[100.38618682885914,-0.8842471043317712],[100.38306894857315,-0.8900698971129447],[100.38248341437816,-0.9001007058765618],[100.37616112463627,-0.9019440507689617],[100.37362867872058,-0.8939630847290874],[100.37531095233861,-0.8922812994448163],[100.36984862041753,-0.8883079327717425],[100.35621591892959,-0.8997644727462935]]]}},{"type":"Feature","properties":{"code":"1371101004","desa":"Gurun Laweh","kecamatan":"Nanggalo","kecCode":"137110","kabCode":"1371","province":"Sumatera Barat"},"geometry":{"type":"Polygon","coordinates":[[[100.38462084657488,-0.9171204376327942],[100.37969981389533,-0.9155074612768405],[100.3717529384474,-0.9080755070637707],[100.37251992525438,-0.9044126664002675],[100.37726356306302,-0.9036250527437251],[100.37616112463627,-0.9019440507689617],[100.38015771270835,-0.899523756610396],[100.38270791843574,-0.9003172860074091],[100.38096809360268,-0.9041538226299991],[100.38625144964476,-0.9149112683175331],[100.38462084657488,-0.9171204376327942]]]}},{"type":"Feature","properties":{"code":"1371101005","desa":"Tabiang Banda Gadang","kecamatan":"Nanggalo","kecCode":"137110","kabCode":"1371","province":"Sumatera Barat"},"geometry":{"type":"Polygon","coordinates":[[[100.37969981389533,-0.9155074612768405],[100.3701206698331,-0.9181457016363892],[100.36839454707074,-0.9159631522536494],[100.3717529384474,-0.9080755070637707],[100.37969981389533,-0.9155074612768405]]]}},{"type":"Feature","properties":{"code":"1371101006","desa":"Kampung Lapai","kecamatan":"Nanggalo","kecCode":"137110","kabCode":"1371","province":"Sumatera Barat"},"geometry":{"type":"Polygon","coordinates":[[[100.3518766064203,-0.9026027663954008],[100.35893861372608,-0.8981561431873072],[100.36299021782435,-0.9057154485964801],[100.36353944458978,-0.9099443279510712],[100.36032113161495,-0.908201302432853],[100.3563958606805,-0.9096674635656433],[100.3518766064203,-0.9026027663954008]]]}},{"type":"Feature","properties":{"code":"1371111001","desa":"Balai Gadang","kecamatan":"Koto Tangah","kecCode":"137111","kabCode":"1371","province":"Sumatera Barat"},"geometry":{"type":"Polygon","coordinates":[[[100.39472719570357,-0.7515451650369169],[100.44569312503774,-0.7343247090967792],[100.44747734040698,-0.7730751029691095],[100.44396400483504,-0.7882995576969188],[100.43717384279866,-0.7955608358742772],[100.43857765123765,-0.7993068692228268],[100.43272714404252,-0.8033914226776915],[100.41719827328177,-0.8028882636846769],[100.4091277617369,-0.8081291402439805],[100.40337581574136,-0.8136953780293614],[100.39261492833633,-0.8347997055085681],[100.38417250036065,-0.8358669264828377],[100.37647359677914,-0.84022653218926],[100.37220634874404,-0.8373971607140432],[100.36366851259184,-0.84145314450619],[100.3592129222386,-0.8387306250804814],[100.35747883777822,-0.841564091168902],[100.35402814897996,-0.8416052477429287],[100.35090706261091,-0.8387595122039028],[100.35470008823853,-0.8335437761922854],[100.35434913590392,-0.8302326190118522],[100.35264396644594,-0.8270568826442584],[100.34803199657944,-0.8263607021606777],[100.3489475244088,-0.8249549853618707],[100.34528204602964,-0.8265480147548352],[100.34240913387445,-0.8125534045074077],[100.33367638135996,-0.8012940930519106],[100.35349569367138,-0.7988495432785155],[100.36101403407046,-0.802214702949108],[100.36744255802768,-0.8004459379345769],[100.37628445676232,-0.7851220280811728],[100.37694337563636,-0.7716750581944539],[100.38176956581287,-0.7682902258540989],[100.38403054957024,-0.7569687631514074],[100.39472719570357,-0.7515451650369169]]]}},{"type":"Feature","properties":{"code":"1371111002","desa":"Lubuk Minturun","kecamatan":"Koto Tangah","kecCode":"137111","kabCode":"1371","province":"Sumatera Barat"},"geometry":{"type":"Polygon","coordinates":[[[100.4790689896422,-0.7367150189590995],[100.47722401337755,-0.7488380105283359],[100.4792740341694,-0.7517689577305013],[100.50944400723523,-0.7546670185241153],[100.50763699944802,-0.7859900114509076],[100.51038402630184,-0.7949500154419045],[100.48799705422071,-0.797903059886064],[100.48865318159909,-0.8006858815528227],[100.47464561480336,-0.8028202047909114],[100.47344398475217,-0.8074169149557838],[100.46527671784632,-0.8098468768263248],[100.47183799702599,-0.813360212394408],[100.47605323726712,-0.822963713684215],[100.47310447629059,-0.8324336998245723],[100.45942115736057,-0.8440418223285069],[100.439981460576,-0.844276426671791],[100.43670463591029,-0.8498973828076661],[100.439981460576,-0.8550510386185073],[100.42643928484517,-0.8621292076329133],[100.41204261737295,-0.8734207139183309],[100.39867210333495,-0.873992917461983],[100.39889786644345,-0.8709134975860959],[100.39111137339125,-0.8716239916793459],[100.39134788429749,-0.8609848014447985],[100.3875370026306,-0.8520088191990074],[100.38317732227567,-0.8474433919514702],[100.3730224933934,-0.8433334110651176],[100.36978878942114,-0.8387250663709194],[100.37220634874404,-0.8373971607140432],[100.37647359677914,-0.84022653218926],[100.38417250036065,-0.8358669264828377],[100.39261492833633,-0.8347997055085681],[100.40337581574136,-0.8136953780293614],[100.4091277617369,-0.8081291402439805],[100.41719827328177,-0.8028882636846769],[100.43272714404252,-0.8033914226776915],[100.43857765123765,-0.7993068692228268],[100.43717384279866,-0.7955608358742772],[100.44396400483504,-0.7882995576969188],[100.44747734040698,-0.7730751029691095],[100.44569312503774,-0.7343247090967792],[100.45788750030795,-0.7260594430768194],[100.46229498502561,-0.7305159974983156],[100.47660297394815,-0.7334489924568394],[100.4790689896422,-0.7367150189590995]]]}},{"type":"Feature","properties":{"code":"1371111003","desa":"Aie Pacah","kecamatan":"Koto Tangah","kecCode":"137111","kabCode":"1371","province":"Sumatera Barat"},"geometry":{"type":"Polygon","coordinates":[[[100.39111137339125,-0.8716239916793459],[100.38791465763539,-0.8782672863242581],[100.38189784600881,-0.8787080071863606],[100.37751094677282,-0.8841253837909816],[100.3745207980964,-0.8845466990819472],[100.37916374241286,-0.8779830924641651],[100.37447079399203,-0.8688570367514128],[100.3779955212763,-0.8624910786360379],[100.3764391554427,-0.858268030485563],[100.3809156055708,-0.8595214336062185],[100.3773856055613,-0.8520777378445991],[100.37953215958157,-0.846693923938698],[100.3875370026306,-0.8520088191990074],[100.39134788429749,-0.8609848014447985],[100.39111137339125,-0.8716239916793459]]]}},{"type":"Feature","properties":{"code":"1371111004","desa":"Dadok Tunggul Hitam","kecamatan":"Koto Tangah","kecCode":"137111","kabCode":"1371","province":"Sumatera Barat"},"geometry":{"type":"Polygon","coordinates":[[[100.35857545399409,-0.8905519571114989],[100.3576721848235,-0.8828587147708354],[100.36039405943835,-0.8823132858429831],[100.35772514230153,-0.8756504048632362],[100.37253824984042,-0.8659035759211705],[100.37916374241286,-0.8779830924641651],[100.37324333181436,-0.8865833271675572],[100.36874198755275,-0.8858852374233676],[100.35857545399409,-0.8905519571114989]]]}},{"type":"Feature","properties":{"code":"1371111005","desa":"Koto Panjang Ikua Koto","kecamatan":"Koto Tangah","kecCode":"137111","kabCode":"1371","province":"Sumatera Barat"},"geometry":{"type":"Polygon","coordinates":[[[100.36366851259184,-0.84145314450619],[100.36978878942114,-0.8387250663709194],[100.3730224933934,-0.8433334110651176],[100.3795409927227,-0.8466803936385565],[100.3773856055613,-0.8520777378445991],[100.3809156055708,-0.8595214336062185],[100.3764391554427,-0.858268030485563],[100.3779955212763,-0.8624910786360379],[100.37447079399203,-0.8688570367514128],[100.37166853887203,-0.8654687204374517],[100.36560871357136,-0.8692954850266761],[100.36400878277914,-0.8635154307270843],[100.3553285830477,-0.8628938526044488],[100.35375749621153,-0.8485196169380302],[100.36479822206034,-0.843186308958215],[100.36366851259184,-0.84145314450619]]]}},{"type":"Feature","properties":{"code":"1371111006","desa":"Koto Pulai","kecamatan":"Koto Tangah","kecCode":"137111","kabCode":"1371","province":"Sumatera Barat"},"geometry":{"type":"Polygon","coordinates":[[[100.34608268636696,-0.8389663688647353],[100.35671461368855,-0.8418551513528441],[100.3592129222386,-0.8387306250804814],[100.36495493432282,-0.8426406309182266],[100.35375749621153,-0.8485196169380302],[100.35406035280312,-0.8542014328947115],[100.35148882684791,-0.8560913734609188],[100.34468572356734,-0.8538650648661404],[100.34002355894016,-0.848302196840395],[100.33752884408096,-0.8370528606650143],[100.34324073786979,-0.8359413139058367],[100.34608268636696,-0.8389663688647353]]]}},{"type":"Feature","properties":{"code":"1371111007","desa":"Batipuh Panjang","kecamatan":"Koto Tangah","kecCode":"137111","kabCode":"1371","province":"Sumatera Barat"},"geometry":{"type":"Polygon","coordinates":[[[100.31810624160983,-0.807360424041562],[100.33484986892637,-0.8022131642091455],[100.34240913387445,-0.8125534045074077],[100.34528204602964,-0.8265480147548352],[100.3489475244088,-0.8249549853618707],[100.34803199657944,-0.8263607021606777],[100.35264396644594,-0.8270568826442584],[100.35434913590392,-0.8302326190118522],[100.3514842987614,-0.83819007767277],[100.33831079470745,-0.8365441528550518],[100.34071723840985,-0.8452875488361776],[100.33490586341492,-0.8468173819697583],[100.32929801758951,-0.8365192398357226],[100.33159446701107,-0.8290748587906893],[100.32859229979488,-0.8210811601493251],[100.3237400049973,-0.8187274913651237],[100.31810624160983,-0.807360424041562]]]}},{"type":"Feature","properties":{"code":"1371111008","desa":"Padang Sarai","kecamatan":"Koto Tangah","kecCode":"137111","kabCode":"1371","province":"Sumatera Barat"},"geometry":{"type":"Polygon","coordinates":[[[100.2921870886633,-0.8149126014242098],[100.29780497541935,-0.8057163473306043],[100.30695108782248,-0.8057283164077255],[100.3095861122094,-0.8078527758815192],[100.31427800482612,-0.8051879110928526],[100.32149696361404,-0.8122577658749373],[100.31255912790145,-0.8212184875248613],[100.31029319787285,-0.8192024206391959],[100.3089389798501,-0.822477339637831],[100.31469917262875,-0.8269138328824135],[100.31520271293493,-0.831697462637784],[100.30733299302328,-0.8287086476593651],[100.30702018633258,-0.8260650617295291],[100.3029537200382,-0.8252162896773115],[100.2921870886633,-0.8149126014242098]]]}},{"type":"Feature","properties":{"code":"1371111009","desa":"Lubuk Buaya","kecamatan":"Koto Tangah","kecCode":"137111","kabCode":"1371","province":"Sumatera Barat"},"geometry":{"type":"Polygon","coordinates":[[[100.32132921397209,-0.8123723448994672],[100.3237400049973,-0.8187274913651237],[100.32781410203921,-0.8197727185195258],[100.33159446701107,-0.8290748587906893],[100.32929801758951,-0.8362712850566809],[100.33119392336096,-0.8400859816433858],[100.3268184653,-0.8426589950743499],[100.31660270555052,-0.8363380426314483],[100.31469917262875,-0.8269138328824135],[100.3089389798501,-0.8229808799434191],[100.31029319787285,-0.8192024206391959],[100.31255912790145,-0.8212184875248613],[100.32132921397209,-0.8123723448994672]]]}},{"type":"Feature","properties":{"code":"1371111010","desa":"Batang Kabung Ganting","kecamatan":"Koto Tangah","kecCode":"137111","kabCode":"1371","province":"Sumatera Barat"},"geometry":{"type":"Polygon","coordinates":[[[100.33902097403875,-0.845911237667649],[100.34751057685166,-0.8548966151308053],[100.3457013297526,-0.8602436008996116],[100.33433481909667,-0.8592294687043122],[100.3267650599596,-0.8426952350548197],[100.33158302223876,-0.840078352694538],[100.33490586341492,-0.8468173819697583],[100.33902097403875,-0.845911237667649]]]}},{"type":"Feature","properties":{"code":"1371111011","desa":"Bungo Pasang","kecamatan":"Koto Tangah","kecCode":"137111","kabCode":"1371","province":"Sumatera Barat"},"geometry":{"type":"Polygon","coordinates":[[[100.36560871357136,-0.8692954850266761],[100.35874627122348,-0.8751005152981716],[100.35522270136664,-0.8713836658492512],[100.35246086088006,-0.8723468766317234],[100.35041618296056,-0.8655185689590782],[100.34740813867471,-0.8650776079780197],[100.3431389436074,-0.8683241128966553],[100.33986069801286,-0.8670171524502186],[100.33655199417926,-0.8730135368691383],[100.3321357059981,-0.8653254602343381],[100.3429707128282,-0.8588901760804739],[100.3457013297526,-0.8602436008996116],[100.3475293708838,-0.8548791475987888],[100.35309526603372,-0.8550969436129792],[100.3553285830477,-0.8628938526044488],[100.36400878277914,-0.8635154307270843],[100.36560871357136,-0.8692954850266761]]]}},{"type":"Feature","properties":{"code":"1371111012","desa":"Parupuk Tabing","kecamatan":"Koto Tangah","kecCode":"137111","kabCode":"1371","province":"Sumatera Barat"},"geometry":{"type":"Polygon","coordinates":[[[100.35945735437349,-0.8887630068136277],[100.35227712399012,-0.8924542948320536],[100.35195640056747,-0.8896616894407484],[100.34326907640678,-0.8914274902897914],[100.33655199417926,-0.8730135368691383],[100.33986069801286,-0.8670171524502186],[100.3431389436074,-0.8683241128966553],[100.3495845789652,-0.8650512686339263],[100.35246086088006,-0.8723468766317234],[100.35683301483179,-0.872235339114392],[100.36039405943835,-0.8823132858429831],[100.3576721848235,-0.8828587147708354],[100.35945735437349,-0.8887630068136277]]]}},{"type":"Feature","properties":{"code":"1371111013","desa":"Pasie Nan Tigo","kecamatan":"Koto Tangah","kecCode":"137111","kabCode":"1371","province":"Sumatera Barat"},"geometry":{"type":"MultiPolygon","coordinates":[[[[100.20624895672404,-0.8743693520863653],[100.2041362900578,-0.875096143693674],[100.20475785738927,-0.8736099123908075],[100.20624895672404,-0.8743693520863653]]],[[[100.30272492891241,-0.8592876620352337],[100.30119734857885,-0.8581761971142545],[100.30293846214039,-0.8583185517001236],[100.30272492891241,-0.8592876620352337]]],[[[100.2921870886633,-0.8149126014242098],[100.3029537200382,-0.8252162896773115],[100.30702018633258,-0.8260650617295291],[100.30733299302328,-0.8287086476593651],[100.31472969022309,-0.8316040023929474],[100.31660270555052,-0.8363380426314483],[100.32364082236614,-0.842145918357826],[100.32620429938895,-0.8420009566373841],[100.33433481909667,-0.8592294687043122],[100.33881000028133,-0.8587936311609137],[100.34058129059416,-0.8610335545922108],[100.33197264811929,-0.8651815453247339],[100.32380583267307,-0.8488312014497108],[100.309652617974,-0.833517275869586],[100.29385631581636,-0.8217905058083229],[100.2914564947215,-0.8185413820638079],[100.2921870886633,-0.8149126014242098]]]]}}]}