{"type":"FeatureCollection","features":[{"type":"Feature","properties":{"code":"1372011001","desa":"Tanah Garam","kecamatan":"Lubuk Sikarah","kecCode":"137201","kabCode":"1372","province":"Sumatera Barat"},"geometry":{"type":"Polygon","coordinates":[[[100.64210499964605,-0.797023998667382],[100.63614700008407,-0.7952009991375838],[100.60681675189163,-0.8066091987536108],[100.60026632932771,-0.8036913861498562],[100.59767300020883,-0.7971929992660401],[100.59160970082705,-0.8072309018819784],[100.58201700038433,-0.8085389990714641],[100.56134000014094,-0.8190469989040394],[100.54477330004782,-0.8148854427976946],[100.54493700004257,-0.8120849989155081],[100.54146600005588,-0.8089919992767578],[100.54417399993021,-0.8044659992069456],[100.55822799962255,-0.8001439995512524],[100.56492180020096,-0.7912456935491277],[100.5662079997994,-0.7926979988271425],[100.56295800011168,-0.7973139994499363],[100.5643702001247,-0.7998464993220877],[100.57019800033747,-0.7944829993026002],[100.56901599978863,-0.7894219988434235],[100.5707859995743,-0.7867419984647105],[100.59710700018796,-0.7850949989570752],[100.61274600012784,-0.7813199993447673],[100.61676500020468,-0.7795719987769618],[100.62266499978993,-0.770292998961384],[100.62829410019265,-0.770374345338239],[100.63213072765103,-0.7804656496972481],[100.64272348859815,-0.7858093601351279],[100.64617659657272,-0.7940491006975227],[100.64210499964605,-0.797023998667382]]]}},{"type":"Feature","properties":{"code":"1372011002","desa":"Vi Suku","kecamatan":"Lubuk Sikarah","kecCode":"137201","kabCode":"1372","province":"Sumatera Barat"},"geometry":{"type":"Polygon","coordinates":[[[100.63213072765103,-0.7804656496972481],[100.6284716020828,-0.768061280944439],[100.6327418169813,-0.764622518959],[100.63890471897764,-0.7685759026962643],[100.6371010575678,-0.7711456911583799],[100.64740580163652,-0.7793387766917174],[100.64544381727842,-0.7853927357079284],[100.65013205594964,-0.7863771165313143],[100.65400081708411,-0.7926209008475588],[100.6460236515703,-0.7938050040100881],[100.64272348859815,-0.7858093601351279],[100.63213072765103,-0.7804656496972481]]]}},{"type":"Feature","properties":{"code":"1372011003","desa":"Sinapa Piliang","kecamatan":"Lubuk Sikarah","kecCode":"137201","kabCode":"1372","province":"Sumatera Barat"},"geometry":{"type":"Polygon","coordinates":[[[100.64557793227584,-0.7946908614054673],[100.65444532229382,-0.7908644997125162],[100.65810001690232,-0.7943658940824724],[100.65367345486612,-0.7974018820995352],[100.64557793227584,-0.7946908614054673]]]}},{"type":"Feature","properties":{"code":"1372011004","desa":"Ix Korong","kecamatan":"Lubuk Sikarah","kecCode":"137201","kabCode":"1372","province":"Sumatera Barat"},"geometry":{"type":"Polygon","coordinates":[[[100.64141224108208,-0.8035162737585536],[100.64210499964605,-0.797023998667382],[100.64557793227584,-0.7946908614054673],[100.65893022155257,-0.7995339156636825],[100.66010170992604,-0.8025249456723301],[100.65674131575918,-0.8041438251781813],[100.65555624402549,-0.8008231540698186],[100.65505363271905,-0.8040775163651754],[100.65268465207508,-0.802195249713981],[100.64141224108208,-0.8035162737585536]]]}},{"type":"Feature","properties":{"code":"1372011005","desa":"Kampai Tabu Karambia","kecamatan":"Lubuk Sikarah","kecCode":"137201","kabCode":"1372","province":"Sumatera Barat"},"geometry":{"type":"Polygon","coordinates":[[[100.66716054802093,-0.8107819622111996],[100.65840200025218,-0.8090869991609677],[100.65832100011413,-0.8062909988289213],[100.65479300019689,-0.8076749987989958],[100.65321899955723,-0.8056669988320252],[100.64163999978621,-0.8050159984893114],[100.64141224108208,-0.8035162737585536],[100.65268465207508,-0.802195249713981],[100.65505363271905,-0.8040775163651754],[100.65572738680953,-0.8008230848220215],[100.65685542623696,-0.8041820616535814],[100.66424330288616,-0.8010685691633824],[100.66716054802093,-0.8107819622111996]]]}},{"type":"Feature","properties":{"code":"1372011006","desa":"Aro Iv Korong","kecamatan":"Lubuk Sikarah","kecCode":"137201","kabCode":"1372","province":"Sumatera Barat"},"geometry":{"type":"Polygon","coordinates":[[[100.67041736367047,-0.7884518075232202],[100.67295573342038,-0.7908503785577269],[100.67263961632528,-0.7944949638830828],[100.66447485043403,-0.7960810568051232],[100.66416972934957,-0.8010819303909588],[100.66004777308632,-0.8023883908143281],[100.65893022155257,-0.7995339156636825],[100.65356151535174,-0.7981865792547217],[100.66033912465093,-0.7923293298487033],[100.67041736367047,-0.7884518075232202]]]}},{"type":"Feature","properties":{"code":"1372011007","desa":"Simpang Rumbio","kecamatan":"Lubuk Sikarah","kecCode":"137201","kabCode":"1372","province":"Sumatera Barat"},"geometry":{"type":"Polygon","coordinates":[[[100.6797580003315,-0.8055739990400423],[100.66716054802093,-0.8107819622111996],[100.66331853542215,-0.7971495350316252],[100.67263961632528,-0.7944949638830828],[100.67330899971063,-0.7906569991370513],[100.6782069998532,-0.7959759989031575],[100.6797580003315,-0.8055739990400423]]]}},{"type":"Feature","properties":{"code":"1372021001","desa":"Koto Panjang","kecamatan":"Tanjung Harapan","kecCode":"137202","kabCode":"1372","province":"Sumatera Barat"},"geometry":{"type":"Polygon","coordinates":[[[100.65444532229382,-0.7908644997125162],[100.65726759991986,-0.7912954368500781],[100.65815771290816,-0.7939893335530642],[100.65575593758649,-0.79398169381231],[100.65444532229382,-0.7908644997125162]]]}},{"type":"Feature","properties":{"code":"1372021002","desa":"Pasar Pandan Air Mati","kecamatan":"Tanjung Harapan","kecCode":"137202","kabCode":"1372","province":"Sumatera Barat"},"geometry":{"type":"Polygon","coordinates":[[[100.67042499981396,-0.7862209987209169],[100.67041736367047,-0.7884518075232202],[100.65916053972717,-0.7942794827237211],[100.655402670397,-0.7911079560826698],[100.66190574365521,-0.7856884885543093],[100.66467245037335,-0.7879055584136954],[100.67042499981396,-0.7862209987209169]]]}},{"type":"Feature","properties":{"code":"1372021003","desa":"Tanjung Paku","kecamatan":"Tanjung Harapan","kecCode":"137202","kabCode":"1372","province":"Sumatera Barat"},"geometry":{"type":"Polygon","coordinates":[[[100.67369799966303,-0.7677339987664881],[100.67070500013567,-0.7718359990689342],[100.67303499966555,-0.7804759990953498],[100.67057799967499,-0.7860699989522976],[100.66467245037335,-0.7879055584136954],[100.66190574365521,-0.7856884885543093],[100.65637370528229,-0.7888917855452888],[100.66136393090075,-0.7827645057020249],[100.65961302192346,-0.782200922160116],[100.66151806390758,-0.765048765232819],[100.67369799966303,-0.7677339987664881]]]}},{"type":"Feature","properties":{"code":"1372021004","desa":"Nan Balimo","kecamatan":"Tanjung Harapan","kecCode":"137202","kabCode":"1372","province":"Sumatera Barat"},"geometry":{"type":"MultiPolygon","coordinates":[[[[100.65200311884894,-0.7848645323946064],[100.64537242369845,-0.7851774155273146],[100.64740580163652,-0.7793387766917174],[100.64751228136674,-0.7825187371749213],[100.64970282932215,-0.7806573914525101],[100.65107682523534,-0.7828718128084488],[100.6491771827808,-0.783327702535513],[100.65200311884894,-0.7848645323946064]]],[[[100.66047553291958,-0.7590409837055583],[100.65961302192346,-0.782200922160116],[100.66136393090075,-0.7827645057020249],[100.65627096763109,-0.7882006385671961],[100.65104225889318,-0.7810018875536956],[100.6509583629382,-0.7732473429258343],[100.64639088972785,-0.7705154957318933],[100.64848871668102,-0.7680246740405914],[100.64563610042575,-0.7567830018877517],[100.647278547567,-0.74909283073182],[100.6536631045687,-0.7541637902833087],[100.65362666224075,-0.7592986709477764],[100.66047553291958,-0.7590409837055583]]]]}},{"type":"Feature","properties":{"code":"1372021005","desa":"Kampung Jawa","kecamatan":"Tanjung Harapan","kecCode":"137202","kabCode":"1372","province":"Sumatera Barat"},"geometry":{"type":"Polygon","coordinates":[[[100.6284716020828,-0.768061280944439],[100.62605100035347,-0.7649979994026418],[100.62900900006535,-0.7627459989756848],[100.62811300011491,-0.7595699991067478],[100.63227599963771,-0.7530499988162638],[100.64184857325313,-0.7462902320739601],[100.647278547567,-0.74909283073182],[100.64563610042575,-0.7567830018877517],[100.64848871668102,-0.7680246740405914],[100.64639088972785,-0.7705154957318933],[100.6509583629382,-0.7732473429258343],[100.65059190179488,-0.7794175159340502],[100.65627096763109,-0.7882006385671961],[100.65544936499623,-0.7902924256711498],[100.65038910467347,-0.7872312305565179],[100.64973243680258,-0.7848029270358327],[100.65200311884894,-0.7848645323946064],[100.6491771827808,-0.783327702535513],[100.65107682523534,-0.7828718128084488],[100.64977145388957,-0.7806941089729148],[100.64751228136674,-0.7825187371749213],[100.64793736571693,-0.7794383415345931],[100.6371010575678,-0.7711456911583799],[100.63890471897764,-0.7685759026962643],[100.6327418169813,-0.764622518959],[100.6284716020828,-0.768061280944439]]]}},{"type":"Feature","properties":{"code":"1372021006","desa":"Laing","kecamatan":"Tanjung Harapan","kecCode":"137202","kabCode":"1372","province":"Sumatera Barat"},"geometry":{"type":"Polygon","coordinates":[[[100.6825887432759,-0.7438639583231491],[100.68534099968747,-0.7622229991397288],[100.67667400020503,-0.7679079986964586],[100.6623976692171,-0.7656827108322054],[100.66047553291958,-0.7590409837055583],[100.65370416761328,-0.7593483800745114],[100.65143075342661,-0.7514753281834603],[100.64159498422121,-0.7469998601200564],[100.64373800030853,-0.7448009988341023],[100.67151999994809,-0.7414229995426639],[100.6825887432759,-0.7438639583231491]]]}}]}