{"type":"FeatureCollection","features":[{"type":"Feature","properties":{"code":"1373011001","desa":"Aur Mulio","kecamatan":"Lembah Segar","kecCode":"137301","kabCode":"1373","province":"Sumatera Barat"},"geometry":{"type":"Polygon","coordinates":[[[100.78979917539168,-0.6785585413846369],[100.79402979583845,-0.6828731324253279],[100.79006803401263,-0.6831781015241017],[100.78447630943418,-0.6881285321364209],[100.77846490722975,-0.6852421535361453],[100.77980760673573,-0.6805545291070721],[100.78979917539168,-0.6785585413846369]]]}},{"type":"Feature","properties":{"code":"1373011002","desa":"Kubang Sirakuk Utara","kecamatan":"Lembah Segar","kecCode":"137301","kabCode":"1373","province":"Sumatera Barat"},"geometry":{"type":"Polygon","coordinates":[[[100.77990137095155,-0.68600314096489],[100.7821495033969,-0.6857345638320919],[100.78229289580052,-0.6882313750082344],[100.77940434083773,-0.6893281126313319],[100.77990137095155,-0.68600314096489]]]}},{"type":"Feature","properties":{"code":"1373011003","desa":"Kubang S. Selatan","kecamatan":"Lembah Segar","kecCode":"137301","kabCode":"1373","province":"Sumatera Barat"},"geometry":{"type":"Polygon","coordinates":[[[100.79402979583845,-0.6828731324253279],[100.79622832797502,-0.6898156620916115],[100.7938799157256,-0.6958149198444775],[100.78953752933357,-0.697785911809926],[100.78082028472839,-0.6958511571269446],[100.77940434083773,-0.6893281126313319],[100.79402979583845,-0.6828731324253279]]]}},{"type":"Feature","properties":{"code":"1373011004","desa":"Pasar","kecamatan":"Lembah Segar","kecCode":"137301","kabCode":"1373","province":"Sumatera Barat"},"geometry":{"type":"Polygon","coordinates":[[[100.77796211156226,-0.6795581099587449],[100.77846490722975,-0.6852421535361453],[100.77702645330822,-0.68545296181811],[100.77523095684323,-0.6826303505467747],[100.77796211156226,-0.6795581099587449]]]}},{"type":"Feature","properties":{"code":"1373011005","desa":"Tanah Lapang","kecamatan":"Lembah Segar","kecCode":"137301","kabCode":"1373","province":"Sumatera Barat"},"geometry":{"type":"Polygon","coordinates":[[[100.78126594736564,-0.6800172453390567],[100.77914742341493,-0.6820692949990781],[100.77820623702826,-0.6821007496869935],[100.77853221159233,-0.6790512691412751],[100.78126594736564,-0.6800172453390567]]]}},{"type":"Feature","properties":{"code":"1373011006","desa":"Aia Dingin","kecamatan":"Lembah Segar","kecCode":"137301","kabCode":"1373","province":"Sumatera Barat"},"geometry":{"type":"Polygon","coordinates":[[[100.78914474593336,-0.6721550122921848],[100.78979917539168,-0.6785585413846369],[100.78126594736564,-0.6800172453390567],[100.78129396394536,-0.6741243063376952],[100.77684136293861,-0.670875695206815],[100.78914474593336,-0.6721550122921848]]]}},{"type":"Feature","properties":{"code":"1373012007","desa":"Lunto Timur","kecamatan":"Lembah Segar","kecCode":"137301","kabCode":"1373","province":"Sumatera Barat"},"geometry":{"type":"Polygon","coordinates":[[[100.73520953399286,-0.7237792704874768],[100.72796320973441,-0.7246187390531984],[100.73810364406798,-0.7080246420318015],[100.73312740830329,-0.6954251329857181],[100.73866265725586,-0.6958468646628385],[100.73937433305906,-0.6877548575314573],[100.74304587286878,-0.6869012947906871],[100.74831740822185,-0.7107310752840293],[100.74014698559493,-0.7156196037613545],[100.73520953399286,-0.7237792704874768]]]}},{"type":"Feature","properties":{"code":"1373012008","desa":"Lunto Barat","kecamatan":"Lembah Segar","kecCode":"137301","kabCode":"1373","province":"Sumatera Barat"},"geometry":{"type":"Polygon","coordinates":[[[100.73312740830329,-0.6954251329857181],[100.73810364406798,-0.7080246420318015],[100.72796320973441,-0.7246187390531984],[100.72456095032766,-0.7182053201162079],[100.72457083477629,-0.7047065600715493],[100.73312740830329,-0.6954251329857181]]]}},{"type":"Feature","properties":{"code":"1373012009","desa":"Kubang Tangah","kecamatan":"Lembah Segar","kecCode":"137301","kabCode":"1373","province":"Sumatera Barat"},"geometry":{"type":"Polygon","coordinates":[[[100.7420381519392,-0.7145549440562962],[100.74831740822185,-0.7107310752840293],[100.74304587286878,-0.6869012947906871],[100.74786377039673,-0.6821860261012156],[100.75216546786208,-0.6885614459838425],[100.76928790940956,-0.6889636713657578],[100.77261367697969,-0.6915138285269213],[100.77424268285357,-0.696677539657525],[100.76901869375773,-0.7073527648271498],[100.76477497558471,-0.7018127800508374],[100.76243602420323,-0.7023780273385793],[100.75273720196037,-0.7140924461108998],[100.74889868142905,-0.7123287487760467],[100.7420381519392,-0.7145549440562962]]]}},{"type":"Feature","properties":{"code":"1373012010","desa":"Kubang Utara Sikabu","kecamatan":"Lembah Segar","kecCode":"137301","kabCode":"1373","province":"Sumatera Barat"},"geometry":{"type":"Polygon","coordinates":[[[100.77846490722975,-0.6852421535361453],[100.77988794227478,-0.6924715246666714],[100.77424268285357,-0.696677539657525],[100.76928790940956,-0.6889636713657578],[100.75230672977182,-0.6886085317881535],[100.74786377039673,-0.6821860261012156],[100.75587085275771,-0.6785886596798966],[100.76398749862419,-0.6811099090332874],[100.77702722672518,-0.6806080108897463],[100.77523095684323,-0.6826303505467747],[100.77846490722975,-0.6852421535361453]]]}},{"type":"Feature","properties":{"code":"1373012011","desa":"Pasa Kubang","kecamatan":"Lembah Segar","kecCode":"137301","kabCode":"1373","province":"Sumatera Barat"},"geometry":{"type":"Polygon","coordinates":[[[100.75414076038781,-0.7218830319689823],[100.73520953399286,-0.7237792704874768],[100.74014698559493,-0.7156196037613545],[100.74889868142905,-0.7123287487760467],[100.75273720196037,-0.7140924461108998],[100.75967361444583,-0.7040433586266668],[100.76460345508542,-0.7018010852669256],[100.76683564794682,-0.7038572376341778],[100.76816856282898,-0.7079237479908281],[100.75788926867489,-0.7149928446444339],[100.75414076038781,-0.7218830319689823]]]}},{"type":"Feature","properties":{"code":"1373021001","desa":"Saringan","kecamatan":"Barangin","kecCode":"137302","kabCode":"1373","province":"Sumatera Barat"},"geometry":{"type":"Polygon","coordinates":[[[100.78202322958846,-0.6779929721396759],[100.77273946425493,-0.6817050030209973],[100.7679085544363,-0.6793050973925715],[100.77463115580326,-0.6693407862996199],[100.78159049470564,-0.6747832656804245],[100.78202322958846,-0.6779929721396759]]]}},{"type":"Feature","properties":{"code":"1373021002","desa":"Lubang Panjang","kecamatan":"Barangin","kecCode":"137302","kabCode":"1373","province":"Sumatera Barat"},"geometry":{"type":"Polygon","coordinates":[[[100.77463115580326,-0.6693407862996199],[100.7679085544363,-0.6793050973925715],[100.76364131359584,-0.6768284283323028],[100.76194650342846,-0.6727030402607188],[100.76590158059355,-0.6691509906772303],[100.7703232503178,-0.6664593701583406],[100.77463115580326,-0.6693407862996199]]]}},{"type":"Feature","properties":{"code":"1373021003","desa":"Durian I","kecamatan":"Barangin","kecCode":"137302","kabCode":"1373","province":"Sumatera Barat"},"geometry":{"type":"Polygon","coordinates":[[[100.7703232503178,-0.6664593701583406],[100.76108145994145,-0.673412267209166],[100.75600322666764,-0.669652047055344],[100.76503799760559,-0.6598456038535256],[100.7703232503178,-0.6664593701583406]]]}},{"type":"Feature","properties":{"code":"1373021004","desa":"Durian Ii","kecamatan":"Barangin","kecCode":"137302","kabCode":"1373","province":"Sumatera Barat"},"geometry":{"type":"Polygon","coordinates":[[[100.76503799760559,-0.6598456038535256],[100.75747747900249,-0.6669649438311227],[100.74692799343221,-0.6614787942710854],[100.75705634627343,-0.6530576838345938],[100.7601804363781,-0.653593090717544],[100.76503799760559,-0.6598456038535256]]]}},{"type":"Feature","properties":{"code":"1373022005","desa":"Santur","kecamatan":"Barangin","kecCode":"137302","kabCode":"1373","province":"Sumatera Barat"},"geometry":{"type":"Polygon","coordinates":[[[100.76200127573833,-0.6560376018201421],[100.75705634627343,-0.6530576838345938],[100.74740631494956,-0.660036350958638],[100.74234397269622,-0.6546479999730483],[100.73461755705466,-0.6523276249902604],[100.75294484642758,-0.6395782951867796],[100.76539238085375,-0.6373478209322899],[100.76200127573833,-0.6560376018201421]]]}},{"type":"Feature","properties":{"code":"1373022006","desa":"Kolok Mudiak","kecamatan":"Barangin","kecCode":"137302","kabCode":"1373","province":"Sumatera Barat"},"geometry":{"type":"Polygon","coordinates":[[[100.68818725144058,-0.6352290739520329],[100.68753397401376,-0.6318880251054931],[100.69343911862046,-0.6228749134497982],[100.70571546259856,-0.6279325171695233],[100.7108956646033,-0.6254816694438436],[100.73488974766377,-0.6242190185945936],[100.74425909068451,-0.6249435843798529],[100.7484116068103,-0.6329681837266907],[100.75522964783003,-0.63945632013785],[100.73461755705466,-0.6523276249902604],[100.7252745299956,-0.6497171628900718],[100.71553348638132,-0.6399911982193577],[100.6996703645957,-0.632904062964252],[100.68818725144058,-0.6352290739520329]]]}},{"type":"Feature","properties":{"code":"1373022007","desa":"Kolok Nan Tuo","kecamatan":"Barangin","kecCode":"137302","kabCode":"1373","province":"Sumatera Barat"},"geometry":{"type":"Polygon","coordinates":[[[100.69996161543627,-0.6154466860273407],[100.70222400033742,-0.6012100097616285],[100.70046427800405,-0.5981731359123589],[100.70589008935622,-0.5941446983545545],[100.713535907756,-0.5924952652814868],[100.72335243236893,-0.5997734066464893],[100.73194444368117,-0.6000469597282012],[100.739113055723,-0.6091048971918812],[100.74819513279918,-0.6142770682449756],[100.7503445970256,-0.6242720543135261],[100.71894447280924,-0.6245068978764855],[100.70318106335543,-0.627598310211819],[100.69343911862046,-0.6228749134497982],[100.69996161543627,-0.6154466860273407]]]}},{"type":"Feature","properties":{"code":"1373022008","desa":"Talago Gunung","kecamatan":"Barangin","kecCode":"137302","kabCode":"1373","province":"Sumatera Barat"},"geometry":{"type":"Polygon","coordinates":[[[100.70458296613106,-0.6577479693576421],[100.69102803171835,-0.6452500324412944],[100.68818725144058,-0.6352290739520329],[100.69565934690137,-0.6325723228468862],[100.71477953704606,-0.6395086705734213],[100.72795859441368,-0.6511345888619153],[100.74234397269622,-0.6546479999730483],[100.74753115344002,-0.6625343249581157],[100.75747747900249,-0.6669649438311227],[100.75642197799198,-0.6708769272780334],[100.75893512985243,-0.6733667498225329],[100.76194650342846,-0.6727030402607188],[100.7690260547087,-0.6814420376577658],[100.75587085275771,-0.6785886596798966],[100.74804438843786,-0.6819520710684766],[100.742592076763,-0.6774329652015154],[100.74173227992083,-0.6691037178139335],[100.73710133975509,-0.6663762422244784],[100.73331587742587,-0.6667171635205783],[100.7316768144335,-0.6693975353192908],[100.7289427369178,-0.6672929535606272],[100.7169190520727,-0.6760544340087704],[100.70419294275018,-0.676801347946853],[100.7066499949014,-0.6712349806590673],[100.72452799826857,-0.6619169916355366],[100.70458296613106,-0.6577479693576421]]]}},{"type":"Feature","properties":{"code":"1373022009","desa":"Lumindai","kecamatan":"Barangin","kecCode":"137302","kabCode":"1373","province":"Sumatera Barat"},"geometry":{"type":"Polygon","coordinates":[[[100.72796320973441,-0.7246187390531984],[100.71424598456457,-0.7358440273570492],[100.70897200485422,-0.7343300025063535],[100.70343198409887,-0.7262559593327943],[100.69610602487317,-0.7244029719094816],[100.69436097318044,-0.7217220173501214],[100.69780300600398,-0.6996009694267682],[100.70300699867408,-0.6927188139474043],[100.72117908844422,-0.6967506968079735],[100.73184093081436,-0.6934605477904798],[100.73432255244393,-0.6950598292703086],[100.72467626859496,-0.7041266781161967],[100.72456095032766,-0.7182053201162079],[100.72796320973441,-0.7246187390531984]]]}},{"type":"Feature","properties":{"code":"1373022010","desa":"Balai Batu Sandaran","kecamatan":"Barangin","kecCode":"137302","kabCode":"1373","province":"Sumatera Barat"},"geometry":{"type":"Polygon","coordinates":[[[100.70300699867408,-0.6927188139474043],[100.70419294275018,-0.676801347946853],[100.7169190520727,-0.6760544340087704],[100.72958439330517,-0.6670534587040919],[100.7316768144335,-0.6693975353192908],[100.73331587742587,-0.6667171635205783],[100.73710133975509,-0.6663762422244784],[100.74173227992083,-0.6691037178139335],[100.742592076763,-0.6774329652015154],[100.74818354143734,-0.6808380682607662],[100.74571680538632,-0.686222778790711],[100.73937433305906,-0.6877548575314573],[100.73842543228795,-0.6959522993807293],[100.73184093081436,-0.6934605477904798],[100.72117908844422,-0.6967506968079735],[100.70300699867408,-0.6927188139474043]]]}},{"type":"Feature","properties":{"code":"1373032001","desa":"Silungkang Duo","kecamatan":"Silungkang","kecCode":"137303","kabCode":"1373","province":"Sumatera Barat"},"geometry":{"type":"Polygon","coordinates":[[[100.75206462058583,-0.7404641855456776],[100.74438097490211,-0.7369789663819852],[100.73723690625825,-0.7243826184529633],[100.75031389956689,-0.7237913870534092],[100.75519771560215,-0.720805775460065],[100.75674571594207,-0.7168850209252483],[100.76160489504991,-0.71992741751115],[100.75983730274936,-0.7218814509608577],[100.76160714425434,-0.7257654376132204],[100.75478191405415,-0.7297507697660861],[100.75206462058583,-0.7404641855456776]]]}},{"type":"Feature","properties":{"code":"1373032002","desa":"Silungkang Oso","kecamatan":"Silungkang","kecCode":"137303","kabCode":"1373","province":"Sumatera Barat"},"geometry":{"type":"Polygon","coordinates":[[[100.77492228613464,-0.7561316220311471],[100.76457899532441,-0.7429589930322361],[100.75206462058583,-0.7404641855456776],[100.75203459761866,-0.7366019867685031],[100.75478191405415,-0.7297507697660861],[100.76291312803846,-0.7245755077431459],[100.7664980028806,-0.7263323117744758],[100.7751308739907,-0.7211518408782316],[100.78325017555522,-0.7195011064862266],[100.77991421686765,-0.731035396448799],[100.7849393874428,-0.7406915692322099],[100.78249236183306,-0.7474609533244108],[100.77492228613464,-0.7561316220311471]]]}},{"type":"Feature","properties":{"code":"1373032003","desa":"Silungkang Tigo","kecamatan":"Silungkang","kecCode":"137303","kabCode":"1373","province":"Sumatera Barat"},"geometry":{"type":"Polygon","coordinates":[[[100.76816856282898,-0.7079237479908281],[100.77452312744043,-0.6962906648035991],[100.77505280114593,-0.7038095160092271],[100.7842702118009,-0.7186933633043053],[100.7664980028806,-0.7263323117744758],[100.76291312803846,-0.7245755077431459],[100.76145833343537,-0.7260749977509093],[100.75983730274936,-0.7218814509608577],[100.76160489504991,-0.71992741751115],[100.75674571594207,-0.7168850209252483],[100.76816856282898,-0.7079237479908281]]]}},{"type":"Feature","properties":{"code":"1373032004","desa":"Muaro Kalaban","kecamatan":"Silungkang","kecCode":"137303","kabCode":"1373","province":"Sumatera Barat"},"geometry":{"type":"Polygon","coordinates":[[[100.7938799157256,-0.6958149198444775],[100.79761026580121,-0.6988854229422621],[100.79846287795952,-0.7040700541022957],[100.80415154315926,-0.7073454065741424],[100.7998793920204,-0.7170323154870573],[100.80179773138023,-0.718904464765227],[100.78488805324109,-0.7189529166397104],[100.77505280114593,-0.7038095160092271],[100.77452312744043,-0.6962906648035991],[100.77923583936257,-0.6938392028409254],[100.78953752933357,-0.697785911809926],[100.7938799157256,-0.6958149198444775]]]}},{"type":"Feature","properties":{"code":"1373032005","desa":"Taratak Boncah","kecamatan":"Silungkang","kecCode":"137303","kabCode":"1373","province":"Sumatera Barat"},"geometry":{"type":"Polygon","coordinates":[[[100.80457994241051,-0.7675688139911696],[100.78699097485365,-0.7669570204924281],[100.77669398833694,-0.7621390060579943],[100.77492228613464,-0.7561316220311471],[100.78249236183306,-0.7474609533244108],[100.7849393874428,-0.7406915692322099],[100.77991421686765,-0.731035396448799],[100.7842702118009,-0.7186933633043053],[100.80350459965763,-0.7197246896377835],[100.81189166716676,-0.7355111100271321],[100.8108302809927,-0.7430796640642428],[100.806752529106,-0.746069355881707],[100.80863482993351,-0.7519406571946389],[100.8071145547929,-0.7570816244706992],[100.80990170489979,-0.7583345869235795],[100.81178006489813,-0.7675515281221417],[100.80957797504357,-0.772782021109266],[100.80457994241051,-0.7675688139911696]]]}},{"type":"Feature","properties":{"code":"1373042001","desa":"Talawi Hilie","kecamatan":"Talawi","kecCode":"137304","kabCode":"1373","province":"Sumatera Barat"},"geometry":{"type":"Polygon","coordinates":[[[100.74805802935462,-0.6142271109053856],[100.739113055723,-0.6091048971918812],[100.73194444368117,-0.6000469597282012],[100.72017097541027,-0.5979156483196818],[100.7160118609587,-0.5942093047509469],[100.71855334326222,-0.5905533933637934],[100.7221469118506,-0.5900785216464033],[100.72873211659395,-0.5949192367679048],[100.73835257730963,-0.5925331033572245],[100.74574446043857,-0.593765653897634],[100.7517434870723,-0.6030187667282022],[100.75135189077719,-0.6067839691261643],[100.74870108238912,-0.6063925221188768],[100.74805802935462,-0.6142271109053856]]]}},{"type":"Feature","properties":{"code":"1373042002","desa":"Talawi Mudiak","kecamatan":"Talawi","kecCode":"137304","kabCode":"1373","province":"Sumatera Barat"},"geometry":{"type":"Polygon","coordinates":[[[100.70046427800405,-0.5981731359123589],[100.70539998672005,-0.5863789859454708],[100.7064713193959,-0.5686157729634692],[100.71085612231224,-0.5651822792065597],[100.71281388884995,-0.566005555478828],[100.71598871960377,-0.5614523985812531],[100.72769781080541,-0.5595741321145624],[100.73663334155555,-0.5794714929668372],[100.73481920124523,-0.5850708923533364],[100.73835257730963,-0.5925331033572245],[100.72873211659395,-0.5949192367679048],[100.7221469118506,-0.5900785216464033],[100.71855334326222,-0.5905533933637934],[100.7160118609587,-0.5942093047509469],[100.7093609679344,-0.5931137443403862],[100.70046427800405,-0.5981731359123589]]]}},{"type":"Feature","properties":{"code":"1373042003","desa":"Bukit Gadang","kecamatan":"Talawi","kecCode":"137304","kabCode":"1373","province":"Sumatera Barat"},"geometry":{"type":"Polygon","coordinates":[[[100.72769781080541,-0.5595741321145624],[100.73136666703812,-0.556705555594171],[100.73582320707537,-0.5589869485635006],[100.74026666737285,-0.5575666663448492],[100.74420900024523,-0.5609942767369535],[100.74694999984268,-0.5583499992285057],[100.75332678939986,-0.5584243803562037],[100.75435449056731,-0.5713242746564539],[100.74877802028946,-0.5810884380310118],[100.74926447167807,-0.5862420497750128],[100.74521595135514,-0.5909951313591274],[100.74032526000279,-0.5932218491454155],[100.73618937144236,-0.5887934524972155],[100.73481920124523,-0.5850708923533364],[100.73663334155555,-0.5794714929668372],[100.72769781080541,-0.5595741321145624]]]}},{"type":"Feature","properties":{"code":"1373042004","desa":"Batu Tanjung","kecamatan":"Talawi","kecCode":"137304","kabCode":"1373","province":"Sumatera Barat"},"geometry":{"type":"Polygon","coordinates":[[[100.79959652106265,-0.5959028055035026],[100.79915626784752,-0.6003897740972131],[100.80853833627525,-0.6209821750926887],[100.78994377558483,-0.6192256840254841],[100.78608266138576,-0.622707017218505],[100.779598410938,-0.6215607943999079],[100.78065196761428,-0.6129456309505263],[100.77630326798152,-0.6115210032077042],[100.77487583255366,-0.6072626242914294],[100.76482193998059,-0.6058374560560551],[100.76333374725469,-0.602820859221001],[100.75345903200878,-0.6000367047588784],[100.74943099194677,-0.6018205262231413],[100.74574446043857,-0.593765653897634],[100.74032526000279,-0.5932218491454155],[100.74926447167807,-0.5862420497750128],[100.74877802028946,-0.5810884380310118],[100.75299813305747,-0.5741974853833348],[100.75650672560494,-0.5816228547603076],[100.7592221107119,-0.5829496317679941],[100.7640343533028,-0.580844995150643],[100.77108431059251,-0.5904987910258602],[100.77559188535729,-0.5898940643997309],[100.78786593876212,-0.5966281321152068],[100.79959652106265,-0.5959028055035026]]]}},{"type":"Feature","properties":{"code":"1373042005","desa":"Kumbayau","kecamatan":"Talawi","kecCode":"137304","kabCode":"1373","province":"Sumatera Barat"},"geometry":{"type":"Polygon","coordinates":[[[100.77176699405156,-0.5601664669822468],[100.77582775324828,-0.5635771332476417],[100.77343481826232,-0.5727368029204277],[100.76730418304169,-0.5770023683191812],[100.7654377498523,-0.5824150729457656],[100.76382754700376,-0.5807445687572148],[100.7592221107119,-0.5829496317679941],[100.75650672560494,-0.5816228547603076],[100.75281495824379,-0.5732962864531554],[100.75486692157125,-0.5682041127939432],[100.75332678939986,-0.5584243803562037],[100.77176699405156,-0.5601664669822468]]]}},{"type":"Feature","properties":{"code":"1373042006","desa":"Tumpuk Tangah","kecamatan":"Talawi","kecCode":"137304","kabCode":"1373","province":"Sumatera Barat"},"geometry":{"type":"Polygon","coordinates":[[[100.81267800018963,-0.584452999652465],[100.79959652106265,-0.5959028055035026],[100.78786593876212,-0.5966281321152068],[100.77559188535729,-0.5898940643997309],[100.77015723726673,-0.5900253501297581],[100.76741772784588,-0.5854524549119763],[100.76892256522427,-0.5826392451532546],[100.77483616255891,-0.5836039892798788],[100.77314774297399,-0.5805754719310597],[100.76938518278,-0.5802201309052759],[100.7662306218458,-0.5839945936223087],[100.76500895489943,-0.5822791691969291],[100.76730418304169,-0.5770023683191812],[100.77343481826232,-0.5727368029204277],[100.7758849474324,-0.5640795637898097],[100.77309860491674,-0.5600580474144714],[100.78266666663342,-0.5477222213906958],[100.78861018441255,-0.5517381997408802],[100.79298979284471,-0.5641520059792522],[100.79872942082618,-0.5633266423804474],[100.80397221474594,-0.566611110380605],[100.81258760033757,-0.5776804247655867],[100.81267800018963,-0.584452999652465]]]}},{"type":"Feature","properties":{"code":"1373042007","desa":"Datar Mansiang","kecamatan":"Talawi","kecCode":"137304","kabCode":"1373","province":"Sumatera Barat"},"geometry":{"type":"MultiPolygon","coordinates":[[[[100.77281686800409,-0.585401414788621],[100.77208223340841,-0.5846838619166594],[100.77255989032676,-0.5844755537499995],[100.77281686800409,-0.585401414788621]]],[[[100.76695550599186,-0.585434453182581],[100.76938518278,-0.5802201309052759],[100.77490721439646,-0.5828072250214714],[100.76892256522427,-0.5826392451532546],[100.76695550599186,-0.585434453182581]]],[[[100.78609919632088,-0.5817723823387531],[100.78563540065329,-0.5806958587772765],[100.78699013758482,-0.5807432809280731],[100.78609919632088,-0.5817723823387531]]],[[[100.78145735727126,-0.5788464074881985],[100.78149281124428,-0.5782147470661073],[100.78197765824238,-0.5782074157927843],[100.78145735727126,-0.5788464074881985]]],[[[100.78058398156553,-0.5777850617848358],[100.779377575215,-0.5770676617976334],[100.78025099139016,-0.5769836444342392],[100.78058398156553,-0.5777850617848358]]]]}},{"type":"Feature","properties":{"code":"1373042008","desa":"Sijantang Koto","kecamatan":"Talawi","kecCode":"137304","kabCode":"1373","province":"Sumatera Barat"},"geometry":{"type":"Polygon","coordinates":[[[100.7503445970256,-0.6242720543135261],[100.74775123643049,-0.6154956810923611],[100.74870108238912,-0.6063925221188768],[100.75135189077719,-0.6067839691261643],[100.75120103130263,-0.599786204898524],[100.76333374725469,-0.602820859221001],[100.76682050965881,-0.6086624910003497],[100.76233429559132,-0.6119945097542772],[100.7642649880388,-0.6143482181086033],[100.75351599956376,-0.6185292580269552],[100.75391848574958,-0.6216707419158672],[100.7503445970256,-0.6242720543135261]]]}},{"type":"Feature","properties":{"code":"1373042009","desa":"Salak","kecamatan":"Talawi","kecCode":"137304","kabCode":"1373","province":"Sumatera Barat"},"geometry":{"type":"Polygon","coordinates":[[[100.76482193998059,-0.6058374560560551],[100.77487583255366,-0.6072626242914294],[100.77630326798152,-0.6115210032077042],[100.78065196761428,-0.6129456309505263],[100.779598410938,-0.6215607943999079],[100.78608266138576,-0.622707017218505],[100.77219402273602,-0.627623069447056],[100.7503445970256,-0.6242720543135261],[100.75391848574958,-0.6216707419158672],[100.75351599956376,-0.6185292580269552],[100.7642649880388,-0.6143482181086033],[100.76221080158727,-0.6122912383650775],[100.76682050965881,-0.6086624910003497],[100.76482193998059,-0.6058374560560551]]]}},{"type":"Feature","properties":{"code":"1373042010","desa":"Sikalang","kecamatan":"Talawi","kecCode":"137304","kabCode":"1373","province":"Sumatera Barat"},"geometry":{"type":"Polygon","coordinates":[[[100.76539238085375,-0.6373478209322899],[100.75434990042758,-0.6390384402570228],[100.74425909068451,-0.6249435843798529],[100.7596970282953,-0.6244729727509959],[100.77219402273602,-0.627623069447056],[100.76539238085375,-0.6373478209322899]]]}},{"type":"Feature","properties":{"code":"1373042011","desa":"Rantih","kecamatan":"Talawi","kecCode":"137304","kabCode":"1373","province":"Sumatera Barat"},"geometry":{"type":"Polygon","coordinates":[[[100.80853833627525,-0.6209821750926887],[100.80665739072604,-0.632545323400424],[100.80144307473819,-0.6369556940375958],[100.79621634271012,-0.6467124236161009],[100.7996163448185,-0.650367075053001],[100.79927368693116,-0.6576664880823603],[100.79490101586923,-0.6657011328564625],[100.7893255995968,-0.6692723523885657],[100.78875214869275,-0.6730124151381432],[100.77684136293861,-0.670875695206815],[100.76739600292325,-0.6643845073960047],[100.76200127573833,-0.6560376018201421],[100.76577393262096,-0.6352817643313905],[100.77284597995805,-0.6267439039069801],[100.7854813395922,-0.6231580092377385],[100.78994377558483,-0.6192256840254841],[100.80853833627525,-0.6209821750926887]]]}}]}