{"type":"FeatureCollection","features":[{"type":"Feature","properties":{"code":"1374011001","desa":"Ganting","kecamatan":"Padang Panjang Timur","kecCode":"137401","kabCode":"1374","province":"Sumatera Barat"},"geometry":{"type":"Polygon","coordinates":[[[100.40866083013327,-0.45930588984107223],[100.41028039132702,-0.4597109202084836],[100.41307991160869,-0.45225257179278644],[100.41515110693807,-0.4553316993890345],[100.424314130193,-0.4576449778214342],[100.42674300298728,-0.4650574275379647],[100.4242064399753,-0.4690031157764222],[100.41672519301329,-0.46895885833998247],[100.40974865367745,-0.4629680731001447],[100.40866083013327,-0.45930588984107223]]]}},{"type":"Feature","properties":{"code":"1374011002","desa":"Sigando","kecamatan":"Padang Panjang Timur","kecCode":"137401","kabCode":"1374","province":"Sumatera Barat"},"geometry":{"type":"Polygon","coordinates":[[[100.424314130193,-0.4576449778214342],[100.43313630679518,-0.4584231099257261],[100.4362709729271,-0.46183335710707474],[100.43678314042965,-0.4713359805437546],[100.4229956314433,-0.4714560993920088],[100.42195877697606,-0.4689473173401604],[100.4245386000764,-0.4688181863856554],[100.42677122101509,-0.46479230649973696],[100.424314130193,-0.4576449778214342]]]}},{"type":"Feature","properties":{"code":"1374011003","desa":"Ekor Lubuk","kecamatan":"Padang Panjang Timur","kecCode":"137401","kabCode":"1374","province":"Sumatera Barat"},"geometry":{"type":"Polygon","coordinates":[[[100.4229956314433,-0.4714560993920088],[100.43612281681457,-0.4717799461597863],[100.43580667273982,-0.47266699515688876],[100.43545060596072,-0.47324557939051654],[100.43529279382744,-0.47415890567847774],[100.43482758262688,-0.47510166677693766],[100.43532773968349,-0.4787800423294179],[100.43401421778195,-0.4806179957861412],[100.43542106682884,-0.4831580778424839],[100.43442138134174,-0.4838857876575991],[100.42859861013778,-0.4843170143768886],[100.42761114284002,-0.4804648628256357],[100.42355774819156,-0.4801386670287135],[100.42086772756363,-0.473436965913607],[100.4229956314433,-0.4714560993920088]]]}},{"type":"Feature","properties":{"code":"1374011004","desa":"Ngalau","kecamatan":"Padang Panjang Timur","kecCode":"137401","kabCode":"1374","province":"Sumatera Barat"},"geometry":{"type":"Polygon","coordinates":[[[100.42355774819156,-0.4801386670287135],[100.41526658078811,-0.4783884865042561],[100.40933525421865,-0.4656256632727566],[100.42195877697606,-0.4689473173401604],[100.42303962627778,-0.47134231536822546],[100.42086772756363,-0.473436965913607],[100.42355774819156,-0.4801386670287135]]]}},{"type":"Feature","properties":{"code":"1374011005","desa":"Guguk Malintang","kecamatan":"Padang Panjang Timur","kecCode":"137401","kabCode":"1374","province":"Sumatera Barat"},"geometry":{"type":"Polygon","coordinates":[[[100.4046429047463,-0.45402264981743595],[100.40683832792654,-0.45402450871614763],[100.40974865367745,-0.4629680731001447],[100.41367719634559,-0.46510613571928167],[100.40933525421865,-0.4656256632727566],[100.41137816766837,-0.4704950811566776],[100.40631189807567,-0.46851016588727523],[100.40528183259056,-0.4620420043180702],[100.40093646404665,-0.4619152754527921],[100.4046429047463,-0.45402264981743595]]]}},{"type":"Feature","properties":{"code":"1374011006","desa":"Koto Panjang","kecamatan":"Padang Panjang Timur","kecCode":"137401","kabCode":"1374","province":"Sumatera Barat"},"geometry":{"type":"Polygon","coordinates":[[[100.41127433284423,-0.47047187415131797],[100.41357431570219,-0.4736178321673637],[100.40901256667667,-0.47632998960441253],[100.40746257613705,-0.48119232442787596],[100.39804588021325,-0.4834716120843461],[100.40136984734062,-0.4688874117001325],[100.4047925312504,-0.47109256644174174],[100.41127433284423,-0.47047187415131797]]]}},{"type":"Feature","properties":{"code":"1374011007","desa":"Koto Katik","kecamatan":"Padang Panjang Timur","kecCode":"137401","kabCode":"1374","province":"Sumatera Barat"},"geometry":{"type":"Polygon","coordinates":[[[100.41725056256348,-0.47846444504276925],[100.41493850540775,-0.4791362224226952],[100.41055308285854,-0.48916537823235107],[100.39932427099835,-0.49139392254174674],[100.3957536432161,-0.4887615205809093],[100.39804588021325,-0.4834716120843461],[100.40746257613705,-0.48119232442787596],[100.41241307690204,-0.47400970455391833],[100.41725056256348,-0.47846444504276925]]]}},{"type":"Feature","properties":{"code":"1374011008","desa":"Tanah Pak Lambik","kecamatan":"Padang Panjang Timur","kecCode":"137401","kabCode":"1374","province":"Sumatera Barat"},"geometry":{"type":"Polygon","coordinates":[[[100.40455539891258,-0.4645022022950725],[100.40631189807567,-0.46851016588727523],[100.40886872641066,-0.4681736009071806],[100.40932966133488,-0.47040025304297733],[100.4047925312504,-0.47109256644174174],[100.40455539891258,-0.4645022022950725]]]}},{"type":"Feature","properties":{"code":"1374021001","desa":"Bukit Surungan","kecamatan":"Padang Panjang Barat","kecCode":"137402","kabCode":"1374","province":"Sumatera Barat"},"geometry":{"type":"Polygon","coordinates":[[[100.40101498655245,-0.4618088973460563],[100.39540704360024,-0.450046577084349],[100.40440283162542,-0.4501550038467263],[100.4045387974276,-0.45493291121588564],[100.40101498655245,-0.4618088973460563]]]}},{"type":"Feature","properties":{"code":"1374021002","desa":"Pasar Usang","kecamatan":"Padang Panjang Barat","kecCode":"137402","kabCode":"1374","province":"Sumatera Barat"},"geometry":{"type":"Polygon","coordinates":[[[100.39477234256962,-0.4632377060370557],[100.3953341742328,-0.45408555829386515],[100.39650473720394,-0.4536810477345609],[100.3975877745562,-0.45814524909142873],[100.40074678083931,-0.45924832063966614],[100.39892704404792,-0.4656453197547455],[100.39477234256962,-0.4632377060370557]]]}},{"type":"Feature","properties":{"code":"1374021003","desa":"Kampung Manggis","kecamatan":"Padang Panjang Barat","kecCode":"137402","kabCode":"1374","province":"Sumatera Barat"},"geometry":{"type":"Polygon","coordinates":[[[100.38585414805054,-0.48919659459988707],[100.37691869823935,-0.49083560003379195],[100.36533772715444,-0.4773462531929769],[100.3682101896486,-0.4754181525938112],[100.3733827384227,-0.47664608331680336],[100.38050015385909,-0.47040067662365165],[100.38957350841076,-0.4673703417449872],[100.39353452379932,-0.4623406754645245],[100.39885961288087,-0.4670396241567948],[100.39104244305433,-0.4734215560303289],[100.38585414805054,-0.48919659459988707]]]}},{"type":"Feature","properties":{"code":"1374021004","desa":"Silaing Bawah","kecamatan":"Padang Panjang Barat","kecCode":"137402","kabCode":"1374","province":"Sumatera Barat"},"geometry":{"type":"Polygon","coordinates":[[[100.36717223441116,-0.4759242865441497],[100.37736915336382,-0.4620897628153046],[100.38055964491173,-0.4635915245105933],[100.38842001367276,-0.45976152416064553],[100.3904690317205,-0.4612119255738619],[100.38834382490768,-0.46642331606135135],[100.37605720167856,-0.47501722403418045],[100.36717223441116,-0.4759242865441497]]]}},{"type":"Feature","properties":{"code":"1374021005","desa":"Silaing Atas","kecamatan":"Padang Panjang Barat","kecCode":"137402","kabCode":"1374","province":"Sumatera Barat"},"geometry":{"type":"Polygon","coordinates":[[[100.39106649901976,-0.46281415952803345],[100.39087936988705,-0.4587307832857885],[100.39657398590076,-0.460556050905785],[100.38286979730339,-0.47067268556938646],[100.39106649901976,-0.46281415952803345]]]}},{"type":"Feature","properties":{"code":"1374021006","desa":"Pasar Baru","kecamatan":"Padang Panjang Barat","kecCode":"137402","kabCode":"1374","province":"Sumatera Barat"},"geometry":{"type":"Polygon","coordinates":[[[100.3997706962607,-0.46749174392583615],[100.40033995092807,-0.4629590385108637],[100.4010769300563,-0.46332764723474185],[100.3997706962607,-0.46749174392583615]]]}},{"type":"Feature","properties":{"code":"1374021007","desa":"Tanah Hitam","kecamatan":"Padang Panjang Barat","kecCode":"137402","kabCode":"1374","province":"Sumatera Barat"},"geometry":{"type":"Polygon","coordinates":[[[100.39932427099835,-0.49139392254174674],[100.38585414805054,-0.48919659459988707],[100.39104244305433,-0.4734215560303289],[100.39891101183376,-0.46658518233823604],[100.40136984734062,-0.4688874117001325],[100.40112252928134,-0.4733707335429381],[100.3957536432161,-0.4887615205809093],[100.39932427099835,-0.49139392254174674]]]}},{"type":"Feature","properties":{"code":"1374021008","desa":"Balai-Balai","kecamatan":"Padang Panjang Barat","kecCode":"137402","kabCode":"1374","province":"Sumatera Barat"},"geometry":{"type":"Polygon","coordinates":[[[100.40113088398317,-0.46200575444510716],[100.40528183259056,-0.4620420043180702],[100.40465037361594,-0.4698569627029989],[100.3997706962607,-0.46749174392583615],[100.40113088398317,-0.46200575444510716]]]}}]}