{"type":"FeatureCollection","features":[{"type":"Feature","properties":{"code":"1375011001","desa":"Tarok Dipo","kecamatan":"Guguak Panjang","kecCode":"137501","kabCode":"1375","province":"Sumatera Barat"},"geometry":{"type":"Polygon","coordinates":[[[100.377669196876,-0.3068393179368203],[100.38807318023316,-0.308008872766626],[100.38904014029032,-0.3175545836218142],[100.377097471771,-0.3140848112135553],[100.37595268966491,-0.311801544057082],[100.37285681758812,-0.31274730439463416],[100.37124435024663,-0.3088826216900575],[100.37726842929463,-0.3095034102079057],[100.377669196876,-0.3068393179368203]]]}},{"type":"Feature","properties":{"code":"1375011002","desa":"Bukik Cangang/Kayu Rmg.","kecamatan":"Guguak Panjang","kecCode":"137501","kabCode":"1375","province":"Sumatera Barat"},"geometry":{"type":"Polygon","coordinates":[[[100.36536962430877,-0.3142229093082282],[100.36427023278509,-0.3108712988235323],[100.36628424742013,-0.30700913422062065],[100.36973006459084,-0.30591131920965414],[100.37267222544288,-0.31236086930910184],[100.36536962430877,-0.3142229093082282]]]}},{"type":"Feature","properties":{"code":"1375011003","desa":"Pakan Kurai","kecamatan":"Guguak Panjang","kecCode":"137501","kabCode":"1375","province":"Sumatera Barat"},"geometry":{"type":"Polygon","coordinates":[[[100.38276304327991,-0.3067825940981406],[100.377669196876,-0.3068393179368203],[100.37696802155699,-0.30939633422723634],[100.37325072604023,-0.30094991506979785],[100.37607142895335,-0.2993697028145386],[100.38276304327991,-0.3067825940981406]]]}},{"type":"Feature","properties":{"code":"1375011004","desa":"Aur Tajungkang/Tgh. Sawah","kecamatan":"Guguak Panjang","kecCode":"137501","kabCode":"1375","province":"Sumatera Barat"},"geometry":{"type":"Polygon","coordinates":[[[100.3768577376945,-0.3092070943858415],[100.36974957538268,-0.30719580290025844],[100.37177195281345,-0.3035805912315655],[100.36899938431417,-0.2985399766045548],[100.3727002204389,-0.2997633027987855],[100.3768577376945,-0.3092070943858415]]]}},{"type":"Feature","properties":{"code":"1375011005","desa":"Benteng Pasar Atas","kecamatan":"Guguak Panjang","kecCode":"137501","kabCode":"1375","province":"Sumatera Barat"},"geometry":{"type":"Polygon","coordinates":[[[100.36973006459084,-0.30591131920965414],[100.36665210341191,-0.3031649515620299],[100.3669561246255,-0.2993226134129403],[100.37081077989363,-0.30095293049657995],[100.36973006459084,-0.30591131920965414]]]}},{"type":"Feature","properties":{"code":"1375011006","desa":"Kayu Kubu","kecamatan":"Guguak Panjang","kecCode":"137501","kabCode":"1375","province":"Sumatera Barat"},"geometry":{"type":"Polygon","coordinates":[[[100.35991235287287,-0.3093995322163989],[100.35843789908982,-0.3048473393920742],[100.36756033684013,-0.30146674375787086],[100.36757590140677,-0.30644403622041605],[100.36427023278509,-0.3108712988235323],[100.35991235287287,-0.3093995322163989]]]}},{"type":"Feature","properties":{"code":"1375011007","desa":"Bukik Apik Puhun","kecamatan":"Guguak Panjang","kecCode":"137501","kabCode":"1375","province":"Sumatera Barat"},"geometry":{"type":"Polygon","coordinates":[[[100.35831585209495,-0.3051082327173046],[100.34980765130211,-0.30114521993898985],[100.34521454741348,-0.29538598404535077],[100.34305537590497,-0.29712040305169096],[100.3423832351982,-0.29346027744144165],[100.34873059174345,-0.2907120383046021],[100.3608493169425,-0.29885160158575846],[100.36667402798406,-0.2992538035852841],[100.36590134487125,-0.30173461132558516],[100.35831585209495,-0.3051082327173046]]]}},{"type":"Feature","properties":{"code":"1375021001","desa":"Campago Guguk Bulek","kecamatan":"Mandiangin K. Selayan","kecCode":"137502","kabCode":"1375","province":"Sumatera Barat"},"geometry":{"type":"Polygon","coordinates":[[[100.39496533977865,-0.2853409309199031],[100.393367412676,-0.29042865473365037],[100.38737274055961,-0.28952235574811824],[100.38669402490939,-0.2931718738548177],[100.37817942004425,-0.2957696645074542],[100.37732018707702,-0.28792419212554227],[100.3810911829118,-0.28587393931094157],[100.38172830401805,-0.28258222007721406],[100.39496533977865,-0.2853409309199031]]]}},{"type":"Feature","properties":{"code":"1375021002","desa":"Campago Ipuh","kecamatan":"Mandiangin K. Selayan","kecCode":"137502","kabCode":"1375","province":"Sumatera Barat"},"geometry":{"type":"Polygon","coordinates":[[[100.37607142895335,-0.2993697028145386],[100.37167301659649,-0.29973120509568313],[100.36877689293931,-0.2925777727186626],[100.36963200881026,-0.29005899740025],[100.37732018707702,-0.28792419212554227],[100.37845638875137,-0.29338417591069427],[100.37607142895335,-0.2993697028145386]]]}},{"type":"Feature","properties":{"code":"1375021003","desa":"Puhun Tembok","kecamatan":"Mandiangin K. Selayan","kecCode":"137502","kabCode":"1375","province":"Sumatera Barat"},"geometry":{"type":"Polygon","coordinates":[[[100.37169076741502,-0.2997435455927855],[100.362194307921,-0.29936169884830754],[100.35631355832413,-0.2948654987138203],[100.36872544362438,-0.2934086734431838],[100.3718470138287,-0.29622082739779915],[100.37169076741502,-0.2997435455927855]]]}},{"type":"Feature","properties":{"code":"1375021004","desa":"Kubu Gulai Bancah","kecamatan":"Mandiangin K. Selayan","kecCode":"137502","kabCode":"1375","province":"Sumatera Barat"},"geometry":{"type":"Polygon","coordinates":[[[100.35400729999695,-0.2806226387098027],[100.36588186285773,-0.2833845070721856],[100.37067705520201,-0.28163333099826576],[100.374750884246,-0.285070061415186],[100.38161246594261,-0.2847810265045062],[100.3663603543469,-0.29261699575033434],[100.36081471372812,-0.2898830936054853],[100.35400729999695,-0.2806226387098027]]]}},{"type":"Feature","properties":{"code":"1375021005","desa":"Puhun Pintu Kabun","kecamatan":"Mandiangin K. Selayan","kecCode":"137502","kabCode":"1375","province":"Sumatera Barat"},"geometry":{"type":"Polygon","coordinates":[[[100.3327331616062,-0.27940273803327464],[100.33504596429988,-0.2757604612676838],[100.33783110891856,-0.27581870046402157],[100.33654552895307,-0.27108426092659504],[100.34884335773482,-0.27648751547707295],[100.35721800200922,-0.283238124422956],[100.36081471372812,-0.2898830936054853],[100.3688192995711,-0.29227826610203844],[100.3689643764049,-0.2935371128190042],[100.35631355832413,-0.2948654987138203],[100.34842364143798,-0.29066206927382826],[100.3423832351982,-0.29346027744144165],[100.3327331616062,-0.27940273803327464]]]}},{"type":"Feature","properties":{"code":"1375021006","desa":"Pulai Anak Air","kecamatan":"Mandiangin K. Selayan","kecCode":"137502","kabCode":"1375","province":"Sumatera Barat"},"geometry":{"type":"Polygon","coordinates":[[[100.38807318023316,-0.308008872766626],[100.38126182567277,-0.30622100795045154],[100.37607142895335,-0.2993697028145386],[100.3877242315881,-0.30072859371307503],[100.3897671432391,-0.3040742470885795],[100.38807318023316,-0.308008872766626]]]}},{"type":"Feature","properties":{"code":"1375021007","desa":"Koto Selayan","kecamatan":"Mandiangin K. Selayan","kecCode":"137502","kabCode":"1375","province":"Sumatera Barat"},"geometry":{"type":"Polygon","coordinates":[[[100.39826536065793,-0.29929716349835195],[100.39937583992314,-0.30393854208996324],[100.39540911024231,-0.30422149488565253],[100.39291536934888,-0.30828972024941487],[100.39000810758813,-0.3077759753365852],[100.39035053884635,-0.2987962878839647],[100.39826536065793,-0.29929716349835195]]]}},{"type":"Feature","properties":{"code":"1375021008","desa":"Garegeh","kecamatan":"Mandiangin K. Selayan","kecCode":"137502","kabCode":"1375","province":"Sumatera Barat"},"geometry":{"type":"Polygon","coordinates":[[[100.393367412676,-0.29042865473365037],[100.3942662329004,-0.293463767710306],[100.39756741300577,-0.2946258995359787],[100.39826536065793,-0.29929716349835195],[100.39153290362067,-0.2995136087308727],[100.38807339966776,-0.29477988685244627],[100.38888991034118,-0.28956782367206596],[100.393367412676,-0.29042865473365037]]]}},{"type":"Feature","properties":{"code":"1375021009","desa":"Manggis/Ganting","kecamatan":"Mandiangin K. Selayan","kecCode":"137502","kabCode":"1375","province":"Sumatera Barat"},"geometry":{"type":"Polygon","coordinates":[[[100.37817942004425,-0.2957696645074542],[100.38669402490939,-0.2931718738548177],[100.38763140356649,-0.28949594985425614],[100.3911085935868,-0.2991281386180048],[100.38885692140984,-0.3018651209408122],[100.37620608534262,-0.2993330887161026],[100.37817942004425,-0.2957696645074542]]]}},{"type":"Feature","properties":{"code":"1375031001","desa":"Aur Kuning","kecamatan":"Aur Birugo Tigo Baleh","kecCode":"137503","kabCode":"1375","province":"Sumatera Barat"},"geometry":{"type":"Polygon","coordinates":[[[100.39045331786639,-0.32536280068864487],[100.38576176968996,-0.3238516437759489],[100.3849464119474,-0.3254898919806987],[100.38074833526753,-0.32257473507499046],[100.38127227759361,-0.3142847484906848],[100.38904014029032,-0.3175545836218142],[100.39045331786639,-0.32536280068864487]]]}},{"type":"Feature","properties":{"code":"1375031002","desa":"Birugo","kecamatan":"Aur Birugo Tigo Baleh","kecCode":"137503","kabCode":"1375","province":"Sumatera Barat"},"geometry":{"type":"Polygon","coordinates":[[[100.37126418029771,-0.322090531992067],[100.36929239063136,-0.3195365257324761],[100.3752437495994,-0.31721759775893166],[100.3777083290762,-0.31366115678597506],[100.38126931702544,-0.31435654136958074],[100.38074102557793,-0.32251370528238965],[100.37126418029771,-0.322090531992067]]]}},{"type":"Feature","properties":{"code":"1375031003","desa":"Belakang Balok","kecamatan":"Aur Birugo Tigo Baleh","kecCode":"137503","kabCode":"1375","province":"Sumatera Barat"},"geometry":{"type":"Polygon","coordinates":[[[100.36929239063136,-0.3195365257324761],[100.36536962430877,-0.3142229093082282],[100.37161218735262,-0.3115526890567388],[100.37349381188994,-0.31690343309239766],[100.36929239063136,-0.3195365257324761]]]}},{"type":"Feature","properties":{"code":"1375031004","desa":"Sapiran","kecamatan":"Aur Birugo Tigo Baleh","kecCode":"137503","kabCode":"1375","province":"Sumatera Barat"},"geometry":{"type":"Polygon","coordinates":[[[100.37107749902742,-0.3133198343922117],[100.37595268966491,-0.311801544057082],[100.3771759538073,-0.31437675722979097],[100.37403438537864,-0.31798775647392674],[100.37107749902742,-0.3133198343922117]]]}},{"type":"Feature","properties":{"code":"1375031005","desa":"Kubu Tanjung","kecamatan":"Aur Birugo Tigo Baleh","kecCode":"137503","kabCode":"1375","province":"Sumatera Barat"},"geometry":{"type":"Polygon","coordinates":[[[100.40771199860988,-0.32210644729425497],[100.40560194177624,-0.3226616887249173],[100.403910896171,-0.3198308909249537],[100.40039029767415,-0.3209882545450896],[100.39835337280999,-0.3159260588869848],[100.39473882393763,-0.3139523167946716],[100.4023650775863,-0.3111443177078871],[100.40771199860988,-0.32210644729425497]]]}},{"type":"Feature","properties":{"code":"1375031006","desa":"Pakan Labuh","kecamatan":"Aur Birugo Tigo Baleh","kecCode":"137503","kabCode":"1375","province":"Sumatera Barat"},"geometry":{"type":"Polygon","coordinates":[[[100.40039029767415,-0.3209882545450896],[100.39045331786639,-0.32536280068864487],[100.38885863102102,-0.31429092323580377],[100.3961042403185,-0.31454588823020113],[100.40039029767415,-0.3209882545450896]]]}},{"type":"Feature","properties":{"code":"1375031007","desa":"Parit Rantang","kecamatan":"Aur Birugo Tigo Baleh","kecCode":"137503","kabCode":"1375","province":"Sumatera Barat"},"geometry":{"type":"Polygon","coordinates":[[[100.38873840785128,-0.31499073068519445],[100.38808175077223,-0.3079868177927874],[100.39341050369183,-0.3084418765461979],[100.39508079294426,-0.31455811181544596],[100.38873840785128,-0.31499073068519445]]]}},{"type":"Feature","properties":{"code":"1375031008","desa":"Ladang Cakiah","kecamatan":"Aur Birugo Tigo Baleh","kecCode":"137503","kabCode":"1375","province":"Sumatera Barat"},"geometry":{"type":"Polygon","coordinates":[[[100.39932145791903,-0.3039904923271888],[100.40225731812079,-0.31120765606022455],[100.39356920255669,-0.3131986597398815],[100.39423557141453,-0.305547277243153],[100.39932145791903,-0.3039904923271888]]]}}]}