{"type":"FeatureCollection","features":[{"type":"Feature","properties":{"code":"1377011001","desa":"Karan Aur","kecamatan":"Pariaman Tengah","kecCode":"137701"},"geometry":{"type":"Polygon","coordinates":[[[100.103611117659,-0.6694554516589788],[100.10480731490571,-0.6708501814404189],[100.10575191511884,-0.6703839414159414],[100.103611117659,-0.6694554516589788]]]}},{"type":"Feature","properties":{"code":"1377011001","desa":"Karan Aur","kecamatan":"Pariaman Tengah","kecCode":"137701"},"geometry":{"type":"Polygon","coordinates":[[[100.11141500000228,-0.6589879995594952],[100.1109727520909,-0.6612109518844052],[100.11004958002415,-0.6604172264351779],[100.11141500000228,-0.6589879995594952]]]}},{"type":"Feature","properties":{"code":"1377011001","desa":"Karan Aur","kecamatan":"Pariaman Tengah","kecCode":"137701"},"geometry":{"type":"Polygon","coordinates":[[[100.12060011600259,-0.6353958001653315],[100.13553599988654,-0.6408259993036403],[100.12833396004429,-0.6467576028577042],[100.12060011600259,-0.6353958001653315]]]}},{"type":"Feature","properties":{"code":"1377011002","desa":"Kampung Perak","kecamatan":"Pariaman Tengah","kecCode":"137701"},"geometry":{"type":"Polygon","coordinates":[[[100.1166111748659,-0.6247476113144295],[100.11856637293982,-0.6250578666281217],[100.1205729879531,-0.629818206640424],[100.1166111748659,-0.6247476113144295]]]}},{"type":"Feature","properties":{"code":"1377011003","desa":"Lohong","kecamatan":"Pariaman Tengah","kecCode":"137701"},"geometry":{"type":"Polygon","coordinates":[[[100.10278200028914,-0.6468349994122276],[100.10055500011322,-0.6473749991327993],[100.10118400034139,-0.6461789988389546],[100.10278200028914,-0.6468349994122276]]]}},{"type":"Feature","properties":{"code":"1377011003","desa":"Lohong","kecamatan":"Pariaman Tengah","kecCode":"137701"},"geometry":{"type":"Polygon","coordinates":[[[100.12475389027985,-0.6296059603425308],[100.1208479961382,-0.6348131456001375],[100.1175061792668,-0.6309537886807025],[100.12475389027985,-0.6296059603425308]]]}},{"type":"Feature","properties":{"code":"1377011004","desa":"Pasir","kecamatan":"Pariaman Tengah","kecCode":"137701"},"geometry":{"type":"Polygon","coordinates":[[[100.09990337564034,-0.6326611515832588],[100.09814893412606,-0.6338389190219081],[100.09887399993521,-0.6324709989300319],[100.09990337564034,-0.6326611515832588]]]}},{"type":"Feature","properties":{"code":"1377011004","desa":"Pasir","kecamatan":"Pariaman Tengah","kecCode":"137701"},"geometry":{"type":"Polygon","coordinates":[[[100.11366267918935,-0.6228031952146453],[100.11900737708883,-0.6296813181340025],[100.1175061792668,-0.6309537886807025],[100.11366267918935,-0.6228031952146453]]]}},{"type":"Feature","properties":{"code":"1377011005","desa":"Kampung Pondok","kecamatan":"Pariaman Tengah","kecCode":"137701"},"geometry":{"type":"Polygon","coordinates":[[[100.1183749099742,-0.617745581602303],[100.12196141798512,-0.622850560708101],[100.11851302875334,-0.6239233017211196],[100.1183749099742,-0.617745581602303]]]}},{"type":"Feature","properties":{"code":"1377011006","desa":"Pondok II","kecamatan":"Pariaman Tengah","kecCode":"137701"},"geometry":{"type":"Polygon","coordinates":[[[100.12319631395876,-0.6287727231793112],[100.12004093194349,-0.6276528540938907],[100.11848017022372,-0.6244582679362426],[100.12319631395876,-0.6287727231793112]]]}},{"type":"Feature","properties":{"code":"1377011007","desa":"Kampung Jawa I","kecamatan":"Pariaman Tengah","kecCode":"137701"},"geometry":{"type":"Polygon","coordinates":[[[100.12110948931154,-0.6249757441362207],[100.12237265367507,-0.6219630809357339],[100.12529896397608,-0.6249189501503797],[100.12110948931154,-0.6249757441362207]]]}},{"type":"Feature","properties":{"code":"1377011008","desa":"Kampung Jawa II","kecamatan":"Pariaman Tengah","kecCode":"137701"},"geometry":{"type":"Polygon","coordinates":[[[100.12868009830794,-0.6240073199838251],[100.12631242258026,-0.6208473271480115],[100.12937405836618,-0.6212373487297429],[100.12868009830794,-0.6240073199838251]]]}},{"type":"Feature","properties":{"code":"1377011009","desa":"Alai Gelombang","kecamatan":"Pariaman Tengah","kecCode":"137701"},"geometry":{"type":"Polygon","coordinates":[[[100.13622825842741,-0.6308679169151832],[100.13034602944576,-0.6219024675292273],[100.13974279189635,-0.6291965241964484],[100.13622825842741,-0.6308679169151832]]]}},{"type":"Feature","properties":{"code":"1377011010","desa":"Jawi Jawi I","kecamatan":"Pariaman Tengah","kecCode":"137701"},"geometry":{"type":"Polygon","coordinates":[[[100.1236103411444,-0.624704414178596],[100.12311912694622,-0.6301735404716742],[100.12154978299617,-0.6249099299503394],[100.1236103411444,-0.624704414178596]]]}},{"type":"Feature","properties":{"code":"1377011011","desa":"Jawi Jawi II","kecamatan":"Pariaman Tengah","kecCode":"137701"},"geometry":{"type":"Polygon","coordinates":[[[100.12494224518854,-0.6287940092328564],[100.12868009830794,-0.6240073199838251],[100.12923399974936,-0.6252589991041091],[100.12494224518854,-0.6287940092328564]]]}},{"type":"Feature","properties":{"code":"1377011012","desa":"Jalan Baru","kecamatan":"Pariaman Tengah","kecCode":"137701"},"geometry":{"type":"Polygon","coordinates":[[[100.13252498334133,-0.635336055503964],[100.12962726608554,-0.6397278578388121],[100.12826554501895,-0.6364405165047357],[100.13252498334133,-0.635336055503964]]]}},{"type":"Feature","properties":{"code":"1377011013","desa":"Taratak","kecamatan":"Pariaman Tengah","kecCode":"137701"},"geometry":{"type":"Polygon","coordinates":[[[100.12766576286474,-0.6283294536385964],[100.13492025116868,-0.629408372094696],[100.13309267678568,-0.6321434478547269],[100.12766576286474,-0.6283294536385964]]]}},{"type":"Feature","properties":{"code":"1377011014","desa":"Jalan Kereta Api","kecamatan":"Pariaman Tengah","kecCode":"137701"},"geometry":{"type":"Polygon","coordinates":[[[100.13041810291317,-0.6324677469814963],[100.13752910168677,-0.633224927580039],[100.13308349200962,-0.63704886829813],[100.13041810291317,-0.6324677469814963]]]}},{"type":"Feature","properties":{"code":"1377011015","desa":"Ujung Batung","kecamatan":"Pariaman Tengah","kecCode":"137701"},"geometry":{"type":"Polygon","coordinates":[[[100.13984887232766,-0.6414891845607008],[100.1371414093486,-0.6333941224323817],[100.14363287685585,-0.6367568278530651],[100.13984887232766,-0.6414891845607008]]]}},{"type":"Feature","properties":{"code":"1377011016","desa":"Jati Hilir","kecamatan":"Pariaman Tengah","kecCode":"137701"},"geometry":{"type":"Polygon","coordinates":[[[100.13421181382421,-0.6261207168972666],[100.12896266619413,-0.6167981835993582],[100.13542077694733,-0.6110144043078128],[100.14189449093806,-0.6208499675574678],[100.13421181382421,-0.6261207168972666]]]}},{"type":"Feature","properties":{"code":"1377012017","desa":"Pauh Barat","kecamatan":"Pariaman Tengah","kecCode":"137701"},"geometry":{"type":"Polygon","coordinates":[[[100.11851302875334,-0.6239233017211196],[100.11277042491524,-0.6087864238733988],[100.11880318511896,-0.6072784991241243],[100.12107103520013,-0.6112908613004527],[100.11851302875334,-0.6239233017211196]]]}},{"type":"Feature","properties":{"code":"1377012018","desa":"Pauh Timur","kecamatan":"Pariaman Tengah","kecCode":"137701"},"geometry":{"type":"Polygon","coordinates":[[[100.1222206862357,-0.6183492515250231],[100.11792806742642,-0.6043585973953126],[100.12305931033899,-0.6032662934298838],[100.13252311185221,-0.614144981218949],[100.1222206862357,-0.6183492515250231]]]}},{"type":"Feature","properties":{"code":"1377012019","desa":"Rawang","kecamatan":"Pariaman Tengah","kecCode":"137701"},"geometry":{"type":"Polygon","coordinates":[[[100.12688938983352,-0.6229293781915097],[100.12109933776428,-0.6185155901305263],[100.12908503334768,-0.6171578575587362],[100.12688938983352,-0.6229293781915097]]]}},{"type":"Feature","properties":{"code":"1377012020","desa":"Kampung Baru","kecamatan":"Pariaman Tengah","kecCode":"137701"},"geometry":{"type":"Polygon","coordinates":[[[100.1325032449289,-0.63491784107532],[100.12480291682125,-0.6337711497099038],[100.12494224518854,-0.6287940092328564],[100.1325032449289,-0.63491784107532]]]}},{"type":"Feature","properties":{"code":"1377012021","desa":"Cimparuh","kecamatan":"Pariaman Tengah","kecCode":"137701"},"geometry":{"type":"Polygon","coordinates":[[[100.13659347400966,-0.6308840912221951],[100.14223424941117,-0.6185878434622705],[100.15091108927538,-0.6253063241281013],[100.14495312478691,-0.6377554593335958],[100.13659347400966,-0.6308840912221951]]]}},{"type":"Feature","properties":{"code":"1377012025","desa":"Jati Mudik","kecamatan":"Pariaman Tengah","kecCode":"137701"},"geometry":{"type":"Polygon","coordinates":[[[100.14515970805417,-0.6181572363759393],[100.13799847135243,-0.6168466399705006],[100.1383396696401,-0.612175343632465],[100.14515970805417,-0.6181572363759393]]]}},{"type":"Feature","properties":{"code":"1377022005","desa":"Ampalu","kecamatan":"Pariaman Utara","kecCode":"137702"},"geometry":{"type":"Polygon","coordinates":[[[100.11880318511896,-0.6072784991241243],[100.11277042491524,-0.6087864238733988],[100.11090422734827,-0.6046809333020792],[100.11848909509568,-0.5997296663201566],[100.11880318511896,-0.6072784991241243]]]}},{"type":"Feature","properties":{"code":"1377022006","desa":"Apar","kecamatan":"Pariaman Utara","kecCode":"137702"},"geometry":{"type":"Polygon","coordinates":[[[100.1174082323041,-0.5997976649593133],[100.11090422734827,-0.6046809333020792],[100.10672600769914,-0.596608671685479],[100.1114893739355,-0.5931512730492888],[100.1174082323041,-0.5997976649593133]]]}},{"type":"Feature","properties":{"code":"1377022007","desa":"Tanjung Sabar","kecamatan":"Pariaman Utara","kecCode":"137702"},"geometry":{"type":"Polygon","coordinates":[[[100.11848909509568,-0.5997296663201566],[100.11178386593275,-0.593558944725563],[100.11362366929694,-0.58767744420133],[100.12550557422291,-0.5901695519230914],[100.11848909509568,-0.5997296663201566]]]}},{"type":"Feature","properties":{"code":"1377022008","desa":"Cubadak Air Selatan","kecamatan":"Pariaman Utara","kecCode":"137702"},"geometry":{"type":"Polygon","coordinates":[[[100.13011441175074,-0.5848199311406785],[100.119206417742,-0.5900704817072765],[100.12047480626732,-0.5849983395473753],[100.13011441175074,-0.5848199311406785]]]}},{"type":"Feature","properties":{"code":"1377022009","desa":"Sikapak Barat","kecamatan":"Pariaman Utara","kecCode":"137702"},"geometry":{"type":"Polygon","coordinates":[[[100.13274546113416,-0.5655544780241222],[100.1380849996231,-0.5744229993793815],[100.13035039925158,-0.5852783605532031],[100.12075100965141,-0.584797076669613],[100.13286089631337,-0.5754419744238752],[100.12521982993127,-0.5719982229997475],[100.13274546113416,-0.5655544780241222]]]}},{"type":"Feature","properties":{"code":"1377022010","desa":"Sikapak Timur","kecamatan":"Pariaman Utara","kecCode":"137702"},"geometry":{"type":"Polygon","coordinates":[[[100.1456374980721,-0.5751866937675101],[100.14178966236308,-0.584504858158862],[100.12988300000052,-0.5840719991700375],[100.13848907311228,-0.569718051309753],[100.1456374980721,-0.5751866937675101]]]}},{"type":"Feature","properties":{"code":"1377022011","desa":"Manggung","kecamatan":"Pariaman Utara","kecCode":"137702"},"geometry":{"type":"Polygon","coordinates":[[[100.111260530649,-0.5857693157460979],[100.10672600769914,-0.596608671685479],[100.10191355916349,-0.5888863389746449],[100.111260530649,-0.5857693157460979]]]}},{"type":"Feature","properties":{"code":"1377022012","desa":"Cubadak Air Utara","kecamatan":"Pariaman Utara","kecCode":"137702"},"geometry":{"type":"Polygon","coordinates":[[[100.11237428164782,-0.5864097247729928],[100.10630208527304,-0.5750422986199047],[100.11726186314449,-0.5635580595263827],[100.12175128059721,-0.5670988594903716],[100.11237428164782,-0.5864097247729928]]]}},{"type":"Feature","properties":{"code":"1377022013","desa":"Tungkal Selatan","kecamatan":"Pariaman Utara","kecCode":"137702"},"geometry":{"type":"Polygon","coordinates":[[[100.13198380820626,-0.5560467671225464],[100.13615255259828,-0.5603153200691878],[100.12521982993127,-0.5719982229997475],[100.13286089631337,-0.5754419744238752],[100.12372735733173,-0.5782742057430929],[100.12155194856363,-0.5650969650207637],[100.13198380820626,-0.5560467671225464]]]}},{"type":"Feature","properties":{"code":"1377022014","desa":"Naras Hilir","kecamatan":"Pariaman Utara","kecCode":"137702"},"geometry":{"type":"Polygon","coordinates":[[[100.10798987173523,-0.581775772782909],[100.10191355916349,-0.5888863389746449],[100.09927612998945,-0.5854692236708311],[100.10798987173523,-0.581775772782909]]]}},{"type":"Feature","properties":{"code":"1377022015","desa":"Naras I","kecamatan":"Pariaman Utara","kecCode":"137702"},"geometry":{"type":"Polygon","coordinates":[[[100.07572299981665,-0.5962769990173253],[100.07462719209133,-0.5958420086352788],[100.07528600034867,-0.5954509995978652],[100.07572299981665,-0.5962769990173253]]]}},{"type":"Feature","properties":{"code":"1377022015","desa":"Naras I","kecamatan":"Pariaman Utara","kecCode":"137702"},"geometry":{"type":"Polygon","coordinates":[[[100.10665164725576,-0.5782418031698225],[100.09927612998945,-0.5854692236708311],[100.09653962610292,-0.580942790127756],[100.10211309174582,-0.5773429991342477],[100.10665164725576,-0.5782418031698225]]]}},{"type":"Feature","properties":{"code":"1377022016","desa":"Balai Naras","kecamatan":"Pariaman Utara","kecCode":"137702"},"geometry":{"type":"Polygon","coordinates":[[[100.10630208527304,-0.5750422986199047],[100.09653962610292,-0.580942790127756],[100.09265186589094,-0.5732101457903547],[100.10216196989904,-0.5714516609261469],[100.10630208527304,-0.5750422986199047]]]}},{"type":"Feature","properties":{"code":"1377022017","desa":"Padang Birik Birik","kecamatan":"Pariaman Utara","kecCode":"137702"},"geometry":{"type":"Polygon","coordinates":[[[100.09226718538234,-0.5722370199823875],[100.0933710861068,-0.565508035235072],[100.10075881706581,-0.5661862409688792],[100.10216196989904,-0.5714516609261469],[100.09226718538234,-0.5722370199823875]]]}},{"type":"Feature","properties":{"code":"1377022018","desa":"Sintuk","kecamatan":"Pariaman Utara","kecCode":"137702"},"geometry":{"type":"Polygon","coordinates":[[[100.09981531222694,-0.5658000639887986],[100.10842954218968,-0.5607773224881313],[100.11222262807188,-0.5723059044537248],[100.10630208527304,-0.5750422986199047],[100.09981531222694,-0.5658000639887986]]]}},{"type":"Feature","properties":{"code":"1377022019","desa":"Sungai Rambai","kecamatan":"Pariaman Utara","kecCode":"137702"},"geometry":{"type":"Polygon","coordinates":[[[100.11011424127928,-0.5602705023550195],[100.11731947281548,-0.5538050720269406],[100.12038268960946,-0.5532330870184534],[100.11059271388268,-0.5699342905974745],[100.11011424127928,-0.5602705023550195]]]}},{"type":"Feature","properties":{"code":"1377022020","desa":"Tungkal Utara","kecamatan":"Pariaman Utara","kecCode":"137702"},"geometry":{"type":"Polygon","coordinates":[[[100.11899138174692,-0.5529071340384787],[100.12771857555184,-0.5491152874263271],[100.1316475669817,-0.5572835570670824],[100.11934779206699,-0.5653669459953382],[100.11899138174692,-0.5529071340384787]]]}},{"type":"Feature","properties":{"code":"1377022021","desa":"Cubadak Air","kecamatan":"Pariaman Utara","kecCode":"137702"},"geometry":{"type":"Polygon","coordinates":[[[100.11857083987239,-0.5892101227898268],[100.11223223822724,-0.5866798739207518],[100.1209574526244,-0.5745075824163026],[100.1239363327956,-0.5805257834887482],[100.11857083987239,-0.5892101227898268]]]}},{"type":"Feature","properties":{"code":"1377032006","desa":"Pasir Sunur","kecamatan":"Pariaman Selatan","kecCode":"137703"},"geometry":{"type":"Polygon","coordinates":[[[100.15323620009063,-0.6659076864457961],[100.15783530515527,-0.6698766581320065],[100.15906611371024,-0.6743774753859361],[100.15851502444889,-0.6761473555597709],[100.15323620009063,-0.6659076864457961]]]}},{"type":"Feature","properties":{"code":"1377032007","desa":"Balai Kurai Taji","kecamatan":"Pariaman Selatan","kecCode":"137703"},"geometry":{"type":"Polygon","coordinates":[[[100.17476580080113,-0.6323430290002671],[100.17321452872756,-0.6393534628768557],[100.16258967097662,-0.6316763067096631],[100.16614000465755,-0.6292804138561471],[100.17476580080113,-0.6323430290002671]]]}},{"type":"Feature","properties":{"code":"1377032008","desa":"Pauh Kurai Taji","kecamatan":"Pariaman Selatan","kecCode":"137703"},"geometry":{"type":"Polygon","coordinates":[[[100.16809034189582,-0.6245827862679545],[100.17671448688412,-0.6316233096615245],[100.16572150064678,-0.6292686489251849],[100.16809034189582,-0.6245827862679545]]]}},{"type":"Feature","properties":{"code":"1377032009","desa":"Simpang","kecamatan":"Pariaman Selatan","kecCode":"137703"},"geometry":{"type":"Polygon","coordinates":[[[100.16924053072599,-0.6248042982808543],[100.16231723035594,-0.628511591533695],[100.16572080097427,-0.6219135354856344],[100.16924053072599,-0.6248042982808543]]]}},{"type":"Feature","properties":{"code":"1377032010","desa":"Toboh Palabah","kecamatan":"Pariaman Selatan","kecCode":"137703"},"geometry":{"type":"Polygon","coordinates":[[[100.15057541192579,-0.6312394052682836],[100.16140535917003,-0.6209376298731664],[100.16572080097427,-0.6219135354856344],[100.16258967097662,-0.6316763067096631],[100.15057541192579,-0.6312394052682836]]]}},{"type":"Feature","properties":{"code":"1377032011","desa":"Marabau","kecamatan":"Pariaman Selatan","kecCode":"137703"},"geometry":{"type":"Polygon","coordinates":[[[100.14064725716526,-0.6405833981887936],[100.15057541192579,-0.6312394052682836],[100.15728029305113,-0.6314783704241678],[100.15629222500621,-0.639959253401046],[100.14064725716526,-0.6405833981887936]]]}},{"type":"Feature","properties":{"code":"1377032012","desa":"Batang Tajongkek","kecamatan":"Pariaman Selatan","kecCode":"137703"},"geometry":{"type":"Polygon","coordinates":[[[100.16563986918469,-0.6336383522194371],[100.17179197302117,-0.6446378081672429],[100.16627666473634,-0.6421708364966655],[100.16563986918469,-0.6336383522194371]]]}},{"type":"Feature","properties":{"code":"1377032013","desa":"Sikabu","kecamatan":"Pariaman Selatan","kecCode":"137703"},"geometry":{"type":"Polygon","coordinates":[[[100.1696603180693,-0.6442300690418646],[100.16502233890986,-0.646396977415604],[100.16270059785438,-0.6454848616151031],[100.1652421233254,-0.6407135642628904],[100.1696603180693,-0.6442300690418646]]]}},{"type":"Feature","properties":{"code":"1377032014","desa":"Sungai Kasai","kecamatan":"Pariaman Selatan","kecCode":"137703"},"geometry":{"type":"Polygon","coordinates":[[[100.16258967097662,-0.6316763067096631],[100.16499337084745,-0.6387293306796792],[100.15659627140087,-0.6404610939879306],[100.15629634659915,-0.6320354140961436],[100.16258967097662,-0.6316763067096631]]]}},{"type":"Feature","properties":{"code":"1377032015","desa":"Palak Aneh","kecamatan":"Pariaman Selatan","kecCode":"137703"},"geometry":{"type":"Polygon","coordinates":[[[100.15657919237587,-0.6413371181961227],[100.16499040308469,-0.6424803579635212],[100.15773431668543,-0.6502601483598833],[100.15657919237587,-0.6413371181961227]]]}},{"type":"Feature","properties":{"code":"1377032016","desa":"Kampung Apar","kecamatan":"Pariaman Selatan","kecCode":"137703"},"geometry":{"type":"Polygon","coordinates":[[[100.16259409833901,-0.645516477281608],[100.1722258572376,-0.6526654418266665],[100.16065309696289,-0.6490229492237967],[100.16259409833901,-0.645516477281608]]]}},{"type":"Feature","properties":{"code":"1377032017","desa":"Marunggi","kecamatan":"Pariaman Selatan","kecCode":"137703"},"geometry":{"type":"Polygon","coordinates":[[[100.16395003316757,-0.6507663551552827],[100.1511388839524,-0.6680718051224994],[100.14147630169003,-0.6580097898839098],[100.15008610968628,-0.6444251301948064],[100.16395003316757,-0.6507663551552827]]]}},{"type":"Feature","properties":{"code":"1377032018","desa":"Taluk","kecamatan":"Pariaman Selatan","kecCode":"137703"},"geometry":{"type":"Polygon","coordinates":[[[100.12833396004429,-0.6467576028577042],[100.14107005723741,-0.6406892969568727],[100.14561585318916,-0.6518765142605552],[100.14147630169003,-0.6580097898839098],[100.12833396004429,-0.6467576028577042]]]}},{"type":"Feature","properties":{"code":"1377032019","desa":"Padang Cakur","kecamatan":"Pariaman Selatan","kecCode":"137703"},"geometry":{"type":"Polygon","coordinates":[[[100.14344499588992,-0.6434305186837807],[100.14854988327055,-0.6401222726088334],[100.15705190662027,-0.6406625843941833],[100.14969954599728,-0.650003941401766],[100.14344499588992,-0.6434305186837807]]]}},{"type":"Feature","properties":{"code":"1377032020","desa":"Punggung Lading","kecamatan":"Pariaman Selatan","kecCode":"137703"},"geometry":{"type":"Polygon","coordinates":[[[100.16921094303063,-0.600582649897547],[100.18199220057964,-0.6163762037093717],[100.16452835210185,-0.6170642956904888],[100.17234879815855,-0.6052006542098562],[100.16921094303063,-0.600582649897547]]]}},{"type":"Feature","properties":{"code":"1377032021","desa":"Rambai","kecamatan":"Pariaman Selatan","kecCode":"137703"},"geometry":{"type":"Polygon","coordinates":[[[100.1859891780582,-0.6234714373595577],[100.17092984603562,-0.6260056549368137],[100.16224228355458,-0.6212137963847105],[100.17868029066294,-0.6173160689908977],[100.17765999721114,-0.6217729480676217],[100.18387168113321,-0.6185430041644224],[100.1859891780582,-0.6234714373595577]]]}},{"type":"Feature","properties":{"code":"1377042001","desa":"Talago Sarik","kecamatan":"Pariaman Timur","kecCode":"137704"},"geometry":{"type":"Polygon","coordinates":[[[100.13908479033084,-0.5951489326114527],[100.14640429242422,-0.5998469594986036],[100.13389509598191,-0.6075809654096092],[100.13267150178841,-0.6005048747284363],[100.13908479033084,-0.5951489326114527]]]}},{"type":"Feature","properties":{"code":"1377042002","desa":"Pakasai","kecamatan":"Pariaman Timur","kecCode":"137704"},"geometry":{"type":"Polygon","coordinates":[[[100.14178966236308,-0.584504858158862],[100.13908479033084,-0.5951489326114527],[100.13290036216203,-0.5965662461680005],[100.13551418862897,-0.5822196745470412],[100.14178966236308,-0.584504858158862]]]}},{"type":"Feature","properties":{"code":"1377042003","desa":"Kampung Baru Padusunan","kecamatan":"Pariaman Timur","kecCode":"137704"},"geometry":{"type":"Polygon","coordinates":[[[100.12056968744116,-0.5993003587541585],[100.12620147681679,-0.588741494166063],[100.13551418862897,-0.5822196745470412],[100.12900900016528,-0.5950929992768046],[100.12056968744116,-0.5993003587541585]]]}},{"type":"Feature","properties":{"code":"1377042004","desa":"Kampung Gadang","kecamatan":"Pariaman Timur","kecCode":"137704"},"geometry":{"type":"Polygon","coordinates":[[[100.12669783333843,-0.6107649359698383],[100.11694013517915,-0.6023512377456253],[100.13047600036718,-0.5908059994364596],[100.13626067179261,-0.5965272065980193],[100.12669783333843,-0.6107649359698383]]]}},{"type":"Feature","properties":{"code":"1377042005","desa":"Koto Marapak","kecamatan":"Pariaman Timur","kecCode":"137704"},"geometry":{"type":"Polygon","coordinates":[[[100.14181135401083,-0.5848431210589748],[100.15534293482862,-0.590048411444973],[100.15106066811539,-0.5987693432607868],[100.13908479033084,-0.5951489326114527],[100.14181135401083,-0.5848431210589748]]]}},{"type":"Feature","properties":{"code":"1377042006","desa":"Batang Kabung","kecamatan":"Pariaman Timur","kecCode":"137704"},"geometry":{"type":"Polygon","coordinates":[[[100.1415854775878,-0.6132319705930397],[100.14172486980698,-0.6036558203845647],[100.14722067719254,-0.6024225054204051],[100.14830191859875,-0.606077940166876],[100.1415854775878,-0.6132319705930397]]]}},{"type":"Feature","properties":{"code":"1377042007","desa":"Bato","kecamatan":"Pariaman Timur","kecCode":"137704"},"geometry":{"type":"Polygon","coordinates":[[[100.1373013852508,-0.6127823068724957],[100.1275411887749,-0.6134283429574848],[100.12598798585691,-0.6109289516264729],[100.14172486980698,-0.6036558203845647],[100.1373013852508,-0.6127823068724957]]]}},{"type":"Feature","properties":{"code":"1377042008","desa":"Air Santok","kecamatan":"Pariaman Timur","kecCode":"137704"},"geometry":{"type":"Polygon","coordinates":[[[100.1703428243619,-0.6070602507509147],[100.16007973329312,-0.6077844640019353],[100.15250009959999,-0.59590244847264],[100.15550972399461,-0.592953834988244],[100.1703428243619,-0.6070602507509147]]]}},{"type":"Feature","properties":{"code":"1377042009","desa":"Cubadak Mentawai","kecamatan":"Pariaman Timur","kecCode":"137704"},"geometry":{"type":"Polygon","coordinates":[[[100.15551843842523,-0.5906102269197656],[100.16326515266474,-0.5930560744149344],[100.17234306138323,-0.6036943590321698],[100.17085701174175,-0.6072194721217539],[100.15551843842523,-0.5906102269197656]]]}},{"type":"Feature","properties":{"code":"1377042010","desa":"Sungai Sirah","kecamatan":"Pariaman Timur","kecCode":"137704"},"geometry":{"type":"Polygon","coordinates":[[[100.14515970805417,-0.6181572363759393],[100.1415854775878,-0.6132319705930397],[100.14771926313352,-0.6098140530939452],[100.14998539640895,-0.6123583979367438],[100.14515970805417,-0.6181572363759393]]]}},{"type":"Feature","properties":{"code":"1377042011","desa":"Sungai Pasak","kecamatan":"Pariaman Timur","kecCode":"137704"},"geometry":{"type":"Polygon","coordinates":[[[100.14313672627895,-0.60286320649744],[100.14624939139632,-0.598640992917826],[100.15850906464169,-0.6029450645886673],[100.1499936162125,-0.6122201361655268],[100.14313672627895,-0.60286320649744]]]}},{"type":"Feature","properties":{"code":"1377042012","desa":"Bungo Tanjung","kecamatan":"Pariaman Timur","kecCode":"137704"},"geometry":{"type":"Polygon","coordinates":[[[100.15142093922503,-0.6272437686833502],[100.14345658185583,-0.6194972505047464],[100.14824652126003,-0.6154997235449263],[100.15742968932875,-0.6231978420097327],[100.15142093922503,-0.6272437686833502]]]}},{"type":"Feature","properties":{"code":"1377042013","desa":"Kampung Tangah","kecamatan":"Pariaman Timur","kecCode":"137704"},"geometry":{"type":"Polygon","coordinates":[[[100.14840913127642,-0.6154781479097211],[100.15082370574947,-0.6111443131759522],[100.1573364098475,-0.6146076221565671],[100.15553971098893,-0.619816215752496],[100.14840913127642,-0.6154781479097211]]]}},{"type":"Feature","properties":{"code":"1377042014","desa":"Kampung Kandang","kecamatan":"Pariaman Timur","kecCode":"137704"},"geometry":{"type":"Polygon","coordinates":[[[100.16266582916471,-0.6101193990086131],[100.15694031334482,-0.6259736750448687],[100.15511596482996,-0.6167494052709493],[100.16266582916471,-0.6101193990086131]]]}},{"type":"Feature","properties":{"code":"1377042015","desa":"Kaluat","kecamatan":"Pariaman Timur","kecCode":"137704"},"geometry":{"type":"Polygon","coordinates":[[[100.16558048605064,-0.6059755208757335],[100.16460450669268,-0.6148473553334248],[100.16154652125499,-0.6095941535655072],[100.16558048605064,-0.6059755208757335]]]}},{"type":"Feature","properties":{"code":"1377042016","desa":"Kajai","kecamatan":"Pariaman Timur","kecCode":"137704"},"geometry":{"type":"Polygon","coordinates":[[[100.15267850261084,-0.611480576883174],[100.16558048605064,-0.6059755208757335],[100.1573364098475,-0.6146076221565671],[100.15267850261084,-0.611480576883174]]]}}]}