{"type":"FeatureCollection","features":[{"type":"Feature","properties":{"code":"1410011001","desa":"Selat Panjang Kota","kecamatan":"Tebing Tinggi","kecCode":"141001","kabCode":"1410","province":"Riau"},"geometry":{"type":"Polygon","coordinates":[[[102.74740785508851,1.0138408276589916],[102.72922043277681,1.0074673880834657],[102.7246045265777,1.009364725573549],[102.70731864044296,1.007385469737751],[102.70753667477777,1.0141627516761909],[102.73295748909692,1.0223753515985727],[102.74313003282481,1.0192418401996381],[102.74740785508851,1.0138408276589916]]]}},{"type":"Feature","properties":{"code":"1410011002","desa":"Selatpanjang Barat","kecamatan":"Tebing Tinggi","kecCode":"141001","kabCode":"1410","province":"Riau"},"geometry":{"type":"Polygon","coordinates":[[[102.70753667477777,1.0141627516761909],[102.70732525675525,1.0073615801469258],[102.69916040273044,1.0091806541360013],[102.68831122258489,1.0075653170596695],[102.70753667477777,1.0141627516761909]]]}},{"type":"Feature","properties":{"code":"1410011003","desa":"Selatpanjang Selatan","kecamatan":"Tebing Tinggi","kecCode":"141001","kabCode":"1410","province":"Riau"},"geometry":{"type":"Polygon","coordinates":[[[102.69356750903334,1.0085187755938547],[102.70732525675525,1.0073615801469258],[102.70723116068955,1.002092130327581],[102.69433210634169,1.0016054702967558],[102.69356750903334,1.0085187755938547]]]}},{"type":"Feature","properties":{"code":"1410011004","desa":"Selatpanjang Timur","kecamatan":"Tebing Tinggi","kecCode":"141001","kabCode":"1410","province":"Riau"},"geometry":{"type":"Polygon","coordinates":[[[102.70732525675525,1.0073615801469258],[102.72740805243971,1.0087983559319529],[102.72873813355808,1.0025051053059346],[102.7238936295874,1.0013720062938853],[102.72508031290619,0.9956667998700824],[102.71684199596143,0.9963377327865652],[102.70823596241979,0.9931555123070028],[102.70627330177155,0.9980467261599978],[102.70732525675525,1.0073615801469258]]]}},{"type":"Feature","properties":{"code":"1410012005","desa":"Banglas","kecamatan":"Tebing Tinggi","kecCode":"141001","kabCode":"1410","province":"Riau"},"geometry":{"type":"Polygon","coordinates":[[[102.7265584988757,1.0061647398862854],[102.74740785508851,1.0138408276589916],[102.74871848566964,1.0075005011211984],[102.75633612111517,1.0064738827386546],[102.75889027936294,1.0092577152433693],[102.77492334513632,1.0053945002323637],[102.78100958442484,1.0013290187000965],[102.78702943216261,0.9895322562026718],[102.79765832607097,0.9790860568816687],[102.82560976337992,0.9716904667555247],[102.82018714282242,0.9622739857802237],[102.73982676359434,0.9668872452694592],[102.73350584172131,0.9764238450930126],[102.72286215756259,0.9769459033388528],[102.71687850843647,0.9811847058128236],[102.70823324107128,0.9931540041439536],[102.71684199596143,0.9963377327865652],[102.72508031290619,0.9956667998700824],[102.7238936295874,1.0013720062938853],[102.72873813355808,1.0025051053059346],[102.7265584988757,1.0061647398862854]]]}},{"type":"Feature","properties":{"code":"1410012006","desa":"Alah Air","kecamatan":"Tebing Tinggi","kecCode":"141001","kabCode":"1410","province":"Riau"},"geometry":{"type":"Polygon","coordinates":[[[102.68828592465576,1.0078355516430113],[102.69385069385446,1.007014293449437],[102.69273433662038,0.9782792220151016],[102.67981103565086,0.9782564781605447],[102.67835376161685,0.990023657459325],[102.67332177058329,1.001944521902384],[102.68828592465576,1.0078355516430113]]]}},{"type":"Feature","properties":{"code":"1410012007","desa":"Alah Air Timur","kecamatan":"Tebing Tinggi","kecCode":"141001","kabCode":"1410","province":"Riau"},"geometry":{"type":"Polygon","coordinates":[[[102.69435740876746,1.0016052382716976],[102.70660526582041,1.002030747101335],[102.70823596241979,0.9931555123070028],[102.70104928479672,0.9898755894805314],[102.70410817495235,0.9783135239564874],[102.69273433662038,0.9782792220151016],[102.69435740876746,1.0016052382716976]]]}},{"type":"Feature","properties":{"code":"1410012008","desa":"Sesap","kecamatan":"Tebing Tinggi","kecCode":"141001","kabCode":"1410","province":"Riau"},"geometry":{"type":"Polygon","coordinates":[[[102.67981103565086,0.9782564781605447],[102.70410817495235,0.9783135239564874],[102.7055277548021,0.9663059468818935],[102.70999755624229,0.9595435631124002],[102.70302007531626,0.9551314468911869],[102.68518318085914,0.95888399852588],[102.65243561681035,0.9526447557860055],[102.64784743760923,0.958261231499549],[102.66818448692457,0.9690254364915625],[102.67981103565086,0.9782564781605447]]]}},{"type":"Feature","properties":{"code":"1410012016","desa":"Banglas Barat","kecamatan":"Tebing Tinggi","kecCode":"141001","kabCode":"1410","province":"Riau"},"geometry":{"type":"Polygon","coordinates":[[[102.70823324107128,0.9931540041439536],[102.71687850843647,0.9811847058128236],[102.72286215756259,0.9769459033388528],[102.73350584172131,0.9764238450930126],[102.73982676359434,0.9668872452694592],[102.82018714282242,0.9622739857802237],[102.82202900923146,0.9519455131109115],[102.81241181035682,0.9459206813370494],[102.79055417923205,0.9421471053514773],[102.77281683163153,0.930844799107664],[102.74577594800166,0.9405477735095977],[102.71915523842357,0.945663191945719],[102.7055277548021,0.9663059468818935],[102.70104928479672,0.9898755894805314],[102.70823324107128,0.9931540041439536]]]}},{"type":"Feature","properties":{"code":"1410022001","desa":"Segomeng","kecamatan":"Rangsang Barat","kecCode":"141002","kabCode":"1410","province":"Riau"},"geometry":{"type":"Polygon","coordinates":[[[102.66838764827138,1.0830951883818947],[102.69597193555643,1.073155331653976],[102.70500687736556,1.0471945940849927],[102.68726949379214,1.0426961888127642],[102.67779259455266,1.0429514586773492],[102.68887442121762,1.054663521225958],[102.6799630453583,1.0644297197662722],[102.66730422960654,1.0713874389819016],[102.66838764827138,1.0830951883818947]]]}},{"type":"Feature","properties":{"code":"1410022002","desa":"Bantar","kecamatan":"Rangsang Barat","kecCode":"141002","kabCode":"1410","province":"Riau"},"geometry":{"type":"Polygon","coordinates":[[[102.6760769102213,1.0218581002291458],[102.65635488207221,1.0134813191748295],[102.65064914504205,1.010346138634207],[102.65024152102943,1.0275280082626408],[102.66636825209319,1.0361570338620316],[102.67370783784651,1.0291207372820954],[102.6760769102213,1.0218581002291458]]]}},{"type":"Feature","properties":{"code":"1410022003","desa":"Anak Setatah","kecamatan":"Rangsang Barat","kecCode":"141002","kabCode":"1410","province":"Riau"},"geometry":{"type":"Polygon","coordinates":[[[102.66719919328818,1.071555385575138],[102.6799630453583,1.0644297197662722],[102.68887442121762,1.054663521225958],[102.67197821042612,1.0370245972484484],[102.66636825209319,1.0361570338620316],[102.65666301498622,1.0295150108584972],[102.65304564044402,1.0298121756404872],[102.66470907756194,1.054356425230543],[102.66719919328818,1.071555385575138]]]}},{"type":"Feature","properties":{"code":"1410022004","desa":"Lemang","kecamatan":"Rangsang Barat","kecCode":"141002","kabCode":"1410","province":"Riau"},"geometry":{"type":"Polygon","coordinates":[[[102.69897193360792,1.0449642889029889],[102.71933456234024,1.0560340241707196],[102.7256956497345,1.05708638025096],[102.72461669800225,1.0385879957786772],[102.70290870057613,1.0310159658618951],[102.69897193360792,1.0449642889029889]]]}},{"type":"Feature","properties":{"code":"1410022005","desa":"Bokor","kecamatan":"Rangsang Barat","kecCode":"141002","kabCode":"1410","province":"Riau"},"geometry":{"type":"Polygon","coordinates":[[[102.77247599756929,1.0875024104926294],[102.7808239400728,1.031220068798697],[102.78809839782285,1.0258534040648313],[102.78581315575256,1.0199975360175124],[102.76848182957286,1.0222076801978517],[102.75016313592005,1.0359683165267963],[102.74005742441067,1.0394204910012403],[102.74397892538718,1.088883633356269],[102.77247599756929,1.0875024104926294]]]}},{"type":"Feature","properties":{"code":"1410022006","desa":"Sungai Cina","kecamatan":"Rangsang Barat","kecCode":"141002","kabCode":"1410","province":"Riau"},"geometry":{"type":"Polygon","coordinates":[[[102.70500687736556,1.0471945940849927],[102.69597193555643,1.073155331653976],[102.66838764827138,1.0830951883818947],[102.66826903039151,1.085807616514959],[102.7122191649825,1.076842744493712],[102.71517564124292,1.0650228928021002],[102.72541903086362,1.064099788185557],[102.7256956497345,1.05708638025096],[102.71933456234024,1.0560340241707196],[102.70500687736556,1.0471945940849927]]]}},{"type":"Feature","properties":{"code":"1410022007","desa":"Melai","kecamatan":"Rangsang Barat","kecCode":"141002","kabCode":"1410","province":"Riau"},"geometry":{"type":"Polygon","coordinates":[[[102.7385300554178,1.1101466363177637],[102.70870405864542,1.1131581321982467],[102.6904100990469,1.1202301444538934],[102.71704057975899,1.1421985027825283],[102.72602782692273,1.1353897526663435],[102.73173565937321,1.1256587526915285],[102.73925729308968,1.1198230321559668],[102.7385300554178,1.1101466363177637]]]}},{"type":"Feature","properties":{"code":"1410022011","desa":"Telaga Baru","kecamatan":"Rangsang Barat","kecCode":"141002","kabCode":"1410","province":"Riau"},"geometry":{"type":"Polygon","coordinates":[[[102.72578238574857,1.0391602218054652],[102.72614776141012,1.077896312860076],[102.73184851439748,1.090774491230942],[102.74397892538718,1.088883633356269],[102.74005742441067,1.0394204910012403],[102.72578238574857,1.0391602218054652]]]}},{"type":"Feature","properties":{"code":"1410022012","desa":"Bina Maju","kecamatan":"Rangsang Barat","kecCode":"141002","kabCode":"1410","province":"Riau"},"geometry":{"type":"Polygon","coordinates":[[[102.72541903086362,1.064099788185557],[102.71517564124292,1.0650228928021002],[102.7122191649825,1.076842744493712],[102.66894909142745,1.0858002087992713],[102.67750248585111,1.1042284497492743],[102.70620157724106,1.0933659299719485],[102.73184851439748,1.090774491230942],[102.72614776141012,1.077896312860076],[102.72541903086362,1.064099788185557]]]}},{"type":"Feature","properties":{"code":"1410022015","desa":"Sialang Pasung","kecamatan":"Rangsang Barat","kecCode":"141002","kabCode":"1410","province":"Riau"},"geometry":{"type":"Polygon","coordinates":[[[102.67779259455266,1.0429514586773492],[102.68726949379214,1.0426961888127642],[102.69820232797512,1.0465682342670088],[102.70290870057613,1.0310159658618951],[102.6760769102213,1.0218581002291458],[102.67370783784651,1.0291207372820954],[102.6675510773204,1.0363086802432426],[102.67197821042612,1.0370245972484484],[102.67779259455266,1.0429514586773492]]]}},{"type":"Feature","properties":{"code":"1410022016","desa":"Permai","kecamatan":"Rangsang Barat","kecCode":"141002","kabCode":"1410","province":"Riau"},"geometry":{"type":"Polygon","coordinates":[[[102.65024152102943,1.0275280082626408],[102.65064914504205,1.010346138634207],[102.63735302292373,1.0064421699453843],[102.6255173512448,1.0104184018584716],[102.622913265335,1.0187765300742113],[102.63801932073511,1.0217672992794864],[102.65024152102943,1.0275280082626408]]]}},{"type":"Feature","properties":{"code":"1410022017","desa":"Mekar Baru","kecamatan":"Rangsang Barat","kecCode":"141002","kabCode":"1410","province":"Riau"},"geometry":{"type":"Polygon","coordinates":[[[102.6904100990469,1.1202301444538934],[102.70870405864542,1.1131581321982467],[102.72578246488887,1.1112314660176927],[102.71865270625743,1.0926911326686408],[102.70620157724106,1.0933659299719485],[102.6786107923542,1.1032037757009476],[102.6816251202032,1.111493457415187],[102.6904100990469,1.1202301444538934]]]}},{"type":"Feature","properties":{"code":"1410032001","desa":"Tanjung Samak","kecamatan":"Rangsang","kecCode":"141003","kabCode":"1410","province":"Riau"},"geometry":{"type":"Polygon","coordinates":[[[103.07589997230593,0.8580540190184954],[103.07668547165724,0.8521997634555805],[103.09191228172648,0.8507945601696504],[103.08701404326352,0.8290144164552959],[103.07129455939646,0.8322161180489601],[103.05719401978824,0.8480373116245659],[103.0653327377157,0.8592976150322269],[103.07589997230593,0.8580540190184954]]]}},{"type":"Feature","properties":{"code":"1410032002","desa":"Tanjung Medang","kecamatan":"Rangsang","kecCode":"141003","kabCode":"1410","province":"Riau"},"geometry":{"type":"Polygon","coordinates":[[[103.11719354014978,0.9389824989935711],[103.12141619170391,0.9295572990909722],[103.14930602725143,0.8999837231642379],[103.1561059037645,0.8876181934326112],[103.12627049198966,0.8842002030884267],[103.1239228108891,0.8779838948592921],[103.11646238233311,0.8792946774244007],[103.10047793480892,0.8904660549690238],[103.09198048541111,0.8866046413000058],[103.05138191993973,0.9317410841422019],[103.07166916659882,0.9406414343033138],[103.09427964628873,0.9404792361765482],[103.11075902041249,0.9356781613721411],[103.11719354014978,0.9389824989935711]]]}},{"type":"Feature","properties":{"code":"1410032004","desa":"Gemala Sari","kecamatan":"Rangsang","kecCode":"141003","kabCode":"1410","province":"Riau"},"geometry":{"type":"Polygon","coordinates":[[[103.0514839839987,0.9318240888689786],[103.03799674425443,0.8835475398993268],[103.02794312417593,0.8674266616413748],[102.98877096440854,0.8920338862576153],[102.95249644635395,0.907473317625047],[102.94624478666763,0.9124741876136323],[102.93925950592153,0.9233963657175033],[102.98390803063114,0.9768962823456198],[102.9992839482956,0.9748552322935187],[103.03861567297496,0.9380143842079323],[103.0514839839987,0.9318240888689786]]]}},{"type":"Feature","properties":{"code":"1410032007","desa":"Topang","kecamatan":"Rangsang","kecCode":"141003","kabCode":"1410","province":"Riau"},"geometry":{"type":"MultiPolygon","coordinates":[[[[103.09718042123949,0.7990023742668046],[103.1055858592001,0.7976985407631506],[103.10868805441027,0.7936944487523568],[103.10784639059852,0.7892095162237831],[103.111355516444,0.7826135978641868],[103.1110456343486,0.7570579698029279],[103.11422167199264,0.7391082635090402],[103.11314384801022,0.7324899250509257],[103.10804117476043,0.7252701667737506],[103.10042561944687,0.7192221792559107],[103.09277673435884,0.7178282678575821],[103.08792242687855,0.7183208382328372],[103.08105516596322,0.7252731929924328],[103.07607371862728,0.7416762659175954],[103.08143987614943,0.7787090706963162],[103.08800191435692,0.7928443969648657],[103.09718042123949,0.7990023742668046]]],[[[103.08088404476291,0.8226862811271576],[103.10521270170489,0.8173811057395916],[103.10833490143459,0.8134661266508878],[103.10840871239225,0.8068437835116541],[103.09366097837155,0.8041744724747605],[103.08242911601093,0.796261208297813],[103.07533729707863,0.8179957968539432],[103.07581146822474,0.8208087026418259],[103.08088404476291,0.8226862811271576]]]]}},{"type":"Feature","properties":{"code":"1410032008","desa":"Penyagun","kecamatan":"Rangsang","kecCode":"141003","kabCode":"1410","province":"Riau"},"geometry":{"type":"Polygon","coordinates":[[[102.98390803063114,0.9768962823456198],[102.95601503576535,0.9420319273785568],[102.93925950592153,0.9233963657175033],[102.92746753589812,0.9374119769333507],[102.92704856693784,0.9604724368798916],[102.92311137638897,0.9721233050598979],[102.9332164655675,1.0130101679527304],[102.98390803063114,0.9768962823456198]]]}},{"type":"Feature","properties":{"code":"1410032010","desa":"Repan","kecamatan":"Rangsang","kecCode":"141003","kabCode":"1410","province":"Riau"},"geometry":{"type":"Polygon","coordinates":[[[102.9332164655675,1.0130101679527304],[102.92311137638897,0.9721233050598979],[102.92704856693784,0.9604724368798916],[102.92746753589812,0.9374119769333507],[102.89473832431429,0.9605653971017578],[102.90810404856308,0.9704812428303576],[102.90341202104797,0.9895044419704688],[102.90539963608437,1.0012082424474436],[102.91616261171521,1.0185429257770866],[102.9332164655675,1.0130101679527304]]]}},{"type":"Feature","properties":{"code":"1410032011","desa":"Tanjung Bakau","kecamatan":"Rangsang","kecCode":"141003","kabCode":"1410","province":"Riau"},"geometry":{"type":"Polygon","coordinates":[[[103.11646238233311,0.8792946774244007],[103.12665827156206,0.8775032800713387],[103.1291339864444,0.8663714780926439],[103.12920522893825,0.8497004926336821],[103.12423473894209,0.8324643705035333],[103.0986016684323,0.8278439605048078],[103.09915749442291,0.8349435459743779],[103.10181516194024,0.8347870333616164],[103.10176967782844,0.8412144943129676],[103.11183696580338,0.8590604287354343],[103.11646238233311,0.8792946774244007]]]}},{"type":"Feature","properties":{"code":"1410032012","desa":"Teluk Samak","kecamatan":"Rangsang","kecCode":"141003","kabCode":"1410","province":"Riau"},"geometry":{"type":"Polygon","coordinates":[[[103.0653327377157,0.8592976150322269],[103.05719401978824,0.8480373116245659],[103.04321503164846,0.8596265330770141],[103.02794312417593,0.8674266616413748],[103.03799674425443,0.8835475398993268],[103.05138191993973,0.9317410841422019],[103.0642084565551,0.9166867208907293],[103.06338408131035,0.8769765876189909],[103.06771418835916,0.8670628930686893],[103.06398716127853,0.862807490908376],[103.0653327377157,0.8592976150322269]]]}},{"type":"Feature","properties":{"code":"1410032013","desa":"Sungai Gayung Kiri","kecamatan":"Rangsang","kecCode":"141003","kabCode":"1410","province":"Riau"},"geometry":{"type":"Polygon","coordinates":[[[103.11719354014978,0.9389824989935711],[103.11075902041249,0.9356781613721411],[103.09427964628873,0.9404792361765482],[103.07166916659882,0.9406414343033138],[103.0514839839987,0.9318240888689786],[103.03861567297496,0.9380143842079323],[102.9992839482956,0.9748552322935187],[102.98390803063114,0.9768962823456198],[102.97335523555574,0.9845825234642387],[103.02169730108965,1.0485566514964917],[103.02971715742092,1.0394106155458391],[103.03229637887482,1.0393167515053723],[103.05019333455482,1.0168048753083385],[103.07013115143154,0.9989978392623515],[103.07877961588662,0.9852304742058386],[103.08811380530794,0.9756320253072533],[103.10014902575699,0.9554697349723177],[103.11719354014978,0.9389824989935711]]]}},{"type":"Feature","properties":{"code":"1410032014","desa":"Citra Damai","kecamatan":"Rangsang","kecCode":"141003","kabCode":"1410","province":"Riau"},"geometry":{"type":"Polygon","coordinates":[[[103.09191228172648,0.8507945601696504],[103.07668547165724,0.8521997634555805],[103.07549605170146,0.8657212484689876],[103.07877823722593,0.8956590291396228],[103.0822194480691,0.895529041131196],[103.09198048541111,0.8866046413000058],[103.10047793480892,0.8904660549690238],[103.09191228172648,0.8507945601696504]]]}},{"type":"Feature","properties":{"code":"1410032016","desa":"Dwi Tunggal","kecamatan":"Rangsang","kecCode":"141003","kabCode":"1410","province":"Riau"},"geometry":{"type":"Polygon","coordinates":[[[103.08701404326352,0.8290144164552959],[103.09637451627094,0.8676438730963066],[103.10047793480892,0.8904660549690238],[103.11646238233311,0.8792946774244007],[103.11582419463093,0.8756388658620595],[103.11088544980372,0.8564649781187083],[103.10176967782844,0.8412144943129676],[103.10181516194024,0.8347870333616164],[103.09915749442291,0.8349435459743779],[103.0986016684323,0.8278439605048078],[103.08701404326352,0.8290144164552959]]]}},{"type":"Feature","properties":{"code":"1410032017","desa":"Wonosari","kecamatan":"Rangsang","kecCode":"141003","kabCode":"1410","province":"Riau"},"geometry":{"type":"Polygon","coordinates":[[[103.07589997230593,0.8580540190184954],[103.0653327377157,0.8592976150322269],[103.06395807360626,0.8622201463787196],[103.06771418835916,0.8670628930686893],[103.06338408131035,0.8769765876189909],[103.0642084565551,0.9166867208907293],[103.0822194480691,0.895529041131196],[103.07877823722593,0.8956590291396228],[103.07589997230593,0.8580540190184954]]]}},{"type":"Feature","properties":{"code":"1410032018","desa":"Tebun","kecamatan":"Rangsang","kecCode":"141003","kabCode":"1410","province":"Riau"},"geometry":{"type":"Polygon","coordinates":[[[102.91616261171521,1.0185429257770866],[102.90539963608437,1.0012082424474436],[102.90314433244502,0.9847959154984139],[102.90810404856308,0.9704812428303576],[102.9042923260301,0.9671541739449238],[102.89473832431429,0.9605653971017578],[102.87833037164938,0.9697480138758169],[102.86153149987888,0.9744314294777827],[102.86182630394086,0.9884068994541033],[102.89387470355477,1.0258915560039708],[102.91616261171521,1.0185429257770866]]]}},{"type":"Feature","properties":{"code":"1410032020","desa":"Tanjung Gemuk","kecamatan":"Rangsang","kecCode":"141003","kabCode":"1410","province":"Riau"},"geometry":{"type":"Polygon","coordinates":[[[103.1239228108891,0.8779838948592921],[103.12627049198966,0.8842002030884267],[103.14929486666483,0.8881797930700935],[103.15742441240677,0.886511754822562],[103.15253609616394,0.872747317958647],[103.15592752593466,0.8635312158275701],[103.15214644420308,0.8478022099561838],[103.14467340895072,0.8401428171979908],[103.12423473894209,0.8324643705035333],[103.12920522893825,0.8497004926336821],[103.1291339864444,0.8663714780926439],[103.12665827156206,0.8775032800713387],[103.1239228108891,0.8779838948592921]]]}},{"type":"Feature","properties":{"code":"1410042001","desa":"Alai","kecamatan":"Tebing Tinggi Barat","kecCode":"141004","kabCode":"1410","province":"Riau"},"geometry":{"type":"Polygon","coordinates":[[[102.6351882819137,0.9900102548628444],[102.63578867830493,0.9820397893071716],[102.61424193381828,0.9825602692428039],[102.61719914122745,0.9947818651791254],[102.6351882819137,0.9900102548628444]]]}},{"type":"Feature","properties":{"code":"1410042002","desa":"Tenan","kecamatan":"Tebing Tinggi Barat","kecCode":"141004","kabCode":"1410","province":"Riau"},"geometry":{"type":"Polygon","coordinates":[[[102.63718874376559,0.9547031339753188],[102.62880439580628,0.9461640666607073],[102.62997903360558,0.9447591160843041],[102.61775642861636,0.9290204155212721],[102.54984838259683,0.8535537143781995],[102.52882686556745,0.8625280301801637],[102.53761099994772,0.8733572579547096],[102.52428134300963,0.8956729155713176],[102.5576141345847,0.9240682285329569],[102.56640650675496,0.934690849658165],[102.58056170895577,0.9441848126235871],[102.58046571082393,0.946782294808728],[102.60615108860189,0.9521319074972745],[102.60736416342546,0.9546964061470825],[102.62198053077691,0.9558045903412304],[102.62636966662689,0.9589342139709623],[102.63718874376559,0.9547031339753188]]]}},{"type":"Feature","properties":{"code":"1410042003","desa":"Insit","kecamatan":"Tebing Tinggi Barat","kecCode":"141004","kabCode":"1410","province":"Riau"},"geometry":{"type":"Polygon","coordinates":[[[102.67332177058329,1.001944521902384],[102.67835376161685,0.990023657459325],[102.67981103565086,0.9782564781605447],[102.67136617590836,0.9715514081849793],[102.66075942870474,0.9762246299715643],[102.66365706592092,0.9838155843221597],[102.65838728244715,0.9951846760197136],[102.67332177058329,1.001944521902384]]]}},{"type":"Feature","properties":{"code":"1410042004","desa":"Tanjung","kecamatan":"Tebing Tinggi Barat","kecCode":"141004","kabCode":"1410","province":"Riau"},"geometry":{"type":"Polygon","coordinates":[[[102.54984838259683,0.8535537143781995],[102.62981574370166,0.9446223049195523],[102.6418811615864,0.9376018193204737],[102.63802107441313,0.9190903919805673],[102.62949167659963,0.9122708706843403],[102.62609197486482,0.9035112032693877],[102.6172333127672,0.8965493660581324],[102.61566617035753,0.8897035800615409],[102.61663453335711,0.8744872740907831],[102.61958442298275,0.8688504044512974],[102.6186664292124,0.862949830205756],[102.62247136096458,0.857955740206054],[102.621463243434,0.8528714311181225],[102.633526118036,0.8462903866458812],[102.63644567442837,0.8474175402399039],[102.63889783156974,0.8451798642144374],[102.63763312307026,0.8412897846552347],[102.59593198427369,0.8383482569292056],[102.54984838259683,0.8535537143781995]]]}},{"type":"Feature","properties":{"code":"1410042005","desa":"Tanjung Peranap","kecamatan":"Tebing Tinggi Barat","kecCode":"141004","kabCode":"1410","province":"Riau"},"geometry":{"type":"Polygon","coordinates":[[[102.52428134300963,0.8956729155713176],[102.53761099994772,0.8733572579547096],[102.52882686556745,0.8625280301801637],[102.49749604220864,0.8777630492440567],[102.46392952582704,0.8992988345682484],[102.43823085966646,0.9083314777001618],[102.43032944674661,0.9158850868034927],[102.44037779230133,0.9356028080772923],[102.45134692222274,0.936361263914508],[102.47476113411909,0.9278239700630073],[102.48802296508785,0.9309082462779725],[102.49726432468889,0.9397602947513644],[102.50426008973142,0.933093256205776],[102.51127136088466,0.9309713175316302],[102.51601143198207,0.9219954414058759],[102.51187647601859,0.911708476046168],[102.52186088157445,0.9041445328332047],[102.51873445143383,0.9001104295464758],[102.52428134300963,0.8956729155713176]]]}},{"type":"Feature","properties":{"code":"1410042006","desa":"Kundur","kecamatan":"Tebing Tinggi Barat","kecCode":"141004","kabCode":"1410","province":"Riau"},"geometry":{"type":"Polygon","coordinates":[[[102.5804352283032,0.9659962581410532],[102.58056170895577,0.9441848126235871],[102.56640650675496,0.934690849658165],[102.5576141345847,0.9240682285329569],[102.52428134300963,0.8956729155713176],[102.51873445143383,0.9001104295464758],[102.52186088157445,0.9041445328332047],[102.51187647601859,0.911708476046168],[102.51601143198207,0.9219954414058759],[102.51127136088466,0.9309713175316302],[102.50426008973142,0.933093256205776],[102.49726432468889,0.9397602947513644],[102.50015118622832,0.943639541077175],[102.5087071536123,0.9467129651729862],[102.53018285075801,0.9622056579892027],[102.55978268692155,0.9714385360737674],[102.57180460459885,0.9835693652347085],[102.5752739147594,0.9831517542512072],[102.57605308558152,0.9770914190416339],[102.58509270836184,0.9745866839389679],[102.58507554480059,0.9665468042113193],[102.5804352283032,0.9659962581410532]]]}},{"type":"Feature","properties":{"code":"1410042007","desa":"Mekong","kecamatan":"Tebing Tinggi Barat","kecCode":"141004","kabCode":"1410","province":"Riau"},"geometry":{"type":"Polygon","coordinates":[[[102.61719914122745,0.9947818651791254],[102.61408542839983,0.9820124858898993],[102.59855830142452,0.9821719051115764],[102.59727058466977,0.9790956940167332],[102.58407147961513,0.9742572011199737],[102.57605308558152,0.9770914190416339],[102.5752739147594,0.9831517542512072],[102.57180460459885,0.9835693652347085],[102.5793250593041,0.9941267027739884],[102.59141358706744,1.0020729927544476],[102.60769629205032,1.0034094320781948],[102.608071056634,0.9999830078918489],[102.61719914122745,0.9947818651791254]]]}},{"type":"Feature","properties":{"code":"1410042008","desa":"Batang Malas","kecamatan":"Tebing Tinggi Barat","kecCode":"141004","kabCode":"1410","province":"Riau"},"geometry":{"type":"Polygon","coordinates":[[[102.61315877056084,0.9556419470500293],[102.59592361878003,0.9491611688919234],[102.58046571082393,0.946782294808728],[102.5804352283032,0.9659962581410532],[102.58507554480059,0.9665468042113193],[102.58509270836184,0.9745866839389679],[102.59727058466977,0.9790956940167332],[102.59855830142452,0.9821719051115764],[102.60910505755243,0.9820737845798256],[102.60924182375123,0.9749658525023452],[102.61353318800626,0.9663800060522607],[102.61042179183225,0.9596607330836903],[102.61315877056084,0.9556419470500293]]]}},{"type":"Feature","properties":{"code":"1410042009","desa":"Mantiasa","kecamatan":"Tebing Tinggi Barat","kecCode":"141004","kabCode":"1410","province":"Riau"},"geometry":{"type":"Polygon","coordinates":[[[102.67136617590836,0.9715514081849793],[102.64784743760923,0.958261231499549],[102.64263704536341,0.9581791341887059],[102.63924533590357,0.9544937798971117],[102.62641995941368,0.958650816010807],[102.63600200109153,0.964905767208848],[102.6357455522155,0.9736685993381428],[102.63875753643121,0.9761593454863671],[102.65551688389712,0.9783146642968307],[102.67136617590836,0.9715514081849793]]]}},{"type":"Feature","properties":{"code":"1410042010","desa":"Gogok Darussalam","kecamatan":"Tebing Tinggi Barat","kecCode":"141004","kabCode":"1410","province":"Riau"},"geometry":{"type":"Polygon","coordinates":[[[102.63875753643121,0.9761593454863671],[102.6351882819137,0.9900102548628444],[102.65838728244715,0.9951846760197136],[102.66365706592092,0.9838155843221597],[102.66075942870474,0.9762246299715643],[102.65551688389712,0.9783146642968307],[102.63875753643121,0.9761593454863671]]]}},{"type":"Feature","properties":{"code":"1410042011","desa":"Maini Darul Aman","kecamatan":"Tebing Tinggi Barat","kecCode":"141004","kabCode":"1410","province":"Riau"},"geometry":{"type":"Polygon","coordinates":[[[102.64784743760923,0.958261231499549],[102.65243561681035,0.9526447557860055],[102.64525275860795,0.9485496703706784],[102.6418811615864,0.9376018193204737],[102.62880439580628,0.9461640666607073],[102.64263704536341,0.9581791341887059],[102.64784743760923,0.958261231499549]]]}},{"type":"Feature","properties":{"code":"1410042012","desa":"Mengkikip","kecamatan":"Tebing Tinggi Barat","kecCode":"141004","kabCode":"1410","province":"Riau"},"geometry":{"type":"Polygon","coordinates":[[[102.52882686556745,0.8625280301801637],[102.59593198427369,0.8383482569292056],[102.59603927159513,0.8252968862196232],[102.58449821781856,0.808852079355595],[102.57137828997615,0.7825314915601183],[102.57064733540625,0.7676089203570801],[102.54951312523058,0.7718521178179394],[102.51777319127977,0.7833437907074958],[102.45141735262875,0.8160726551165594],[102.43767119626874,0.8251145693593822],[102.41230266493608,0.8549545559521878],[102.40768109210876,0.884305486720258],[102.41074764718621,0.8919550723715337],[102.43032944674661,0.9158850868034927],[102.43823085966646,0.9083314777001618],[102.46392952582704,0.8992988345682484],[102.49749604220864,0.8777630492440567],[102.52882686556745,0.8625280301801637]]]}},{"type":"Feature","properties":{"code":"1410042013","desa":"Alai Selatan","kecamatan":"Tebing Tinggi Barat","kecCode":"141004","kabCode":"1410","province":"Riau"},"geometry":{"type":"Polygon","coordinates":[[[102.60910505755243,0.9820737845798256],[102.63578867830493,0.9820397893071716],[102.6394330046295,0.9775155096404929],[102.6357455522155,0.9736685993381428],[102.63600200109153,0.964905767208848],[102.62198053077691,0.9558045903412304],[102.61148696774944,0.956969604494005],[102.61045101440283,0.9603678421287215],[102.61352381527189,0.9664946875994738],[102.60924182375123,0.9749658525023452],[102.60910505755243,0.9820737845798256]]]}},{"type":"Feature","properties":{"code":"1410042014","desa":"Tanjung Darul Takzim","kecamatan":"Tebing Tinggi Barat","kecCode":"141004","kabCode":"1410","province":"Riau"},"geometry":{"type":"Polygon","coordinates":[[[102.64639877458382,0.9499676485263184],[102.68518318085914,0.95888399852588],[102.70302007531626,0.9551314468911869],[102.69401943095203,0.943041860639229],[102.69469933100935,0.9330257746768265],[102.68334483439668,0.9256863741920527],[102.67996567407663,0.9203840352661653],[102.67944229022957,0.9135132364255496],[102.68207058588888,0.9075402685540298],[102.67776990465745,0.8936906164297511],[102.63787501731825,0.8315155749541518],[102.63906276003841,0.8341233651685946],[102.63675540094107,0.8352356071038165],[102.63532445455996,0.8413726086183237],[102.63893488004071,0.842611873497109],[102.6388755697518,0.8452401088989164],[102.62479693942724,0.8497525184139533],[102.621463243434,0.8528714311181225],[102.62247136096458,0.857955740206054],[102.6186664292124,0.862949830205756],[102.61958442298275,0.8688504044512974],[102.61663453335711,0.8744872740907831],[102.61574177456333,0.8903873615921011],[102.6172333127672,0.8965493660581324],[102.62609197486482,0.9035112032693877],[102.62949167659963,0.9122708706843403],[102.63802107441313,0.9190903919805673],[102.64363900343731,0.9454921417920068],[102.64639877458382,0.9499676485263184]]]}},{"type":"Feature","properties":{"code":"1410051001","desa":"Teluk Belitung","kecamatan":"Merbau","kecCode":"141005","kabCode":"1410","province":"Riau"},"geometry":{"type":"Polygon","coordinates":[[[102.43933655903503,1.0628535661514253],[102.45547755784308,1.0306455845742601],[102.45184090903079,1.0328358555360118],[102.43367354070142,1.0224076372600173],[102.3805613820022,1.0202627730682694],[102.36110274999197,1.0145793554190035],[102.36120371957605,1.0232627207543488],[102.35257083767408,1.038963459135247],[102.35257597640025,1.0494831528524198],[102.42633104384264,1.0529111076848479],[102.43253556466463,1.0563614259585472],[102.43387290061395,1.0619082042135533],[102.43933655903503,1.0628535661514253]]]}},{"type":"Feature","properties":{"code":"1410052002","desa":"Meranti Bunting","kecamatan":"Merbau","kecCode":"141005","kabCode":"1410","province":"Riau"},"geometry":{"type":"Polygon","coordinates":[[[102.46314526843945,0.9587308080087334],[102.48167170638418,0.9585653318531364],[102.48335379923851,0.9524663473794109],[102.48203871521456,0.9438835226514223],[102.47832597656263,0.941106462940937],[102.47315447639801,0.9410786235277164],[102.44963641528841,0.9495931996050562],[102.44576230138914,0.9658543298338808],[102.46314526843945,0.9587308080087334]]]}},{"type":"Feature","properties":{"code":"1410052003","desa":"Lukit","kecamatan":"Merbau","kecCode":"141005","kabCode":"1410","province":"Riau"},"geometry":{"type":"Polygon","coordinates":[[[102.35408537873728,1.0711726916694133],[102.35257083767408,1.038963459135247],[102.36120371957605,1.0232627207543488],[102.36110274999197,1.0145793554190035],[102.3734210149679,0.9968087428151362],[102.3835179526914,0.9897408863266169],[102.39665316631061,0.9622614735126105],[102.40011701758634,0.9164074373289233],[102.39277481840321,0.9133715806129199],[102.38103146662894,0.9152732699222975],[102.36369748475119,0.9277488460952853],[102.33219830470807,0.96174227690954],[102.29320419271936,0.9886078808440756],[102.27585414535258,1.0059134135489685],[102.23649391576168,1.1014536851087289],[102.23774623609995,1.1163632026522992],[102.2476219747744,1.1490780529259628],[102.24955627799989,1.171489411898055],[102.24606832579262,1.1947352616883327],[102.23602225822071,1.2255696268677814],[102.2252399165889,1.2420024079974714],[102.23413853376637,1.2490802091891517],[102.26397384481714,1.2498197217067926],[102.29002435993631,1.2454779720396116],[102.31779137956858,1.2350779583015574],[102.32677779755738,1.2255866852083197],[102.36711570892288,1.1504137862818673],[102.36455473831056,1.0883292031140694],[102.35408537873728,1.0711726916694133]]]}},{"type":"Feature","properties":{"code":"1410052004","desa":"Bagan Melibur","kecamatan":"Merbau","kecCode":"141005","kabCode":"1410","province":"Riau"},"geometry":{"type":"Polygon","coordinates":[[[102.43933655903503,1.0628535661514253],[102.43387290061395,1.0619082042135533],[102.43253556466463,1.0563614259585472],[102.42633104384264,1.0529111076848479],[102.35257597640025,1.0494831528524198],[102.35408537873728,1.0711726916694133],[102.36125420481778,1.0806638127771762],[102.42634459122995,1.0815208145253912],[102.42672997860569,1.0846714409222171],[102.43282516524924,1.084016836096755],[102.43646183564528,1.0822184420181762],[102.4350812530974,1.0788939200127567],[102.44103497818172,1.0794177193460754],[102.43856919361342,1.0712245348873435],[102.43933655903503,1.0628535661514253]]]}},{"type":"Feature","properties":{"code":"1410052018","desa":"Pelantai","kecamatan":"Merbau","kecCode":"141005","kabCode":"1410","province":"Riau"},"geometry":{"type":"MultiPolygon","coordinates":[[[[102.48167170638418,0.9585653318531364],[102.46314526843945,0.9587308080087334],[102.4616516069362,0.984874560311921],[102.47257113744809,0.984368673675103],[102.48167170638418,0.9585653318531364]]],[[[102.36110274999197,1.0145793554190035],[102.3805613820022,1.0202627730682694],[102.43664615079928,0.9990024482878364],[102.45117681455837,0.9985534248845596],[102.45272102065866,0.9862180997831721],[102.43503550998086,0.9870615946136782],[102.4343853514029,0.9896656238633353],[102.3835179526914,0.9897408863266169],[102.3734210149679,0.9968087428151362],[102.36110274999197,1.0145793554190035]]]]}},{"type":"Feature","properties":{"code":"1410052019","desa":"Tanjung Kulim","kecamatan":"Merbau","kecCode":"141005","kabCode":"1410","province":"Riau"},"geometry":{"type":"Polygon","coordinates":[[[102.40011701758634,0.9164074373289233],[102.39992547637966,0.9207283155300927],[102.39762067585355,0.9499840836366743],[102.42628972179328,0.9374303105125723],[102.41846546440973,0.9215465151294449],[102.40011701758634,0.9164074373289233]]]}},{"type":"Feature","properties":{"code":"1410052021","desa":"Mekar Sari","kecamatan":"Merbau","kecCode":"141005","kabCode":"1410","province":"Riau"},"geometry":{"type":"Polygon","coordinates":[[[102.3805613820022,1.0202627730682694],[102.43367354070142,1.0224076372600173],[102.45246044479374,1.0328136728584474],[102.4559562876526,1.030920170077664],[102.468359767889,1.0093582027907142],[102.47257113744809,0.984368673675103],[102.45272102065866,0.9862180997831721],[102.45117681455837,0.9985534248845596],[102.43664615079928,0.9990024482878364],[102.3805613820022,1.0202627730682694]]]}},{"type":"Feature","properties":{"code":"1410052023","desa":"Mayang Sari","kecamatan":"Merbau","kecCode":"141005","kabCode":"1410","province":"Riau"},"geometry":{"type":"Polygon","coordinates":[[[102.36125420481778,1.0806638127771762],[102.36455473831056,1.0883292031140694],[102.36491469375817,1.0970554220442679],[102.4105448518635,1.0907392441020254],[102.41250434060288,1.0937190937390293],[102.42111554164899,1.0924810267572194],[102.42409779068053,1.095117963099815],[102.42582161837305,1.0923083632198183],[102.42901613528647,1.0937383635124813],[102.43273853355652,1.0896779937267669],[102.43440175233904,1.0910022229550742],[102.43669432388401,1.0862897718416185],[102.43074497759868,1.0832331893497538],[102.42672997860569,1.0846714409222171],[102.42634459122995,1.0815208145253912],[102.36125420481778,1.0806638127771762]]]}},{"type":"Feature","properties":{"code":"1410052026","desa":"Sungai Anak Kamal","kecamatan":"Merbau","kecCode":"141005","kabCode":"1410","province":"Riau"},"geometry":{"type":"Polygon","coordinates":[[[102.46314526843945,0.9587308080087334],[102.44576230138914,0.9658543298338808],[102.43960578368001,0.9752537119991493],[102.39665316631061,0.9622614735126105],[102.3835179526914,0.9897408863266169],[102.4343853514029,0.9896656238633353],[102.43503550998086,0.9870615946136782],[102.4616516069362,0.984874560311921],[102.46314526843945,0.9587308080087334]]]}},{"type":"Feature","properties":{"code":"1410052027","desa":"Sungai Tengah","kecamatan":"Merbau","kecCode":"141005","kabCode":"1410","province":"Riau"},"geometry":{"type":"Polygon","coordinates":[[[102.44576230138914,0.9658543298338808],[102.44963641528841,0.9495931996050562],[102.43683571529607,0.9480567969239048],[102.42628972179328,0.9374303105125723],[102.39762067585355,0.9499840836366743],[102.39665316631061,0.9622614735126105],[102.40009458040059,0.9645651921517762],[102.43960578368001,0.9752537119991493],[102.44576230138914,0.9658543298338808]]]}},{"type":"Feature","properties":{"code":"1410062001","desa":"Kuala Merbau","kecamatan":"Pulaumerbau","kecCode":"141006","kabCode":"1410","province":"Riau"},"geometry":{"type":"Polygon","coordinates":[[[102.54680469098376,1.114941255788524],[102.53913527077617,1.109549684330657],[102.52543820570867,1.1126004572021322],[102.5120966597331,1.1031129486710312],[102.47837487809817,1.1199417345720533],[102.48050554739314,1.1245313841595612],[102.48606577411623,1.1264744521755876],[102.52207768743538,1.1250137103574818],[102.52567511321597,1.1286279804359491],[102.53442554460327,1.1301415457329818],[102.54418465200013,1.1242419607416922],[102.54680469098376,1.114941255788524]]]}},{"type":"Feature","properties":{"code":"1410062002","desa":"Renak Dungun","kecamatan":"Pulaumerbau","kecCode":"141006","kabCode":"1410","province":"Riau"},"geometry":{"type":"Polygon","coordinates":[[[102.5120966597331,1.1031129486710312],[102.52610305741023,1.1127907933170478],[102.53878425728772,1.1097890272017938],[102.53918352479991,1.1016837856471506],[102.54564490368944,1.0980063031214566],[102.54667422093858,1.0892249377635213],[102.55012928493863,1.0844114927843524],[102.54036525555216,1.0770261522316174],[102.54117017756168,1.0648691285174663],[102.53374040599498,1.05983086022169],[102.52882545902774,1.0525754609124796],[102.52631783440057,1.043113351933903],[102.52269013384266,1.039017563248758],[102.52260297964385,1.0290353835260866],[102.51747901494463,1.029510469282133],[102.497305294204,1.0675207202121333],[102.5036394549969,1.0877393863481457],[102.51238212163764,1.0968331671912828],[102.51913778478098,1.099599164341279],[102.5120966597331,1.1031129486710312]]]}},{"type":"Feature","properties":{"code":"1410062003","desa":"Baran Melintang","kecamatan":"Pulaumerbau","kecCode":"141006","kabCode":"1410","province":"Riau"},"geometry":{"type":"MultiPolygon","coordinates":[[[[102.46391548561121,1.0544102892251555],[102.46360615480027,1.0545316725202287],[102.46360631577892,1.054875682088237],[102.46391548561121,1.0544102892251555]]],[[[102.49721670558654,1.0688139390176903],[102.5178717380903,1.0290005752663163],[102.48293008185782,1.0245150410912789],[102.48141056844304,1.0220007515912208],[102.46873093338591,1.0430952009170849],[102.45986779985913,1.0648131664045855],[102.46087116717071,1.0798976686357573],[102.46632757525748,1.091604167978226],[102.4722078823879,1.079610072640293],[102.49765346043893,1.0720836842166286],[102.49721670558654,1.0688139390176903]]]]}},{"type":"Feature","properties":{"code":"1410062004","desa":"Teluk Ketapang","kecamatan":"Pulaumerbau","kecCode":"141006","kabCode":"1410","province":"Riau"},"geometry":{"type":"Polygon","coordinates":[[[102.5160912054448,0.953555644011911],[102.50679190162502,0.9470360205373356],[102.5000000236822,0.9454253302579854],[102.4995621725563,0.9521679370363669],[102.49100703074991,0.9751407643448885],[102.50059020557359,0.9779825500615109],[102.4995471655693,0.9817306122806655],[102.51877213662488,0.9863262144808081],[102.51680576357516,0.9833059762907168],[102.50845673558996,0.9800033257974747],[102.51225211024678,0.973132634875509],[102.51122295577483,0.9625636942831707],[102.51551522744585,0.9587364629457592],[102.5160912054448,0.953555644011911]]]}},{"type":"Feature","properties":{"code":"1410062005","desa":"Semukut","kecamatan":"Pulaumerbau","kecCode":"141006","kabCode":"1410","province":"Riau"},"geometry":{"type":"Polygon","coordinates":[[[102.60579461442995,1.0422618828148924],[102.61075453919067,1.0395517911205012],[102.60191356405976,1.0257503192754516],[102.60761556800412,1.005346482730394],[102.59152289786351,1.0034901372384937],[102.58548800896449,1.0004929567663614],[102.56198897121413,0.9743627626423205],[102.54582700021594,0.9683854663338233],[102.53845762801717,0.9791498682774002],[102.53274524589642,0.9961683535733077],[102.53395303360566,1.0064648229683462],[102.5456330002628,1.0097584298790991],[102.56533246262312,1.0221237482700412],[102.57695129426685,1.0205721614354766],[102.59200907226095,1.0296718049590952],[102.59152347882554,1.0361862771169768],[102.59612765696585,1.0359421111817555],[102.59964325793008,1.0385421132672603],[102.60308083281426,1.0351218890071614],[102.60579461442995,1.0422618828148924]]]}},{"type":"Feature","properties":{"code":"1410062006","desa":"Centai","kecamatan":"Pulaumerbau","kecCode":"141006","kabCode":"1410","province":"Riau"},"geometry":{"type":"Polygon","coordinates":[[[102.61335795420626,1.0428604634741738],[102.60579461442995,1.0422618828148924],[102.60308083281426,1.0351218890071614],[102.59964325793008,1.0385421132672603],[102.59612765696585,1.0359421111817555],[102.58624282434693,1.0349765432762135],[102.57782053488985,1.0431070971491117],[102.56057884323906,1.0506213429265465],[102.56611604102255,1.0537135043971595],[102.56944594277608,1.0598257403812872],[102.56867540004974,1.0708642529861971],[102.573954302649,1.0791959492276946],[102.57810694018319,1.0822007010921573],[102.59900214922986,1.0630541761213337],[102.60407251343581,1.0538536772277542],[102.61386987079793,1.0467395937874384],[102.61335795420626,1.0428604634741738]]]}},{"type":"Feature","properties":{"code":"1410062007","desa":"Tanjungbunga","kecamatan":"Pulaumerbau","kecCode":"141006","kabCode":"1410","province":"Riau"},"geometry":{"type":"Polygon","coordinates":[[[102.53913527077617,1.109549684330657],[102.54680469098376,1.114941255788524],[102.549293505391,1.1090791347550342],[102.56638069171561,1.0961600138487309],[102.57810694018319,1.0822007010921573],[102.56903256220306,1.0718433619838184],[102.56885114286602,1.0585841003929497],[102.56516552057234,1.0527350671931162],[102.56057884323906,1.0506213429265465],[102.54399913355324,1.0507598232330067],[102.5398321770134,1.056991375870096],[102.54036525555216,1.0770261522316174],[102.55015724036438,1.0839599117092864],[102.54667422093858,1.0892249377635213],[102.54564490368944,1.0980063031214566],[102.53918352479991,1.1016837856471506],[102.53913527077617,1.109549684330657]]]}},{"type":"Feature","properties":{"code":"1410062008","desa":"Batang Meranti","kecamatan":"Pulaumerbau","kecCode":"141006","kabCode":"1410","province":"Riau"},"geometry":{"type":"Polygon","coordinates":[[[102.52336455972669,1.0059577681121876],[102.52269013384266,1.039017563248758],[102.52631783440057,1.043113351933903],[102.52882545902774,1.0525754609124796],[102.53374040599498,1.05983086022169],[102.53868155381069,1.0616758301889517],[102.54399913355324,1.0507598232330067],[102.56057884323906,1.0506213429265465],[102.57395694755513,1.0454361002275174],[102.58624282434693,1.0349765432762135],[102.59052824408326,1.0361781202660447],[102.59216181941247,1.0304265672806832],[102.57695129426685,1.0205721614354766],[102.56533246262312,1.0221237482700412],[102.5456330002628,1.0097584298790991],[102.52336455972669,1.0059577681121876]]]}},{"type":"Feature","properties":{"code":"1410062009","desa":"Pangkalan Balai","kecamatan":"Pulaumerbau","kecCode":"141006","kabCode":"1410","province":"Riau"},"geometry":{"type":"Polygon","coordinates":[[[102.47837487809817,1.1199417345720533],[102.51913778478098,1.099599164341279],[102.51238212163764,1.0968331671912828],[102.5036394549969,1.0877393863481457],[102.49765346043893,1.0720836842166286],[102.4722078823879,1.079610072640293],[102.4683335256717,1.0855640198506165],[102.46632757525748,1.091604167978226],[102.47837487809817,1.1199417345720533]]]}},{"type":"Feature","properties":{"code":"1410062010","desa":"Padang Kamal","kecamatan":"Pulaumerbau","kecCode":"141006","kabCode":"1410","province":"Riau"},"geometry":{"type":"Polygon","coordinates":[[[102.5160912054448,0.953555644011911],[102.51551522744585,0.9587364629457592],[102.51122295577483,0.9625636942831707],[102.51225211024678,0.973132634875509],[102.50845673558996,0.9800033257974747],[102.51841658965394,0.9847664725939631],[102.52336455972669,1.0059577681121876],[102.53395303360566,1.0064648229683462],[102.53274524589642,0.9961683535733077],[102.53845762801717,0.9791498682774002],[102.54582700021594,0.9683854663338233],[102.52983435896856,0.9630955200657103],[102.5160912054448,0.953555644011911]]]}},{"type":"Feature","properties":{"code":"1410062011","desa":"Ketapang Permai","kecamatan":"Pulaumerbau","kecCode":"141006","kabCode":"1410","province":"Riau"},"geometry":{"type":"Polygon","coordinates":[[[102.48293008185782,1.0245150410912789],[102.52260297964385,1.0290353835260866],[102.52339098540573,1.0050882100295533],[102.51877213662488,0.9863262144808081],[102.4995471655693,0.9817306122806655],[102.50059020557359,0.9779825500615109],[102.49100703074991,0.9751407643448885],[102.48382729409438,1.010392357492052],[102.47905079955484,1.0232764318182335],[102.48174522955878,1.0219717142810012],[102.48293008185782,1.0245150410912789]]]}},{"type":"Feature","properties":{"code":"1410072001","desa":"Lukun","kecamatan":"Tebing Tinggi Timur","kecCode":"141007","kabCode":"1410","province":"Riau"},"geometry":{"type":"Polygon","coordinates":[[[102.74703571382719,0.9400122380235917],[102.77281683163153,0.930844799107664],[102.79055417923205,0.9421471053514773],[102.81241181035682,0.9459206813370494],[102.82202900923146,0.9519455131109115],[102.89475923355185,0.8321782772752752],[102.89373178869111,0.8240278492845492],[102.82598843641728,0.8417204106274174],[102.78713034688803,0.8490674787319362],[102.73911227740972,0.8644056950004053],[102.7379057019866,0.8942139148406577],[102.73572787494152,0.8993060741106622],[102.74077434326135,0.9083217020695413],[102.7396368483619,0.9133369180433694],[102.74385223159526,0.9224601498848726],[102.73868383139374,0.9242483924161837],[102.74230090466307,0.9267481533686512],[102.74703571382719,0.9400122380235917]]]}},{"type":"Feature","properties":{"code":"1410072002","desa":"Sungai Tohor","kecamatan":"Tebing Tinggi Timur","kecCode":"141007","kabCode":"1410","province":"Riau"},"geometry":{"type":"Polygon","coordinates":[[[102.82202900923146,0.9519455131109115],[102.82018714282242,0.9622739857802237],[102.861616502,0.9305945825337045],[102.87661953376454,0.916248458775118],[102.88592296187521,0.8968219928381338],[102.88818616515948,0.8830634051648368],[102.89829880864318,0.865678614308781],[102.93125344519039,0.869766413416869],[102.93950794093875,0.8774061083243485],[102.94454627129346,0.8867341868419385],[102.96738815104236,0.873619618074242],[102.96320244004062,0.8629173583846945],[102.96764237229768,0.8555012070586532],[102.94299270504933,0.8115770116623363],[102.89475923355185,0.8321782772752752],[102.82202900923146,0.9519455131109115]]]}},{"type":"Feature","properties":{"code":"1410072003","desa":"Nipah Sendanu","kecamatan":"Tebing Tinggi Timur","kecCode":"141007","kabCode":"1410","province":"Riau"},"geometry":{"type":"Polygon","coordinates":[[[102.94299270504933,0.8115770116623363],[102.96764237229768,0.8555012070586532],[102.96320244004062,0.8629173583846945],[102.96738815104236,0.873619618074242],[102.9950566103743,0.8606003531616653],[102.98942766555439,0.8551426554531653],[102.97916389639676,0.8365218192912888],[102.96457463730972,0.8029387050593837],[102.94299270504933,0.8115770116623363]]]}},{"type":"Feature","properties":{"code":"1410072004","desa":"Tanjung Sari","kecamatan":"Tebing Tinggi Timur","kecCode":"141007","kabCode":"1410","province":"Riau"},"geometry":{"type":"Polygon","coordinates":[[[103.05051295001272,0.7560624859495721],[103.03681417083736,0.7644149727180757],[103.02132587568865,0.7697365535384089],[103.01837857880842,0.7779114170084883],[102.99763341534992,0.7893792641590619],[103.02016343359566,0.8338692140606863],[103.02676738200915,0.840104987216136],[103.04627932403162,0.8245355354647493],[103.04932733418916,0.8195756844539458],[103.05613295737015,0.7807779682555993],[103.05051295001272,0.7560624859495721]]]}},{"type":"Feature","properties":{"code":"1410072005","desa":"Tanjung Gadai","kecamatan":"Tebing Tinggi Timur","kecCode":"141007","kabCode":"1410","province":"Riau"},"geometry":{"type":"Polygon","coordinates":[[[103.02132587568865,0.7697365535384089],[103.03681417083736,0.7644149727180757],[103.05051295001272,0.7560624859495721],[103.04879231041684,0.720485478516312],[103.02331375512573,0.686983739439767],[103.01867017588796,0.6856187439431731],[102.99517672832344,0.689076519395261],[102.98817013364481,0.6954735544832318],[102.99770935770078,0.7071988334685555],[103.00311750906587,0.7090259114237938],[102.99917102042633,0.7121684861902761],[103.01090086258476,0.7236059956110116],[103.02092760642398,0.7383663542981437],[103.02132587568865,0.7697365535384089]]]}},{"type":"Feature","properties":{"code":"1410072006","desa":"Teluk Buntal","kecamatan":"Tebing Tinggi Timur","kecCode":"141007","kabCode":"1410","province":"Riau"},"geometry":{"type":"Polygon","coordinates":[[[102.94299270504933,0.8115770116623363],[103.00534001083287,0.7863292701005422],[103.01837857880842,0.7779114170084883],[103.02136238456643,0.7726075528324157],[103.02092760642398,0.7383663542981437],[103.01090086258476,0.7236059956110116],[102.99917102042633,0.7121684861902761],[103.00311750906587,0.7090259114237938],[102.99770935770078,0.7071988334685555],[102.98817013364481,0.6954735544832318],[102.97043020139274,0.7221341624540687],[102.95415910126155,0.7379268304336813],[102.93429072103999,0.7621956860298531],[102.94555781164378,0.7709657783859295],[102.94200605703395,0.7781930055326249],[102.94299270504933,0.8115770116623363]]]}},{"type":"Feature","properties":{"code":"1410072007","desa":"Kepau Baru","kecamatan":"Tebing Tinggi Timur","kecCode":"141007","kabCode":"1410","province":"Riau"},"geometry":{"type":"MultiPolygon","coordinates":[[[[102.88688752613847,0.7738040828269351],[102.90048584204806,0.7693240812810809],[102.90778769494624,0.7644639641858154],[102.88688752613847,0.7738040828269351]]],[[[102.83141113791373,0.7748182204181592],[102.84501335238434,0.7737800304588216],[102.82358730590948,0.7741164065813126],[102.83141113791373,0.7748182204181592]]],[[[102.59593198427369,0.8383482569292056],[102.63534297339957,0.8414354001828473],[102.63675540094107,0.8352356071038165],[102.63906276003841,0.8341233651685946],[102.63787501731825,0.8315155749541518],[102.66127171761576,0.8662388056079863],[102.73911227740972,0.8644056950004053],[102.78713034688803,0.8490674787319362],[102.82598843641728,0.8417204106274174],[102.89373178869111,0.8240278492845492],[102.89475923355185,0.8321782772752752],[102.94299270504933,0.8115770116623363],[102.94200605703395,0.7781930055326249],[102.94555781164378,0.7709657783859295],[102.93400131560827,0.7629967895170947],[102.92610557381322,0.770507774352783],[102.91438674205453,0.7764446677190864],[102.88823180215599,0.7820147626967853],[102.86458949341045,0.7921092803333701],[102.84421548555626,0.7943142309288834],[102.7760357858229,0.7886139015285863],[102.70111884915565,0.7924423154744674],[102.65739784023822,0.789628533746969],[102.6318289534435,0.7839058831734821],[102.60035874955673,0.7690657087555102],[102.58506959038937,0.766387890132071],[102.57064733540625,0.7676089203570801],[102.57137828997615,0.7825314915601183],[102.58449821781856,0.808852079355595],[102.59603927159513,0.8252968862196232],[102.59593198427369,0.8383482569292056]]]]}},{"type":"Feature","properties":{"code":"1410072008","desa":"Sungai Tohor Barat","kecamatan":"Tebing Tinggi Timur","kecCode":"141007","kabCode":"1410","province":"Riau"},"geometry":{"type":"Polygon","coordinates":[[[102.82018714282242,0.9622739857802237],[102.82560976337992,0.9716904667555247],[102.8796096743471,0.9516682098562563],[102.91265257395717,0.9251323846177041],[102.93104472783197,0.8982280190037205],[102.93225412802563,0.8977678790807249],[102.94193723011915,0.8885435022874805],[102.9446778142298,0.8869880861397046],[102.94557975060508,0.8860096714186749],[102.93924150958803,0.8770698859859554],[102.9283877159204,0.8685134464674334],[102.89829880864318,0.865678614308781],[102.88818616515948,0.8830634051648368],[102.88592296187521,0.8968219928381338],[102.87661953376454,0.916248458775118],[102.861616502,0.9305945825337045],[102.82018714282242,0.9622739857802237]]]}},{"type":"Feature","properties":{"code":"1410072009","desa":"Sendanu Darul Ihsan","kecamatan":"Tebing Tinggi Timur","kecCode":"141007","kabCode":"1410","province":"Riau"},"geometry":{"type":"Polygon","coordinates":[[[102.96457463730972,0.8029387050593837],[102.97916389639676,0.8365218192912888],[102.98942766555439,0.8551426554531653],[102.9950566103743,0.8606003531616653],[103.02676738200915,0.840104987216136],[103.02016343359566,0.8338692140606863],[102.99763341534992,0.7893792641590619],[102.96457463730972,0.8029387050593837]]]}},{"type":"Feature","properties":{"code":"1410072010","desa":"Batin Suir","kecamatan":"Tebing Tinggi Timur","kecCode":"141007","kabCode":"1410","province":"Riau"},"geometry":{"type":"Polygon","coordinates":[[[102.70302007531626,0.9551314468911869],[102.70958971639237,0.9592761299172295],[102.71862394324046,0.9459121908376159],[102.74703571382719,0.9400122380235917],[102.74230090466307,0.9267481533686512],[102.73868383139374,0.9242483924161837],[102.74385223159526,0.9224601498848726],[102.7396368483619,0.9133369180433694],[102.74077434326135,0.9083217020695413],[102.73572787494152,0.8993060741106622],[102.7379057019866,0.8942139148406577],[102.73911227740972,0.8644056950004053],[102.66127171761576,0.8662388056079863],[102.67776990465745,0.8936906164297511],[102.68207058588888,0.9075402685540298],[102.67944229022957,0.9135132364255496],[102.67996567407663,0.9203840352661653],[102.68334483439668,0.9256863741920527],[102.69469933100935,0.9330257746768265],[102.69401943095203,0.943041860639229],[102.70302007531626,0.9551314468911869]]]}},{"type":"Feature","properties":{"code":"1410082001","desa":"Tanjung Padang","kecamatan":"Tasik Putri Puyu","kecCode":"141008","kabCode":"1410","province":"Riau"},"geometry":{"type":"Polygon","coordinates":[[[102.25431149637852,1.249695391333404],[102.23413853376637,1.2490802091891517],[102.2252399165889,1.2420024079974714],[102.20584700793314,1.276722371414378],[102.20600339104372,1.2823443734618654],[102.22707275290524,1.327721510856338],[102.22944890744115,1.354343716876744],[102.22782933905279,1.3686350305540376],[102.215487346364,1.3884167277995751],[102.20973563958812,1.406090157864668],[102.21378240803176,1.4144062958348333],[102.24226477719775,1.411913842773302],[102.27259458227422,1.4184921578032386],[102.29208224260144,1.41224255487335],[102.30341691995494,1.4016229455776026],[102.295097030004,1.3939475754639075],[102.28130504778977,1.3748398670311526],[102.31930530459618,1.3283343538639947],[102.31630545763083,1.3237513835412456],[102.31618601057595,1.307626082417427],[102.29808983797568,1.2800339000148508],[102.2789783676576,1.2646849989010347],[102.25431149637852,1.249695391333404]]]}},{"type":"Feature","properties":{"code":"1410082002","desa":"Putri Puyu","kecamatan":"Tasik Putri Puyu","kecCode":"141008","kabCode":"1410","province":"Riau"},"geometry":{"type":"Polygon","coordinates":[[[102.31930530459618,1.3283343538639947],[102.28130504778977,1.3748398670311526],[102.295097030004,1.3939475754639075],[102.30341691995494,1.4016229455776026],[102.32330379023779,1.3784534140547589],[102.34157105256207,1.362210561647092],[102.31930530459618,1.3283343538639947]]]}},{"type":"Feature","properties":{"code":"1410082003","desa":"Mekar Delima","kecamatan":"Tasik Putri Puyu","kecCode":"141008","kabCode":"1410","province":"Riau"},"geometry":{"type":"MultiPolygon","coordinates":[[[[102.30975967826657,1.2961647409624302],[102.31618601057595,1.307626082417427],[102.31630545763083,1.3237513835412456],[102.34157105256207,1.362210561647092],[102.36164420481629,1.342382205775173],[102.37737307041094,1.3222201168883139],[102.37565262057204,1.3192715906381052],[102.37323622677053,1.3201050112630184],[102.37258665185253,1.3170143309758193],[102.37071704405639,1.3179233432159438],[102.37029200197433,1.3147904298661646],[102.36472245197962,1.312629941752522],[102.36441593244939,1.3146450103907834],[102.35935943309141,1.310975053391978],[102.34901699303985,1.2971083141487605],[102.34754537931586,1.289229659481321],[102.32241648403357,1.291529335667927],[102.30975967826657,1.2961647409624302]]],[[[102.37480811040602,1.3300100120671468],[102.37436270587426,1.329708190595634],[102.37365649974771,1.3308295741394227],[102.37480811040602,1.3300100120671468]]]]}},{"type":"Feature","properties":{"code":"1410082004","desa":"Dedap","kecamatan":"Tasik Putri Puyu","kecCode":"141008","kabCode":"1410","province":"Riau"},"geometry":{"type":"Polygon","coordinates":[[[102.33096336466757,1.2177865530466712],[102.31779137956858,1.2350779583015574],[102.29002435993631,1.2454779720396116],[102.27144569656171,1.249314866592385],[102.25431149637852,1.249695391333404],[102.29426754391208,1.276629667499271],[102.3087572075791,1.296765095984198],[102.32241648403357,1.291529335667927],[102.34754537931586,1.289229659481321],[102.34901699303985,1.2971083141487605],[102.35935943309141,1.310975053391978],[102.36441593244939,1.3146450103907834],[102.36472245197962,1.312629941752522],[102.37029200197433,1.3147904298661646],[102.3707565144017,1.3179631508069114],[102.37258665185253,1.3170143309758193],[102.37323622677053,1.3201050112630184],[102.37670898133449,1.3206455433823125],[102.37393975291728,1.325739830448353],[102.38549437206768,1.3177598230858034],[102.39124028900817,1.3125052021875856],[102.38745300555182,1.31311849395687],[102.38757753737349,1.3113902281119971],[102.39124427300486,1.3100460429275023],[102.34616411328322,1.2219712199308628],[102.33096336466757,1.2177865530466712]]]}},{"type":"Feature","properties":{"code":"1410082005","desa":"Kudap","kecamatan":"Tasik Putri Puyu","kecCode":"141008","kabCode":"1410","province":"Riau"},"geometry":{"type":"Polygon","coordinates":[[[102.3395802206507,1.201728353937936],[102.33096336466757,1.2177865530466712],[102.34616411328322,1.2219712199308628],[102.39124427300486,1.3100460429275023],[102.38745300555182,1.31311849395687],[102.42140388498137,1.2941248222574062],[102.43791920320871,1.2788968952471382],[102.42991716244715,1.2730773364280588],[102.43103852440844,1.2697132505479423],[102.42643927455293,1.2583868379766234],[102.42145167405556,1.2561779780282119],[102.38165940925438,1.2087079527595617],[102.35515875197488,1.2027638801053413],[102.3395802206507,1.201728353937936]]]}},{"type":"Feature","properties":{"code":"1410082006","desa":"Bandul","kecamatan":"Tasik Putri Puyu","kecCode":"141008","kabCode":"1410","province":"Riau"},"geometry":{"type":"Polygon","coordinates":[[[102.42747930902294,1.2601121999106455],[102.43103852440844,1.2697132505479423],[102.42991716244715,1.2730773364280588],[102.43791920320871,1.2788968952471382],[102.48068968807873,1.2436920326720176],[102.4848822303307,1.2382113860635406],[102.48597936005949,1.2319835773041035],[102.4851393950671,1.198577392993338],[102.48285248295576,1.197220834036794],[102.47918037837184,1.2030385249640476],[102.47956588265941,1.216800534557784],[102.46667005597835,1.2123969538020332],[102.45320889657336,1.2208966236165024],[102.4469650555929,1.2391000268606593],[102.43543956728229,1.2484398828997865],[102.42747930902294,1.2601121999106455]]]}},{"type":"Feature","properties":{"code":"1410082007","desa":"Selat Akar","kecamatan":"Tasik Putri Puyu","kecCode":"141008","kabCode":"1410","province":"Riau"},"geometry":{"type":"Polygon","coordinates":[[[102.38165940925438,1.2087079527595617],[102.42145167405556,1.2561779780282119],[102.42747930902294,1.2601121999106455],[102.43543956728229,1.2484398828997865],[102.4469650555929,1.2391000268606593],[102.45320889657336,1.2208966236165024],[102.46667005597835,1.2123969538020332],[102.47956588265941,1.216800534557784],[102.47857809340434,1.205440571878325],[102.48354708872722,1.1945223435968166],[102.47607984600813,1.1778504318360963],[102.46415263593546,1.160079902869156],[102.45968471407836,1.139947868425724],[102.45897545295485,1.1420144241503958],[102.44978694740972,1.1450207570230637],[102.42723010868262,1.170023496280158],[102.40302500689857,1.1871220760967234],[102.38165940925438,1.2087079527595617]]]}},{"type":"Feature","properties":{"code":"1410082008","desa":"Tanjung Pisang","kecamatan":"Tasik Putri Puyu","kecCode":"141008","kabCode":"1410","province":"Riau"},"geometry":{"type":"Polygon","coordinates":[[[102.35221732856688,1.2026705025980795],[102.38165940925438,1.2087079527595617],[102.40302500689857,1.1871220760967234],[102.42723010868262,1.170023496280158],[102.44978694740972,1.1450207570230637],[102.4589447590934,1.1416523076323681],[102.46030194487889,1.1320239985438887],[102.45727152905788,1.1247310219624114],[102.45252494956686,1.1202606584509134],[102.44708243240835,1.120099130319081],[102.44725177564897,1.1254957640606955],[102.44461005670883,1.1304747823222405],[102.44076679944827,1.1313647388275134],[102.4337475522078,1.1545602931330796],[102.42652226758867,1.1569740905892216],[102.41258441174125,1.1718030999239708],[102.40557356057144,1.1729610732844604],[102.39753256567542,1.1781518414181604],[102.38432955036852,1.1800423332687584],[102.38005446564114,1.176974786242494],[102.3675330483116,1.1802759429618424],[102.3678748275613,1.1919119660328863],[102.3568819078738,1.1945302989996913],[102.35221732856688,1.2026705025980795]]]}},{"type":"Feature","properties":{"code":"1410082009","desa":"Mengkopot","kecamatan":"Tasik Putri Puyu","kecCode":"141008","kabCode":"1410","province":"Riau"},"geometry":{"type":"Polygon","coordinates":[[[102.36711442199305,1.1503825861022086],[102.3395802206507,1.201728353937936],[102.35221732856688,1.2026705025980795],[102.3568819078738,1.1945302989996913],[102.36722274983008,1.1927375886363887],[102.3675330483116,1.1802759429618424],[102.38005446564114,1.176974786242494],[102.38432955036852,1.1800423332687584],[102.3985594385673,1.1778619035880833],[102.40557356057144,1.1729610732844604],[102.41258441174125,1.1718030999239708],[102.42652226758867,1.1569740905892216],[102.43335690559677,1.1550622776115222],[102.44076679944827,1.1313647388275134],[102.44461005670883,1.1304747823222405],[102.44725177564897,1.1254957640606955],[102.44708243240835,1.120099130319081],[102.45210386899839,1.1201000791038114],[102.45390099233697,1.1221128706586618],[102.4554667983541,1.1227383743220742],[102.44924270828443,1.1128469245025159],[102.45116791306879,1.106338097389069],[102.44815278931979,1.0995874497722935],[102.4167512225909,1.1247230108016464],[102.41638550608627,1.1390525222834307],[102.36711442199305,1.1503825861022086]]]}},{"type":"Feature","properties":{"code":"1410082010","desa":"Mengkirau","kecamatan":"Tasik Putri Puyu","kecCode":"141008","kabCode":"1410","province":"Riau"},"geometry":{"type":"Polygon","coordinates":[[[102.36491469375817,1.0970554220442679],[102.36711442199305,1.1503825861022086],[102.41638550608627,1.1390525222834307],[102.4167512225909,1.1247230108016464],[102.44815278931979,1.0995874497722935],[102.4418943946107,1.0803609507900034],[102.43738801324628,1.0783273893925163],[102.43444589376305,1.0796401477681654],[102.43646183564528,1.0822184420181762],[102.43212515904888,1.0846701818713471],[102.43660861579501,1.0860700413856632],[102.43466264836258,1.0907988196909029],[102.43273853355652,1.0896779937267669],[102.42901613528647,1.0937383635124813],[102.42582161837305,1.0923083632198183],[102.42409779068053,1.095117963099815],[102.42111554164899,1.0924810267572194],[102.41250434060288,1.0937190937390293],[102.4105448518635,1.0907392441020254],[102.36491469375817,1.0970554220442679]]]}},{"type":"Feature","properties":{"code":"1410092001","desa":"Tanjung Kedabu","kecamatan":"Rangsang Pesisir","kecCode":"141009","kabCode":"1410","province":"Riau"},"geometry":{"type":"Polygon","coordinates":[[[102.97335523555574,0.9845825234642387],[102.93331593058575,1.0130218690318813],[102.89387470355477,1.0258915560039708],[102.93871016764018,1.1054074294741152],[102.98144171366418,1.090382439879299],[102.98162901456742,1.0881383426944096],[102.98309410191132,1.089085663355712],[103.00841143663854,1.0675814865034117],[103.01411377513068,1.0562843792403047],[103.02137592026257,1.0488009388401562],[102.97335523555574,0.9845825234642387]]]}},{"type":"Feature","properties":{"code":"1410092002","desa":"Beting","kecamatan":"Rangsang Pesisir","kecCode":"141009","kabCode":"1410","province":"Riau"},"geometry":{"type":"Polygon","coordinates":[[[102.78581315575256,1.0199975360175124],[102.7891231114425,1.0277714565388836],[102.79402557222242,1.0318355720008832],[102.81002876971199,1.0323321974192503],[102.81436003868491,1.0350211127774076],[102.81905962140445,1.0232546988017348],[102.83067650331803,1.014957818913881],[102.83172379981357,1.001543415276997],[102.8291409693803,1.0004573526065743],[102.82820302055302,0.9936945290686111],[102.82274933291545,0.990710609100012],[102.82312682244496,0.9876498609483878],[102.80889950810585,0.9908260065075477],[102.79695513896854,1.0037898749808818],[102.7906043766907,1.0187335532723467],[102.78581315575256,1.0199975360175124]]]}},{"type":"Feature","properties":{"code":"1410092003","desa":"Sokop","kecamatan":"Rangsang Pesisir","kecCode":"141009","kabCode":"1410","province":"Riau"},"geometry":{"type":"Polygon","coordinates":[[[102.89387470355477,1.0258915560039708],[102.86182630394086,0.9884068994541033],[102.86140640777955,0.9746067684982272],[102.82277022686452,0.9882385832395152],[102.82274933291545,0.990710609100012],[102.82820302055302,0.9936945290686111],[102.8291409693803,1.0004573526065743],[102.83160944022353,1.0011423014571355],[102.83173770872831,1.0093916242959144],[102.82953917839039,1.016320558011502],[102.81905962140445,1.0232546988017348],[102.81436003868491,1.0350211127774076],[102.8205401617991,1.0511524834256991],[102.8525457842606,1.0563435132620185],[102.8707854194116,1.0540133392663127],[102.87464225823368,1.0509600087229451],[102.87636980192485,1.0440096630487794],[102.89243996473265,1.0335640572803442],[102.89387470355477,1.0258915560039708]]]}},{"type":"Feature","properties":{"code":"1410092004","desa":"Telesung","kecamatan":"Rangsang Pesisir","kecCode":"141009","kabCode":"1410","province":"Riau"},"geometry":{"type":"Polygon","coordinates":[[[102.89011982267174,1.125950190590795],[102.93811940208876,1.1040718966670104],[102.89387470355477,1.0258915560039708],[102.89243996473265,1.0335640572803442],[102.87636980192485,1.0440096630487794],[102.89011982267174,1.125950190590795]]]}},{"type":"Feature","properties":{"code":"1410092005","desa":"Bungur","kecamatan":"Rangsang Pesisir","kecCode":"141009","kabCode":"1410","province":"Riau"},"geometry":{"type":"Polygon","coordinates":[[[102.87636980192485,1.0440096630487794],[102.87407980244096,1.0519242177528663],[102.86781243969237,1.0546561458858592],[102.8525457842606,1.0563435132620185],[102.8205401617991,1.0511524834256991],[102.82398340421082,1.068127398367138],[102.83224102420392,1.0711079593678658],[102.84959056075581,1.0726055311217704],[102.85193033501702,1.0817611682345114],[102.85496891398422,1.0845813054709414],[102.8663228458227,1.0852834007955927],[102.88267401259566,1.1281366466284488],[102.89011982267174,1.125950190590795],[102.87636980192485,1.0440096630487794]]]}},{"type":"Feature","properties":{"code":"1410092006","desa":"Tenggayun Raya","kecamatan":"Rangsang Pesisir","kecCode":"141009","kabCode":"1410","province":"Riau"},"geometry":{"type":"Polygon","coordinates":[[[102.88267401259566,1.1281366466284488],[102.86911535678838,1.0888622160017398],[102.8663228458227,1.0852834007955927],[102.85496891398422,1.0845813054709414],[102.86107575224422,1.1038005721053212],[102.85938558257861,1.1359696166352662],[102.88267401259566,1.1281366466284488]]]}},{"type":"Feature","properties":{"code":"1410092007","desa":"Sendaur","kecamatan":"Rangsang Pesisir","kecCode":"141009","kabCode":"1410","province":"Riau"},"geometry":{"type":"Polygon","coordinates":[[[102.77247599756929,1.0875024104926294],[102.75171701602754,1.0879163702286476],[102.71865270625743,1.0926911326686408],[102.72578246488887,1.1112314660176927],[102.74332130333555,1.1101057558355654],[102.74734756903511,1.1075286441940544],[102.76530496725047,1.1101976179851352],[102.77035773801924,1.1091467601755338],[102.77247599756929,1.0875024104926294]]]}},{"type":"Feature","properties":{"code":"1410092008","desa":"Kayu Ara","kecamatan":"Rangsang Pesisir","kecCode":"141009","kabCode":"1410","province":"Riau"},"geometry":{"type":"Polygon","coordinates":[[[102.78809839782285,1.0258534040648313],[102.7808239400728,1.031220068798697],[102.77035773801924,1.1091467601755338],[102.80996162722737,1.1108767931881776],[102.81615938244958,1.1005627366512447],[102.83135858692928,1.094246526333396],[102.8334726349542,1.0752050349829183],[102.8395726266754,1.0767139175100948],[102.84174745088421,1.0725203311498146],[102.8290161560708,1.0703261742175225],[102.82256641620722,1.0664661032362923],[102.82080739804303,1.0519541912573627],[102.81310533334454,1.0334749290697636],[102.79402557222242,1.0318355720008832],[102.78809839782285,1.0258534040648313]]]}},{"type":"Feature","properties":{"code":"1410092009","desa":"Sonde","kecamatan":"Rangsang Pesisir","kecCode":"141009","kabCode":"1410","province":"Riau"},"geometry":{"type":"Polygon","coordinates":[[[102.85496891398422,1.0845813054709414],[102.85193033501702,1.0817611682345114],[102.84959056075581,1.0726055311217704],[102.84174745088421,1.0725203311498146],[102.8395726266754,1.0767139175100948],[102.8339939512599,1.0746431070928528],[102.83269442640669,1.0923281312176858],[102.81615938244958,1.1005627366512447],[102.80996162722737,1.1108767931881776],[102.82113412803761,1.1459759584433726],[102.82839637299428,1.144034297866363],[102.83164897442072,1.1455580003215318],[102.85938558257861,1.1359696166352662],[102.86107575224422,1.1038005721053212],[102.85496891398422,1.0845813054709414]]]}},{"type":"Feature","properties":{"code":"1410092010","desa":"Kedabu Rapat","kecamatan":"Rangsang Pesisir","kecCode":"141009","kabCode":"1410","province":"Riau"},"geometry":{"type":"Polygon","coordinates":[[[102.7385300554178,1.1101466363177637],[102.73925729308968,1.1198230321559668],[102.7171015681829,1.142622855084043],[102.73918103417743,1.155977244262921],[102.75599374471562,1.15930641846125],[102.77226020884159,1.1586615011329127],[102.77463313301274,1.1334065712898431],[102.78152035078362,1.110116580975061],[102.74734756903511,1.1075286441940544],[102.7385300554178,1.1101466363177637]]]}},{"type":"Feature","properties":{"code":"1410092011","desa":"Tanah Merah","kecamatan":"Rangsang Pesisir","kecCode":"141009","kabCode":"1410","province":"Riau"},"geometry":{"type":"Polygon","coordinates":[[[102.80996162722737,1.1108767931881776],[102.78152035078362,1.110116580975061],[102.77463313301274,1.1334065712898431],[102.77275195993508,1.1584423795179535],[102.82113412803761,1.1459759584433726],[102.80996162722737,1.1108767931881776]]]}}]}