{"type":"FeatureCollection","features":[{"type":"Feature","properties":{"code":"1471011002","desa":"Jadirejo","kecamatan":"Sukajadi","kecCode":"147101","kabCode":"1471","province":"Riau"},"geometry":{"type":"Polygon","coordinates":[[[101.4474497777851,0.5186008697542763],[101.44921865341819,0.5104159698502075],[101.44362272720711,0.5084267837004331],[101.44384393704813,0.5133211847507209],[101.4404792702022,0.5134803548601762],[101.44040868241484,0.5165771118664023],[101.44395584238828,0.5164661328281115],[101.44413518698933,0.5192285425824039],[101.4474497777851,0.5186008697542763]]]}},{"type":"Feature","properties":{"code":"1471011003","desa":"Kampung Tengah","kecamatan":"Sukajadi","kecCode":"147101","kabCode":"1471","province":"Riau"},"geometry":{"type":"Polygon","coordinates":[[[101.44040868241484,0.5165771118664023],[101.4404792702022,0.5134803548601762],[101.44384393704813,0.5133211847507209],[101.44362272720711,0.5084267837004331],[101.43950692770261,0.5070605930047928],[101.43785410598223,0.5166476834659274],[101.44040868241484,0.5165771118664023]]]}},{"type":"Feature","properties":{"code":"1471011004","desa":"Kampung Melayu","kecamatan":"Sukajadi","kecCode":"147101","kabCode":"1471","province":"Riau"},"geometry":{"type":"Polygon","coordinates":[[[101.43785410598223,0.5166476834659274],[101.43950692770261,0.5070605930047928],[101.43277268191378,0.5048598548337436],[101.43145207065656,0.5168422472937618],[101.43785410598223,0.5166476834659274]]]}},{"type":"Feature","properties":{"code":"1471011005","desa":"Kedung Sari","kecamatan":"Sukajadi","kecCode":"147101","kabCode":"1471","province":"Riau"},"geometry":{"type":"Polygon","coordinates":[[[101.43368618357056,0.5167353898483772],[101.43145207065656,0.5168422472937618],[101.43239274532895,0.5213068227685534],[101.42776759859584,0.5285907746533018],[101.43446653969909,0.5284391516544605],[101.43368618357056,0.5167353898483772]]]}},{"type":"Feature","properties":{"code":"1471011006","desa":"Harjosari","kecamatan":"Sukajadi","kecCode":"147101","kabCode":"1471","province":"Riau"},"geometry":{"type":"Polygon","coordinates":[[[101.43778019879721,0.5166488777656071],[101.43368618357056,0.5167353898483772],[101.43446653969909,0.5284391516544605],[101.43737156844321,0.5284739077535692],[101.43778019879721,0.5166488777656071]]]}},{"type":"Feature","properties":{"code":"1471011007","desa":"Sukajadi","kecamatan":"Sukajadi","kecCode":"147101","kabCode":"1471","province":"Riau"},"geometry":{"type":"Polygon","coordinates":[[[101.44040868241484,0.5165771118664023],[101.43778019879721,0.5166488777656071],[101.43737156844321,0.5284739077535692],[101.4407223146831,0.5284489254864807],[101.44040868241484,0.5165771118664023]]]}},{"type":"Feature","properties":{"code":"1471011008","desa":"Pulau Karomah","kecamatan":"Sukajadi","kecCode":"147101","kabCode":"1471","province":"Riau"},"geometry":{"type":"Polygon","coordinates":[[[101.44252479438381,0.5284182496115253],[101.44395584238828,0.5164661328281115],[101.44040868241484,0.5165771118664023],[101.4407223146831,0.5284489254864807],[101.44252479438381,0.5284182496115253]]]}},{"type":"Feature","properties":{"code":"1471021001","desa":"Simpang Empat","kecamatan":"Pekanbaru Kota","kecCode":"147102","kabCode":"1471","province":"Riau"},"geometry":{"type":"Polygon","coordinates":[[[101.4506990948874,0.507102522995813],[101.44742509139489,0.5206784017044701],[101.45246669258387,0.5205329345650466],[101.45249539444694,0.5079197540252809],[101.4506990948874,0.507102522995813]]]}},{"type":"Feature","properties":{"code":"1471021002","desa":"Sumahilang","kecamatan":"Pekanbaru Kota","kecCode":"147102","kabCode":"1471","province":"Riau"},"geometry":{"type":"Polygon","coordinates":[[[101.45246669258387,0.5205329345650466],[101.44742509139489,0.5206784017044701],[101.44755519901327,0.5283325388246521],[101.453743192994,0.528310690694872],[101.45246669258387,0.5205329345650466]]]}},{"type":"Feature","properties":{"code":"1471021003","desa":"Tanah Datar","kecamatan":"Pekanbaru Kota","kecCode":"147102","kabCode":"1471","province":"Riau"},"geometry":{"type":"Polygon","coordinates":[[[101.4474497777851,0.5186008697542763],[101.44455436908889,0.5186737849870461],[101.4422952037607,0.5246564169732697],[101.4474424860819,0.5240044948254946],[101.4474497777851,0.5186008697542763]]]}},{"type":"Feature","properties":{"code":"1471021004","desa":"Kota Baru","kecamatan":"Pekanbaru Kota","kecCode":"147102","kabCode":"1471","province":"Riau"},"geometry":{"type":"Polygon","coordinates":[[[101.4422952037607,0.5246564169732697],[101.44283765683247,0.5322632137809891],[101.44505944903442,0.5322692698155924],[101.44591902104604,0.5250026379741295],[101.4422952037607,0.5246564169732697]]]}},{"type":"Feature","properties":{"code":"1471021005","desa":"Sukaramai","kecamatan":"Pekanbaru Kota","kecCode":"147102","kabCode":"1471","province":"Riau"},"geometry":{"type":"Polygon","coordinates":[[[101.44758552864931,0.5322745947014381],[101.4474424860819,0.5240044948254946],[101.44554924320308,0.5242442792637225],[101.44505944903442,0.5322692698155924],[101.44758552864931,0.5322745947014381]]]}},{"type":"Feature","properties":{"code":"1471021006","desa":"Kota Tinggi","kecamatan":"Pekanbaru Kota","kecCode":"147102","kabCode":"1471","province":"Riau"},"geometry":{"type":"Polygon","coordinates":[[[101.453743192994,0.528310690694872],[101.44755519901327,0.5283325388246521],[101.44758523457097,0.5322094577050209],[101.45378868969635,0.5322376172769261],[101.453743192994,0.528310690694872]]]}},{"type":"Feature","properties":{"code":"1471031001","desa":"Cinta Raja","kecamatan":"Sail","kecCode":"147103","kabCode":"1471","province":"Riau"},"geometry":{"type":"Polygon","coordinates":[[[101.4506990948874,0.507102522995813],[101.45249539444694,0.5079197540252809],[101.45222593687753,0.5132750899992806],[101.46080097078823,0.5131710447339669],[101.46167615233264,0.5084088656079856],[101.45706429488138,0.5064304263566027],[101.4545641427211,0.5016838028041106],[101.4506990948874,0.507102522995813]]]}},{"type":"Feature","properties":{"code":"1471031002","desa":"Sukamulya","kecamatan":"Sail","kecCode":"147103","kabCode":"1471","province":"Riau"},"geometry":{"type":"Polygon","coordinates":[[[101.4522426894486,0.513780165447587],[101.45261128738105,0.5250616038226855],[101.46756880535617,0.524765142310532],[101.4677180325612,0.5203519307150066],[101.45707215855333,0.5186700689883241],[101.4522426894486,0.513780165447587]]]}},{"type":"Feature","properties":{"code":"1471031003","desa":"Sukamaju","kecamatan":"Sail","kecCode":"147103","kabCode":"1471","province":"Riau"},"geometry":{"type":"Polygon","coordinates":[[[101.45222593687753,0.5132750899992806],[101.45707215855333,0.5186700689883241],[101.4677180325612,0.5203519307150066],[101.46992407493615,0.5139731815422064],[101.46167615233264,0.5084088656079856],[101.46080097078823,0.5131710447339669],[101.45222593687753,0.5132750899992806]]]}},{"type":"Feature","properties":{"code":"1471041001","desa":"Rintis","kecamatan":"Lima Puluh","kecCode":"147104","kabCode":"1471","province":"Riau"},"geometry":{"type":"Polygon","coordinates":[[[101.45366571999705,0.5252394285692847],[101.45378868969635,0.5322376172769261],[101.44758523457097,0.5322094577050209],[101.44759729358032,0.5358888288070077],[101.4565080857796,0.5359408500907198],[101.45652286343943,0.5282579688392898],[101.45922159669936,0.5282568914515448],[101.4592535873832,0.5250235004469245],[101.45366571999705,0.5252394285692847]]]}},{"type":"Feature","properties":{"code":"1471041002","desa":"Tanjung Rhu","kecamatan":"Lima Puluh","kecCode":"147104","kabCode":"1471","province":"Riau"},"geometry":{"type":"Polygon","coordinates":[[[101.45651120642708,0.535417033670333],[101.46005413778829,0.5419558001139094],[101.45557242033101,0.5500537373748958],[101.44768538577198,0.550487485793133],[101.44878016467293,0.5552940887301122],[101.45664141656816,0.5561423580613295],[101.46847470144637,0.5461928767889004],[101.46802668258539,0.5329091446452825],[101.45651120642708,0.535417033670333]]]}},{"type":"Feature","properties":{"code":"1471041003","desa":"Pesisir","kecamatan":"Lima Puluh","kecCode":"147104","kabCode":"1471","province":"Riau"},"geometry":{"type":"Polygon","coordinates":[[[101.4565080857796,0.5359408500907198],[101.44759729358032,0.5358888288070077],[101.4475082310201,0.5391827657689309],[101.45178968474619,0.5425170903846158],[101.4592754112313,0.5431614618245002],[101.4599108928735,0.5402052427735277],[101.4565080857796,0.5359408500907198]]]}},{"type":"Feature","properties":{"code":"1471041004","desa":"Sekip","kecamatan":"Lima Puluh","kecCode":"147104","kabCode":"1471","province":"Riau"},"geometry":{"type":"Polygon","coordinates":[[[101.46756880535617,0.524765142310532],[101.4592535873832,0.5250235004469245],[101.45922159669936,0.5282568914515448],[101.45652286343943,0.5282579688392898],[101.45651120642708,0.535417033670333],[101.46802668258539,0.5329091446452825],[101.46756880535617,0.524765142310532]]]}},{"type":"Feature","properties":{"code":"1471051001","desa":"Padang Bulan","kecamatan":"Senapelan","kecCode":"147105","kabCode":"1471","province":"Riau"},"geometry":{"type":"Polygon","coordinates":[[[101.44252479438381,0.5284182496115253],[101.43446653969909,0.5284391516544605],[101.43453727407598,0.532051464808142],[101.44283765683247,0.5322632137809891],[101.44252479438381,0.5284182496115253]]]}},{"type":"Feature","properties":{"code":"1471051002","desa":"Sago","kecamatan":"Senapelan","kecCode":"147105","kabCode":"1471","province":"Riau"},"geometry":{"type":"Polygon","coordinates":[[[101.44758552864931,0.5322745947014381],[101.44283765683247,0.5322632137809891],[101.44324385901693,0.5360592638243767],[101.44759729358032,0.5358888288070077],[101.44758552864931,0.5322745947014381]]]}},{"type":"Feature","properties":{"code":"1471051003","desa":"Kampung Baru","kecamatan":"Senapelan","kecCode":"147105","kabCode":"1471","province":"Riau"},"geometry":{"type":"Polygon","coordinates":[[[101.43717901459989,0.5413568498332323],[101.43626593832242,0.5353225266145053],[101.42763831835379,0.535167982617687],[101.42980361784275,0.5450373360945863],[101.43717901459989,0.5413568498332323]]]}},{"type":"Feature","properties":{"code":"1471051004","desa":"Kampung Dalam","kecamatan":"Senapelan","kecCode":"147105","kabCode":"1471","province":"Riau"},"geometry":{"type":"Polygon","coordinates":[[[101.4475082310201,0.5391827657689309],[101.44759729358032,0.5358888288070077],[101.44151907084851,0.5352450859932566],[101.44311274056058,0.540628532975701],[101.4475082310201,0.5391827657689309]]]}},{"type":"Feature","properties":{"code":"1471051005","desa":"Kampung Bandar","kecamatan":"Senapelan","kecCode":"147105","kabCode":"1471","province":"Riau"},"geometry":{"type":"Polygon","coordinates":[[[101.43626593832242,0.5353225266145053],[101.43717901459989,0.5413568498332323],[101.44311274056058,0.540628532975701],[101.44151907084851,0.5352450859932566],[101.43626593832242,0.5353225266145053]]]}},{"type":"Feature","properties":{"code":"1471051006","desa":"Padang Terubuk","kecamatan":"Senapelan","kecCode":"147105","kabCode":"1471","province":"Riau"},"geometry":{"type":"Polygon","coordinates":[[[101.43446653969909,0.5284391516544605],[101.42776759859584,0.5285907746533018],[101.42763831835379,0.535167982617687],[101.44314924134449,0.535221052510924],[101.44283765683247,0.5322632137809891],[101.43453727407598,0.532051464808142],[101.43446653969909,0.5284391516544605]]]}},{"type":"Feature","properties":{"code":"1471061003","desa":"Rumbai Bukit","kecamatan":"Rumbai Barat","kecCode":"147106","kabCode":"1471","province":"Riau"},"geometry":{"type":"Polygon","coordinates":[[[101.41198808138489,0.6249658266126675],[101.42680674673403,0.6186159366842481],[101.43165120483927,0.605281709406415],[101.40302385956352,0.5925914884436605],[101.4025644615807,0.5963370064807137],[101.39691238439904,0.6015652727463142],[101.40241042120401,0.6110098647300981],[101.39558841777131,0.621339145889939],[101.39523285461263,0.6362846390132963],[101.40420701574122,0.6344558973122408],[101.41198808138489,0.6249658266126675]]]}},{"type":"Feature","properties":{"code":"1471061005","desa":"Muarafajar Timur","kecamatan":"Rumbai Barat","kecCode":"147106","kabCode":"1471","province":"Riau"},"geometry":{"type":"Polygon","coordinates":[[[101.42009791758488,0.6667108891505861],[101.42882777787969,0.6683861102832955],[101.43430399443383,0.6637778986887425],[101.4354808382701,0.6655112205221532],[101.43862794562322,0.6639790374600728],[101.44023303762464,0.6669677211374856],[101.44527777834686,0.6644444429136268],[101.45249186101063,0.6677708642871765],[101.45810000001507,0.667133332191434],[101.45068035391529,0.6220369352606335],[101.44649352775417,0.6215427739847171],[101.43890955663078,0.6095572761656032],[101.43187971537664,0.6062717298783924],[101.42680674673403,0.6186159366842481],[101.42051303295017,0.6228942472750435],[101.43241115624994,0.6366318114969166],[101.43103709108895,0.6448237018312277],[101.43291994679815,0.6499725066989336],[101.42777024260265,0.6556781861660903],[101.42194522759024,0.6547566688529306],[101.41869941064937,0.6635259383293687],[101.42009791758488,0.6667108891505861]]]}},{"type":"Feature","properties":{"code":"1471061010","desa":"Muarafajar Barat","kecamatan":"Rumbai Barat","kecCode":"147106","kabCode":"1471","province":"Riau"},"geometry":{"type":"Polygon","coordinates":[[[101.38146898970217,0.6581898226661315],[101.37875523956274,0.6672055333625592],[101.38329087857123,0.673106488920605],[101.3846258466056,0.6804816095776759],[101.39693103543895,0.6895298037862686],[101.42482334682006,0.6686430672759914],[101.42009791758488,0.6667108891505861],[101.41869941064937,0.6635259383293687],[101.42194522759024,0.6547566688529306],[101.42777024260265,0.6556781861660903],[101.43291994679815,0.6499725066989336],[101.43103709108895,0.6448237018312277],[101.43217115237682,0.6358836546957465],[101.42051303295017,0.6228942472750435],[101.41529432197545,0.623156224283372],[101.40420701574122,0.6344558973122408],[101.39523285461263,0.6362846390132963],[101.39864788709035,0.6400701265193119],[101.39519081490424,0.644568085727729],[101.39373443659503,0.6521379266946107],[101.39094207221893,0.6555067367134632],[101.38605655556562,0.6537679407067863],[101.38146898970217,0.6581898226661315]]]}},{"type":"Feature","properties":{"code":"1471061011","desa":"Rantau Panjang","kecamatan":"Rumbai Barat","kecCode":"147106","kabCode":"1471","province":"Riau"},"geometry":{"type":"Polygon","coordinates":[[[101.34931471919901,0.6250005953022527],[101.35375700857911,0.6306227259527655],[101.37500753257164,0.6447536995025569],[101.37682561820776,0.6535709352195603],[101.3807279564301,0.6578504347141114],[101.38605655556562,0.6537679407067863],[101.39094207221893,0.6555067367134632],[101.39373443659503,0.6521379266946107],[101.39519081490424,0.644568085727729],[101.39864788709035,0.6400701265193119],[101.39523285461263,0.6362846390132963],[101.3839404094224,0.6378565064592117],[101.37193801782529,0.6334103302141588],[101.36495916723186,0.6340174670234351],[101.35319037993213,0.621036426895024],[101.34931471919901,0.6250005953022527]]]}},{"type":"Feature","properties":{"code":"1471061012","desa":"Maharani","kecamatan":"Rumbai Barat","kecCode":"147106","kabCode":"1471","province":"Riau"},"geometry":{"type":"Polygon","coordinates":[[[101.39523285461263,0.6362846390132963],[101.39558841777131,0.621339145889939],[101.40241042120401,0.6110098647300981],[101.39910687498235,0.6071154864115387],[101.38540157931949,0.6130725956381339],[101.38148053879588,0.6109218318937326],[101.37040913257543,0.6107832616551155],[101.36598816702035,0.6064083827624194],[101.36278158929895,0.6082753357578258],[101.362355533681,0.6119348597216329],[101.35922025780872,0.6138735507372013],[101.36242961893186,0.6183207270283769],[101.3616687978768,0.6224959672188899],[101.3709947719912,0.6333294469881042],[101.38377884441819,0.6378374507244363],[101.39523285461263,0.6362846390132963]]]}},{"type":"Feature","properties":{"code":"1471061013","desa":"Agrowisata","kecamatan":"Rumbai Barat","kecCode":"147106","kabCode":"1471","province":"Riau"},"geometry":{"type":"Polygon","coordinates":[[[101.34055896382516,0.6102457944253473],[101.34931471919901,0.6250005953022527],[101.35319037993213,0.621036426895024],[101.36495916723186,0.6340174670234351],[101.3709947719912,0.6333294469881042],[101.3616687978768,0.6224959672188899],[101.36242961893186,0.6183207270283769],[101.35922025780872,0.6138735507372013],[101.362355533681,0.6119348597216329],[101.36278158929895,0.6082753357578258],[101.36598816702035,0.6064083827624194],[101.37040913257543,0.6107832616551155],[101.38148053879588,0.6109218318937326],[101.38540157931949,0.6130725956381339],[101.39485505481696,0.6080697624295373],[101.39599623693685,0.6098869172653056],[101.39910687498235,0.6071154864115387],[101.39691238439904,0.6015652727463142],[101.4025644615807,0.5963370064807137],[101.40302385956352,0.5925914884436605],[101.39824590092763,0.5890351508927085],[101.39738882543399,0.5833326793072742],[101.39434930757454,0.5869438997846946],[101.38490167767037,0.5884795991959633],[101.3819645656123,0.5870171495652612],[101.38006558595809,0.5796754692991102],[101.3713812484459,0.5792214744436561],[101.36734569904486,0.587235417723596],[101.37055397288759,0.5893865852634917],[101.3656873384,0.5983576095468462],[101.35962721002778,0.5942943016760346],[101.34965590399683,0.6112799707104049],[101.34363687374281,0.606361584741154],[101.34055896382516,0.6102457944253473]]]}},{"type":"Feature","properties":{"code":"1471071005","desa":"Simpang Tiga","kecamatan":"Bukit Raya","kecCode":"147107","kabCode":"1471","province":"Riau"},"geometry":{"type":"Polygon","coordinates":[[[101.48991412263872,0.46180586413273417],[101.4786952177102,0.46192739671530275],[101.48049721357563,0.44966208833172155],[101.47809054774062,0.44862901011887407],[101.45420658576539,0.4652047169038002],[101.45426592033601,0.48124101302403316],[101.46572080736945,0.48058347191209244],[101.47747415600752,0.47071785781633874],[101.4860999674396,0.4755156761756239],[101.48991412263872,0.46180586413273417]]]}},{"type":"Feature","properties":{"code":"1471071006","desa":"Tangkerang Selatan","kecamatan":"Bukit Raya","kecCode":"147107","kabCode":"1471","province":"Riau"},"geometry":{"type":"Polygon","coordinates":[[[101.46472748458581,0.48064136936611557],[101.45426592033601,0.48124101302403316],[101.45469855089748,0.499581562879968],[101.46688752843674,0.4985474081787034],[101.46472748458581,0.48064136936611557]]]}},{"type":"Feature","properties":{"code":"1471071008","desa":"Tangkerang Utara","kecamatan":"Bukit Raya","kecCode":"147107","kabCode":"1471","province":"Riau"},"geometry":{"type":"Polygon","coordinates":[[[101.45363522758372,0.5019826313318705],[101.46887637374572,0.513837272397494],[101.48189834833015,0.5032800868435805],[101.4807260946336,0.4988179710145859],[101.47439827226252,0.5008938230312324],[101.45444779562933,0.4993508310175044],[101.45363522758372,0.5019826313318705]]]}},{"type":"Feature","properties":{"code":"1471071011","desa":"Tangkerang Labuai","kecamatan":"Bukit Raya","kecCode":"147107","kabCode":"1471","province":"Riau"},"geometry":{"type":"Polygon","coordinates":[[[101.4860999674396,0.4755156761756239],[101.47747415600752,0.47071785781633874],[101.46472748458581,0.48064136936611557],[101.46731498339983,0.49982709758341776],[101.47439827226252,0.5008938230312324],[101.4807260946336,0.4988179710145859],[101.47719590486719,0.4895445991563403],[101.48521063955944,0.4801523000515351],[101.4860999674396,0.4755156761756239]]]}},{"type":"Feature","properties":{"code":"1471071012","desa":"Airdingin","kecamatan":"Bukit Raya","kecCode":"147107","kabCode":"1471","province":"Riau"},"geometry":{"type":"Polygon","coordinates":[[[101.47809054774062,0.44862901011887407],[101.474513764099,0.44384806843709784],[101.46906583032388,0.44996723279821127],[101.46348627177404,0.4415848318805397],[101.45450956376544,0.44392541732757407],[101.45077690602943,0.43450777173022936],[101.4474289099163,0.43235439455600794],[101.44734102726665,0.4203945085295039],[101.43740118491682,0.4238876669081476],[101.4457771224163,0.4353203829423341],[101.45112872171319,0.4476902069367409],[101.45180139391924,0.4612260838007997],[101.45420658576539,0.4652047169038002],[101.47809054774062,0.44862901011887407]]]}},{"type":"Feature","properties":{"code":"1471081001","desa":"Simpangbaru","kecamatan":"Binawidya","kecCode":"147108","kabCode":"1471","province":"Riau"},"geometry":{"type":"Polygon","coordinates":[[[101.39487902804478,0.48771732964546693],[101.3940942904192,0.464126536791074],[101.36781484477932,0.4643753333355004],[101.36591860985601,0.4708789686627368],[101.36831396401827,0.4725427827946257],[101.3649343594332,0.48084818106082294],[101.36945069359466,0.4875732924281144],[101.37222576041056,0.48982898187411894],[101.39487902804478,0.48771732964546693]]]}},{"type":"Feature","properties":{"code":"1471081008","desa":"Delima","kecamatan":"Binawidya","kecCode":"147108","kabCode":"1471","province":"Riau"},"geometry":{"type":"Polygon","coordinates":[[[101.39505939157772,0.4823298186267365],[101.39445846998245,0.4975900798617125],[101.41923181469654,0.5006594704981863],[101.41858714558036,0.4806266006994059],[101.40202656267581,0.4787308190365439],[101.39753661732105,0.47927052377951457],[101.39505939157772,0.4823298186267365]]]}},{"type":"Feature","properties":{"code":"1471081009","desa":"Tobekgodang","kecamatan":"Binawidya","kecCode":"147108","kabCode":"1471","province":"Riau"},"geometry":{"type":"Polygon","coordinates":[[[101.3940942904192,0.464126536791074],[101.39505939157772,0.4823298186267365],[101.39753661732105,0.47927052377951457],[101.40202656267581,0.4787308190365439],[101.41858714558036,0.4806266006994059],[101.41833664392107,0.46384582060930096],[101.3940942904192,0.464126536791074]]]}},{"type":"Feature","properties":{"code":"1471081010","desa":"Binawidya","kecamatan":"Binawidya","kecCode":"147108","kabCode":"1471","province":"Riau"},"geometry":{"type":"Polygon","coordinates":[[[101.39487902804478,0.48771732964546693],[101.37222576041056,0.48982898187411894],[101.3649343594332,0.48084818106082294],[101.35491273093783,0.4892797443174898],[101.36321156775972,0.49914367578171215],[101.38486573896273,0.5026807588476373],[101.39445846998245,0.4975900798617125],[101.39487902804478,0.48771732964546693]]]}},{"type":"Feature","properties":{"code":"1471081014","desa":"Sungaisibam","kecamatan":"Binawidya","kecCode":"147108","kabCode":"1471","province":"Riau"},"geometry":{"type":"Polygon","coordinates":[[[101.3489096852338,0.4960929451783865],[101.35742334041487,0.510097402102891],[101.35762859358476,0.5205817236853288],[101.3616386777828,0.5229391003742555],[101.37667660324269,0.521596055530119],[101.37234467506676,0.5006830147492812],[101.36321156775972,0.49914367578171215],[101.35491273093783,0.4892797443174898],[101.3489096852338,0.4960929451783865]]]}},{"type":"Feature","properties":{"code":"1471091001","desa":"Tangkerang Barat","kecamatan":"Marpoyan Damai","kecCode":"147109","kabCode":"1471","province":"Riau"},"geometry":{"type":"Polygon","coordinates":[[[101.43277268191378,0.5048598548337436],[101.43914997239335,0.5016691816262989],[101.43663191023457,0.48120216051305265],[101.43153170202646,0.478181008611749],[101.41858714558036,0.4806266006994059],[101.41923181469654,0.5006594704981863],[101.43277268191378,0.5048598548337436]]]}},{"type":"Feature","properties":{"code":"1471091002","desa":"Tangkerang Tengah","kecamatan":"Marpoyan Damai","kecCode":"147109","kabCode":"1471","province":"Riau"},"geometry":{"type":"Polygon","coordinates":[[[101.45369102332211,0.5021119547412898],[101.45558720608477,0.49692894955553873],[101.45358950155428,0.4783847563163349],[101.43663191023457,0.48120216051305265],[101.43914997239335,0.5016691816262989],[101.45369102332211,0.5021119547412898]]]}},{"type":"Feature","properties":{"code":"1471091003","desa":"Sidomulyo Timur","kecamatan":"Marpoyan Damai","kecCode":"147109","kabCode":"1471","province":"Riau"},"geometry":{"type":"Polygon","coordinates":[[[101.45415154905481,0.4791587740222196],[101.4528410857476,0.46989564454273075],[101.44110030333638,0.4743605716524477],[101.43683374687998,0.46389174179156234],[101.41833810891666,0.4639930270375377],[101.41858714558036,0.4806266006994059],[101.43153170202646,0.478181008611749],[101.43663191023457,0.48120216051305265],[101.45415154905481,0.4791587740222196]]]}},{"type":"Feature","properties":{"code":"1471091004","desa":"Wonorejo","kecamatan":"Marpoyan Damai","kecCode":"147109","kabCode":"1471","province":"Riau"},"geometry":{"type":"Polygon","coordinates":[[[101.4345430962869,0.5054384228795751],[101.44921865341819,0.5104159698502075],[101.45369102332211,0.5021119547412898],[101.43530296585925,0.5028817753112111],[101.4345430962869,0.5054384228795751]]]}},{"type":"Feature","properties":{"code":"1471091005","desa":"Maharatu","kecamatan":"Marpoyan Damai","kecCode":"147109","kabCode":"1471","province":"Riau"},"geometry":{"type":"Polygon","coordinates":[[[101.45415921127864,0.4713011805778151],[101.45176964695173,0.46101483934768694],[101.45275035044835,0.45203274171205493],[101.44886332138526,0.44255000048708165],[101.42817007309048,0.44376753684594356],[101.42448769734943,0.4473002716898403],[101.42190842643281,0.43969813786690876],[101.41820882058067,0.4473187131876581],[101.41833810891666,0.4639930270375377],[101.43683374687998,0.46389174179156234],[101.44110030333638,0.4743605716524477],[101.45191932831442,0.4698672718315412],[101.45415921127864,0.4713011805778151]]]}},{"type":"Feature","properties":{"code":"1471091006","desa":"Perhentianmarpoyan","kecamatan":"Marpoyan Damai","kecCode":"147109","kabCode":"1471","province":"Riau"},"geometry":{"type":"Polygon","coordinates":[[[101.43740118491682,0.4238876669081476],[101.42758020056584,0.43047866687546604],[101.42190842643281,0.43969813786690876],[101.42448769734943,0.4473002716898403],[101.42817007309048,0.44376753684594356],[101.44886332138526,0.44255000048708165],[101.43740118491682,0.4238876669081476]]]}},{"type":"Feature","properties":{"code":"1471101002","desa":"Bencahlesung","kecamatan":"Tenayan Raya","kecCode":"147110","kabCode":"1471","province":"Riau"},"geometry":{"type":"Polygon","coordinates":[[[101.48189834833015,0.5032800868435805],[101.4833120870832,0.5071590687687096],[101.49090864241997,0.5104493958519419],[101.50160305463731,0.5046229886955126],[101.51072649333304,0.5080631491267418],[101.5260477106334,0.5056178744997797],[101.53075131691979,0.5033063344567887],[101.53000290740829,0.48406937815778683],[101.52168933879199,0.48434065865270637],[101.51564788843932,0.4893505263583317],[101.50888998688345,0.4859663307379578],[101.50411934243374,0.4967480976909339],[101.49800999956186,0.4951565036158665],[101.49693739974128,0.4982280535245596],[101.4929694649689,0.49626854500222245],[101.4926259895978,0.49888736000563616],[101.48189834833015,0.5032800868435805]]]}},{"type":"Feature","properties":{"code":"1471101003","desa":"Tangkerang Timur","kecamatan":"Tenayan Raya","kecCode":"147110","kabCode":"1471","province":"Riau"},"geometry":{"type":"Polygon","coordinates":[[[101.4807260946336,0.4988179710145859],[101.48189834833015,0.5032800868435805],[101.4926259895978,0.49888736000563616],[101.4929694649689,0.49626854500222245],[101.49693739974128,0.4982280535245596],[101.49800999956186,0.4951565036158665],[101.50411934243374,0.4967480976909339],[101.51010711585076,0.48456730129789033],[101.50813889829156,0.4824432510155581],[101.50661792437779,0.484649200757898],[101.50412303235214,0.48309567588438723],[101.49312316180453,0.4867348140159967],[101.4807260946336,0.4988179710145859]]]}},{"type":"Feature","properties":{"code":"1471101004","desa":"Rejosari","kecamatan":"Tenayan Raya","kecCode":"147110","kabCode":"1471","province":"Riau"},"geometry":{"type":"Polygon","coordinates":[[[101.47002184293376,0.5135227785789789],[101.46756880535617,0.524765142310532],[101.47647168172277,0.5242682506928169],[101.4779459439502,0.5330989888310251],[101.47532085887057,0.5447862282924795],[101.47935962874391,0.5453226478119791],[101.4797471762912,0.5489994405576868],[101.48429393002088,0.5321037055264201],[101.48784691130594,0.5298255546130536],[101.49357716205645,0.5306530819805939],[101.5023257363437,0.5223513808272935],[101.49458560244364,0.5186048276705595],[101.49031928160963,0.5130702073502986],[101.49184355423671,0.5101859988141468],[101.4833120870832,0.5071590687687096],[101.48152085790132,0.5038828916185184],[101.47002184293376,0.5135227785789789]]]}},{"type":"Feature","properties":{"code":"1471101005","desa":"Bambukuning","kecamatan":"Tenayan Raya","kecCode":"147110","kabCode":"1471","province":"Riau"},"geometry":{"type":"Polygon","coordinates":[[[101.46756880535617,0.524765142310532],[101.4681013505969,0.5444121966566564],[101.47131131786307,0.5496449784182644],[101.47152755805041,0.5555280509574537],[101.47452158370417,0.5572845618097659],[101.48156382301208,0.5552563603716885],[101.47935962874391,0.5453226478119791],[101.47532085887057,0.5447862282924795],[101.4779459439502,0.5330989888310251],[101.47647168172277,0.5242682506928169],[101.46756880535617,0.524765142310532]]]}},{"type":"Feature","properties":{"code":"1471101010","desa":"Melebung","kecamatan":"Tenayan Raya","kecCode":"147110","kabCode":"1471","province":"Riau"},"geometry":{"type":"Polygon","coordinates":[[[101.58406257292944,0.5971689809957792],[101.58230462765651,0.5906486263724051],[101.58658600134292,0.5804425981981483],[101.58654673244581,0.5733114780010877],[101.59516859135749,0.5658362160356615],[101.59534260477744,0.5574956416869441],[101.5934060001868,0.5556339991882244],[101.5956749996016,0.55213299962066],[101.5958220000853,0.5437999993622428],[101.60529900004889,0.5440979996143924],[101.60443099959105,0.5392710000533891],[101.59980000006999,0.5345799995693714],[101.59432200016022,0.5345989995462372],[101.59050720464381,0.5283813477300198],[101.57046801978333,0.5366697694939822],[101.56215232876701,0.5327873206823609],[101.55641563077681,0.532897333848863],[101.5421681032754,0.5458168306717169],[101.53988762131671,0.5458178028388402],[101.5367497976651,0.5406536897112622],[101.53052300783058,0.5394650269860232],[101.52940147140083,0.5781559954561989],[101.53963605665875,0.5692314562300583],[101.54749366809835,0.5706472544290225],[101.55150624341849,0.5768247946833626],[101.56839916179196,0.5734883809426385],[101.57134697758102,0.5784993062509372],[101.56323070942976,0.5846089467916072],[101.56283371990031,0.5892005389147676],[101.5737642257385,0.5964460079098673],[101.58406257292944,0.5971689809957792]]]}},{"type":"Feature","properties":{"code":"1471101011","desa":"Industritenayan","kecamatan":"Tenayan Raya","kecCode":"147110","kabCode":"1471","province":"Riau"},"geometry":{"type":"Polygon","coordinates":[[[101.50478324624986,0.5183160427713779],[101.49357716205645,0.5306530819805939],[101.48784691130594,0.5298255546130536],[101.48429393002088,0.5321037055264201],[101.48055673880253,0.5441304183754939],[101.48156382301208,0.5552563603716885],[101.48984859893375,0.5598138744845959],[101.50712097455339,0.5613435916055775],[101.51239347577837,0.5694698674034995],[101.52184751065413,0.5679112739509298],[101.52479236227778,0.576890603473355],[101.52940147140083,0.5781559954561989],[101.53052300783058,0.5394650269860232],[101.51877594455424,0.5343512974767186],[101.51755797382151,0.5278193290084762],[101.51124532840925,0.5197866024883687],[101.50478324624986,0.5183160427713779]]]}},{"type":"Feature","properties":{"code":"1471101012","desa":"Sialangsakti","kecamatan":"Tenayan Raya","kecCode":"147110","kabCode":"1471","province":"Riau"},"geometry":{"type":"Polygon","coordinates":[[[101.53075131691979,0.5033063344567887],[101.51072649333304,0.5080631491267418],[101.50160305463731,0.5046229886955126],[101.49031928160963,0.5130702073502986],[101.50073984756597,0.5224526579794055],[101.50478324624986,0.5183160427713779],[101.51124532840925,0.5197866024883687],[101.51755797382151,0.5278193290084762],[101.51877594455424,0.5343512974767186],[101.53052300783058,0.5394650269860232],[101.53075131691979,0.5033063344567887]]]}},{"type":"Feature","properties":{"code":"1471101013","desa":"Tuahnegeri","kecamatan":"Tenayan Raya","kecCode":"147110","kabCode":"1471","province":"Riau"},"geometry":{"type":"Polygon","coordinates":[[[101.60094444403092,0.5062777772313664],[101.59483940081775,0.5057454793046999],[101.59051829778127,0.5119032317761207],[101.57983002703418,0.5145476001161219],[101.57161759077921,0.5070899468763234],[101.55379090632532,0.5036893386286588],[101.54962026436378,0.49930279103246417],[101.54981612861148,0.48700840936582773],[101.54620441620091,0.4843314253133129],[101.53000290740829,0.48406937815778683],[101.53052300783058,0.5394650269860232],[101.5367497976651,0.5406536897112622],[101.53988762131671,0.5458178028388402],[101.5421681032754,0.5458168306717169],[101.55641563077681,0.532897333848863],[101.56215232876701,0.5327873206823609],[101.57046801978333,0.5366697694939822],[101.58088808841461,0.5315239971402597],[101.59297700018845,0.5290689990432887],[101.59363888862384,0.5204999995931296],[101.60284600024276,0.5137219990963936],[101.60094444403092,0.5062777772313664]]]}},{"type":"Feature","properties":{"code":"1471111001","desa":"Tampan","kecamatan":"Payung Sekaki","kecCode":"147111","kabCode":"1471","province":"Riau"},"geometry":{"type":"Polygon","coordinates":[[[101.36589840298899,0.5330867157830574],[101.37055890836699,0.5437343911210756],[101.37827219930261,0.5426022849605737],[101.39161164895847,0.5350727884799344],[101.42763831835379,0.535167982617687],[101.42777533996001,0.5282134308143398],[101.42017562260698,0.5283108768545585],[101.42015178877408,0.5254893924337407],[101.40245793958229,0.5262081225182972],[101.39324136529683,0.5331378179596071],[101.36589840298899,0.5330867157830574]]]}},{"type":"Feature","properties":{"code":"1471111002","desa":"Labuh Baru Timur","kecamatan":"Payung Sekaki","kecCode":"147111","kabCode":"1471","province":"Riau"},"geometry":{"type":"Polygon","coordinates":[[[101.43239274532895,0.5213068227685534],[101.43277268191378,0.5048598548337436],[101.41923181469654,0.5006594704981863],[101.42017562260698,0.5283108768545585],[101.42777533996001,0.5282134308143398],[101.43239274532895,0.5213068227685534]]]}},{"type":"Feature","properties":{"code":"1471111003","desa":"Labuh Baru Barat","kecamatan":"Payung Sekaki","kecCode":"147111","kabCode":"1471","province":"Riau"},"geometry":{"type":"Polygon","coordinates":[[[101.41923181469654,0.5006594704981863],[101.39445846998245,0.4975900798617125],[101.3939307828794,0.5103617308383225],[101.3991812956803,0.5170205315939752],[101.4198268853026,0.5171915628618344],[101.41923181469654,0.5006594704981863]]]}},{"type":"Feature","properties":{"code":"1471111004","desa":"Air Hitam","kecamatan":"Payung Sekaki","kecCode":"147111","kabCode":"1471","province":"Riau"},"geometry":{"type":"Polygon","coordinates":[[[101.3616386777828,0.5229391003742555],[101.36589840298899,0.5330867157830574],[101.39324136529683,0.5331378179596071],[101.40245793958229,0.5262081225182972],[101.42000809060094,0.5254906227063195],[101.4198268853026,0.5171915628618344],[101.3991812956803,0.5170205315939752],[101.40042679735888,0.5215049587035971],[101.39064652891426,0.5225665301367182],[101.3616386777828,0.5229391003742555]]]}},{"type":"Feature","properties":{"code":"1471111005","desa":"Bandarraya","kecamatan":"Payung Sekaki","kecCode":"147111","kabCode":"1471","province":"Riau"},"geometry":{"type":"Polygon","coordinates":[[[101.39445846998245,0.4975900798617125],[101.38486573896273,0.5026807588476373],[101.37234467506676,0.5006830147492812],[101.37667660324269,0.521596055530119],[101.40042679735888,0.5215049587035971],[101.3939307828794,0.5103617308383225],[101.39445846998245,0.4975900798617125]]]}},{"type":"Feature","properties":{"code":"1471111007","desa":"Tirtasiak","kecamatan":"Payung Sekaki","kecCode":"147111","kabCode":"1471","province":"Riau"},"geometry":{"type":"Polygon","coordinates":[[[101.37055890836699,0.5437343911210756],[101.37449607103692,0.5543799134821511],[101.37656808834669,0.5525141053236833],[101.37818577355466,0.5578708514346733],[101.3845297477497,0.5593750278096663],[101.38181806155437,0.5511726414877179],[101.38428756302066,0.5478472039725069],[101.39096534667344,0.5524843719382465],[101.3940804120814,0.5594428609735353],[101.39621771297715,0.5572416506584132],[101.39383986771576,0.5520766202223611],[101.39652307058333,0.5485358706204012],[101.40149681972251,0.5521692530909517],[101.4141676144439,0.5486196847370582],[101.42119639000144,0.5520320588150306],[101.423147286618,0.5472097573123702],[101.42980361784275,0.5450373360945863],[101.42763831835379,0.535167982617687],[101.39161164895847,0.5350727884799344],[101.37827219930261,0.5426022849605737],[101.37055890836699,0.5437343911210756]]]}},{"type":"Feature","properties":{"code":"1471121001","desa":"Meranti Pandak","kecamatan":"Rumbai","kecCode":"147112","kabCode":"1471","province":"Riau"},"geometry":{"type":"Polygon","coordinates":[[[101.45079284741206,0.5556895647001299],[101.44732923895326,0.5509898623760153],[101.45647488730627,0.5493598123909955],[101.45716338758035,0.5424287985435504],[101.45178968474619,0.5425170903846158],[101.4475082310201,0.5391827657689309],[101.43717901459989,0.5413568498332323],[101.438022667712,0.5465623083924361],[101.43327942020915,0.5590133330736113],[101.44953941191437,0.5604179491022218],[101.45079284741206,0.5556895647001299]]]}},{"type":"Feature","properties":{"code":"1471121004","desa":"Lembah Damai","kecamatan":"Rumbai","kecCode":"147112","kabCode":"1471","province":"Riau"},"geometry":{"type":"Polygon","coordinates":[[[101.42434120768063,0.603095087893498],[101.43890955663078,0.6095572761656032],[101.44649352775417,0.6215427739847171],[101.45068035391529,0.6220369352606335],[101.4501802795963,0.5911978927073402],[101.44726033469674,0.5839626885741098],[101.4549213678269,0.5794094849117916],[101.44699501400873,0.5725425999206669],[101.4479072835943,0.5704450859338984],[101.4299296299485,0.569159498775254],[101.42971409842698,0.581800448581138],[101.42566589826265,0.5818739537691257],[101.42345766334057,0.5846587485484832],[101.42434120768063,0.603095087893498]]]}},{"type":"Feature","properties":{"code":"1471121006","desa":"Limbungan Baru","kecamatan":"Rumbai","kecCode":"147112","kabCode":"1471","province":"Riau"},"geometry":{"type":"Polygon","coordinates":[[[101.44953941191437,0.5604179491022218],[101.43327942020915,0.5590133330736113],[101.4299296299485,0.569159498775254],[101.44670596560786,0.5707300307279645],[101.44953941191437,0.5604179491022218]]]}},{"type":"Feature","properties":{"code":"1471121009","desa":"Sri Meranti","kecamatan":"Rumbai","kecCode":"147112","kabCode":"1471","province":"Riau"},"geometry":{"type":"Polygon","coordinates":[[[101.43717901459989,0.5413568498332323],[101.423147286618,0.5472097573123702],[101.42169526192684,0.5519601040581781],[101.4141676144439,0.5486196847370582],[101.40042386377034,0.5518584995528858],[101.39738882543399,0.5833326793072742],[101.41180580499393,0.5743718722217344],[101.4157963082531,0.5684684075551684],[101.41890851201829,0.568446766269447],[101.42235929974198,0.5570349028154751],[101.4330963524148,0.5595799437335073],[101.438022667712,0.5465623083924361],[101.43717901459989,0.5413568498332323]]]}},{"type":"Feature","properties":{"code":"1471121010","desa":"Palas","kecamatan":"Rumbai","kecCode":"147112","kabCode":"1471","province":"Riau"},"geometry":{"type":"Polygon","coordinates":[[[101.37656808834669,0.5525141053236833],[101.3725508680282,0.5637781166361947],[101.36974610110173,0.5658126573953479],[101.36840239705303,0.5576838176303283],[101.36549372155804,0.5592837996820769],[101.35689146157175,0.5574848480237441],[101.35666298880597,0.5628281402769738],[101.34970754756534,0.5607174503229145],[101.34906947137904,0.5638366517094343],[101.35351898321454,0.565381462152392],[101.35029267796476,0.5689361863196079],[101.34281769028422,0.5681079017228535],[101.34122244585929,0.5818224244146036],[101.33920390133902,0.5806173589546093],[101.34104071715541,0.5766351195701952],[101.33797472235563,0.5754297987026137],[101.33138771716949,0.5800470439871234],[101.33018406004642,0.5767433116094719],[101.32323426564892,0.5799638405102063],[101.32667160940728,0.5842515786939507],[101.33011353970812,0.5824887519028973],[101.32913824473428,0.5858329169003641],[101.33180811515244,0.5868600739768498],[101.32984986657812,0.5935314049865554],[101.32311242909536,0.5906133171902944],[101.32498706140382,0.6007563901234249],[101.3282243078056,0.6010407539553757],[101.333122829555,0.6077781842360627],[101.34055896382516,0.6102457944253473],[101.34363687374281,0.606361584741154],[101.34965590399683,0.6112799707104049],[101.35962721002778,0.5942943016760346],[101.3656873384,0.5983576095468462],[101.37055397288759,0.5893865852634917],[101.36734569904486,0.587235417723596],[101.3713812484459,0.5792214744436561],[101.38006558595809,0.5796754692991102],[101.38266351960579,0.5881218093162768],[101.39434930757454,0.5869438997846946],[101.39738882543399,0.5833326793072742],[101.40047059973845,0.5517620193845525],[101.39752085220562,0.548439801442244],[101.39571562507608,0.5493254456983557],[101.39381627220325,0.5524832145108429],[101.39614667283075,0.5578156798258268],[101.3940804120814,0.5594428609735353],[101.39096534667344,0.5524843719382465],[101.38511904830551,0.5477512049415467],[101.38181806155437,0.5511726414877179],[101.38545626709309,0.559278980215252],[101.37818577355466,0.5578708514346733],[101.37656808834669,0.5525141053236833]]]}},{"type":"Feature","properties":{"code":"1471121011","desa":"Umban Sari","kecamatan":"Rumbai","kecCode":"147112","kabCode":"1471","province":"Riau"},"geometry":{"type":"Polygon","coordinates":[[[101.39824590092763,0.5890351508927085],[101.42434120768063,0.603095087893498],[101.42358567643787,0.5840129570791482],[101.42971409842698,0.581800448581138],[101.42921915474028,0.5725877503839463],[101.4330963524148,0.5595799437335073],[101.42235929974198,0.5570349028154751],[101.41890851201829,0.568446766269447],[101.4157963082531,0.5684684075551684],[101.41180580499393,0.5743718722217344],[101.39738882543399,0.5833326793072742],[101.39824590092763,0.5890351508927085]]]}},{"type":"Feature","properties":{"code":"1471131001","desa":"Sidomulyo Barat","kecamatan":"Tuahmadani","kecCode":"147113","kabCode":"1471","province":"Riau"},"geometry":{"type":"Polygon","coordinates":[[[101.41961515701392,0.42568111471550474],[101.39467456897624,0.4343634179514578],[101.40036661202959,0.4483685853403725],[101.4020939084072,0.4517263768654618],[101.40621615065487,0.45142933618990355],[101.40818927941177,0.4553270563892538],[101.40255889927386,0.45552028292519486],[101.4016837617962,0.4640858667502525],[101.41833664392107,0.46384582060930096],[101.41841762607264,0.4465341905010112],[101.43048082532987,0.4284580566147795],[101.41961515701392,0.42568111471550474]]]}},{"type":"Feature","properties":{"code":"1471131002","desa":"Sialangmunggu","kecamatan":"Tuahmadani","kecCode":"147113","kabCode":"1471","province":"Riau"},"geometry":{"type":"Polygon","coordinates":[[[101.39467456897624,0.4343634179514578],[101.3842922925553,0.43985015207084655],[101.38806100141414,0.4641215140774649],[101.4016837617962,0.4640858667502525],[101.40255889927386,0.45552028292519486],[101.40818927941177,0.4553270563892538],[101.40621615065487,0.45142933618990355],[101.4020939084072,0.4517263768654618],[101.39467456897624,0.4343634179514578]]]}},{"type":"Feature","properties":{"code":"1471131003","desa":"Tuahkarya","kecamatan":"Tuahmadani","kecCode":"147113","kabCode":"1471","province":"Riau"},"geometry":{"type":"Polygon","coordinates":[[[101.38806100141414,0.4641215140774649],[101.38394948807847,0.43835909770384784],[101.36994457788,0.4409633967500609],[101.36781484477932,0.4643753333355004],[101.38806100141414,0.4641215140774649]]]}},{"type":"Feature","properties":{"code":"1471131004","desa":"Tuahmadani","kecamatan":"Tuahmadani","kecCode":"147113","kabCode":"1471","province":"Riau"},"geometry":{"type":"Polygon","coordinates":[[[101.36991620606811,0.4412026146154247],[101.36426721176245,0.4415428497288041],[101.36327069728492,0.44746144638810903],[101.35069309840782,0.467140059743412],[101.3420061186875,0.471589366528544],[101.36308588840308,0.47250615790431255],[101.36591860985601,0.4708789686627368],[101.36991620606811,0.4412026146154247]]]}},{"type":"Feature","properties":{"code":"1471131005","desa":"Airputih","kecamatan":"Tuahmadani","kecCode":"147113","kabCode":"1471","province":"Riau"},"geometry":{"type":"Polygon","coordinates":[[[101.3420061186875,0.471589366528544],[101.33224875507601,0.47661234005435393],[101.33365122262586,0.48303897902534615],[101.3489096852338,0.4960929451783865],[101.3649343594332,0.48084818106082294],[101.36831396401827,0.4725427827946257],[101.36591860985601,0.4708789686627368],[101.36308588840308,0.47250615790431255],[101.3420061186875,0.471589366528544]]]}},{"type":"Feature","properties":{"code":"1471141001","desa":"Kulim","kecamatan":"Kulim","kecCode":"147114","kabCode":"1471","province":"Riau"},"geometry":{"type":"Polygon","coordinates":[[[101.58939195087788,0.46407968031387553],[101.58289124823254,0.4574741401077337],[101.5751694632002,0.4616848891298978],[101.57126139179984,0.4578422074397584],[101.56669835044858,0.4574166887175396],[101.55503549968863,0.4695700297078799],[101.52739327537942,0.46239279947087825],[101.51890012204308,0.4648239520438147],[101.51431703300473,0.46948892884581156],[101.503631519579,0.4662276660524669],[101.50231656056087,0.47692945179926327],[101.50877851771446,0.4815155796416686],[101.50888998688345,0.4859663307379578],[101.51564788843932,0.4893505263583317],[101.52330447442199,0.4837661087777558],[101.54620441620091,0.4843314253133129],[101.54981612861148,0.48700840936582773],[101.54962026436378,0.49930279103246417],[101.55379090632532,0.5036893386286588],[101.57161759077921,0.5070899468763234],[101.58216771306957,0.5152353485562147],[101.59051829778127,0.5119032317761207],[101.59483940081775,0.5057454793046999],[101.59276118268252,0.5040635582227881],[101.58704679417428,0.5063974158416658],[101.58310624375821,0.5031670402638957],[101.58203198288976,0.48910373710071214],[101.57874682330731,0.4850365423600133],[101.58939195087788,0.46407968031387553]]]}},{"type":"Feature","properties":{"code":"1471141002","desa":"Mentangor","kecamatan":"Kulim","kecCode":"147114","kabCode":"1471","province":"Riau"},"geometry":{"type":"Polygon","coordinates":[[[101.54681004934433,0.4344177522914822],[101.5432775869911,0.4323029227581066],[101.53386938426473,0.4382931279352295],[101.52512681385144,0.43789611412449503],[101.53755006208577,0.44878393992485305],[101.53533018364112,0.45901996048935534],[101.52779235223532,0.46237352789878094],[101.55735142932508,0.469210471761018],[101.55956050960987,0.4635122233919255],[101.56346482634075,0.4610626931730014],[101.55851356025266,0.4531040608968359],[101.55109061274162,0.44806983505362785],[101.551020652681,0.4426659653668464],[101.54681004934433,0.4344177522914822]]]}},{"type":"Feature","properties":{"code":"1471141003","desa":"Sialangrampai","kecamatan":"Kulim","kecCode":"147114","kabCode":"1471","province":"Riau"},"geometry":{"type":"Polygon","coordinates":[[[101.52512681385144,0.43789611412449503],[101.51919946408407,0.4389464215491114],[101.51620717592048,0.44246960379425804],[101.52417150181344,0.45390675708345674],[101.51671209668598,0.46208294345619194],[101.51533804591413,0.4681971750358478],[101.51890012204308,0.4648239520438147],[101.52510010308735,0.46455866463099244],[101.53533018364112,0.45901996048935534],[101.53755006208577,0.44878393992485305],[101.52512681385144,0.43789611412449503]]]}},{"type":"Feature","properties":{"code":"1471141004","desa":"Pebatuan","kecamatan":"Kulim","kecCode":"147114","kabCode":"1471","province":"Riau"},"geometry":{"type":"Polygon","coordinates":[[[101.52417150181344,0.45390675708345674],[101.51410329922794,0.4412695484572823],[101.50697555507787,0.4462906055278049],[101.49606051488092,0.4447916865895231],[101.49517945806559,0.4479340994780613],[101.49096797609126,0.4500152961656016],[101.48872930721183,0.467624451684007],[101.4982807305713,0.46547703071968305],[101.51457826267676,0.46927360416857816],[101.51671209668598,0.46208294345619194],[101.52417150181344,0.45390675708345674]]]}},{"type":"Feature","properties":{"code":"1471141005","desa":"Pematangkapau","kecamatan":"Kulim","kecCode":"147114","kabCode":"1471","province":"Riau"},"geometry":{"type":"Polygon","coordinates":[[[101.48872930721183,0.467624451684007],[101.48528779869302,0.4800207400281968],[101.47719590486719,0.4895445991563403],[101.4807260946336,0.4988179710145859],[101.49107109055842,0.4878834955810952],[101.50412303235214,0.48309567588438723],[101.50661792437779,0.484649200757898],[101.50877851771446,0.4815155796416686],[101.50231656056087,0.47692945179926327],[101.503631519579,0.4662276660524669],[101.48872930721183,0.467624451684007]]]}},{"type":"Feature","properties":{"code":"1471151001","desa":"Tebing Tinggi Okura","kecamatan":"Rumbai Timur","kecCode":"147115","kabCode":"1471","province":"Riau"},"geometry":{"type":"Polygon","coordinates":[[[101.59237207301284,0.6073481086490392],[101.59146956556803,0.6010897804967001],[101.58768073617709,0.5962839671644712],[101.57625413372136,0.5973631077531129],[101.56283371990031,0.5892005389147676],[101.56323070942976,0.5846089467916072],[101.57134697758102,0.5784993062509372],[101.56839916179196,0.5734883809426385],[101.55150624341849,0.5768247946833626],[101.54749366809835,0.5706472544290225],[101.53963605665875,0.5692314562300583],[101.52735856064913,0.5782764839257953],[101.52479236227778,0.576890603473355],[101.52184751065413,0.5679112739509298],[101.51239347577837,0.5694698674034995],[101.50712097455339,0.5613435916055775],[101.48984859893375,0.5598138744845959],[101.48553907197066,0.5771904869058454],[101.48124324258163,0.5837415317933451],[101.48278440267808,0.586005828650637],[101.48521275566418,0.58334837247694],[101.48863592700648,0.5843056369420867],[101.49197078942045,0.5914919305466132],[101.49595044775504,0.5922497253821278],[101.49794598581865,0.604894379495525],[101.50221017166217,0.6093698142839432],[101.49062456187407,0.617538807879042],[101.49439307827798,0.6252212232816156],[101.50641922366827,0.62490213572609],[101.50642128671308,0.6292366647365408],[101.50033759340528,0.637161370987908],[101.55720554939666,0.6361598400930921],[101.56616190664676,0.6403375489226242],[101.57062459984547,0.6383293547020517],[101.57346465077306,0.6337267341926829],[101.57143958167143,0.6253625211640035],[101.57378778977473,0.6195264444969829],[101.59237207301284,0.6073481086490392]]]}},{"type":"Feature","properties":{"code":"1471151002","desa":"Sungaiukai","kecamatan":"Rumbai Timur","kecCode":"147115","kabCode":"1471","province":"Riau"},"geometry":{"type":"Polygon","coordinates":[[[101.4773009996415,0.6396529993710504],[101.48486000018892,0.6424179991728649],[101.48486111085161,0.645722221681027],[101.49130599977211,0.6536729992784801],[101.49721099958805,0.656837999539453],[101.50271499979749,0.665908999655931],[101.5012359999415,0.667282999164841],[101.50572900029317,0.6710379996535167],[101.50680599959723,0.6814639993020791],[101.51095800041145,0.683748999452091],[101.51431399959147,0.690453999280536],[101.51736111132631,0.6909999992777928],[101.52345759209423,0.6841537402378192],[101.5374900341378,0.6815824885787831],[101.54098317003734,0.6779047011828508],[101.53693562368017,0.6633761661353242],[101.5463449190828,0.6414923135020575],[101.55058758414974,0.6373893815019231],[101.50033759340528,0.637161370987908],[101.50642128671308,0.6292366647365408],[101.50641922366827,0.62490213572609],[101.49439307827798,0.6252212232816156],[101.48617976788204,0.6314310267143403],[101.48630538698409,0.6367939484698192],[101.48162916685267,0.6386818466756242],[101.47890213642448,0.6365039539824212],[101.4773009996415,0.6396529993710504]]]}},{"type":"Feature","properties":{"code":"1471151003","desa":"Sungaiambang","kecamatan":"Rumbai Timur","kecCode":"147115","kabCode":"1471","province":"Riau"},"geometry":{"type":"Polygon","coordinates":[[[101.45068830931808,0.6275598230255688],[101.45728300011041,0.6530429999041647],[101.46314999997259,0.6389819999047242],[101.46636699993716,0.6379729992410491],[101.47243900025971,0.6414629992006591],[101.47725500021812,0.6402369993220534],[101.47890213642448,0.6365039539824212],[101.48162916685267,0.6386818466756242],[101.48630538698409,0.6367939484698192],[101.48617976788204,0.6314310267143403],[101.49439307827798,0.6252212232816156],[101.49065125734971,0.6174472748812526],[101.50221017166217,0.6093698142839432],[101.49794598581865,0.604894379495525],[101.49595044775504,0.5922497253821278],[101.49197078942045,0.5914919305466132],[101.48863592700648,0.5843056369420867],[101.48521275566418,0.58334837247694],[101.48278440267808,0.586005828650637],[101.47852083466887,0.5811958352695299],[101.46942841808708,0.5803412877711412],[101.45873484493723,0.5761308688001507],[101.4575578536121,0.5737087346287265],[101.45487800071919,0.5749812456448368],[101.45641853938412,0.5766620875403397],[101.45359518437031,0.5811758262533634],[101.44726033469674,0.5839626885741098],[101.4501802795963,0.5911978927073402],[101.45068830931808,0.6275598230255688]]]}},{"type":"Feature","properties":{"code":"1471151004","desa":"Lembah Sari","kecamatan":"Rumbai Timur","kecCode":"147115","kabCode":"1471","province":"Riau"},"geometry":{"type":"Polygon","coordinates":[[[101.48984859893375,0.5598138744845959],[101.48436750175887,0.5567404737711826],[101.48704830163784,0.5631288573810024],[101.47398555359047,0.5649878882485063],[101.46654279041752,0.5708554276973563],[101.45916843957188,0.5666703129507862],[101.4482987153135,0.5673301122603578],[101.44699501400873,0.5725425999206669],[101.45468469144542,0.5790253377015577],[101.45641853938412,0.5766620875403397],[101.45487800071919,0.5749812456448368],[101.4575578536121,0.5737087346287265],[101.4591055212029,0.5763028983155349],[101.46942841808708,0.5803412877711412],[101.4739589489464,0.5796624920819896],[101.48124324258163,0.5837415317933451],[101.48553907197066,0.5771904869058454],[101.48984859893375,0.5598138744845959]]]}},{"type":"Feature","properties":{"code":"1471151005","desa":"Limbungan","kecamatan":"Rumbai Timur","kecCode":"147115","kabCode":"1471","province":"Riau"},"geometry":{"type":"Polygon","coordinates":[[[101.46847470144637,0.5461928767889004],[101.45664141656816,0.5561423580613295],[101.45079284741206,0.5556895647001299],[101.4482987153135,0.5673301122603578],[101.45916843957188,0.5666703129507862],[101.46592515672067,0.5709393982960436],[101.47398555359047,0.5649878882485063],[101.48704830163784,0.5631288573810024],[101.4827880224493,0.5555591692988514],[101.4727396526129,0.5567830926428964],[101.46847470144637,0.5461928767889004]]]}}]}