{"type":"FeatureCollection","features":[{"type":"Feature","properties":{"code":"1503091001","desa":"Sungaibenteng","kecamatan":"Singkut","kecCode":"150309"},"geometry":{"type":"Polygon","coordinates":[[[102.70904468496428,-2.519496821921575],[102.69339576640158,-2.5208027319598427],[102.6912433209226,-2.538276997265808],[102.67346736992322,-2.536923531977069],[102.66706053221787,-2.542641609498036],[102.67025718681974,-2.5134156728024624],[102.71164785356564,-2.5015092361827733],[102.70904468496428,-2.519496821921575]]]}},{"type":"Feature","properties":{"code":"1503092002","desa":"Bukittigo","kecamatan":"Singkut","kecCode":"150309"},"geometry":{"type":"Polygon","coordinates":[[[102.70904468496428,-2.519496821921575],[102.71208194192813,-2.50302183201076],[102.69813714331455,-2.468263463944581],[102.71438182675995,-2.4683049901400413],[102.71414249737842,-2.492101143183988],[102.72415457327497,-2.5014156985961686],[102.72115874088325,-2.520197122199375],[102.70904468496428,-2.519496821921575]]]}},{"type":"Feature","properties":{"code":"1503092003","desa":"Sungaigedang","kecamatan":"Singkut","kecCode":"150309"},"geometry":{"type":"Polygon","coordinates":[[[102.69506346470718,-2.560820953179954],[102.69339576640158,-2.5208027319598427],[102.69949715656855,-2.519746695853784],[102.72910428083793,-2.521360211803001],[102.72919154295539,-2.5326476954211823],[102.76569941439652,-2.5319307972556078],[102.74370361862712,-2.5466481062960793],[102.70739401532158,-2.5554143225743795],[102.70209138680808,-2.5643515782143913],[102.69506346470718,-2.560820953179954]]]}},{"type":"Feature","properties":{"code":"1503092004","desa":"Payo Lebar","kecamatan":"Singkut","kecCode":"150309"},"geometry":{"type":"Polygon","coordinates":[[[102.72415457327497,-2.5014156985961686],[102.71414249737842,-2.492101143183988],[102.71435605758603,-2.4683020898264054],[102.72983980306451,-2.469968432851858],[102.79429179043382,-2.508424005576294],[102.77429012978568,-2.524868070499947],[102.77407083640003,-2.51262549607807],[102.75056107783153,-2.5125227530310243],[102.75077284928761,-2.502416706085563],[102.72415457327497,-2.5014156985961686]]]}},{"type":"Feature","properties":{"code":"1503092005","desa":"Bukitmurau","kecamatan":"Singkut","kecCode":"150309"},"geometry":{"type":"Polygon","coordinates":[[[102.67377929527832,-2.46803240293019],[102.66726590859484,-2.535474661209915],[102.64991138170495,-2.536508696301392],[102.65471024867905,-2.4968434715744787],[102.66878760736226,-2.4678399965759352],[102.67377929527832,-2.46803240293019]]]}},{"type":"Feature","properties":{"code":"1503092006","desa":"Perdamaian","kecamatan":"Singkut","kecCode":"150309"},"geometry":{"type":"Polygon","coordinates":[[[102.69478369461189,-2.5554053959037386],[102.6963537274426,-2.581955203802014],[102.67733333326679,-2.593616664197318],[102.6753876985835,-2.6052602244866443],[102.66479171536542,-2.5932450364492605],[102.66712688239977,-2.5862333767965744],[102.65394461175448,-2.5579895177606278],[102.66494432671936,-2.5474655063981375],[102.66663913958466,-2.5566044907647067],[102.69478369461189,-2.5554053959037386]]]}},{"type":"Feature","properties":{"code":"1503092007","desa":"Pasar Singkut","kecamatan":"Singkut","kecCode":"150309"},"geometry":{"type":"Polygon","coordinates":[[[102.70759315669886,-2.5012201877822022],[102.66678251220321,-2.5155058384288678],[102.67377929527832,-2.46803240293019],[102.69813714331455,-2.468263463944581],[102.70759315669886,-2.5012201877822022]]]}},{"type":"Feature","properties":{"code":"1503092008","desa":"Siliwangi","kecamatan":"Singkut","kecCode":"150309"},"geometry":{"type":"Polygon","coordinates":[[[102.72115874088325,-2.520197122199375],[102.72415457327497,-2.5014156985961686],[102.75077284928761,-2.502416706085563],[102.75056107783153,-2.5125227530310243],[102.77407083640003,-2.51262549607807],[102.77429012978568,-2.524868070499947],[102.76569941439652,-2.5319307972556078],[102.72919154295539,-2.5326476954211823],[102.72910428083793,-2.521360211803001],[102.72115874088325,-2.520197122199375]]]}},{"type":"Feature","properties":{"code":"1503092009","desa":"Simpang Nibung","kecamatan":"Singkut","kecCode":"150309"},"geometry":{"type":"Polygon","coordinates":[[[102.69506346470718,-2.560820953179954],[102.70322162957461,-2.564202861824443],[102.70739401532158,-2.5554143225743795],[102.75417352858551,-2.5414066307881327],[102.79429179043382,-2.508424005576294],[102.80589234875293,-2.51440850455513],[102.79291388876504,-2.520530553042186],[102.79697415513323,-2.5264442888659366],[102.78667500035105,-2.546694441166495],[102.7437277780146,-2.561247219238832],[102.74733611077295,-2.5637583305348315],[102.7348083334379,-2.579433330319087],[102.72538333317435,-2.5796027751829014],[102.7226166669257,-2.554813886613659],[102.70762499989387,-2.583774997248721],[102.6963537274426,-2.581955203802014],[102.69506346470718,-2.560820953179954]]]}},{"type":"Feature","properties":{"code":"1503092010","desa":"Bukit Talang Mas","kecamatan":"Singkut","kecCode":"150309"},"geometry":{"type":"Polygon","coordinates":[[[102.66878760736226,-2.4678399965759352],[102.65227843959838,-2.504893188086885],[102.64991138170495,-2.536508696301392],[102.63591244660216,-2.536461668952977],[102.63646169764928,-2.5134681293580385],[102.65469911956875,-2.4676104689056224],[102.66878760736226,-2.4678399965759352]]]}},{"type":"Feature","properties":{"code":"1503092011","desa":"Bukit Bumi Raya","kecamatan":"Singkut","kecCode":"150309"},"geometry":{"type":"Polygon","coordinates":[[[102.66726590859484,-2.535474661209915],[102.65842241356358,-2.555997846783943],[102.63746110884317,-2.5624199783530854],[102.63591244660216,-2.536461668952977],[102.66726590859484,-2.535474661209915]]]}},{"type":"Feature","properties":{"code":"1503092012","desa":"Argo Sari","kecamatan":"Singkut","kecCode":"150309"},"geometry":{"type":"Polygon","coordinates":[[[102.66706053221787,-2.542641609498036],[102.67346736992322,-2.536923531977069],[102.69062108359617,-2.5375706724295193],[102.69478369461189,-2.5554053959037386],[102.66663913958466,-2.5566044907647067],[102.66706053221787,-2.542641609498036]]]}},{"type":"Feature","properties":{"code":"1503092013","desa":"Sendang Sari","kecamatan":"Singkut","kecCode":"150309"},"geometry":{"type":"Polygon","coordinates":[[[102.65394461175448,-2.5579895177606278],[102.66712688239977,-2.5862333767965744],[102.66479171536542,-2.5932450364492605],[102.67536111102652,-2.6065861084675617],[102.64494166692445,-2.6139277752440453],[102.63746110884317,-2.5624199783530854],[102.65394461175448,-2.5579895177606278]]]}},{"type":"Feature","properties":{"code":"1503031001","desa":"Dusun Sarolangun","kecamatan":"Sarolangun","kecCode":"150303"},"geometry":{"type":"Polygon","coordinates":[[[102.72290584932556,-2.305814939842779],[102.72845704955324,-2.3306722155581796],[102.6917874827062,-2.3308816289916217],[102.69944102898035,-2.307398378865535],[102.70730949074043,-2.311391490154175],[102.72290584932556,-2.305814939842779]]]}},{"type":"Feature","properties":{"code":"1503031015","desa":"Sukasari","kecamatan":"Sarolangun","kecCode":"150303"},"geometry":{"type":"Polygon","coordinates":[[[102.73960584783168,-2.280532066264864],[102.72910224477282,-2.300925903248409],[102.71624213556616,-2.294672383770908],[102.73172865725176,-2.278622469216642],[102.73960584783168,-2.280532066264864]]]}},{"type":"Feature","properties":{"code":"1503031016","desa":"Pasar Sarolangun","kecamatan":"Sarolangun","kecCode":"150303"},"geometry":{"type":"Polygon","coordinates":[[[102.72910224477282,-2.300925903248409],[102.71470105101275,-2.3074622010531267],[102.71972000457458,-2.297073163540478],[102.72910224477282,-2.300925903248409]]]}},{"type":"Feature","properties":{"code":"1503031019","desa":"Sarolangun Kembang","kecamatan":"Sarolangun","kecCode":"150303"},"geometry":{"type":"Polygon","coordinates":[[[102.7219010592865,-2.312524054069633],[102.73960584783168,-2.280532066264864],[102.81189039332708,-2.2917109936181452],[102.81109935684992,-2.3082107841329274],[102.8262527013012,-2.323370931039516],[102.81537692370614,-2.322949883746521],[102.81095291844247,-2.328998525970943],[102.74889565570997,-2.3197499915886697],[102.72858029084779,-2.3085488644707195],[102.7219010592865,-2.312524054069633]]]}},{"type":"Feature","properties":{"code":"1503031025","desa":"Gunungkembang","kecamatan":"Sarolangun","kecCode":"150303"},"geometry":{"type":"Polygon","coordinates":[[[102.72845704955324,-2.3306722155581796],[102.72970917473867,-2.3185426787228884],[102.72191018200937,-2.3140390420942447],[102.72751035571838,-2.308412584805294],[102.74889565570997,-2.3197499915886697],[102.77938750243135,-2.3251810432844295],[102.81095291844247,-2.328998525970943],[102.81537692370614,-2.322949883746521],[102.8262527013012,-2.323370931039516],[102.85162499989387,-2.3461027751138896],[102.84843055582552,-2.350094441192015],[102.8247559002646,-2.341662206141697],[102.72845704955324,-2.3306722155581796]]]}},{"type":"Feature","properties":{"code":"1503031026","desa":"Aur","kecamatan":"Sarolangun","kecCode":"150303"},"geometry":{"type":"Polygon","coordinates":[[[102.71501402677596,-2.3066067713197476],[102.69571814327774,-2.310678685702611],[102.69604936358729,-2.2994519126178408],[102.68784815536814,-2.2906455272211947],[102.6940050022291,-2.2827743081483156],[102.69310424036847,-2.1843431613766304],[102.69922767291882,-2.188095635669705],[102.70156447941723,-2.2200408758152355],[102.719979635252,-2.258283807439206],[102.72350409273974,-2.288918812706788],[102.71653865733322,-2.2927247382056684],[102.71501402677596,-2.3066067713197476]]]}},{"type":"Feature","properties":{"code":"1503032002","desa":"Bernai","kecamatan":"Sarolangun","kecCode":"150303"},"geometry":{"type":"Polygon","coordinates":[[[102.69880293300899,-2.3079606170217075],[102.6917874827062,-2.3308816289916217],[102.67167797805632,-2.3314411583897905],[102.67360877662377,-2.3138977118362645],[102.6813775215554,-2.3143644914538837],[102.68127288723399,-2.290344596078427],[102.6746746198379,-2.2936184880513673],[102.67532616786842,-2.1838878634034424],[102.68343700771179,-2.176314513281839],[102.69310424036847,-2.1843431613766304],[102.6940050022291,-2.2827743081483156],[102.68784815536814,-2.2906455272211947],[102.69604936358729,-2.2994519126178408],[102.6948643925777,-2.309902505127195],[102.69880293300899,-2.3079606170217075]]]}},{"type":"Feature","properties":{"code":"1503032003","desa":"Sungai Baung","kecamatan":"Sarolangun","kecCode":"150303"},"geometry":{"type":"Polygon","coordinates":[[[102.64378865332372,-2.306039729884553],[102.63940151756604,-2.3005360984032217],[102.6351089698032,-2.304666843736326],[102.63368265582994,-2.3046970816414336],[102.63944609606055,-2.2937925941013395],[102.63944617789882,-2.2154950726739657],[102.64601187544774,-2.2077495194677543],[102.64378865332372,-2.306039729884553]]]}},{"type":"Feature","properties":{"code":"1503032004","desa":"Panti","kecamatan":"Sarolangun","kecCode":"150303"},"geometry":{"type":"Polygon","coordinates":[[[102.64378865332372,-2.306039729884553],[102.64601187544774,-2.2077495194677543],[102.66064685696693,-2.193799652290525],[102.65566117022688,-2.3024092360363326],[102.64909841705838,-2.3329972544250532],[102.63356456495278,-2.3340673055658727],[102.64378865332372,-2.306039729884553]]]}},{"type":"Feature","properties":{"code":"1503032005","desa":"Tinting","kecamatan":"Sarolangun","kecCode":"150303"},"geometry":{"type":"Polygon","coordinates":[[[102.63284680703457,-2.3051030652902247],[102.62349366979709,-2.33300005941053],[102.60938095156972,-2.3353181995780257],[102.63493946468463,-2.2208115489425384],[102.63284680703457,-2.3051030652902247]]]}},{"type":"Feature","properties":{"code":"1503032006","desa":"Sungai Abang","kecamatan":"Sarolangun","kecCode":"150303"},"geometry":{"type":"Polygon","coordinates":[[[102.67532616786842,-2.1838878634034424],[102.67167797805632,-2.3314411583897905],[102.64909841705838,-2.3329972544250532],[102.65702305856736,-2.2929308897980905],[102.66064685696693,-2.193799652290525],[102.67532616786842,-2.1838878634034424]]]}},{"type":"Feature","properties":{"code":"1503032013","desa":"Lidung","kecamatan":"Sarolangun","kecCode":"150303"},"geometry":{"type":"Polygon","coordinates":[[[102.73960584783168,-2.280532066264864],[102.73172865725176,-2.278622469216642],[102.72067565205975,-2.294054299514426],[102.71915158267944,-2.254003157711681],[102.70156447941723,-2.2200408758152355],[102.69922767291882,-2.188095635669705],[102.72558039172173,-2.204378776805841],[102.71563341864741,-2.2258298531883547],[102.74483301423226,-2.253711369076892],[102.73960584783168,-2.280532066264864]]]}},{"type":"Feature","properties":{"code":"1503032014","desa":"Ladang Panjang","kecamatan":"Sarolangun","kecCode":"150303"},"geometry":{"type":"Polygon","coordinates":[[[102.81189039332708,-2.2917109936181452],[102.73960584783168,-2.280532066264864],[102.74483301423226,-2.253711369076892],[102.71563341864741,-2.2258298531883547],[102.72316348620598,-2.2061964712348927],[102.75967647029289,-2.215337901757459],[102.76037770856446,-2.2247193613337966],[102.77282919730965,-2.223937794718691],[102.780230126719,-2.242730124400251],[102.79492209557831,-2.249822717641047],[102.79352698088552,-2.263778041904503],[102.81189039332708,-2.2917109936181452]]]}},{"type":"Feature","properties":{"code":"1503032024","desa":"Baru","kecamatan":"Sarolangun","kecCode":"150303"},"geometry":{"type":"Polygon","coordinates":[[[102.63368265582994,-2.3046970816414336],[102.64083871243666,-2.3013451150251525],[102.64160795204543,-2.3144437244240366],[102.63380318476925,-2.3339758301247104],[102.625042895913,-2.3346544540432856],[102.63368265582994,-2.3046970816414336]]]}},{"type":"Feature","properties":{"code":"1503032027","desa":"Ujung Tanjung","kecamatan":"Sarolangun","kecCode":"150303"},"geometry":{"type":"Polygon","coordinates":[[[102.63944617789882,-2.2154950726739657],[102.63944609606055,-2.2937925941013395],[102.63284680703457,-2.3051030652902247],[102.63493946468463,-2.2208115489425384],[102.63944617789882,-2.2154950726739657]]]}},{"type":"Feature","properties":{"code":"1503032028","desa":"Bernai Dalam","kecamatan":"Sarolangun","kecCode":"150303"},"geometry":{"type":"Polygon","coordinates":[[[102.6746746198379,-2.2936184880513673],[102.68127288723399,-2.290344596078427],[102.6813775215554,-2.3143644914538837],[102.67360877662377,-2.3138977118362645],[102.6746746198379,-2.2936184880513673]]]}},{"type":"Feature","properties":{"code":"1503041005","desa":"Pauh","kecamatan":"Pauh","kecCode":"150304"},"geometry":{"type":"Polygon","coordinates":[[[102.80657523725743,-2.0734489291158016],[102.81493999978125,-2.102249999097409],[102.84223663531253,-2.1098868602412533],[102.8636621772677,-2.1377368764758264],[102.84460987784365,-2.180863171770607],[102.80874546233326,-2.1532898265672693],[102.78184351496627,-2.1081468816260327],[102.7972981475915,-2.0855578328054034],[102.79294922492686,-2.073252717729997],[102.80657523725743,-2.0734489291158016]]]}},{"type":"Feature","properties":{"code":"1503042001","desa":"Pangidaran","kecamatan":"Pauh","kecCode":"150304"},"geometry":{"type":"Polygon","coordinates":[[[102.80960065644517,-2.28508039110513],[102.79352698088552,-2.263778041904503],[102.79492209557831,-2.249822717641047],[102.780230126719,-2.242730124400251],[102.77282919730965,-2.223937794718691],[102.76037770856446,-2.2247193613337966],[102.75967647029289,-2.215337901757459],[102.74325828334314,-2.215319846968061],[102.72558039172173,-2.204378776805841],[102.77061043222574,-2.1955366784314787],[102.80949195538948,-2.2400876994951973],[102.82251666481227,-2.240067443165464],[102.82158349498235,-2.2566409475109785],[102.82742414380925,-2.264098870547457],[102.80960065644517,-2.28508039110513]]]}},{"type":"Feature","properties":{"code":"1503042002","desa":"Karang Mendapo","kecamatan":"Pauh","kecCode":"150304"},"geometry":{"type":"Polygon","coordinates":[[[102.82742414380925,-2.264098870547457],[102.82158349498235,-2.2566409475109785],[102.82319396492959,-2.2407447432819976],[102.81730846331499,-2.236424037750653],[102.80949195538948,-2.2400876994951973],[102.77019708942419,-2.1957607714985934],[102.81667230628199,-2.178729034692164],[102.87123032571901,-2.1940912925371765],[102.82742414380925,-2.264098870547457]]]}},{"type":"Feature","properties":{"code":"1503042003","desa":"Batu Ampar","kecamatan":"Pauh","kecCode":"150304"},"geometry":{"type":"Polygon","coordinates":[[[102.81667230628199,-2.178729034692164],[102.77061043222574,-2.1955366784314787],[102.77157248378312,-2.1481818841951843],[102.79983574482384,-2.153762515630074],[102.81667230628199,-2.178729034692164]]]}},{"type":"Feature","properties":{"code":"1503042004","desa":"Batu Kucing","kecamatan":"Pauh","kecCode":"150304"},"geometry":{"type":"Polygon","coordinates":[[[102.78184351496627,-2.1081468816260327],[102.80874546233326,-2.1532898265672693],[102.82905458320248,-2.1697815447673108],[102.81667230628199,-2.178729034692164],[102.79983574482384,-2.153762515630074],[102.77157248378312,-2.1481818841951843],[102.77162815631442,-2.1183223427434745],[102.78184351496627,-2.1081468816260327]]]}},{"type":"Feature","properties":{"code":"1503042006","desa":"Semaran","kecamatan":"Pauh","kecCode":"150304"},"geometry":{"type":"Polygon","coordinates":[[[102.85794503683405,-2.1534783181726422],[102.8636621772677,-2.1377368764758264],[102.84223663531253,-2.1098868602412533],[102.88174999966282,-2.1222799982604457],[102.88402999958487,-2.145809997844356],[102.89133711261769,-2.1468213880067437],[102.88307133937087,-2.1691780708967854],[102.88445428084043,-2.195355290570889],[102.87451514176045,-2.1880790036077857],[102.87460483474541,-2.163672110171353],[102.85794503683405,-2.1534783181726422]]]}},{"type":"Feature","properties":{"code":"1503042007","desa":"Kasang Melintang","kecamatan":"Pauh","kecCode":"150304"},"geometry":{"type":"Polygon","coordinates":[[[102.72558039172173,-2.204378776805841],[102.69922767291882,-2.188095635669705],[102.7109794369515,-2.164054144874054],[102.7035092768317,-2.132458015251172],[102.70530411679164,-2.109865904238922],[102.77162815631442,-2.1183223427434745],[102.77107355879775,-2.1952856965344503],[102.72558039172173,-2.204378776805841]]]}},{"type":"Feature","properties":{"code":"1503042008","desa":"Pangkal Bulian","kecamatan":"Pauh","kecCode":"150304"},"geometry":{"type":"Polygon","coordinates":[[[102.62761111056437,-2.1601338669798182],[102.6276388888237,-2.1195277760262274],[102.61508851692156,-2.10303813526011],[102.63225474556015,-2.0967359076013414],[102.70530411679164,-2.109865904238922],[102.7035092768317,-2.132458015251172],[102.7109794369515,-2.164054144874054],[102.69922767291882,-2.188095635669705],[102.66415770231616,-2.1654123352007866],[102.62761111056437,-2.1601338669798182]]]}},{"type":"Feature","properties":{"code":"1503042009","desa":"Lubuk Napal","kecamatan":"Pauh","kecCode":"150304"},"geometry":{"type":"Polygon","coordinates":[[[102.85162499989387,-2.3461027751138896],[102.81109935684992,-2.3082107841329274],[102.80960065644517,-2.28508039110513],[102.84451661544948,-2.243977890570403],[102.87451631627505,-2.188018875835227],[102.88445428084043,-2.195355290570889],[102.88307133937087,-2.1691780708967854],[102.89133711261769,-2.1468213880067437],[102.90930999985665,-2.150829998211589],[102.92947467161882,-2.1637445964274615],[102.92779950983957,-2.1860053612253663],[102.95369259144,-2.259525261267864],[102.87463774903294,-2.2591822508466275],[102.87713258709924,-2.3045856844183272],[102.87430523280034,-2.3134452512241293],[102.86754166731413,-2.3145166648377935],[102.87001111122385,-2.3275777752054263],[102.86450277808082,-2.3229944415565518],[102.86520833309817,-2.3318944409821967],[102.85593611056309,-2.3335361084094157],[102.85999444428823,-2.342388886233113],[102.85162499989387,-2.3461027751138896]]]}},{"type":"Feature","properties":{"code":"1503042010","desa":"Sepintun","kecamatan":"Pauh","kecCode":"150304"},"geometry":{"type":"Polygon","coordinates":[[[102.95369259144,-2.259525261267864],[102.94563508589056,-2.2281190738568344],[103.06275167894688,-2.2263446458113165],[103.07721090056263,-2.3395435724760163],[103.06306388938702,-2.336249997041472],[103.06261388931959,-2.3245555531108972],[103.05518055643755,-2.317341664708601],[103.04339577109799,-2.3213089016027135],[103.03747743433621,-2.2623578046518906],[102.95369259144,-2.259525261267864]]]}},{"type":"Feature","properties":{"code":"1503042011","desa":"Lamban Sigatal","kecamatan":"Pauh","kecCode":"150304"},"geometry":{"type":"Polygon","coordinates":[[[102.94563508589056,-2.2281190738568344],[102.92779950983957,-2.1860053612253663],[102.92947467161882,-2.1637445964274615],[102.96433333301695,-2.17827777557437],[103.03994587640112,-2.182530771148973],[103.0617434975644,-2.21155455913444],[103.06275167894688,-2.2263446458113165],[102.94563508589056,-2.2281190738568344]]]}},{"type":"Feature","properties":{"code":"1503042020","desa":"Seko Besar","kecamatan":"Pauh","kecCode":"150304"},"geometry":{"type":"Polygon","coordinates":[[[102.86975190772444,-2.315888798253556],[102.87713258709924,-2.3045856844183272],[102.87463774903294,-2.2591822508466275],[102.96170882260412,-2.2596726925266375],[102.96227024057919,-2.335517293290997],[102.9407138886351,-2.336177775185993],[102.92862222223785,-2.326877775301158],[102.91500138910288,-2.3324776423352143],[102.9109736296294,-2.324530420657004],[102.89276944395476,-2.317338886702824],[102.87761666697565,-2.3245555531108972],[102.86975190772444,-2.315888798253556]]]}},{"type":"Feature","properties":{"code":"1503042021","desa":"Taman Bandung","kecamatan":"Pauh","kecCode":"150304"},"geometry":{"type":"Polygon","coordinates":[[[102.96170882260412,-2.2596726925266375],[103.03747743433621,-2.2623578046518906],[103.04339577109799,-2.3213089016027135],[103.0372277780396,-2.3374791643323327],[102.98974444365119,-2.3395249969791174],[102.97234166723422,-2.3302222190884856],[102.96227024057919,-2.335517293290997],[102.96170882260412,-2.2596726925266375]]]}},{"type":"Feature","properties":{"code":"1503042022","desa":"Danau Serdang","kecamatan":"Pauh","kecCode":"150304"},"geometry":{"type":"Polygon","coordinates":[[[102.82905458320248,-2.1697815447673108],[102.84460987784365,-2.180863171770607],[102.85794503683405,-2.1534783181726422],[102.87460483474541,-2.163672110171353],[102.87451631627505,-2.188018875835227],[102.87123032571901,-2.1940912925371765],[102.81667230628199,-2.178729034692164],[102.82905458320248,-2.1697815447673108]]]}},{"type":"Feature","properties":{"code":"1503062001","desa":"Mandiangin","kecamatan":"Mandiangin","kecCode":"150306"},"geometry":{"type":"Polygon","coordinates":[[[103.07721090056263,-2.3395435724760163],[103.06000463320731,-2.2054017493368585],[103.03994587640112,-2.182530771148973],[103.0306641669178,-2.1823261843769264],[102.95943124095906,-2.053311440284008],[102.92933550333089,-2.0384829651462884],[102.9341838815809,-2.030795774343573],[102.94809840991377,-2.0269453620811007],[102.96518162033554,-2.031511646382648],[102.98415622103285,-2.079790479630901],[103.00704663629328,-2.106583210601182],[103.06683119440413,-2.206175190577327],[103.08948561586851,-2.344844686525334],[103.07721090056263,-2.3395435724760163]]]}},{"type":"Feature","properties":{"code":"1503062002","desa":"Rangkiling Simpang","kecamatan":"Mandiangin","kecCode":"150306"},"geometry":{"type":"Polygon","coordinates":[[[103.0306641669178,-2.1823261843769264],[102.9533578700697,-2.1743111951853447],[102.95522305859731,-2.1255682658963075],[102.94888760098205,-2.112103966972917],[102.91341397057836,-2.0856168670024133],[102.91316611292581,-2.069769923138542],[102.92646459126792,-2.0690010189777794],[102.9317555690643,-2.077073500928365],[102.93939357055687,-2.0769268349925687],[102.93854418516604,-2.057320524431483],[102.95643311979266,-2.0501705526456013],[103.0306641669178,-2.1823261843769264]]]}},{"type":"Feature","properties":{"code":"1503062003","desa":"Pemusiran","kecamatan":"Mandiangin","kecCode":"150306"},"geometry":{"type":"Polygon","coordinates":[[[102.9533578700697,-2.1743111951853447],[102.9053611109266,-2.149527775393674],[102.91341397057836,-2.0856168670024133],[102.94888760098205,-2.112103966972917],[102.95522305859731,-2.1255682658963075],[102.9533578700697,-2.1743111951853447]]]}},{"type":"Feature","properties":{"code":"1503062004","desa":"Gurun Tuo Simpang","kecamatan":"Mandiangin","kecCode":"150306"},"geometry":{"type":"Polygon","coordinates":[[[102.89910368658593,-2.058276579308448],[102.91474676315266,-2.073690020268964],[102.90674587442265,-2.140085615176534],[102.88013728680643,-2.1178890538787383],[102.88598269934214,-2.1080612158052845],[102.87915636657313,-2.1061554237887523],[102.8758031211172,-2.094816254334104],[102.88106820383462,-2.0922862752616376],[102.88113045220865,-2.080969976465999],[102.87020240241901,-2.068747900291586],[102.89258372585833,-2.0669025714947225],[102.89910368658593,-2.058276579308448]]]}},{"type":"Feature","properties":{"code":"1503062005","desa":"Gurun Mudo","kecamatan":"Mandiangin","kecCode":"150306"},"geometry":{"type":"Polygon","coordinates":[[[102.88174999966282,-2.1222799982604457],[102.81974999856364,-2.1065599990991433],[102.80949999982516,-2.087999997576794],[102.80682999990461,-2.0004699973639917],[102.80083333309192,-1.9906111083983369],[102.8338853842032,-1.9974243919970092],[102.83633265982444,-2.0064092370616033],[102.85836590516242,-2.021012963526298],[102.87029362065414,-2.068473957803402],[102.85965209127107,-2.076017420755571],[102.87857356541775,-2.0949375072274954],[102.87915636657313,-2.1061554237887523],[102.88596369307004,-2.1079543340782525],[102.88219314239967,-2.121786611300782],[102.90674587442265,-2.140085615176534],[102.9053611109266,-2.149527775393674],[102.88402999958487,-2.145809997844356],[102.88174999966282,-2.1222799982604457]]]}},{"type":"Feature","properties":{"code":"1503062006","desa":"Gurun Tuo","kecamatan":"Mandiangin","kecCode":"150306"},"geometry":{"type":"Polygon","coordinates":[[[102.91316611292581,-2.069769923138542],[102.89910368658593,-2.058276579308448],[102.89258372585833,-2.0669025714947225],[102.87029362065414,-2.068473957803402],[102.85836590516242,-2.021012963526298],[102.90647970567392,-2.030905894529327],[102.91316611292581,-2.069769923138542]]]}},{"type":"Feature","properties":{"code":"1503062007","desa":"Rangkiling","kecamatan":"Mandiangin","kecCode":"150306"},"geometry":{"type":"Polygon","coordinates":[[[102.92965704243862,-2.035597756563948],[102.94763706759665,-2.0487827251608626],[102.94408936173473,-2.0576969293781695],[102.93854418516604,-2.057320524431483],[102.93939357055687,-2.0769268349925687],[102.9317555690643,-2.077073500928365],[102.92646459126792,-2.0690010189777794],[102.91316611292581,-2.069769923138542],[102.90647970567392,-2.030905894529327],[102.92965704243862,-2.035597756563948]]]}},{"type":"Feature","properties":{"code":"1503062008","desa":"Mandainangin Tuo","kecamatan":"Mandiangin","kecCode":"150306"},"geometry":{"type":"Polygon","coordinates":[[[102.96518162033554,-2.031511646382648],[102.94670498414773,-2.026943585020744],[102.92965704243862,-2.035597756563948],[102.86921624723207,-2.0267236693044297],[102.85019064058565,-2.018069785544228],[102.8338853842032,-1.9974243919970092],[102.80083333309192,-1.9906111083983369],[102.93292037277706,-1.9885326744280836],[102.95078416865452,-2.007535261107167],[102.97604538388742,-2.019894313921545],[102.96518162033554,-2.031511646382648]]]}},{"type":"Feature","properties":{"code":"1503062009","desa":"Kertopati","kecamatan":"Mandiangin","kecCode":"150306"},"geometry":{"type":"Polygon","coordinates":[[[102.9649625571763,-1.9984303466569826],[102.95078416865452,-2.007535261107167],[102.93292037277706,-1.9885326744280836],[102.91879763160546,-1.9874009360902596],[102.92397770320851,-1.9796832465790204],[102.94426470165473,-1.9797756285368164],[102.95523654123343,-1.9678569620366717],[102.9634186532483,-1.9702707091308227],[102.98053013655662,-1.9834687763532315],[102.97432493314919,-1.9991872673514592],[102.9649625571763,-1.9984303466569826]]]}},{"type":"Feature","properties":{"code":"1503062010","desa":"Muaro Ketalo","kecamatan":"Mandiangin","kecCode":"150306"},"geometry":{"type":"Polygon","coordinates":[[[102.98053013655662,-1.9834687763532315],[102.95543651358429,-1.9680986512389935],[102.9539853684301,-1.9600202193737848],[102.96561111136377,-1.9575555535648745],[102.9793611114262,-1.9434999980608811],[102.99434722244642,-1.9476923748330572],[102.99939621696188,-1.9581111520263195],[102.98053013655662,-1.9834687763532315]]]}},{"type":"Feature","properties":{"code":"1503062011","desa":"Taman Dewa","kecamatan":"Mandiangin","kecCode":"150306"},"geometry":{"type":"Polygon","coordinates":[[[102.97459161541074,-2.0251280597564683],[102.97604538388742,-2.019894313921545],[102.95903277744077,-2.0028831284225044],[103.00328975172073,-2.024489420595295],[103.07241999978322,-2.0356699973051975],[103.12850753309623,-2.1110910155873746],[103.1316666670831,-2.3527777753576524],[103.11449090383222,-2.3524058175584015],[103.09885064304278,-2.1672560829894643],[103.08433593055884,-2.1199048086997556],[103.04950255899598,-2.0715953958039424],[102.97459161541074,-2.0251280597564683]]]}},{"type":"Feature","properties":{"code":"1503062012","desa":"Simpang Kertopati","kecamatan":"Mandiangin","kecCode":"150306"},"geometry":{"type":"Polygon","coordinates":[[[102.97432493314919,-1.9991872673514592],[102.97955938495771,-1.9847189886792993],[102.99026986356343,-1.9769228162325019],[103.03158839119135,-1.9780716066155677],[103.00057398260326,-1.9951456079608434],[102.99811599965373,-2.003990064357627],[102.97432493314919,-1.9991872673514592]]]}},{"type":"Feature","properties":{"code":"1503062013","desa":"Bukitperanginan","kecamatan":"Mandiangin","kecCode":"150306"},"geometry":{"type":"Polygon","coordinates":[[[102.99026986356343,-1.9769228162325019],[102.99939621696188,-1.9581111520263195],[102.99434722244642,-1.9476923748330572],[103.02783333314186,-1.9448611084862888],[103.06272222165325,-1.95205555354593],[103.06246999959085,-1.979689997789652],[102.99026986356343,-1.9769228162325019]]]}},{"type":"Feature","properties":{"code":"1503062020","desa":"Gurun Baru","kecamatan":"Mandiangin","kecCode":"150306"},"geometry":{"type":"Polygon","coordinates":[[[102.87029362065414,-2.068473957803402],[102.88113045220865,-2.080969976465999],[102.87780616582192,-2.094187998745288],[102.85965209127107,-2.076017420755571],[102.87029362065414,-2.068473957803402]]]}},{"type":"Feature","properties":{"code":"1503062021","desa":"Kute Jaye","kecamatan":"Mandiangin","kecCode":"150306"},"geometry":{"type":"Polygon","coordinates":[[[102.96834884912015,-2.031865276897903],[102.97459161541074,-2.0251280597564683],[103.04950255899598,-2.0715953958039424],[103.08433593055884,-2.1199048086997556],[103.09885064304278,-2.1672560829894643],[103.11449090383222,-2.3524058175584015],[103.09940324406455,-2.3475470917142527],[103.0801958331712,-2.2239937847105358],[103.06913134003933,-2.1932987380053084],[103.01211499770902,-2.101255367801349],[102.98837309534213,-2.0775827357411036],[102.96834884912015,-2.031865276897903]]]}},{"type":"Feature","properties":{"code":"1503062022","desa":"Mandiangin Pasar","kecamatan":"Mandiangin","kecCode":"150306"},"geometry":{"type":"Polygon","coordinates":[[[103.08948561586851,-2.344844686525334],[103.06683119440413,-2.206175190577327],[103.00704663629328,-2.106583210601182],[102.98415622103285,-2.079790479630901],[102.96518162033554,-2.031511646382648],[102.98837309534213,-2.0775827357411036],[103.01211499770902,-2.101255367801349],[103.06913134003933,-2.1932987380053084],[103.0801958331712,-2.2239937847105358],[103.09940324406455,-2.3475470917142527],[103.08948561586851,-2.344844686525334]]]}},{"type":"Feature","properties":{"code":"1503062023","desa":"Sungai Rotan","kecamatan":"Mandiangin","kecCode":"150306"},"geometry":{"type":"Polygon","coordinates":[[[102.91879763160546,-1.9874009360902596],[102.84988438365747,-1.9914449687917732],[102.83519444366867,-1.9873333304548348],[102.88802777835933,-1.9799444420765508],[102.90747222176567,-1.9642499980504657],[102.94194444358129,-1.9729166647742131],[102.955388889086,-1.9508888864392175],[102.96204099529574,-1.9552272168840676],[102.9542050341351,-1.95952640523619],[102.949823954412,-1.975981678410281],[102.92397770320851,-1.9796832465790204],[102.91879763160546,-1.9874009360902596]]]}},{"type":"Feature","properties":{"code":"1503062028","desa":"Talang Serdang","kecamatan":"Mandiangin","kecCode":"150306"},"geometry":{"type":"Polygon","coordinates":[[[102.95903277744077,-2.0028831284225044],[102.9649625571763,-1.9984303466569826],[102.99498272567227,-2.0047524439369666],[103.00057398260326,-1.9951456079608434],[103.03158839119135,-1.9780716066155677],[103.06246999959085,-1.979689997789652],[103.06005533158833,-2.0355473711470466],[103.05039974785011,-2.0281514122988042],[103.03923150982637,-2.031354166099329],[102.99674623415143,-2.022585851702821],[102.95903277744077,-2.0028831284225044]]]}},{"type":"Feature","properties":{"code":"1503072001","desa":"Lubuk Jering","kecamatan":"Air Hitam","kecCode":"150307"},"geometry":{"type":"Polygon","coordinates":[[[102.62292871838571,-1.9173789842160467],[102.67899584788012,-1.9407492462182545],[102.67522681436606,-1.985533769955519],[102.65371423782187,-2.0230623925619913],[102.62226376506077,-2.041475679585248],[102.622277211724,-1.9994928165128956],[102.6274700222238,-1.999405182975543],[102.62228980133335,-1.9883852080957496],[102.6281548118951,-1.9879348923667501],[102.62837813334426,-1.9806063511955934],[102.62006831759885,-1.9705687327653707],[102.62292871838571,-1.9173789842160467]]]}},{"type":"Feature","properties":{"code":"1503072002","desa":"Jernih","kecamatan":"Air Hitam","kecCode":"150307"},"geometry":{"type":"Polygon","coordinates":[[[102.64679784964113,-2.098514792686917],[102.61464738506884,-2.1021181063249106],[102.62226376506077,-2.041475679585248],[102.65371423782187,-2.0230623925619913],[102.6695949854203,-1.9969327299369537],[102.67899584788012,-1.9407492462182545],[102.69641666739534,-1.950249998165861],[102.72280555603163,-1.953388886611382],[102.7234444443057,-1.9470555541010794],[102.76666666673333,-1.936944442173968],[102.71546339641867,-2.005848394653248],[102.66085021526526,-2.0529656491589723],[102.64679784964113,-2.098514792686917]]]}},{"type":"Feature","properties":{"code":"1503072003","desa":"Desa Baru","kecamatan":"Air Hitam","kecCode":"150307"},"geometry":{"type":"Polygon","coordinates":[[[102.80652638878188,-1.9999708430520822],[102.80260448490912,-2.0381230474706133],[102.74714618025206,-2.071641214463448],[102.73698625760977,-2.071318678007912],[102.74393338821532,-2.076584824617522],[102.74117083456643,-2.084158649581241],[102.72928542678109,-2.081587641638372],[102.72489948532302,-2.0920330000934118],[102.68562320204921,-2.075414714906011],[102.6847527158652,-2.0366632886114586],[102.72156297625041,-2.033236864425154],[102.73142570803007,-2.0449607764411053],[102.743917877608,-2.0376796268437793],[102.7415665047904,-2.0259086110370434],[102.75628407285171,-2.009275103924699],[102.77615898844664,-1.9971673963334327],[102.80652638878188,-1.9999708430520822]]]}},{"type":"Feature","properties":{"code":"1503072004","desa":"Semurung","kecamatan":"Air Hitam","kecCode":"150307"},"geometry":{"type":"Polygon","coordinates":[[[102.71116493471402,-2.111134976247611],[102.64679784964113,-2.098514792686917],[102.65728072692406,-2.0583198816649353],[102.71546339641867,-2.005848394653248],[102.76666666673333,-1.936944442173968],[102.79022222237774,-1.9382499978793926],[102.80180555598166,-1.932416665043788],[102.80513888864884,-1.9612222199443705],[102.79727777794714,-1.9652222200399112],[102.79727777794714,-1.9806111086092297],[102.80652638878188,-1.9999708430520822],[102.77615898844664,-1.9971673963334327],[102.75628407285171,-2.009275103924699],[102.7415665047904,-2.0259086110370434],[102.743917877608,-2.0376796268437793],[102.73142570803007,-2.0449607764411053],[102.72156297625041,-2.033236864425154],[102.6847527158652,-2.0366632886114586],[102.68562320204921,-2.075414714906011],[102.71577941278976,-2.0870944648136445],[102.71116493471402,-2.111134976247611]]]}},{"type":"Feature","properties":{"code":"1503072005","desa":"Lubuk Kepayang","kecamatan":"Air Hitam","kecCode":"150307"},"geometry":{"type":"Polygon","coordinates":[[[102.80657523725743,-2.0734489291158016],[102.79294922492686,-2.073252717729997],[102.79379183482534,-2.0952163833963495],[102.77018165166197,-2.1189018469835665],[102.71116493471402,-2.111134976247611],[102.71577941278976,-2.0870944648136445],[102.72489948532302,-2.0920330000934118],[102.72928542678109,-2.081587641638372],[102.74117083456643,-2.084158649581241],[102.74393338821532,-2.076584824617522],[102.73698625760977,-2.071318678007912],[102.74714618025206,-2.071641214463448],[102.80500260268803,-2.0317073811278306],[102.80657523725743,-2.0734489291158016]]]}},{"type":"Feature","properties":{"code":"1503072006","desa":"Pematang Kabau","kecamatan":"Air Hitam","kecCode":"150307"},"geometry":{"type":"Polygon","coordinates":[[[102.62292871838571,-1.9173789842160467],[102.62004452333615,-1.9702653518693802],[102.6283115088691,-1.9802446726473968],[102.6281548118951,-1.9879348923667501],[102.62228980133335,-1.9883852080957496],[102.6274700222238,-1.999405182975543],[102.59087038036381,-1.9878375812248832],[102.57136339540443,-1.969088593469992],[102.54163419266393,-1.9609200414419214],[102.54432046401826,-1.9545622015065967],[102.56925092479041,-1.9504407371770565],[102.57117076332014,-1.9092565188455302],[102.61561111116389,-1.9053888872638942],[102.62292871838571,-1.9173789842160467]]]}},{"type":"Feature","properties":{"code":"1503072007","desa":"Bukit Suban","kecamatan":"Air Hitam","kecCode":"150307"},"geometry":{"type":"Polygon","coordinates":[[[102.50377384069026,-2.0152491923515914],[102.49447500002127,-2.0086444417501],[102.51133611117261,-1.9947861084699237],[102.51551666726043,-1.9820499978010377],[102.50876666714804,-1.9729361090161108],[102.47659722238399,-1.974908330354944],[102.46690000003503,-1.9457749977498666],[102.45830277805084,-1.945149997706878],[102.45831111116888,-1.8999555539881645],[102.47711111028957,-1.8914444420992986],[102.54774999986267,-1.9178611089657474],[102.57117076332014,-1.9092565188455302],[102.56925092479041,-1.9504407371770565],[102.54225033258682,-1.9559898788504952],[102.50377384069026,-2.0152491923515914]]]}},{"type":"Feature","properties":{"code":"1503072008","desa":"Mentawak Baru","kecamatan":"Air Hitam","kecCode":"150307"},"geometry":{"type":"Polygon","coordinates":[[[102.54713748420761,-2.028244587458613],[102.54722499993386,-2.0180611088851705],[102.50377384069026,-2.0152491923515914],[102.51784904999373,-1.9985110077504942],[102.52927168823788,-1.9697164389679276],[102.54163419266393,-1.9609200414419214],[102.57136339540443,-1.969088593469992],[102.59087038036381,-1.9878375812248832],[102.6274700222238,-1.999405182975543],[102.622277211724,-1.9994928165128956],[102.61464738506884,-2.1021181063249106],[102.58039028198601,-2.054759266038918],[102.54713748420761,-2.028244587458613]]]}},{"type":"Feature","properties":{"code":"1503072009","desa":"Mentawak Ulu","kecamatan":"Air Hitam","kecCode":"150307"},"geometry":{"type":"Polygon","coordinates":[[[102.57976666689818,-2.0901138864193545],[102.54744444440564,-2.0779166648083627],[102.54713748420761,-2.028244587458613],[102.58039028198601,-2.054759266038918],[102.61591664143992,-2.1043154549512915],[102.59249999957535,-2.086941664602275],[102.57976666689818,-2.0901138864193545]]]}},{"type":"Feature","properties":{"code":"1503081011","desa":"Limbur Tembesi","kecamatan":"Bathin VIII","kecCode":"150308"},"geometry":{"type":"Polygon","coordinates":[[[102.51325073723177,-2.2012216402167257],[102.5158583331956,-2.2132472199202695],[102.53044444375614,-2.2033611084762392],[102.54750555603664,-2.204858330393821],[102.55754864685264,-2.2384165558886684],[102.5447033809563,-2.2388154294973175],[102.53891466258163,-2.2527803657147936],[102.51235154828537,-2.263000259636502],[102.51020886584654,-2.2309532647988304],[102.49395428626137,-2.2333895327156026],[102.47999933520123,-2.2221523373876506],[102.47413115722718,-2.228234387627373],[102.44989631216514,-2.219365983183836],[102.45999347112182,-2.1955354004948116],[102.51325073723177,-2.2012216402167257]]]}},{"type":"Feature","properties":{"code":"1503082001","desa":"Rantau Gedang","kecamatan":"Bathin VIII","kecCode":"150308"},"geometry":{"type":"Polygon","coordinates":[[[102.44473000738401,-2.2284883085088434],[102.44989631216514,-2.219365983183836],[102.47413115722718,-2.228234387627373],[102.48303436274568,-2.247139345703924],[102.48073943857428,-2.325951040121488],[102.46095895539156,-2.3455802717036827],[102.44407448974594,-2.3334177882052067],[102.46001053036171,-2.2764146776627605],[102.45758911744387,-2.248728013385091],[102.44473000738401,-2.2284883085088434]]]}},{"type":"Feature","properties":{"code":"1503082002","desa":"Penarun","kecamatan":"Bathin VIII","kecCode":"150308"},"geometry":{"type":"Polygon","coordinates":[[[102.61282334142412,-2.211318711928133],[102.61320249200143,-2.276257095756035],[102.59069208257364,-2.337670161448999],[102.58637386636092,-2.333534249510767],[102.5905719970001,-2.310908276325502],[102.60762643721034,-2.2481290945806323],[102.60677956722331,-2.241005038558071],[102.59938898721201,-2.2401296150971026],[102.59867004308806,-2.2142283011311323],[102.61282334142412,-2.211318711928133]]]}},{"type":"Feature","properties":{"code":"1503082003","desa":"Pulau Lintang","kecamatan":"Bathin VIII","kecCode":"150308"},"geometry":{"type":"Polygon","coordinates":[[[102.59938898721201,-2.2401296150971026],[102.60677956722331,-2.241005038558071],[102.60696937543639,-2.2563297667949014],[102.58637386636092,-2.333534249510767],[102.57101289093225,-2.3223324380086576],[102.55366988435776,-2.3229484250461634],[102.55041483587604,-2.2742122955309454],[102.56517618563254,-2.2685082843060553],[102.5585294735564,-2.2676247102893012],[102.55710528198324,-2.2551194744750416],[102.57038494830674,-2.265027845039054],[102.57943365334052,-2.2877350692731016],[102.59707338492883,-2.272285073569311],[102.59938898721201,-2.2401296150971026]]]}},{"type":"Feature","properties":{"code":"1503082004","desa":"Tanjung","kecamatan":"Bathin VIII","kecCode":"150308"},"geometry":{"type":"Polygon","coordinates":[[[102.62908333312937,-2.185444441475396],[102.62761111056437,-2.1601338669798182],[102.66168171673792,-2.1645783884724215],[102.68343700771179,-2.176314513281839],[102.63944798103955,-2.215492945777362],[102.59931751808902,-2.211855177313111],[102.59933916926728,-2.260607089930112],[102.58878415736301,-2.2618401530840995],[102.57943365334052,-2.2877350692731016],[102.57038494830674,-2.265027845039054],[102.55970609166285,-2.255414288429294],[102.55143538923187,-2.212852259261781],[102.60158333300448,-2.202638886324218],[102.61365766586863,-2.2091792652523594],[102.62352777838429,-2.186138886267385],[102.62908333312937,-2.185444441475396]]]}},{"type":"Feature","properties":{"code":"1503082005","desa":"Bangun Jayo","kecamatan":"Bathin VIII","kecCode":"150308"},"geometry":{"type":"Polygon","coordinates":[[[102.46248730104816,-2.1822207199813772],[102.51150833314313,-2.193186108711011],[102.51325073723177,-2.2012216402167257],[102.45999347112182,-2.1955354004948116],[102.46248730104816,-2.1822207199813772]]]}},{"type":"Feature","properties":{"code":"1503082006","desa":"Teluk Kecimbung","kecamatan":"Bathin VIII","kecCode":"150308"},"geometry":{"type":"Polygon","coordinates":[[[102.51235154828537,-2.263000259636502],[102.54613744258899,-2.2455054529158094],[102.54918833057707,-2.314541590447646],[102.53121682559605,-2.307403459135769],[102.51293974807095,-2.3124199530462968],[102.51235154828537,-2.263000259636502]]]}},{"type":"Feature","properties":{"code":"1503082007","desa":"Pulaumelako","kecamatan":"Bathin VIII","kecCode":"150308"},"geometry":{"type":"Polygon","coordinates":[[[102.63944798103955,-2.215492945777362],[102.60982737323472,-2.3355253943839758],[102.60075247724507,-2.3375517324268005],[102.61593451096894,-2.284619225055666],[102.61948546877943,-2.211888051131179],[102.63944798103955,-2.215492945777362]]]}},{"type":"Feature","properties":{"code":"1503082008","desa":"Batu Penyabung","kecamatan":"Bathin VIII","kecCode":"150308"},"geometry":{"type":"Polygon","coordinates":[[[102.49395428626137,-2.2333895327156026],[102.51020886584654,-2.2309532647988304],[102.51122673562541,-2.242432755472122],[102.51293974807095,-2.3124199530462968],[102.50101122229012,-2.3183333291412778],[102.49525237040062,-2.3167423313167017],[102.49395428626137,-2.2333895327156026]]]}},{"type":"Feature","properties":{"code":"1503082009","desa":"Tanjunggagak","kecamatan":"Bathin VIII","kecCode":"150308"},"geometry":{"type":"Polygon","coordinates":[[[102.4168502811156,-2.264645796846496],[102.43976577577001,-2.235464361303797],[102.44311323139056,-2.2550907375384077],[102.427163094801,-2.3214716582084334],[102.40773743463495,-2.3089534757540466],[102.40062756091328,-2.3108365958618675],[102.4168502811156,-2.264645796846496]]]}},{"type":"Feature","properties":{"code":"1503082010","desa":"Pulaubuayo","kecamatan":"Bathin VIII","kecCode":"150308"},"geometry":{"type":"Polygon","coordinates":[[[102.47413115722718,-2.228234387627373],[102.47999933520123,-2.2221523373876506],[102.49395428626137,-2.2333895327156026],[102.4977184346581,-2.3013249324397846],[102.49525237040062,-2.3167423313167017],[102.48073943857428,-2.325951040121488],[102.48303436274568,-2.247139345703924],[102.47413115722718,-2.228234387627373]]]}},{"type":"Feature","properties":{"code":"1503082012","desa":"Dusun Dalam","kecamatan":"Bathin VIII","kecCode":"150308"},"geometry":{"type":"Polygon","coordinates":[[[102.542993058383,-2.2434386013141707],[102.54846382504553,-2.2370771658892843],[102.55754864685264,-2.2384165558886684],[102.56285695008823,-2.2725751229153066],[102.54724588758768,-2.274002261565235],[102.542993058383,-2.2434386013141707]]]}},{"type":"Feature","properties":{"code":"1503082013","desa":"Muaralati","kecamatan":"Bathin VIII","kecCode":"150308"},"geometry":{"type":"Polygon","coordinates":[[[102.43976577577001,-2.235464361303797],[102.44473000738401,-2.2284883085088434],[102.45266718184502,-2.2346705594121907],[102.46001053036171,-2.2764146776627605],[102.44407448974594,-2.3334177882052067],[102.427163094801,-2.3214716582084334],[102.44311323139056,-2.2550907375384077],[102.43976577577001,-2.235464361303797]]]}},{"type":"Feature","properties":{"code":"1503082014","desa":"Suka Jadi","kecamatan":"Bathin VIII","kecCode":"150308"},"geometry":{"type":"Polygon","coordinates":[[[102.59933916926728,-2.260607089930112],[102.59707338492883,-2.272285073569311],[102.58605909824881,-2.2797867495226827],[102.58878415736301,-2.2618401530840995],[102.59933916926728,-2.260607089930112]]]}},{"type":"Feature","properties":{"code":"1503082015","desa":"Teluk Mancur","kecamatan":"Bathin VIII","kecCode":"150308"},"geometry":{"type":"Polygon","coordinates":[[[102.59471102599308,-2.3375368360564655],[102.60290060238094,-2.2963550917596733],[102.61320249200143,-2.276257095756035],[102.61282334142412,-2.211318711928133],[102.61948546877943,-2.211888051131179],[102.61354783436512,-2.300587147519755],[102.60075247724507,-2.3375517324268005],[102.59471102599308,-2.3375368360564655]]]}},{"type":"Feature","properties":{"code":"1503112001","desa":"Guruh Baru","kecamatan":"Mandiangin Timur","kecCode":"150311"},"geometry":{"type":"Polygon","coordinates":[[[103.1038505201854,-2.0712945276137704],[103.06971988426528,-2.0331744973406414],[103.07066869420493,-2.0140680200796215],[103.12117791542852,-2.0143555558204533],[103.11777962922656,-2.0363323048239574],[103.10250182489938,-2.042781750602146],[103.1038505201854,-2.0712945276137704]]]}},{"type":"Feature","properties":{"code":"1503112002","desa":"Petiduran Baru","kecamatan":"Mandiangin Timur","kecCode":"150311"},"geometry":{"type":"Polygon","coordinates":[[[103.07241999978322,-2.0356699973051975],[103.06005533158833,-2.0355473711470466],[103.06272222165325,-1.95205555354593],[103.07958333280463,-1.953555553469396],[103.0794444442058,-1.98024999753317],[103.08719444366871,-1.9801666645538836],[103.09537516982829,-1.9658173410072886],[103.09519102284747,-2.0140743656959166],[103.07066869420493,-2.0140680200796215],[103.07241999978322,-2.0356699973051975]]]}},{"type":"Feature","properties":{"code":"1503112003","desa":"Sungai Butang","kecamatan":"Mandiangin Timur","kecCode":"150311"},"geometry":{"type":"Polygon","coordinates":[[[103.1316666670831,-2.3527777753576524],[103.12850753309623,-2.1110910155873746],[103.1038505201854,-2.0712945276137704],[103.10250182489938,-2.042781750602146],[103.11777962922656,-2.0363323048239574],[103.11789562198543,-2.046845494644269],[103.13584569342406,-2.0465640518101824],[103.13603420571405,-2.057904020762119],[103.15144294863325,-2.0762292695531275],[103.16290854209556,-2.0663185760403566],[103.19305353739088,-2.0584346279632713],[103.19267753084341,-2.0420296880453326],[103.2100833325798,-2.0591944417767722],[103.23063888927338,-2.1228611086897704],[103.22582500002379,-2.165433330773236],[103.18696944388478,-2.1841944413893133],[103.18504444414583,-2.200922219935037],[103.17132222234271,-2.213338886916944],[103.16736388873257,-2.229383330895208],[103.17498611072052,-2.2455611083599036],[103.19822222177817,-2.2605555533810393],[103.21130555620651,-2.32027777581795],[103.17230555635636,-2.33513888645342],[103.15404166738908,-2.335583330508775],[103.1316666670831,-2.3527777753576524]]]}},{"type":"Feature","properties":{"code":"1503112004","desa":"Butang Baru","kecamatan":"Mandiangin Timur","kecCode":"150311"},"geometry":{"type":"Polygon","coordinates":[[[103.11789562198543,-2.046845494644269],[103.12117791542852,-2.0143555558204533],[103.13890024884745,-2.0141673951655314],[103.14153128564037,-1.9974026481885632],[103.14271175104652,-2.0213645696676186],[103.13026241078173,-2.021307462717772],[103.12900097671377,-2.030314664029077],[103.12838231689044,-2.041295878128754],[103.13584569342406,-2.0465640518101824],[103.11789562198543,-2.046845494644269]]]}},{"type":"Feature","properties":{"code":"1503112005","desa":"Suka Maju","kecamatan":"Mandiangin Timur","kecCode":"150311"},"geometry":{"type":"Polygon","coordinates":[[[103.19267753084341,-2.0420296880453326],[103.19305353739088,-2.0584346279632713],[103.16290854209556,-2.0663185760403566],[103.15144294863325,-2.0762292695531275],[103.12838231689044,-2.041295878128754],[103.13026241078173,-2.021307462717772],[103.14271175104652,-2.0213645696676186],[103.14153128564037,-1.9974026481885632],[103.15027434618416,-1.9962631037354401],[103.15102503997365,-2.0188906120633034],[103.16816789882955,-2.0302102239613893],[103.18143936783262,-2.0285753311271244],[103.19267753084341,-2.0420296880453326]]]}},{"type":"Feature","properties":{"code":"1503112006","desa":"Jati Baru","kecamatan":"Mandiangin Timur","kecCode":"150311"},"geometry":{"type":"Polygon","coordinates":[[[103.15110693044056,-2.0095770054359408],[103.15063049480152,-1.9883629201974888],[103.18083333269219,-1.9758611090016402],[103.1863333327172,-1.9921666648403717],[103.20238759910846,-2.0100543269066473],[103.18723654073379,-2.016056242156148],[103.15110693044056,-2.0095770054359408]]]}},{"type":"Feature","properties":{"code":"1503112007","desa":"Jati Baru Mudo","kecamatan":"Mandiangin Timur","kecCode":"150311"},"geometry":{"type":"Polygon","coordinates":[[[103.19158333290453,-2.0409166645993375],[103.18143936783262,-2.0285753311271244],[103.16816789882955,-2.0302102239613893],[103.15102503997365,-2.0188906120633034],[103.15110693044056,-2.0095770054359408],[103.18723654073379,-2.016056242156148],[103.20238759910846,-2.0100543269066473],[103.2058611109016,-2.013916665078723],[103.19158333290453,-2.0409166645993375]]]}},{"type":"Feature","properties":{"code":"1503112008","desa":"Meranti Baru","kecamatan":"Mandiangin Timur","kecCode":"150311"},"geometry":{"type":"Polygon","coordinates":[[[103.13890024884745,-2.0141673951655314],[103.09519102284747,-2.0140743656959166],[103.09537516982829,-1.9658173410072886],[103.13286111065179,-1.970138886505451],[103.13277777767233,-1.9581666644782487],[103.14333333276714,-1.9583888869555952],[103.14857572379064,-1.959808168228785],[103.14487091176323,-1.9671947525440932],[103.15163982192028,-1.9794982551350644],[103.16701651569969,-1.9679199802304244],[103.18083333269219,-1.9758611090016402],[103.13986538777749,-1.9976193497278956],[103.13890024884745,-2.0141673951655314]]]}},{"type":"Feature","properties":{"code":"1503112009","desa":"Meranti Jaya","kecamatan":"Mandiangin Timur","kecCode":"150311"},"geometry":{"type":"Polygon","coordinates":[[[103.16916169285793,-1.9683319992294155],[103.15163982192028,-1.9794982551350644],[103.14491850118792,-1.9655053356129264],[103.14999895668655,-1.9654466476548915],[103.14857572379064,-1.959808168228785],[103.1690277784093,-1.9583888869555952],[103.16916169285793,-1.9683319992294155]]]}},{"type":"Feature","properties":{"code":"1503112010","desa":"Jernang Baru","kecamatan":"Mandiangin Timur","kecCode":"150311"},"geometry":{"type":"Polygon","coordinates":[[[103.18083333269219,-1.9758611090016402],[103.16916169285793,-1.9683319992294155],[103.16966666668337,-1.9376944416859556],[103.17677777787218,-1.923583330562732],[103.18850000007501,-1.9218888864212742],[103.19944444360623,-1.9096111089374723],[103.1995555557444,-1.956083331001451],[103.18083333269219,-1.9758611090016402]]]}},{"type":"Feature","properties":{"code":"1503012001","desa":"Tambak Ratu","kecamatan":"Batang Asai","kecCode":"150301"},"geometry":{"type":"Polygon","coordinates":[[[102.1535678732588,-2.4982583578609336],[102.1576944439435,-2.4854249972039417],[102.14747499967153,-2.4792833300065036],[102.13040330866583,-2.4456293689818867],[102.18368517842828,-2.46796469207407],[102.18890202960505,-2.50564033045282],[102.2375850038449,-2.537818662282156],[102.26054959608706,-2.5613852588774852],[102.26090263934537,-2.610075630887258],[102.24872649243372,-2.607970217255637],[102.24282138290056,-2.584825486336337],[102.2240596796106,-2.5676929445217858],[102.22094665836163,-2.5765464552929487],[102.21505749290901,-2.5734531561799074],[102.19526767836072,-2.5832150667528992],[102.19042897141998,-2.5648823023274425],[102.1938788076609,-2.5508220577581984],[102.16165947840226,-2.5013585367876194],[102.1535678732588,-2.4982583578609336]]]}},{"type":"Feature","properties":{"code":"1503012002","desa":"Sungai Keradak","kecamatan":"Batang Asai","kecCode":"150301"},"geometry":{"type":"Polygon","coordinates":[[[102.07147777757744,-2.6163361084194494],[102.10558055609783,-2.597161108214279],[102.09428888882121,-2.572602775240493],[102.12243055612532,-2.547963886393818],[102.13531944363746,-2.525233330148551],[102.15578055622774,-2.522899996834416],[102.1535678732588,-2.4982583578609336],[102.15824656292857,-2.4985378410721935],[102.18086366342737,-2.53234911420693],[102.16933183399698,-2.546704005456448],[102.17160189641042,-2.5873113167903634],[102.15796163522134,-2.5857131117989467],[102.13392700442779,-2.5984958469200548],[102.11451060368147,-2.6008515139978807],[102.06451299957534,-2.6270688398381505],[102.07147777757744,-2.6163361084194494]]]}},{"type":"Feature","properties":{"code":"1503012003","desa":"Muaro Air Dua","kecamatan":"Batang Asai","kecCode":"150301"},"geometry":{"type":"Polygon","coordinates":[[[102.18092393778953,-2.5381823598083364],[102.1938788076609,-2.5508220577581984],[102.19264775988624,-2.586681590809977],[102.21334652372315,-2.603698239690634],[102.21707746195534,-2.6149410045200447],[102.19826788595422,-2.626772461962929],[102.18379973676849,-2.585998870479439],[102.17160189641042,-2.5873113167903634],[102.16933183399698,-2.546704005456448],[102.18092393778953,-2.5381823598083364]]]}},{"type":"Feature","properties":{"code":"1503012004","desa":"Simpang Narso","kecamatan":"Batang Asai","kecCode":"150301"},"geometry":{"type":"Polygon","coordinates":[[[102.08679887077129,-2.6836162081427664],[102.08439084785941,-2.6694748923890845],[102.13651229001022,-2.631234057983868],[102.14574459793488,-2.6179090775349794],[102.14936137892452,-2.6207644304240443],[102.15501705159573,-2.587854626915378],[102.18379973676849,-2.585998870479439],[102.19826788595422,-2.626772461962929],[102.08679887077129,-2.6836162081427664]]]}},{"type":"Feature","properties":{"code":"1503012005","desa":"Batin Pengambang","kecamatan":"Batang Asai","kecCode":"150301"},"geometry":{"type":"Polygon","coordinates":[[[102.19526767836072,-2.5832150667528992],[102.21505749290901,-2.5734531561799074],[102.22094665836163,-2.5765464552929487],[102.2240596796106,-2.5676929445217858],[102.24282138290056,-2.584825486336337],[102.24872649243372,-2.607970217255637],[102.21707746195534,-2.6149410045200447],[102.21334652372315,-2.603698239690634],[102.19529490983227,-2.591202567266907],[102.19526767836072,-2.5832150667528992]]]}},{"type":"Feature","properties":{"code":"1503012006","desa":"Batu Empang","kecamatan":"Batang Asai","kecCode":"150301"},"geometry":{"type":"Polygon","coordinates":[[[102.0910077896778,-2.769613364292792],[102.07302111133525,-2.764895553219757],[102.08213888879874,-2.72420832992742],[102.0785055557868,-2.7029305529028447],[102.08679887077129,-2.6836162081427664],[102.23496173089922,-2.607493796905675],[102.258900547922,-2.6083231292125677],[102.2687669804119,-2.6169603584278924],[102.27130785117646,-2.624472784877004],[102.25457961575671,-2.63140808399416],[102.24283754101974,-2.6469896001512003],[102.23608716589007,-2.6912149254414075],[102.19418548996843,-2.708402792648943],[102.16844444415585,-2.7071944410661075],[102.16436059756357,-2.7142034881883177],[102.13558333260477,-2.722499996656378],[102.10944444380607,-2.7387222186166125],[102.0910077896778,-2.769613364292792]]]}},{"type":"Feature","properties":{"code":"1503012007","desa":"Rantau Panjang","kecamatan":"Batang Asai","kecCode":"150301"},"geometry":{"type":"Polygon","coordinates":[[[102.25351537243652,-2.5541676445838886],[102.18890202960505,-2.50564033045282],[102.18368517842828,-2.46796469207407],[102.25268133667441,-2.491082730215685],[102.25676528489002,-2.49850744218842],[102.2475903276316,-2.5130123241672515],[102.25351537243652,-2.5541676445838886]]]}},{"type":"Feature","properties":{"code":"1503012008","desa":"P. Salak Baru","kecamatan":"Batang Asai","kecCode":"150301"},"geometry":{"type":"Polygon","coordinates":[[[102.25676528489002,-2.49850744218842],[102.24049214959307,-2.4838409205618714],[102.22545884844715,-2.483363473186077],[102.24662507358835,-2.451620880874037],[102.25489756567022,-2.452675213664135],[102.26679580228449,-2.4896789541538165],[102.26677109700857,-2.4998224479698905],[102.25676528489002,-2.49850744218842]]]}},{"type":"Feature","properties":{"code":"1503012009","desa":"Muaro Pemuat","kecamatan":"Batang Asai","kecCode":"150301"},"geometry":{"type":"Polygon","coordinates":[[[102.13366418115709,-2.4113999200894987],[102.14832500019867,-2.42170833068286],[102.15540277801585,-2.4083611082011545],[102.16932500004879,-2.4150499975746036],[102.22202500035354,-2.40499166416024],[102.22814971533715,-2.4196114794964068],[102.18368517842828,-2.46796469207407],[102.13040330866583,-2.4456293689818867],[102.12436388898237,-2.4304583303859326],[102.13366418115709,-2.4113999200894987]]]}},{"type":"Feature","properties":{"code":"1503012010","desa":"Lubuk Bangkar","kecamatan":"Batang Asai","kecCode":"150301"},"geometry":{"type":"Polygon","coordinates":[[[102.22545884844715,-2.483363473186077],[102.18368517842828,-2.46796469207407],[102.22629501470321,-2.4231383975253875],[102.2487426496536,-2.4402552749485498],[102.22545884844715,-2.483363473186077]]]}},{"type":"Feature","properties":{"code":"1503012011","desa":"Pekan Gedang","kecamatan":"Batang Asai","kecCode":"150301"},"geometry":{"type":"Polygon","coordinates":[[[102.25878935484491,-2.5211807170153553],[102.27058410377344,-2.489464831870165],[102.2874570122314,-2.500041325868513],[102.27484623736405,-2.5053983049040554],[102.27228089874455,-2.5195388895088717],[102.26385760744266,-2.523536384093187],[102.25878935484491,-2.5211807170153553]]]}},{"type":"Feature","properties":{"code":"1503012012","desa":"Raden Anom","kecamatan":"Batang Asai","kecCode":"150301"},"geometry":{"type":"Polygon","coordinates":[[[102.27551736273612,-2.5133622341872526],[102.27484623736405,-2.5053983049040554],[102.2874570122314,-2.500041325868513],[102.2802463892595,-2.4925922350737957],[102.29055805181271,-2.4879906038186177],[102.29821127792819,-2.4709349324551386],[102.31643553197425,-2.4983648915503958],[102.39004066624379,-2.537720339402935],[102.39999018170158,-2.5530965808064647],[102.39609977928143,-2.5770899326918926],[102.38024707434305,-2.5840095125591196],[102.36382283675458,-2.602779020145284],[102.27551736273612,-2.5133622341872526]]]}},{"type":"Feature","properties":{"code":"1503012013","desa":"Datuk Nan Duo","kecamatan":"Batang Asai","kecCode":"150301"},"geometry":{"type":"Polygon","coordinates":[[[102.38030199683975,-2.5311459508129666],[102.31643553197425,-2.4983648915503958],[102.30903578337478,-2.4881640686519053],[102.32167713878897,-2.4847867492478164],[102.32096014439519,-2.467070533936152],[102.32800334867568,-2.4756603886647626],[102.36819412825645,-2.4922794130949635],[102.37485493540703,-2.5053798562115985],[102.37197801497348,-2.521219452614514],[102.38030199683975,-2.5311459508129666]]]}},{"type":"Feature","properties":{"code":"1503012014","desa":"Bukit Kalimau Ulu","kecamatan":"Batang Asai","kecCode":"150301"},"geometry":{"type":"Polygon","coordinates":[[[102.26679191901188,-2.4898818861732814],[102.25816764182326,-2.463448422668745],[102.27772706625115,-2.4594490988633546],[102.29631421203135,-2.470182187312893],[102.28950444387505,-2.489166193099319],[102.26679191901188,-2.4898818861732814]]]}},{"type":"Feature","properties":{"code":"1503012018","desa":"Padang Jering","kecamatan":"Batang Asai","kecCode":"150301"},"geometry":{"type":"Polygon","coordinates":[[[102.30903578337478,-2.4881640686519053],[102.30420570902628,-2.4763767823106644],[102.29821127792819,-2.4709349324551386],[102.32257181583667,-2.475801905082468],[102.32076342579153,-2.485985997892968],[102.30903578337478,-2.4881640686519053]]]}},{"type":"Feature","properties":{"code":"1503012019","desa":"Kasiro","kecamatan":"Batang Asai","kecCode":"150301"},"geometry":{"type":"Polygon","coordinates":[[[102.32061879502145,-2.473799204820233],[102.28170587382708,-2.4638494924218186],[102.28118815031297,-2.4584382653812984],[102.31113765367984,-2.411768320170635],[102.31947888993886,-2.4236625538895367],[102.32133083594937,-2.452071518560404],[102.33735707766704,-2.453447198002896],[102.35904434841802,-2.4449461531249397],[102.3486968325928,-2.469787639443203],[102.32485868388119,-2.458610252628519],[102.32061879502145,-2.473799204820233]]]}},{"type":"Feature","properties":{"code":"1503012021","desa":"Bukit Berantai","kecamatan":"Batang Asai","kecCode":"150301"},"geometry":{"type":"Polygon","coordinates":[[[102.08439084785941,-2.6694748923890845],[102.081900000085,-2.6503416638942756],[102.06451299957534,-2.6270688398381505],[102.11451060368147,-2.6008515139978807],[102.15365273688433,-2.5927851411418943],[102.14936137892452,-2.6207644304240443],[102.14574459793488,-2.6179090775349794],[102.13651229001022,-2.631234057983868],[102.08439084785941,-2.6694748923890845]]]}},{"type":"Feature","properties":{"code":"1503012022","desa":"Bukit Sulah","kecamatan":"Batang Asai","kecCode":"150301"},"geometry":{"type":"Polygon","coordinates":[[[102.37204171305467,-2.5095895449331773],[102.36819412825645,-2.4922794130949635],[102.32800334867568,-2.4756603886647626],[102.32116656668376,-2.4630262548203965],[102.32485868388119,-2.458610252628519],[102.3486968325928,-2.469787639443203],[102.36832545895282,-2.4252944214044283],[102.40861838443094,-2.4015983269312837],[102.4123933588665,-2.4104344520086536],[102.40110542467568,-2.425344773546386],[102.39715226666384,-2.4461766774927627],[102.4155832910361,-2.451450902712344],[102.4150923502318,-2.466157925307209],[102.39016350823935,-2.498991755888],[102.37204171305467,-2.5095895449331773]]]}},{"type":"Feature","properties":{"code":"1503012023","desa":"Paniban Baru","kecamatan":"Batang Asai","kecCode":"150301"},"geometry":{"type":"Polygon","coordinates":[[[102.30004965766562,-2.6372919461382622],[102.28643055572564,-2.6256388863101656],[102.27130785117646,-2.624472784877004],[102.26090263934537,-2.610075630887258],[102.26054959608706,-2.5613852588774852],[102.25351537243652,-2.5541676445838886],[102.2475903276316,-2.5130123241672515],[102.24910932303686,-2.5031295519059156],[102.26190644822407,-2.4951589325661323],[102.26676990630618,-2.500390761945718],[102.25878935484491,-2.5211807170153553],[102.26385760744266,-2.523536384093187],[102.27551736273612,-2.5133622341872526],[102.36382283675458,-2.602779020145284],[102.35559993778695,-2.6173977859726723],[102.30004965766562,-2.6372919461382622]]]}},{"type":"Feature","properties":{"code":"1503022006","desa":"Temenggung","kecamatan":"Limun","kecCode":"150302"},"geometry":{"type":"Polygon","coordinates":[[[102.64043908879296,-2.4605584099080184],[102.62959659960346,-2.4590991699576623],[102.6204849977845,-2.482371098288972],[102.60559641644151,-2.4753297124454123],[102.6004710568938,-2.464450816013448],[102.57758254459884,-2.4628756129819522],[102.56822957373588,-2.4459253034913337],[102.58677527695755,-2.438719443336874],[102.5937898333342,-2.424471070488425],[102.60171676361777,-2.4288482039814805],[102.61953213280174,-2.41440687889029],[102.6370865070367,-2.4284870056712378],[102.63194687075155,-2.43912319666702],[102.6438489348805,-2.4473281730365475],[102.64043908879296,-2.4605584099080184]]]}},{"type":"Feature","properties":{"code":"1503022007","desa":"Ranggo","kecamatan":"Limun","kecCode":"150302"},"geometry":{"type":"Polygon","coordinates":[[[102.54215044398785,-2.5080498840081904],[102.51352574181959,-2.4872204001374865],[102.50575472879774,-2.47110483957043],[102.53637164423604,-2.458519613556875],[102.54916732780997,-2.488746517272404],[102.54215044398785,-2.5080498840081904]]]}},{"type":"Feature","properties":{"code":"1503022008","desa":"Panca Karya","kecamatan":"Limun","kecCode":"150302"},"geometry":{"type":"Polygon","coordinates":[[[102.61297888366863,-2.5514259084447044],[102.61162830340355,-2.5901723048314076],[102.53867291042656,-2.581752488519137],[102.5082229945956,-2.5631914015148807],[102.4737233569474,-2.483291572388556],[102.49740988805593,-2.474280020157094],[102.53091057766107,-2.517774163349611],[102.57396436156608,-2.542437163919646],[102.61297888366863,-2.5514259084447044]]]}},{"type":"Feature","properties":{"code":"1503022009","desa":"Lubuk Bedorong","kecamatan":"Limun","kecCode":"150302"},"geometry":{"type":"Polygon","coordinates":[[[102.5031026910364,-2.5547548802956124],[102.53867291042656,-2.581752488519137],[102.61162830340355,-2.5901723048314076],[102.61026895294985,-2.6229667073352014],[102.49830507232126,-2.631005372978333],[102.48673677538193,-2.6434872129296045],[102.4719345766195,-2.6454377462179637],[102.45827189083514,-2.586078750062118],[102.48942418527797,-2.5521083607772663],[102.5031026910364,-2.5547548802956124]]]}},{"type":"Feature","properties":{"code":"1503022010","desa":"Maribung","kecamatan":"Limun","kecCode":"150302"},"geometry":{"type":"Polygon","coordinates":[[[102.43971801727275,-2.695299102080385],[102.43114463361803,-2.6877682692069342],[102.45151281926127,-2.660737592012492],[102.44276026457459,-2.6499268839765553],[102.4323326200544,-2.593149531146083],[102.42340073785384,-2.5746808944481034],[102.41257098756108,-2.50463158249859],[102.4429259457758,-2.494189806043158],[102.4725748012861,-2.652684824999713],[102.46805039840723,-2.671946429018462],[102.43971801727275,-2.695299102080385]]]}},{"type":"Feature","properties":{"code":"1503022011","desa":"Napal Melintang","kecamatan":"Limun","kecCode":"150302"},"geometry":{"type":"Polygon","coordinates":[[[102.43284444401591,-2.6908333296078473],[102.4055638892621,-2.6890694407173723],[102.37305688396809,-2.6561673291102075],[102.34960277814577,-2.6466083298722394],[102.3344166668957,-2.656636107920804],[102.31921666741533,-2.654813886304536],[102.30522222172823,-2.649336107634011],[102.30004965766562,-2.6372919461382622],[102.35559993778695,-2.6173977859726723],[102.37693448094159,-2.5866500012237967],[102.39609977928143,-2.5770899326918926],[102.39967047271419,-2.5522350105022364],[102.37000207043927,-2.513818187766143],[102.41257098756108,-2.50463158249859],[102.42340073785384,-2.5746808944481034],[102.4323326200544,-2.593149531146083],[102.44276026457459,-2.6499268839765553],[102.45151281926127,-2.660737592012492],[102.43284444401591,-2.6908333296078473]]]}},{"type":"Feature","properties":{"code":"1503022012","desa":"Berkun","kecamatan":"Limun","kecCode":"150302"},"geometry":{"type":"Polygon","coordinates":[[[102.4719345766195,-2.6454377462179637],[102.48673677538193,-2.6434872129296045],[102.49830507232126,-2.631005372978333],[102.61026895294985,-2.6229667073352014],[102.61049769461299,-2.6496779390439684],[102.56186787390332,-2.6532747361944917],[102.47700638963323,-2.6789350687248543],[102.4620287906962,-2.6777147813397644],[102.46805039840723,-2.671946429018462],[102.4719345766195,-2.6454377462179637]]]}},{"type":"Feature","properties":{"code":"1503022013","desa":"Mersip","kecamatan":"Limun","kecCode":"150302"},"geometry":{"type":"Polygon","coordinates":[[[102.61134338199155,-2.6567147833111933],[102.58064166677956,-2.678316664309682],[102.53884166730914,-2.675180552970594],[102.52276388904231,-2.680108329660744],[102.51040555567192,-2.68996388573907],[102.50699722224408,-2.7029583302628626],[102.4981027779209,-2.701163886006618],[102.49714444416081,-2.6944444412673554],[102.46908888874128,-2.704299997345667],[102.43971801727275,-2.695299102080385],[102.4620287906962,-2.6777147813397644],[102.49617900125996,-2.6744643940478188],[102.53616861958618,-2.6589641370334807],[102.61049769461299,-2.6496779390439684],[102.61134338199155,-2.6567147833111933]]]}},{"type":"Feature","properties":{"code":"1503022014","desa":"Tanjung Raden","kecamatan":"Limun","kecCode":"150302"},"geometry":{"type":"Polygon","coordinates":[[[102.65469911956875,-2.4676104689056224],[102.63646169764928,-2.5134681293580385],[102.64042840124978,-2.5665164613149023],[102.61910537391397,-2.5677412237263906],[102.61309974265907,-2.5652388781223827],[102.61166854266916,-2.5278201922396994],[102.62207560620429,-2.4741611711515366],[102.62959659960346,-2.4590991699576623],[102.65133502379241,-2.456733113911566],[102.65469911956875,-2.4676104689056224]]]}},{"type":"Feature","properties":{"code":"1503022016","desa":"Moenti","kecamatan":"Limun","kecCode":"150302"},"geometry":{"type":"Polygon","coordinates":[[[102.56822957373588,-2.4459253034913337],[102.57758254459884,-2.4628756129819522],[102.6004710568938,-2.464450816013448],[102.60559641644151,-2.4753297124454123],[102.6204849977845,-2.482371098288972],[102.61198825255588,-2.5335851891904624],[102.56807069680525,-2.5221318795803795],[102.56042151224305,-2.4489585665626548],[102.56822957373588,-2.4459253034913337]]]}},{"type":"Feature","properties":{"code":"1503022017","desa":"Muara Mensao","kecamatan":"Limun","kecCode":"150302"},"geometry":{"type":"Polygon","coordinates":[[[102.54215044398785,-2.5080498840081904],[102.54916732780997,-2.488746517272404],[102.53638386332472,-2.4585489971060746],[102.56042151224305,-2.4489585665626548],[102.56807069680525,-2.5221318795803795],[102.54215044398785,-2.5080498840081904]]]}},{"type":"Feature","properties":{"code":"1503022018","desa":"Demang","kecamatan":"Limun","kecCode":"150302"},"geometry":{"type":"Polygon","coordinates":[[[102.50575472879774,-2.47110483957043],[102.51352574181959,-2.4872204001374865],[102.55740317341775,-2.5177344762677643],[102.61198825255588,-2.5335851891904624],[102.61297888366863,-2.5514259084447044],[102.57396436156608,-2.542437163919646],[102.53091057766107,-2.517774163349611],[102.50206371776642,-2.4857379720674797],[102.49740988805593,-2.474280020157094],[102.50575472879774,-2.47110483957043]]]}},{"type":"Feature","properties":{"code":"1503022021","desa":"Temalang","kecamatan":"Limun","kecCode":"150302"},"geometry":{"type":"Polygon","coordinates":[[[102.4737233569474,-2.483291572388556],[102.5031026910364,-2.5547548802956124],[102.48942418527797,-2.5521083607772663],[102.45827189083514,-2.586078750062118],[102.4429259457758,-2.494189806043158],[102.4737233569474,-2.483291572388556]]]}},{"type":"Feature","properties":{"code":"1503022023","desa":"Suka Damai","kecamatan":"Limun","kecCode":"150302"},"geometry":{"type":"Polygon","coordinates":[[[102.64042840124978,-2.5665164613149023],[102.6408710979229,-2.61288006416217],[102.61414999972277,-2.6221888863963687],[102.61579722226405,-2.6527194408045527],[102.61134338199155,-2.6567147833111933],[102.61309974265907,-2.5652388781223827],[102.64042840124978,-2.5665164613149023]]]}},{"type":"Feature","properties":{"code":"1503052013","desa":"Sungai Merah","kecamatan":"Pelawan","kecCode":"150305"},"geometry":{"type":"Polygon","coordinates":[[[102.70250963541137,-2.468162890961636],[102.65469911956875,-2.4676104689056224],[102.6510014823326,-2.453777135878895],[102.67079643290911,-2.4050874959173867],[102.69735294258429,-2.3968009276559332],[102.69566466239434,-2.436938655285936],[102.70680834263094,-2.4464376364685676],[102.70250963541137,-2.468162890961636]]]}},{"type":"Feature","properties":{"code":"1503052016","desa":"Pematang Kulim","kecamatan":"Pelawan","kecCode":"150305"},"geometry":{"type":"Polygon","coordinates":[[[102.78345124557858,-2.5028290848133863],[102.75686882643525,-2.487579410397139],[102.76859145063496,-2.3840463080399377],[102.80073580341468,-2.386338791448823],[102.78345124557858,-2.5028290848133863]]]}},{"type":"Feature","properties":{"code":"1503052017","desa":"Batu Putih","kecamatan":"Pelawan","kecCode":"150305"},"geometry":{"type":"Polygon","coordinates":[[[102.75686882643525,-2.487579410397139],[102.72730489660375,-2.4696955884359713],[102.73433800959151,-2.4364319520647144],[102.72956005185495,-2.418024442286138],[102.7213735862221,-2.410921094952305],[102.76639276921098,-2.4164584150375052],[102.75686882643525,-2.487579410397139]]]}},{"type":"Feature","properties":{"code":"1503052019","desa":"Mekarsari","kecamatan":"Pelawan","kecCode":"150305"},"geometry":{"type":"Polygon","coordinates":[[[102.80834999985268,-2.513294441492812],[102.78345124557858,-2.5028290848133863],[102.78927546289236,-2.4433461458920847],[102.79688209243466,-2.4355368046725867],[102.79393504466661,-2.427305243443992],[102.82468805540945,-2.428308603559886],[102.82649766943194,-2.4445434214246355],[102.84603638427176,-2.455650736662897],[102.81571111087914,-2.485411108074245],[102.80834999985268,-2.513294441492812]]]}},{"type":"Feature","properties":{"code":"1503052022","desa":"Pelawan Jaya","kecamatan":"Pelawan","kecCode":"150305"},"geometry":{"type":"Polygon","coordinates":[[[102.7286154057764,-2.469358934422941],[102.70250963541137,-2.468162890961636],[102.70680834263094,-2.4464376364685676],[102.69569822779101,-2.436535871425021],[102.69986125609215,-2.4281054206296115],[102.72714252041105,-2.4166919446909003],[102.73433800959151,-2.4364319520647144],[102.73204182996653,-2.4567239965846692],[102.7286154057764,-2.469358934422941]]]}},{"type":"Feature","properties":{"code":"1503102001","desa":"Kampung Tujuh","kecamatan":"Cermin Nan Gedang","kecCode":"150310"},"geometry":{"type":"Polygon","coordinates":[[[102.50187000199905,-2.3178171407704022],[102.53293213041353,-2.3076222911689688],[102.52412245079053,-2.4189693140934603],[102.53637164423604,-2.458519613556875],[102.50575472879774,-2.47110483957043],[102.50187000199905,-2.3178171407704022]]]}},{"type":"Feature","properties":{"code":"1503102007","desa":"Tambang Tinggi","kecamatan":"Cermin Nan Gedang","kecCode":"150310"},"geometry":{"type":"Polygon","coordinates":[[[102.377459301006,-2.3360057753482595],[102.38555696308345,-2.3329097117192212],[102.41108094043311,-2.349081258680792],[102.44256121043156,-2.345369299745123],[102.47870692938135,-2.3766029126517467],[102.48917218534814,-2.3221885482800357],[102.50187000199905,-2.3178171407704022],[102.50575472879774,-2.47110483957043],[102.41380109824216,-2.504365948846809],[102.37000207043927,-2.513818187766143],[102.40788756565871,-2.4791961560226885],[102.41632441244171,-2.4572077320201977],[102.41506376528059,-2.450926676201037],[102.39715226666384,-2.4461766774927627],[102.40110542467568,-2.425344773546386],[102.4123933588665,-2.4104344520086536],[102.40694254096552,-2.3984784060870052],[102.41804910977868,-2.366808875597322],[102.377459301006,-2.3360057753482595]]]}},{"type":"Feature","properties":{"code":"1503012015","desa":"Sungai Bemban","kecamatan":"Batang Asai","kecCode":"150301"},"geometry":{"type":"Polygon","coordinates":[[[102.28170587382708,-2.4638494924218186],[102.27772706625115,-2.4594490988633546],[102.25816764182326,-2.463448422668745],[102.28371386120578,-2.42051170715878],[102.31426408022321,-2.406700831102895],[102.28525874179758,-2.448337167405053],[102.28170587382708,-2.4638494924218186]]]}},{"type":"Feature","properties":{"code":"1503012016","desa":"Muara Cuban","kecamatan":"Batang Asai","kecCode":"150301"},"geometry":{"type":"Polygon","coordinates":[[[102.22596944033745,-2.4056099066974643],[102.25723888856389,-2.393841664399777],[102.26600555631144,-2.3808638861121927],[102.26553055599044,-2.3624361083127443],[102.27610555622653,-2.357494441593579],[102.30350833334295,-2.361352775084689],[102.30314166715425,-2.393472219306334],[102.31872343873579,-2.389926766250102],[102.32078965721695,-2.394666402969687],[102.31426408022321,-2.406700831102895],[102.2996098694,-2.4142870775027028],[102.25112426667164,-2.427284759585798],[102.24787944977686,-2.4406869989929216],[102.22629501470321,-2.4231383975253875],[102.22596944033745,-2.4056099066974643]]]}},{"type":"Feature","properties":{"code":"1503012017","desa":"Sungai Baung","kecamatan":"Batang Asai","kecCode":"150301"},"geometry":{"type":"Polygon","coordinates":[[[102.25816764182326,-2.463448422668745],[102.25489756567022,-2.452675213664135],[102.24662195563882,-2.451637616357995],[102.25112426667164,-2.427284759585798],[102.27032338761433,-2.4191375313826624],[102.28371386120578,-2.42051170715878],[102.25816764182326,-2.463448422668745]]]}},{"type":"Feature","properties":{"code":"1503012020","desa":"Kasiro Hilir","kecamatan":"Batang Asai","kecCode":"150301"},"geometry":{"type":"Polygon","coordinates":[[[102.3381972216245,-2.3899249972835688],[102.33711944440687,-2.361033330498348],[102.377459301006,-2.3360057753482595],[102.41804910977868,-2.366808875597322],[102.40861838443094,-2.4015983269312837],[102.36832545895282,-2.4252944214044283],[102.3612284329459,-2.4440900291149057],[102.32685887773509,-2.454961561898028],[102.31866968535775,-2.4468841264815273],[102.31947888993886,-2.4236625538895367],[102.31113765367984,-2.411768320170635],[102.31872343873579,-2.389926766250102],[102.3381972216245,-2.3899249972835688]]]}},{"type":"Feature","properties":{"code":"1503022005","desa":"Pulau Pandan","kecamatan":"Limun","kecCode":"150302"},"geometry":{"type":"Polygon","coordinates":[[[102.64043908879296,-2.4605584099080184],[102.6438489348805,-2.4473281730365475],[102.63194687075155,-2.43912319666702],[102.6370865070367,-2.4284870056712378],[102.61953213280174,-2.41440687889029],[102.63133378492631,-2.4048379880091955],[102.64088898903566,-2.4190642483272202],[102.66094008901392,-2.4271791216210876],[102.65133502379241,-2.456733113911566],[102.64043908879296,-2.4605584099080184]]]}},{"type":"Feature","properties":{"code":"1503022022","desa":"Muara Limun","kecamatan":"Limun","kecCode":"150302"},"geometry":{"type":"Polygon","coordinates":[[[102.67079643290911,-2.4050874959173867],[102.66094008901392,-2.4271791216210876],[102.64088898903566,-2.4190642483272202],[102.63133378492631,-2.4048379880091955],[102.6564121104306,-2.382370028405167],[102.67079643290911,-2.4050874959173867]]]}},{"type":"Feature","properties":{"code":"1503052001","desa":"Penegah","kecamatan":"Pelawan","kecCode":"150305"},"geometry":{"type":"Polygon","coordinates":[[[102.64130726371927,-2.3335339437412257],[102.67978878192679,-2.334307065722363],[102.68467664221332,-2.347676802731454],[102.68052138675266,-2.3837573927390365],[102.65814136643097,-2.3663325991388504],[102.64130726371927,-2.3335339437412257]]]}},{"type":"Feature","properties":{"code":"1503052002","desa":"Pelawan","kecamatan":"Pelawan","kecCode":"150305"},"geometry":{"type":"Polygon","coordinates":[[[102.69986125609215,-2.4281054206296115],[102.69962118926651,-2.3983275034451155],[102.68973440961535,-2.3755869332489588],[102.69449617056186,-2.3735901766060477],[102.70922200788942,-2.3851451797543106],[102.72300349141807,-2.4150790762535626],[102.71804346143665,-2.424001648662556],[102.69986125609215,-2.4281054206296115]]]}},{"type":"Feature","properties":{"code":"1503052003","desa":"Pulauaro","kecamatan":"Pelawan","kecCode":"150305"},"geometry":{"type":"Polygon","coordinates":[[[102.67699738432191,-2.3310747044414724],[102.70069047058882,-2.3307818042446105],[102.71194575039613,-2.3638299612551767],[102.6812178163492,-2.379156081642444],[102.68508995443788,-2.3512348786720065],[102.67699738432191,-2.3310747044414724]]]}},{"type":"Feature","properties":{"code":"1503052004","desa":"Bukit","kecamatan":"Pelawan","kecCode":"150305"},"geometry":{"type":"Polygon","coordinates":[[[102.75319011543155,-2.4145486111452685],[102.7213735862221,-2.410921094952305],[102.70922200788942,-2.3851451797543106],[102.69449617056186,-2.3735901766060477],[102.71194575039613,-2.3638299612551767],[102.7356166719719,-2.375125622408635],[102.75319011543155,-2.4145486111452685]]]}},{"type":"Feature","properties":{"code":"1503052005","desa":"Lubuk Sepuh","kecamatan":"Pelawan","kecCode":"150305"},"geometry":{"type":"Polygon","coordinates":[[[102.70069047058882,-2.3307818042446105],[102.72504862979048,-2.330507490336448],[102.72657740622235,-2.3438136030088152],[102.71979316082574,-2.3495996261089203],[102.74468557487944,-2.3603379153378543],[102.74949666903609,-2.350400595597184],[102.85223003498817,-2.359309601733173],[102.85319999968031,-2.3702444413922836],[102.84352777758492,-2.373966664290471],[102.84491666717052,-2.3877833301817115],[102.8524083327784,-2.3973999975464575],[102.86714722196677,-2.3977083301096247],[102.87924722238147,-2.424349997459468],[102.84948888880125,-2.4430833307156314],[102.84603638427176,-2.455650736662897],[102.82649766943194,-2.4445434214246355],[102.82468805540945,-2.428308603559886],[102.79393504466661,-2.427305243443992],[102.80073580341468,-2.386338791448823],[102.76859145063496,-2.3840463080399377],[102.76639276921098,-2.4164584150375052],[102.75319011543155,-2.4145486111452685],[102.7367666989241,-2.3760486460861743],[102.70788318356215,-2.358362468130885],[102.70069047058882,-2.3307818042446105]]]}},{"type":"Feature","properties":{"code":"1503052006","desa":"Rantanu Tenang","kecamatan":"Pelawan","kecCode":"150305"},"geometry":{"type":"Polygon","coordinates":[[[102.72504862979048,-2.330507490336448],[102.8247559002646,-2.341662206141697],[102.84843055582552,-2.350094441192015],[102.85223003498817,-2.359309601733173],[102.74281982607418,-2.349724749684394],[102.72934321181981,-2.344485730224968],[102.72504862979048,-2.330507490336448]]]}},{"type":"Feature","properties":{"code":"1503052007","desa":"Muara Danau","kecamatan":"Pelawan","kecCode":"150305"},"geometry":{"type":"Polygon","coordinates":[[[102.74949666903609,-2.350400595597184],[102.74468557487944,-2.3603379153378543],[102.72656075707334,-2.3545674604015834],[102.71979316082574,-2.3495996261089203],[102.72689906044336,-2.342595914664489],[102.72329194356843,-2.3331760540367945],[102.72934321181981,-2.344485730224968],[102.74949666903609,-2.350400595597184]]]}},{"type":"Feature","properties":{"code":"1503052021","desa":"Pasar Pelawan","kecamatan":"Pelawan","kecCode":"150305"},"geometry":{"type":"Polygon","coordinates":[[[102.69568559591356,-2.3971027931942825],[102.6895240294105,-2.4008482266951074],[102.6812178163492,-2.379156081642444],[102.69164349944798,-2.3768895157956353],[102.69568559591356,-2.3971027931942825]]]}},{"type":"Feature","properties":{"code":"1503052023","desa":"Lubuk Sayak","kecamatan":"Pelawan","kecCode":"150305"},"geometry":{"type":"Polygon","coordinates":[[[102.6895240294105,-2.4008482266951074],[102.67079643290911,-2.4050874959173867],[102.66195465108632,-2.39795682538122],[102.64941632560299,-2.3525030342715256],[102.68540868586221,-2.387535315148111],[102.6895240294105,-2.4008482266951074]]]}},{"type":"Feature","properties":{"code":"1503102002","desa":"Lubuk Resam","kecamatan":"Cermin Nan Gedang","kecCode":"150310"},"geometry":{"type":"Polygon","coordinates":[[[102.6183991093315,-2.330416509522492],[102.64278610979119,-2.3352316164487874],[102.65398240486415,-2.3766099660345246],[102.65051328535986,-2.3737061019156775],[102.63017563889468,-2.3880107705255154],[102.6279642689359,-2.381232250220544],[102.61830114797964,-2.38701736140808],[102.60380859658953,-2.3375602256242165],[102.6183991093315,-2.330416509522492]]]}},{"type":"Feature","properties":{"code":"1503102003","desa":"Telukrendah","kecamatan":"Cermin Nan Gedang","kecCode":"150310"},"geometry":{"type":"Polygon","coordinates":[[[102.56977881693894,-2.32619077239902],[102.60380859658953,-2.3375602256242165],[102.62361555491401,-2.411096084136521],[102.6183619178683,-2.4153556771376565],[102.605429645262,-2.3840189722470915],[102.58783892582584,-2.3703202560392973],[102.58155714874346,-2.3416239570758117],[102.56977881693894,-2.32619077239902]]]}},{"type":"Feature","properties":{"code":"1503102004","desa":"Teluktigo","kecamatan":"Cermin Nan Gedang","kecCode":"150310"},"geometry":{"type":"Polygon","coordinates":[[[102.55476695742918,-2.3235027761479428],[102.57101289093225,-2.3223324380086576],[102.58783892582584,-2.3703202560392973],[102.605429645262,-2.3840189722470915],[102.6183619178683,-2.4153556771376565],[102.60171676361777,-2.4288482039814805],[102.59329014662302,-2.424813712187596],[102.58655033582937,-2.438579281298246],[102.55823097687812,-2.4216556052300184],[102.54594823692166,-2.4063353187447545],[102.54534518663108,-2.359749659794904],[102.55476695742918,-2.3235027761479428]],[[102.5559232346696,-2.414475537631831],[102.57154413395466,-2.4097814416811953],[102.56717427327412,-2.4031995095779126],[102.57133020232703,-2.3623276491747593],[102.56475549626919,-2.3594778298142183],[102.54898428070004,-2.363118043535129],[102.54695196396204,-2.3726718851610977],[102.54834181672152,-2.400767501749691],[102.5559232346696,-2.414475537631831]]]}},{"type":"Feature","properties":{"code":"1503102005","desa":"Lubuk Resam Hilir","kecamatan":"Cermin Nan Gedang","kecCode":"150310"},"geometry":{"type":"Polygon","coordinates":[[[102.6564121104306,-2.382370028405167],[102.6347760156007,-2.400426688372219],[102.62719148330035,-2.3924257501883264],[102.65051328535986,-2.3737061019156775],[102.6564121104306,-2.382370028405167]]]}},{"type":"Feature","properties":{"code":"1503102006","desa":"Pemuncak","kecamatan":"Cermin Nan Gedang","kecCode":"150310"},"geometry":{"type":"Polygon","coordinates":[[[102.53293213041353,-2.3076222911689688],[102.55476695742918,-2.3235027761479428],[102.54534518663108,-2.359749659794904],[102.54594823692166,-2.4063353187447545],[102.55823097687812,-2.4216556052300184],[102.58677527695755,-2.438719443336874],[102.53638386332472,-2.4585489971060746],[102.52412245079053,-2.4189693140934603],[102.53293213041353,-2.3076222911689688]]]}},{"type":"Feature","properties":{"code":"1503102008","desa":"Tendah","kecamatan":"Cermin Nan Gedang","kecCode":"150310"},"geometry":{"type":"Polygon","coordinates":[[[102.63805295897691,-2.3967702230026546],[102.62361555491401,-2.411096084136521],[102.61830114797964,-2.38701736140808],[102.62230258159893,-2.3816840471329397],[102.62855893934362,-2.381573921551228],[102.62719148330035,-2.3924257501883264],[102.63321865781488,-2.399804459140429],[102.63805295897691,-2.3967702230026546]]]}},{"type":"Feature","properties":{"code":"1503102009","desa":"Sungaikeramat","kecamatan":"Cermin Nan Gedang","kecCode":"150310"},"geometry":{"type":"Polygon","coordinates":[[[102.5559232346696,-2.414475537631831],[102.54834181672152,-2.400767501749691],[102.54695196396204,-2.3726718851610977],[102.54898428070004,-2.363118043535129],[102.56475549626919,-2.3594778298142183],[102.57133020232703,-2.3623276491747593],[102.56717427327412,-2.4031995095779126],[102.57154413395466,-2.4097814416811953],[102.5559232346696,-2.414475537631831]]]}},{"type":"Feature","properties":{"code":"1503102010","desa":"Sekamis","kecamatan":"Cermin Nan Gedang","kecCode":"150310"},"geometry":{"type":"Polygon","coordinates":[[[102.38555696308345,-2.3329097117192212],[102.39551388895488,-2.3291027753823332],[102.40533453156344,-2.3084688652781518],[102.46095895539156,-2.3455802717036827],[102.47659178058625,-2.3260422655510666],[102.48917218534814,-2.3221885482800357],[102.47870692938135,-2.3766029126517467],[102.44256121043156,-2.345369299745123],[102.41108094043311,-2.349081258680792],[102.38555696308345,-2.3329097117192212]]]}}]}