{"type":"FeatureCollection","features":[{"type":"Feature","properties":{"code":"1571011001","desa":"Simpang IV Sipin","kecamatan":"Telanaipura","kecCode":"157101","kabCode":"1571","province":"Jambi"},"geometry":{"type":"Polygon","coordinates":[[[103.57859173122345,-1.6098593443370925],[103.58071451436342,-1.614989224770972],[103.58333214766054,-1.61329991755716],[103.58845385596072,-1.6164716411497737],[103.58772745555768,-1.620896954022743],[103.57919972958392,-1.6192454677974597],[103.57369497034666,-1.6215230224603843],[103.56706222923856,-1.6161477530131962],[103.56663628243852,-1.6134575615170348],[103.56957050137758,-1.6130610989908112],[103.57189307970191,-1.6088406094115715],[103.57859173122345,-1.6098593443370925]]]}},{"type":"Feature","properties":{"code":"1571011002","desa":"Buluran Kenali","kecamatan":"Telanaipura","kecCode":"157101","kabCode":"1571","province":"Jambi"},"geometry":{"type":"Polygon","coordinates":[[[103.5741562182349,-1.5827446704640304],[103.5854525745767,-1.589735175364215],[103.58438072658929,-1.592250275153417],[103.57747452502934,-1.5936474564867495],[103.57765113299348,-1.6036086451336016],[103.56669641021124,-1.5997310013996162],[103.5675221857004,-1.5979419189015192],[103.56118179170636,-1.5948750760443313],[103.5621342699806,-1.590730124120969],[103.56656031670529,-1.5930593061645317],[103.57312738032442,-1.5911423472660782],[103.5741562182349,-1.5827446704640304]]]}},{"type":"Feature","properties":{"code":"1571011003","desa":"Teluk Kenali","kecamatan":"Telanaipura","kecCode":"157101","kabCode":"1571","province":"Jambi"},"geometry":{"type":"Polygon","coordinates":[[[103.5741562182349,-1.5827446704640304],[103.5724016912851,-1.591758041124574],[103.56656031670529,-1.5930593061645317],[103.5621342699806,-1.590730124120969],[103.5602562364362,-1.580008771824311],[103.56401259130809,-1.575873085615941],[103.56763193986215,-1.5752892259591826],[103.5741562182349,-1.5827446704640304]]]}},{"type":"Feature","properties":{"code":"1571011004","desa":"Telanaipura","kecamatan":"Telanaipura","kecCode":"157101","kabCode":"1571","province":"Jambi"},"geometry":{"type":"Polygon","coordinates":[[[103.58524572690884,-1.6152109849968335],[103.58333214766054,-1.61329991755716],[103.58071451436342,-1.614989224770972],[103.57867618206024,-1.6101218375562738],[103.57671689476892,-1.5999262963763417],[103.57889328829468,-1.5980382902517982],[103.5850752900926,-1.6010106224559113],[103.58440884659102,-1.6098661090374826],[103.58739533772471,-1.6138120751665987],[103.58524572690884,-1.6152109849968335]]]}},{"type":"Feature","properties":{"code":"1571011010","desa":"Penyengat Rendah","kecamatan":"Telanaipura","kecCode":"157101","kabCode":"1571","province":"Jambi"},"geometry":{"type":"Polygon","coordinates":[[[103.54828600009887,-1.611513025807467],[103.53503888923342,-1.58918888758388],[103.54190887059798,-1.5901822193596182],[103.54660823658094,-1.587867710654552],[103.5460003407432,-1.5702089719143297],[103.55041666669585,-1.5658055539358327],[103.55466580328424,-1.5658766624306386],[103.5633621899132,-1.5700657350935616],[103.56760902693509,-1.5753032796647979],[103.5602562364362,-1.580008771824311],[103.56217096681672,-1.5928785460306911],[103.55704715140494,-1.5944936753636714],[103.55587632043593,-1.6013263348557445],[103.54828600009887,-1.611513025807467]]]}},{"type":"Feature","properties":{"code":"1571011011","desa":"Pematang Sulur","kecamatan":"Telanaipura","kecCode":"157101","kabCode":"1571","province":"Jambi"},"geometry":{"type":"Polygon","coordinates":[[[103.57859173122345,-1.6098593443370925],[103.57189307970191,-1.6088406094115715],[103.56957050137758,-1.6130610989908112],[103.56663628243852,-1.6134575615170348],[103.5670617705843,-1.6161309698652053],[103.5655836907348,-1.6154817115093718],[103.56565807096324,-1.6121218812211875],[103.55678937333094,-1.6062124963175182],[103.55533238258344,-1.6018027947758846],[103.55704715140494,-1.5944936753636714],[103.56148538394338,-1.5930403133822095],[103.56273466457314,-1.5967880320603822],[103.5675221857004,-1.5979419189015192],[103.56669641021124,-1.5997310013996162],[103.57765113299348,-1.6036086451336016],[103.57859173122345,-1.6098593443370925]]]}},{"type":"Feature","properties":{"code":"1571021002","desa":"Pasir Putih","kecamatan":"Jambi Selatan","kecCode":"157102","kabCode":"1571","province":"Jambi"},"geometry":{"type":"Polygon","coordinates":[[[103.64014504265963,-1.6039023691094707],[103.64539122342627,-1.6257685167898113],[103.63954073421756,-1.6270914959604628],[103.63537579665574,-1.6246919419669128],[103.63317188927135,-1.6283943644915821],[103.62948690459702,-1.6190772109381542],[103.63716215690805,-1.6178626045704985],[103.63824893723869,-1.6095846104455853],[103.64099982038545,-1.6003064847708497],[103.64014504265963,-1.6039023691094707]]]}},{"type":"Feature","properties":{"code":"1571021003","desa":"Tambak Sari","kecamatan":"Jambi Selatan","kecCode":"157102","kabCode":"1571","province":"Jambi"},"geometry":{"type":"Polygon","coordinates":[[[103.62192302342886,-1.604529737966781],[103.62948690459702,-1.6190772109381542],[103.62783408737327,-1.616410815503268],[103.62332019666978,-1.6168407319103082],[103.61916196355384,-1.611009740909347],[103.62192302342886,-1.604529737966781]]]}},{"type":"Feature","properties":{"code":"1571021004","desa":"Thehok","kecamatan":"Jambi Selatan","kecCode":"157102","kabCode":"1571","province":"Jambi"},"geometry":{"type":"Polygon","coordinates":[[[103.62783408737327,-1.616410815503268],[103.63317188927135,-1.6283943644915821],[103.63009233629236,-1.6325524015507002],[103.6319939050947,-1.634352284906649],[103.62873274841769,-1.639830722780203],[103.62995304479722,-1.643784300771045],[103.62299517089046,-1.650702050517711],[103.62006687128911,-1.6501931079846095],[103.62287015343492,-1.6388372174353045],[103.62460167662611,-1.6385261608256627],[103.62518839702697,-1.6296866372103482],[103.62223285336353,-1.6284502843363549],[103.6237867523568,-1.6253766246181518],[103.62161175367953,-1.624217016290166],[103.62431431985003,-1.620190399859375],[103.6216239979492,-1.6180750469205367],[103.62783408737327,-1.616410815503268]]]}},{"type":"Feature","properties":{"code":"1571021005","desa":"Wi Jaya Pura","kecamatan":"Jambi Selatan","kecCode":"157102","kabCode":"1571","province":"Jambi"},"geometry":{"type":"Polygon","coordinates":[[[103.63824893723869,-1.6095846104455853],[103.63716215690805,-1.6178626045704985],[103.63190783098166,-1.6195377258784716],[103.62966669076525,-1.6077718865694546],[103.63824893723869,-1.6095846104455853]]]}},{"type":"Feature","properties":{"code":"1571021006","desa":"Pakuan Baru","kecamatan":"Jambi Selatan","kecCode":"157102","kabCode":"1571","province":"Jambi"},"geometry":{"type":"Polygon","coordinates":[[[103.63047268656526,-1.615510702954176],[103.6276782069837,-1.6141503290735064],[103.62220069900314,-1.602802774340238],[103.6289469039765,-1.6053388867890364],[103.63047268656526,-1.615510702954176]]]}},{"type":"Feature","properties":{"code":"1571031001","desa":"Sijenjang","kecamatan":"Jambi Timur","kecCode":"157103","kabCode":"1571","province":"Jambi"},"geometry":{"type":"Polygon","coordinates":[[[103.65084768906968,-1.5565692062667578],[103.65162794177616,-1.5834204983904259],[103.64542122031315,-1.5850373265427475],[103.64322349127116,-1.5930321961014164],[103.64298883027038,-1.5850501059090287],[103.64003273622187,-1.5858970379483213],[103.63455579571348,-1.581261011222203],[103.6303415492232,-1.5813007486661088],[103.6310762854423,-1.5779963849643786],[103.62328362843675,-1.57795973849033],[103.62794705481281,-1.5695137231284109],[103.63856539877418,-1.5585682022214664],[103.65084768906968,-1.5565692062667578]]]}},{"type":"Feature","properties":{"code":"1571031002","desa":"Kasang Jaya","kecamatan":"Jambi Timur","kecCode":"157103","kabCode":"1571","province":"Jambi"},"geometry":{"type":"Polygon","coordinates":[[[103.62798784266487,-1.5820651715051104],[103.63455579571348,-1.581261011222203],[103.63985655363713,-1.5862543008252972],[103.63581147142229,-1.5885445332310972],[103.6324147896109,-1.5865041450799062],[103.63011558826383,-1.5896411440497868],[103.62798784266487,-1.5820651715051104]]]}},{"type":"Feature","properties":{"code":"1571031003","desa":"Talang Banjar","kecamatan":"Jambi Timur","kecCode":"157103","kabCode":"1571","province":"Jambi"},"geometry":{"type":"Polygon","coordinates":[[[103.64210038642375,-1.597419921809594],[103.63824893723869,-1.6095846104455853],[103.62966669076525,-1.6077718865694546],[103.62585726959735,-1.6030619022963217],[103.62989561858797,-1.594476028866517],[103.64210038642375,-1.597419921809594]]]}},{"type":"Feature","properties":{"code":"1571031004","desa":"Budiman","kecamatan":"Jambi Timur","kecCode":"157103","kabCode":"1571","province":"Jambi"},"geometry":{"type":"Polygon","coordinates":[[[103.62585726959735,-1.6030619022963217],[103.62220069900314,-1.602802774340238],[103.62253502287307,-1.6011786185118995],[103.62529777257417,-1.5959165638176234],[103.62804772402329,-1.5960116104666164],[103.62585726959735,-1.6030619022963217]]]}},{"type":"Feature","properties":{"code":"1571031005","desa":"Sulanjana","kecamatan":"Jambi Timur","kecCode":"157103","kabCode":"1571","province":"Jambi"},"geometry":{"type":"Polygon","coordinates":[[[103.62529777257417,-1.5959165638176234],[103.62384080341042,-1.6010726298116045],[103.62143436690256,-1.601175055397932],[103.62131319944466,-1.5969279845570161],[103.61754505176276,-1.5941299481598425],[103.61825699556397,-1.5925314391975998],[103.62529777257417,-1.5959165638176234]]]}},{"type":"Feature","properties":{"code":"1571031006","desa":"Kasang","kecamatan":"Jambi Timur","kecCode":"157103","kabCode":"1571","province":"Jambi"},"geometry":{"type":"Polygon","coordinates":[[[103.62328362843675,-1.57795973849033],[103.6310762854423,-1.5779963849643786],[103.62798784266487,-1.5820651715051104],[103.62952376421042,-1.588643518011322],[103.6245625875934,-1.5887446449766154],[103.62353776065919,-1.5860548419875322],[103.61815695408023,-1.589241403494644],[103.61602421094864,-1.5866867155489959],[103.62328362843675,-1.57795973849033]]]}},{"type":"Feature","properties":{"code":"1571031007","desa":"Tanjung Sari","kecamatan":"Jambi Timur","kecCode":"157103","kabCode":"1571","province":"Jambi"},"geometry":{"type":"Polygon","coordinates":[[[103.63581147142229,-1.5885445332310972],[103.64319969700847,-1.5858616900953995],[103.64210038642375,-1.597419921809594],[103.63521149231654,-1.5959908073490572],[103.63241867558143,-1.5881424436467726],[103.6324147896109,-1.5865041450799062],[103.63581147142229,-1.5885445332310972]]]}},{"type":"Feature","properties":{"code":"1571031008","desa":"Rajawali","kecamatan":"Jambi Timur","kecCode":"157103","kabCode":"1571","province":"Jambi"},"geometry":{"type":"Polygon","coordinates":[[[103.6255532142095,-1.5959888917931524],[103.61825699556397,-1.5925314391975998],[103.61815695408023,-1.589241403494644],[103.62353776065919,-1.5860548419875322],[103.62713083372107,-1.5902445945379844],[103.6255532142095,-1.5959888917931524]]]}},{"type":"Feature","properties":{"code":"1571031010","desa":"Tanjung Pinang","kecamatan":"Jambi Timur","kecCode":"157103","kabCode":"1571","province":"Jambi"},"geometry":{"type":"Polygon","coordinates":[[[103.62681206542453,-1.5888419678097054],[103.63268227676569,-1.5889635291705129],[103.63520754699077,-1.5965651422860652],[103.63105488697352,-1.5944738138362922],[103.6255532142095,-1.5959888917931524],[103.62681206542453,-1.5888419678097054]]]}},{"type":"Feature","properties":{"code":"1571041001","desa":"Beringin","kecamatan":"Pasar Jambi","kecCode":"157104","kabCode":"1571","province":"Jambi"},"geometry":{"type":"Polygon","coordinates":[[[103.61017770483726,-1.5877915012051007],[103.61329929302802,-1.589169931673761],[103.61153282038337,-1.5951670058727374],[103.61315263878333,-1.5978635303947284],[103.61143645263024,-1.6000913003878272],[103.60647263740236,-1.6000011685338524],[103.61017770483726,-1.5877915012051007]]]}},{"type":"Feature","properties":{"code":"1571041002","desa":"Orang Kayo Hitam","kecamatan":"Pasar Jambi","kecCode":"157104","kabCode":"1571","province":"Jambi"},"geometry":{"type":"Polygon","coordinates":[[[103.61825699556397,-1.5925314391975998],[103.61754505176276,-1.5941299481598425],[103.61499794959575,-1.5953629150863593],[103.6121378887526,-1.5942804757844098],[103.61272873434365,-1.5877995222584065],[103.61560509629824,-1.5925238120473209],[103.61825699556397,-1.5925314391975998]]]}},{"type":"Feature","properties":{"code":"1571041003","desa":"Pasar Jambi","kecamatan":"Pasar Jambi","kecCode":"157104","kabCode":"1571","province":"Jambi"},"geometry":{"type":"Polygon","coordinates":[[[103.61602421094864,-1.5866867155489959],[103.61903120842356,-1.5901147639109285],[103.61775667573004,-1.5934589208145413],[103.61344970643887,-1.5876819053240918],[103.61602421094864,-1.5866867155489959]]]}},{"type":"Feature","properties":{"code":"1571041004","desa":"Sungai Asam","kecamatan":"Pasar Jambi","kecCode":"157104","kabCode":"1571","province":"Jambi"},"geometry":{"type":"Polygon","coordinates":[[[103.61754505176276,-1.5941299481598425],[103.62131319944466,-1.5969279845570161],[103.61858597925959,-1.6020277062261516],[103.6161843100579,-1.5995057149320802],[103.61113827790928,-1.60117148239148],[103.61220382884369,-1.594310399826151],[103.61754505176276,-1.5941299481598425]]]}},{"type":"Feature","properties":{"code":"1571051001","desa":"Arab Melayu","kecamatan":"Pelayangan","kecCode":"157105","kabCode":"1571","province":"Jambi"},"geometry":{"type":"Polygon","coordinates":[[[103.62258072372146,-1.579784680555745],[103.61792428867504,-1.585780630602155],[103.61338156660604,-1.5877090468634063],[103.61234139004317,-1.587826663797758],[103.61061704883781,-1.5878007300479409],[103.61321050925766,-1.5790414511400723],[103.61703432857148,-1.5770069292666136],[103.62258072372146,-1.579784680555745]]]}},{"type":"Feature","properties":{"code":"1571051002","desa":"Mudung Laut","kecamatan":"Pelayangan","kecCode":"157105","kabCode":"1571","province":"Jambi"},"geometry":{"type":"Polygon","coordinates":[[[103.6145926943974,-1.547452016070728],[103.61624594329574,-1.5685736330163558],[103.61915041895672,-1.5756517570646817],[103.61321050925766,-1.5790414511400723],[103.6112465607802,-1.587741521382447],[103.60904131700323,-1.5877028523331462],[103.61463194800604,-1.57296477524896],[103.6145926943974,-1.547452016070728]]]}},{"type":"Feature","properties":{"code":"1571051003","desa":"Jelmu","kecamatan":"Pelayangan","kecCode":"157105","kabCode":"1571","province":"Jambi"},"geometry":{"type":"Polygon","coordinates":[[[103.61282548340938,-1.5470855441360294],[103.61463194800604,-1.57296477524896],[103.61304181083095,-1.5797334371856266],[103.6089329693811,-1.5847109778610478],[103.61017770483726,-1.5877915012051007],[103.6067385075761,-1.5879096361489138],[103.61272484207784,-1.5740042899096223],[103.61282548340938,-1.5470855441360294]]]}},{"type":"Feature","properties":{"code":"1571051004","desa":"Tengah","kecamatan":"Pelayangan","kecCode":"157105","kabCode":"1571","province":"Jambi"},"geometry":{"type":"Polygon","coordinates":[[[103.61098891220858,-1.5467046884445201],[103.61282548340938,-1.5470855441360294],[103.61185843701729,-1.5795655913163955],[103.6067385075761,-1.5879096361489138],[103.6032291317191,-1.5881753651288972],[103.61177813295454,-1.5739898440996567],[103.61098891220858,-1.5467046884445201]]]}},{"type":"Feature","properties":{"code":"1571051005","desa":"Tahtul Yaman","kecamatan":"Pelayangan","kecCode":"157105","kabCode":"1571","province":"Jambi"},"geometry":{"type":"Polygon","coordinates":[[[103.61575389272802,-1.5476928185415122],[103.61998959974028,-1.5509473984728284],[103.62186386332667,-1.559299956287867],[103.62893651320957,-1.568598939039375],[103.62258072372146,-1.579784680555745],[103.61774836869233,-1.5774542223742225],[103.61915041895672,-1.5756517570646817],[103.61617780526153,-1.568121259638524],[103.61575389272802,-1.5476928185415122]]]}},{"type":"Feature","properties":{"code":"1571051006","desa":"Tanjung Johor","kecamatan":"Pelayangan","kecCode":"157105","kabCode":"1571","province":"Jambi"},"geometry":{"type":"Polygon","coordinates":[[[103.61998959974028,-1.5509473984728284],[103.6217222219031,-1.5526111091826593],[103.64908333342913,-1.55072221992391],[103.65152777798465,-1.5541388873654158],[103.65084768906968,-1.5565692062667578],[103.63856539877418,-1.5585682022214664],[103.62893651320957,-1.568598939039375],[103.62186386332667,-1.559299956287867],[103.61998959974028,-1.5509473984728284]]]}},{"type":"Feature","properties":{"code":"1571061001","desa":"Pasir Panjang","kecamatan":"Danau Teluk","kecCode":"157106","kabCode":"1571","province":"Jambi"},"geometry":{"type":"Polygon","coordinates":[[[103.56692466174383,-1.573670137810571],[103.57944444410589,-1.5671111096412351],[103.59111022935365,-1.5573463671032746],[103.59148111606072,-1.5700574379483765],[103.58458696541618,-1.5761031771611527],[103.5808405237712,-1.5876318652468686],[103.56692466174383,-1.573670137810571]]]}},{"type":"Feature","properties":{"code":"1571061002","desa":"Tanjung Raden","kecamatan":"Danau Teluk","kecCode":"157106","kabCode":"1571","province":"Jambi"},"geometry":{"type":"Polygon","coordinates":[[[103.59104246273954,-1.5909523645847206],[103.5808405237712,-1.5876318652468686],[103.58458696541618,-1.5761031771611527],[103.59138761174893,-1.5745570923789012],[103.59104246273954,-1.5909523645847206]]]}},{"type":"Feature","properties":{"code":"1571061003","desa":"Olak Kemang","kecamatan":"Danau Teluk","kecCode":"157106","kabCode":"1571","province":"Jambi"},"geometry":{"type":"Polygon","coordinates":[[[103.59111022935365,-1.5573463671032746],[103.60667529063221,-1.5477880036861351],[103.60436868067012,-1.5516322142236998],[103.60673252258788,-1.5741535440942156],[103.60393189703949,-1.5773931799910859],[103.60192211821123,-1.5878068355453288],[103.59823378176365,-1.5890101329381936],[103.5944347819397,-1.5835482740666311],[103.59479408088218,-1.5761053202456046],[103.58831256167542,-1.5738813211098328],[103.59153379744686,-1.5698490398494958],[103.59111022935365,-1.5573463671032746]]]}},{"type":"Feature","properties":{"code":"1571061004","desa":"Tanjung Pasir","kecamatan":"Danau Teluk","kecCode":"157106","kabCode":"1571","province":"Jambi"},"geometry":{"type":"Polygon","coordinates":[[[103.59104246273954,-1.5909523645847206],[103.59066726738052,-1.5782057642235998],[103.59138761174893,-1.5745570923789012],[103.59479408088218,-1.5761053202456046],[103.5944347819397,-1.5835482740666311],[103.59823378176365,-1.5890101329381936],[103.59104246273954,-1.5909523645847206]]]}},{"type":"Feature","properties":{"code":"1571061005","desa":"Ulu Gedong","kecamatan":"Danau Teluk","kecCode":"157106","kabCode":"1571","province":"Jambi"},"geometry":{"type":"Polygon","coordinates":[[[103.60667529063221,-1.5477880036861351],[103.61098891220858,-1.5467046884445201],[103.61177813295454,-1.5739898440996567],[103.60524106981956,-1.5858917778137003],[103.60192211821123,-1.5878068355453288],[103.60393189703949,-1.5773931799910859],[103.60673252258788,-1.5741535440942156],[103.60436868067012,-1.5516322142236998],[103.60667529063221,-1.5477880036861351]]]}},{"type":"Feature","properties":{"code":"1571071001","desa":"Suka Karya","kecamatan":"Kota Baru","kecCode":"157107","kabCode":"1571","province":"Jambi"},"geometry":{"type":"Polygon","coordinates":[[[103.60391398794025,-1.6179123820456873],[103.60247943527774,-1.6256230946164332],[103.60242279777395,-1.643986275911901],[103.59579172940481,-1.6383323335426363],[103.60068043775202,-1.6214846510866927],[103.59965486258193,-1.617789701028879],[103.60391398794025,-1.6179123820456873]]]}},{"type":"Feature","properties":{"code":"1571071002","desa":"Simpang III Sipin","kecamatan":"Kota Baru","kecCode":"157107","kabCode":"1571","province":"Jambi"},"geometry":{"type":"Polygon","coordinates":[[[103.58587003807185,-1.6209839085719864],[103.59865510155174,-1.6177091865248052],[103.60068241356258,-1.6213298103135536],[103.59679414703231,-1.6349591240402985],[103.59025693281124,-1.639721622425645],[103.5878392565765,-1.6360344047387552],[103.58210404606496,-1.6341486343288916],[103.58525734255238,-1.6298983385191017],[103.58587003807185,-1.6209839085719864]]]}},{"type":"Feature","properties":{"code":"1571071004","desa":"Paal Lima","kecamatan":"Kota Baru","kecCode":"157107","kabCode":"1571","province":"Jambi"},"geometry":{"type":"Polygon","coordinates":[[[103.62287015343492,-1.6388372174353045],[103.62062867507336,-1.6481584431189542],[103.61738691137691,-1.6446274637516887],[103.60876835567511,-1.647111078276145],[103.602448846637,-1.6439127338516428],[103.60247943527774,-1.6256230946164332],[103.6049694385888,-1.6169037950700977],[103.60940923055159,-1.6177504699033471],[103.60779607702737,-1.626546767604517],[103.61267384602121,-1.6317229559292183],[103.61190485282674,-1.6362608279494053],[103.62287015343492,-1.6388372174353045]]]}},{"type":"Feature","properties":{"code":"1571071005","desa":"Kenali Asam Bawah","kecamatan":"Kota Baru","kecCode":"157107","kabCode":"1571","province":"Jambi"},"geometry":{"type":"Polygon","coordinates":[[[103.62125416704622,-1.696131387261858],[103.61615175010326,-1.690606081220015],[103.61321916703098,-1.6913529699770484],[103.5971601153471,-1.6752751593523447],[103.5769476383229,-1.6686783893347898],[103.58064005499459,-1.6625507155884311],[103.57777611987211,-1.6547758354904165],[103.58412431638415,-1.6510117275673377],[103.59364077500179,-1.6354940920540646],[103.59603477208714,-1.6354717268141168],[103.59687940456092,-1.640235752248305],[103.6053164473962,-1.6458410439929168],[103.60264675864107,-1.6465637949463034],[103.6059803835879,-1.6511644828126189],[103.60630518004007,-1.6565138095167768],[103.6084972046823,-1.6568841359458086],[103.60781888923043,-1.6604691654673405],[103.6266391671639,-1.6736458315229954],[103.62629583298639,-1.6767083315539633],[103.6286772215766,-1.676476665295831],[103.62069869358986,-1.689084441809538],[103.62125416704622,-1.696131387261858]]]}},{"type":"Feature","properties":{"code":"1571071006","desa":"Kenali Asam Atas","kecamatan":"Kota Baru","kecCode":"157107","kabCode":"1571","province":"Jambi"},"geometry":{"type":"Polygon","coordinates":[[[103.62001103058464,-1.663992674166348],[103.61297222219036,-1.6568055540848032],[103.60794445437313,-1.6603378842337744],[103.6084972046823,-1.6568841359458086],[103.60630518004007,-1.6565138095167768],[103.6059803835879,-1.6511644828126189],[103.60264675864107,-1.6465637949463034],[103.61598475139522,-1.644464259283529],[103.62013490769988,-1.645926199898046],[103.62006687128911,-1.6501931079846095],[103.62258360335068,-1.6507924782486725],[103.62001103058464,-1.663992674166348]]]}},{"type":"Feature","properties":{"code":"1571081001","desa":"Talang Jauh","kecamatan":"Jelutung","kecCode":"157108","kabCode":"1571","province":"Jambi"},"geometry":{"type":"Polygon","coordinates":[[[103.62253502287307,-1.6011786185118995],[103.61922367773057,-1.609921265357797],[103.6150863664427,-1.6091347965382192],[103.62034324734304,-1.5995205969133182],[103.62253502287307,-1.6011786185118995]]]}},{"type":"Feature","properties":{"code":"1571081002","desa":"Cempaka Putih","kecamatan":"Jelutung","kecCode":"157108","kabCode":"1571","province":"Jambi"},"geometry":{"type":"Polygon","coordinates":[[[103.61113827790928,-1.60117148239148],[103.6161843100579,-1.5995057149320802],[103.6180866882501,-1.6013831099557538],[103.61530526142872,-1.6105794701694294],[103.61165581436437,-1.6107899313130458],[103.61113827790928,-1.60117148239148]]]}},{"type":"Feature","properties":{"code":"1571081003","desa":"Kebun Handil","kecamatan":"Jelutung","kecCode":"157108","kabCode":"1571","province":"Jambi"},"geometry":{"type":"Polygon","coordinates":[[[103.6216239979492,-1.6180750469205367],[103.62431431985003,-1.620190399859375],[103.62161175367953,-1.624217016290166],[103.6237867523568,-1.6253766246181518],[103.62223285336353,-1.6284502843363549],[103.62518839702697,-1.6296866372103482],[103.61506546439972,-1.6311730843505128],[103.6119197635863,-1.6260689703925035],[103.61248793726854,-1.6223423552055114],[103.6216239979492,-1.6180750469205367]]]}},{"type":"Feature","properties":{"code":"1571081004","desa":"Lebak Bandung","kecamatan":"Jelutung","kecCode":"157108","kabCode":"1571","province":"Jambi"},"geometry":{"type":"Polygon","coordinates":[[[103.60378441182121,-1.6022145125020264],[103.61143645263024,-1.6000913003878272],[103.61181646925472,-1.6111009168762869],[103.60393838744669,-1.617945535552883],[103.60378441182121,-1.6022145125020264]]]}},{"type":"Feature","properties":{"code":"1571081005","desa":"Payo Lebar","kecamatan":"Jelutung","kecCode":"157108","kabCode":"1571","province":"Jambi"},"geometry":{"type":"Polygon","coordinates":[[[103.60431676100978,-1.6166993081227579],[103.59893532670401,-1.6177230504734978],[103.59694268355804,-1.6098425198202315],[103.60378441182121,-1.6022145125020264],[103.60431676100978,-1.6166993081227579]]]}},{"type":"Feature","properties":{"code":"1571081006","desa":"Jelutung","kecamatan":"Jelutung","kecCode":"157108","kabCode":"1571","province":"Jambi"},"geometry":{"type":"Polygon","coordinates":[[[103.61922367773057,-1.609921265357797],[103.62319127165988,-1.6164807962482342],[103.60959065798254,-1.623698250462389],[103.60940923055159,-1.6177504699033471],[103.60549968965898,-1.617202896092451],[103.6058584049415,-1.614462547607218],[103.6150863664427,-1.6091347965382192],[103.61922367773057,-1.609921265357797]]]}},{"type":"Feature","properties":{"code":"1571081007","desa":"Handil Jaya","kecamatan":"Jelutung","kecCode":"157108","kabCode":"1571","province":"Jambi"},"geometry":{"type":"Polygon","coordinates":[[[103.62424368080127,-1.6310541768890985],[103.62460167662611,-1.6385261608256627],[103.61190485282674,-1.6362608279494053],[103.61267384602121,-1.6317229559292183],[103.60779607702737,-1.626546767604517],[103.61041023534413,-1.6235451768571028],[103.61506546439972,-1.6311730843505128],[103.62424368080127,-1.6310541768890985]]]}},{"type":"Feature","properties":{"code":"1571091001","desa":"Kenali Besar","kecamatan":"Alam Barajo","kecCode":"157109","kabCode":"1571","province":"Jambi"},"geometry":{"type":"Polygon","coordinates":[[[103.53613814226149,-1.6457558467189635],[103.54828600009887,-1.611513025807467],[103.55533053357732,-1.6017481123982644],[103.55734072159707,-1.6070111338637003],[103.56565807096324,-1.6121218812211875],[103.56592223242512,-1.6245846528469443],[103.5634237458093,-1.6269275882224656],[103.56643431629071,-1.6318895814184242],[103.55766878708494,-1.6434344662941474],[103.54975205691198,-1.63632443699767],[103.54822504225194,-1.6477996010324854],[103.5407727192856,-1.6468857270573618],[103.53613814226149,-1.6457558467189635]]]}},{"type":"Feature","properties":{"code":"1571091002","desa":"Rawa Sari","kecamatan":"Alam Barajo","kecCode":"157109","kabCode":"1571","province":"Jambi"},"geometry":{"type":"Polygon","coordinates":[[[103.56502085722684,-1.6165406533248972],[103.57330044855689,-1.621410681848457],[103.57941013766775,-1.6192704545611603],[103.58482052834478,-1.620819195041501],[103.58507723172892,-1.6233840426282804],[103.57677971421246,-1.6314704146077794],[103.56643431629071,-1.6318895814184242],[103.5634237458093,-1.6269275882224656],[103.56592223242512,-1.6245846528469443],[103.56502085722684,-1.6165406533248972]]]}},{"type":"Feature","properties":{"code":"1571091003","desa":"Mayang Mangurai","kecamatan":"Alam Barajo","kecCode":"157109","kabCode":"1571","province":"Jambi"},"geometry":{"type":"Polygon","coordinates":[[[103.57904771807777,-1.6702289572374147],[103.57297222209041,-1.6678388874941683],[103.57005706428214,-1.6704157608153367],[103.56495247367779,-1.6576226637057856],[103.56952841580379,-1.655083595185463],[103.5715527483607,-1.6491566761998453],[103.56980637376518,-1.6398653511755308],[103.57582547236773,-1.6403020547660567],[103.57818898873091,-1.6313456723448694],[103.58036312226032,-1.630409864804449],[103.5825976992245,-1.6354428028185104],[103.58565401641975,-1.6345741728361924],[103.59025693281124,-1.639721622425645],[103.58412431638415,-1.6510117275673377],[103.57777611987211,-1.6547758354904165],[103.5806770504056,-1.6600513548343487],[103.57728211777554,-1.666272027473309],[103.57904771807777,-1.6702289572374147]]]}},{"type":"Feature","properties":{"code":"1571091004","desa":"Bagan Pete","kecamatan":"Alam Barajo","kecCode":"157109","kabCode":"1571","province":"Jambi"},"geometry":{"type":"Polygon","coordinates":[[[103.57005706428214,-1.6704157608153367],[103.56832611126106,-1.6805277765610793],[103.54809750039936,-1.6799449978894025],[103.54275000021237,-1.6816944418691468],[103.52421944427198,-1.6761277760064326],[103.53098788858023,-1.6572187484977585],[103.52675555582431,-1.6496472204025627],[103.53613814226149,-1.6457558467189635],[103.54822504225194,-1.6477996010324854],[103.54975205691198,-1.63632443699767],[103.55766878708494,-1.6434344662941474],[103.56703934059317,-1.6321633809144076],[103.57193661138558,-1.6467948217864108],[103.56952841580379,-1.655083595185463],[103.56495247367779,-1.6576226637057856],[103.56494094257052,-1.6604572827251007],[103.57005706428214,-1.6704157608153367]]]}},{"type":"Feature","properties":{"code":"1571091005","desa":"Beliung","kecamatan":"Alam Barajo","kecCode":"157109","kabCode":"1571","province":"Jambi"},"geometry":{"type":"Polygon","coordinates":[[[103.58482052834478,-1.620819195041501],[103.5860595809849,-1.624280054268899],[103.58441814288307,-1.6325860487857444],[103.5792780884131,-1.630681124614964],[103.57582547236773,-1.6403020547660567],[103.56873153643129,-1.63923483109378],[103.56643431629071,-1.6318895814184242],[103.57677971421246,-1.6314704146077794],[103.58504269326573,-1.6234335628973524],[103.58482052834478,-1.620819195041501]]]}},{"type":"Feature","properties":{"code":"1571101001","desa":"Sungai Putri","kecamatan":"Danau Sipin","kecCode":"157110","kabCode":"1571","province":"Jambi"},"geometry":{"type":"Polygon","coordinates":[[[103.58715877285913,-1.6125687120772316],[103.58440884659102,-1.6098661090374826],[103.58434540841392,-1.6027078679854174],[103.59137050844224,-1.6005886227807935],[103.59840254224359,-1.6081779844320923],[103.59444344690763,-1.6130191312282443],[103.58715877285913,-1.6125687120772316]]]}},{"type":"Feature","properties":{"code":"1571101002","desa":"Murni","kecamatan":"Danau Sipin","kecCode":"157110","kabCode":"1571","province":"Jambi"},"geometry":{"type":"Polygon","coordinates":[[[103.60761881075956,-1.5957073176580734],[103.60635952786998,-1.6002314210576924],[103.60378441182121,-1.6022145125020264],[103.6029862464182,-1.59551601746999],[103.60761881075956,-1.5957073176580734]]]}},{"type":"Feature","properties":{"code":"1571101003","desa":"Legok","kecamatan":"Danau Sipin","kecCode":"157110","kabCode":"1571","province":"Jambi"},"geometry":{"type":"Polygon","coordinates":[[[103.57889328829468,-1.5980382902517982],[103.57747452502934,-1.5936474564867495],[103.58438072658929,-1.592250275153417],[103.5854525745767,-1.589735175364215],[103.59104246273954,-1.5909523645847206],[103.60969852356804,-1.5878265226042323],[103.60855054527151,-1.5950817222638705],[103.60077359942215,-1.5952027674138345],[103.59411820259304,-1.6033222623236536],[103.59137050844224,-1.6005886227807935],[103.58390814994122,-1.6007837450876157],[103.57889328829468,-1.5980382902517982]]]}},{"type":"Feature","properties":{"code":"1571101004","desa":"Selamat","kecamatan":"Danau Sipin","kecCode":"157110","kabCode":"1571","province":"Jambi"},"geometry":{"type":"Polygon","coordinates":[[[103.58772745555768,-1.620896954022743],[103.58845385596072,-1.6164716411497737],[103.58524572690884,-1.6152109849968335],[103.58715877285913,-1.6125687120772316],[103.59444344690763,-1.6130191312282443],[103.59713904063425,-1.609848323145396],[103.59893414859215,-1.617731710045477],[103.58772745555768,-1.620896954022743]]]}},{"type":"Feature","properties":{"code":"1571101005","desa":"Solok Sipin","kecamatan":"Danau Sipin","kecCode":"157110","kabCode":"1571","province":"Jambi"},"geometry":{"type":"Polygon","coordinates":[[[103.60378441182121,-1.6022145125020264],[103.59840254224359,-1.6081779844320923],[103.59398476838241,-1.6040874271032808],[103.60106091842668,-1.5951129862954285],[103.6029862464182,-1.59551601746999],[103.60378441182121,-1.6022145125020264]]]}},{"type":"Feature","properties":{"code":"1571111001","desa":"Talang Bakung","kecamatan":"Paal Merah","kecCode":"157111","kabCode":"1571","province":"Jambi"},"geometry":{"type":"Polygon","coordinates":[[[103.66931880611804,-1.640473442165495],[103.65881380371411,-1.6466237968137827],[103.63697281993973,-1.6287821989221547],[103.63779959907231,-1.6264720690161913],[103.64539122342627,-1.6257685167898113],[103.64301557341003,-1.6103818351568082],[103.64916619336519,-1.6088435708790514],[103.65275182093984,-1.616988955471809],[103.65242017165365,-1.622302815612441],[103.65844228298505,-1.6232094095755971],[103.66073187957265,-1.6259933580929182],[103.66023572270052,-1.6306978798839342],[103.66922651589107,-1.631291159039794],[103.66931880611804,-1.640473442165495]]]}},{"type":"Feature","properties":{"code":"1571111002","desa":"Payo Selincah","kecamatan":"Paal Merah","kecCode":"157111","kabCode":"1571","province":"Jambi"},"geometry":{"type":"Polygon","coordinates":[[[103.65162794177616,-1.5834204983904259],[103.65677775029297,-1.5977360811724743],[103.6542777779971,-1.6024166648093083],[103.65637118388308,-1.6101902858564903],[103.64856854440285,-1.6075879473322137],[103.64810348159044,-1.610011424191548],[103.64301557341003,-1.6103818351568082],[103.64014504265963,-1.6039023691094707],[103.64530700641325,-1.590481533521237],[103.64481207891436,-1.5860842893886589],[103.65162794177616,-1.5834204983904259]]]}},{"type":"Feature","properties":{"code":"1571111003","desa":"Eka Jaya","kecamatan":"Paal Merah","kecCode":"157111","kabCode":"1571","province":"Jambi"},"geometry":{"type":"Polygon","coordinates":[[[103.66511075235938,-1.6060234372398794],[103.67994444358129,-1.6128333312937524],[103.68105555596917,-1.619277775941955],[103.66941666674586,-1.6336944425218705],[103.66922651589107,-1.631291159039794],[103.66023572270052,-1.6306978798839342],[103.66073187957265,-1.6259933580929182],[103.65781109020969,-1.6227450050674783],[103.65242017165365,-1.622302815612441],[103.65275182093984,-1.616988955471809],[103.64824493775376,-1.6080181533209459],[103.65567702957134,-1.6111183960995408],[103.65507417803092,-1.6074103159398638],[103.65744444380606,-1.6106944421976315],[103.66511075235938,-1.6060234372398794]]]}},{"type":"Feature","properties":{"code":"1571111004","desa":"Lingkar Selatan","kecamatan":"Paal Merah","kecCode":"157111","kabCode":"1571","province":"Jambi"},"geometry":{"type":"Polygon","coordinates":[[[103.65531945283055,-1.6532078342299055],[103.64983183287286,-1.6571644150570417],[103.64430555555703,-1.6543888868920218],[103.63647222221532,-1.6554999983794094],[103.63077650003548,-1.6528979980003016],[103.62418923944192,-1.661431790791122],[103.6263366765964,-1.6545775448720386],[103.62426055568015,-1.6503374491728777],[103.63910254134923,-1.64074242489254],[103.64205140844581,-1.6419900408758692],[103.64506587658899,-1.6491442097976767],[103.65531945283055,-1.6532078342299055]]]}},{"type":"Feature","properties":{"code":"1571111005","desa":"Paal Merah","kecamatan":"Paal Merah","kecCode":"157111","kabCode":"1571","province":"Jambi"},"geometry":{"type":"Polygon","coordinates":[[[103.65881380371411,-1.6466237968137827],[103.65531945283055,-1.6532078342299055],[103.652922578814,-1.6529035917834423],[103.6449524702803,-1.6490539754209828],[103.64205140844581,-1.6419900408758692],[103.63910254134923,-1.64074242489254],[103.62426055568015,-1.6503374491728777],[103.62633905620254,-1.654159950076297],[103.62457539124136,-1.6621569114581347],[103.62325000008747,-1.665722219746487],[103.62001103058464,-1.663992674166348],[103.62292258660813,-1.6496651555821293],[103.62884421668728,-1.6464136063660686],[103.62916031040002,-1.638137308362557],[103.6319939050947,-1.634352284906649],[103.63024525791239,-1.6319412213895654],[103.63537579665574,-1.6246919419669128],[103.6379398483454,-1.6260518023346344],[103.63697281993973,-1.6287821989221547],[103.65881380371411,-1.6466237968137827]]]}}]}