{"type":"FeatureCollection","features":[{"type":"Feature","properties":{"code":"1601072001","desa":"Negeri Sindang","kecamatan":"Sosoh Buay Rayap","kecCode":"160107"},"geometry":{"type":"Polygon","coordinates":[[[104.01426219004809,-4.149517076297743],[104.02332334259823,-4.163371278992447],[104.0307090356935,-4.1545236291025995],[104.04083890928831,-4.16369095110727],[104.04634331958859,-4.212753517439919],[104.03410944069822,-4.229492127421109],[104.0119911302865,-4.23175741173419],[103.97954684820853,-4.223400901398257],[103.97405846922304,-4.221158186471291],[103.95982100873259,-4.20546502667631],[103.96276653484777,-4.197926833751066],[103.96805285685394,-4.214107554697452],[103.97528076299687,-4.214111323756173],[103.98260070755667,-4.203816681782862],[103.98344815670713,-4.166480625608192],[103.98956901180053,-4.15331198600105],[103.99740148898756,-4.145931408257387],[104.01426219004809,-4.149517076297743]]]}},{"type":"Feature","properties":{"code":"1601072002","desa":"Rantau Kumpai","kecamatan":"Sosoh Buay Rayap","kecCode":"160107"},"geometry":{"type":"Polygon","coordinates":[[[104.04634331958859,-4.212753517439919],[104.04083890928831,-4.16369095110727],[104.0307090356935,-4.1545236291025995],[104.05904280178395,-4.142021222554976],[104.07445623916419,-4.147366900709863],[104.07144808875834,-4.15276237432642],[104.08325605142566,-4.166532683764082],[104.07623155214445,-4.191274958674047],[104.05731091166928,-4.192004099310665],[104.0609474426704,-4.210600624100826],[104.04634331958859,-4.212753517439919]]]}},{"type":"Feature","properties":{"code":"1601072003","desa":"Lubuk Baru","kecamatan":"Sosoh Buay Rayap","kecCode":"160107"},"geometry":{"type":"Polygon","coordinates":[[[104.07623155214445,-4.191274958674047],[104.08325605142566,-4.166532683764082],[104.09057179705087,-4.166073908112552],[104.08948260293981,-4.1474226613746294],[104.11260325723457,-4.166872939561841],[104.12080638640566,-4.182726204761187],[104.08926234368225,-4.193333405211984],[104.07623155214445,-4.191274958674047]]]}},{"type":"Feature","properties":{"code":"1601072004","desa":"Kungkilan","kecamatan":"Sosoh Buay Rayap","kecCode":"160107"},"geometry":{"type":"Polygon","coordinates":[[[104.10945971209611,-4.252110625442627],[104.09622040734597,-4.264948191330086],[104.06902313341095,-4.269899360286172],[104.07507324333557,-4.255126947984705],[104.10602400060718,-4.23990079353723],[104.10945971209611,-4.252110625442627]]]}},{"type":"Feature","properties":{"code":"1601072005","desa":"Penyandingan","kecamatan":"Sosoh Buay Rayap","kecCode":"160107"},"geometry":{"type":"Polygon","coordinates":[[[104.06605741122058,-4.228921855621106],[104.05582804562789,-4.197899525837113],[104.05987445973858,-4.189145610485425],[104.08926234368225,-4.193333405211984],[104.08255703268098,-4.205926934666511],[104.08781703782607,-4.215448791005094],[104.1277768112509,-4.20062772358234],[104.13346382169804,-4.203908022325697],[104.12143286043822,-4.212381411252512],[104.1175232134256,-4.2342185917710005],[104.09221071525235,-4.2348275290230015],[104.09246498507105,-4.243259055407992],[104.06605741122058,-4.228921855621106]]]}},{"type":"Feature","properties":{"code":"1601072006","desa":"Bandar","kecamatan":"Sosoh Buay Rayap","kecCode":"160107"},"geometry":{"type":"Polygon","coordinates":[[[104.08926234368225,-4.193333405211984],[104.1188641025963,-4.184979786196469],[104.12274086859627,-4.198783388536254],[104.12825823812726,-4.199602443390956],[104.08781703782607,-4.215448791005094],[104.08255703268098,-4.205926934666511],[104.08926234368225,-4.193333405211984]]]}},{"type":"Feature","properties":{"code":"1601072007","desa":"Lubuk Leban","kecamatan":"Sosoh Buay Rayap","kecCode":"160107"},"geometry":{"type":"Polygon","coordinates":[[[104.09637903696307,-4.265197468112455],[104.09563545591165,-4.2699742369402705],[104.09227849085971,-4.2750543003292005],[104.08789120671388,-4.264217900460587],[104.09637903696307,-4.265197468112455]]]}},{"type":"Feature","properties":{"code":"1601072007","desa":"Lubuk Leban","kecamatan":"Sosoh Buay Rayap","kecCode":"160107"},"geometry":{"type":"Polygon","coordinates":[[[104.12882810793086,-4.2012635874357445],[104.13065266868578,-4.184183429330945],[104.14335153574484,-4.1753889761387075],[104.13087460697761,-4.167611561750778],[104.13744424445638,-4.157907357975048],[104.14329536408984,-4.162206092169713],[104.16187416056414,-4.156923785642082],[104.1727528348755,-4.171325784280183],[104.19683255407914,-4.18324371783345],[104.19570215033404,-4.197597679184558],[104.13886859700817,-4.19580117907803],[104.12882810793086,-4.2012635874357445]]]}},{"type":"Feature","properties":{"code":"1601072008","desa":"Tungku Jaya","kecamatan":"Sosoh Buay Rayap","kecCode":"160107"},"geometry":{"type":"Polygon","coordinates":[[[104.07538831991508,-4.15165147867624],[104.06835528966496,-4.136329981702891],[104.09603391223533,-4.134789678661935],[104.08424916466724,-4.15529488678916],[104.07538831991508,-4.15165147867624]]]}},{"type":"Feature","properties":{"code":"1601072009","desa":"Mekar Sari","kecamatan":"Sosoh Buay Rayap","kecCode":"160107"},"geometry":{"type":"Polygon","coordinates":[[[104.10602400060718,-4.23990079353723],[104.08460140303237,-4.254582724148413],[104.07788085841496,-4.251098628237768],[104.07633724586724,-4.244473051136021],[104.08345169803748,-4.238500677716015],[104.09246498507105,-4.243259055407992],[104.09221071525235,-4.2348275290230015],[104.10330544179276,-4.234032488764996],[104.10602400060718,-4.23990079353723]]]}},{"type":"Feature","properties":{"code":"1601072010","desa":"Mekar Jaya","kecamatan":"Sosoh Buay Rayap","kecCode":"160107"},"geometry":{"type":"Polygon","coordinates":[[[104.08995591433403,-4.16731274581348],[104.0758242815654,-4.154852147848424],[104.0714012358784,-4.152653716438243],[104.09286743888129,-4.153379521489342],[104.08995591433403,-4.16731274581348]]]}},{"type":"Feature","properties":{"code":"1601072011","desa":"Penantian","kecamatan":"Sosoh Buay Rayap","kecCode":"160107"},"geometry":{"type":"Polygon","coordinates":[[[104.1188641025963,-4.184979786196469],[104.1326205364087,-4.185214075777024],[104.12804811332984,-4.19908994044183],[104.12274086859627,-4.198783388536254],[104.1188641025963,-4.184979786196469]]]}},{"type":"Feature","properties":{"code":"1601082001","desa":"Gunung Meraksa","kecamatan":"Pengandonan","kecCode":"160108"},"geometry":{"type":"Polygon","coordinates":[[[103.82257759637899,-4.063082239890444],[103.79104008992827,-4.0860020809440725],[103.7940597129854,-4.075586259821777],[103.77834634990421,-4.069273878816889],[103.79182429605447,-4.044708339574629],[103.79931539778744,-4.043895031387841],[103.82203629084222,-4.053779815432932],[103.82257759637899,-4.063082239890444]]]}},{"type":"Feature","properties":{"code":"1601082003","desa":"Tanjung Pura","kecamatan":"Pengandonan","kecCode":"160108"},"geometry":{"type":"Polygon","coordinates":[[[103.81202142704728,-4.068382256767139],[103.82257759637899,-4.063082239890444],[103.82203629084222,-4.053779815432932],[103.79931539778744,-4.043895031387841],[103.81495997532265,-4.033421181510702],[103.82608800106044,-4.045650193257226],[103.82560848164614,-4.075850177567126],[103.81202142704728,-4.068382256767139]]]}},{"type":"Feature","properties":{"code":"1601082004","desa":"Tanjung Sari","kecamatan":"Pengandonan","kecCode":"160108"},"geometry":{"type":"Polygon","coordinates":[[[103.82583635366484,-4.061501645423226],[103.82608800106044,-4.045650193257226],[103.81495997532265,-4.033421181510702],[103.82564109556017,-4.020821846932423],[103.84547724857622,-4.067647401838309],[103.83293776386677,-4.0485056423739465],[103.83569515630649,-4.064492050403296],[103.82583635366484,-4.061501645423226]]]}},{"type":"Feature","properties":{"code":"1601082005","desa":"Tangsi Lontar","kecamatan":"Pengandonan","kecCode":"160108"},"geometry":{"type":"Polygon","coordinates":[[[103.83569515630649,-4.064492050403296],[103.8305271410148,-4.049162099802777],[103.83293776386677,-4.0485056423739465],[103.84235026894982,-4.062939874512733],[103.83569515630649,-4.064492050403296]]]}},{"type":"Feature","properties":{"code":"1601082006","desa":"Belambangan","kecamatan":"Pengandonan","kecCode":"160108"},"geometry":{"type":"Polygon","coordinates":[[[103.84547724857622,-4.067647401838309],[103.84544397905643,-4.061180874336871],[103.82579813067923,-4.020255551035166],[103.85047799086664,-4.054263688464791],[103.85409663255359,-4.067064709501537],[103.84547724857622,-4.067647401838309]]]}},{"type":"Feature","properties":{"code":"1601082007","desa":"Kesambirata","kecamatan":"Pengandonan","kecCode":"160108"},"geometry":{"type":"Polygon","coordinates":[[[103.85400822200187,-4.067218387451233],[103.85047799086664,-4.054263688464791],[103.83880453440179,-4.044135926488846],[103.82925154802057,-4.0192092509895385],[103.83654644466276,-4.017124763682535],[103.85728919524024,-4.053919261611342],[103.85400822200187,-4.067218387451233]]]}},{"type":"Feature","properties":{"code":"1601082008","desa":"Gunung Liwat","kecamatan":"Pengandonan","kecCode":"160108"},"geometry":{"type":"Polygon","coordinates":[[[103.85935232634887,-4.0600007353858825],[103.83527825039101,-4.017136582572824],[103.83809094574059,-4.008650354924548],[103.86684288399198,-4.059687271291119],[103.85935232634887,-4.0600007353858825]]]}},{"type":"Feature","properties":{"code":"1601082015","desa":"Pengandonan","kecamatan":"Pengandonan","kecCode":"160108"},"geometry":{"type":"Polygon","coordinates":[[[103.98344815670713,-4.166480625608192],[103.98260070755667,-4.203816681782862],[103.97528076299687,-4.214111323756173],[103.96805285685394,-4.214107554697452],[103.96276653484777,-4.197926833751066],[103.95982100873259,-4.20546502667631],[103.96555778226588,-4.213742420054625],[103.9461024327811,-4.189171793347407],[103.94138063320969,-4.167883212766358],[103.9483609110273,-4.153831283328192],[103.93217385973587,-4.116414130788146],[103.89774084566358,-4.092984329168835],[103.87393677586157,-4.059861912437698],[103.86316421705504,-4.054772971840945],[103.8750391549331,-4.0557395281014905],[103.90086259123562,-4.07798527422227],[103.98344815670713,-4.166480625608192]]]}},{"type":"Feature","properties":{"code":"1601082016","desa":"Semanding","kecamatan":"Pengandonan","kecCode":"160108"},"geometry":{"type":"Polygon","coordinates":[[[103.86316421705504,-4.054772971840945],[103.84957107764319,-4.035086474128056],[103.84036455777817,-4.009646596906457],[103.84744428712423,-4.009849812212398],[103.87306789496745,-4.0571127308111805],[103.86316421705504,-4.054772971840945]]]}},{"type":"Feature","properties":{"code":"1601082017","desa":"Tanjungan","kecamatan":"Pengandonan","kecCode":"160108"},"geometry":{"type":"Polygon","coordinates":[[[103.88735568421754,-4.063537414656412],[103.86591298769429,-4.049136225408232],[103.848798714689,-4.00864094621734],[103.87931533773269,-4.037271982280453],[103.87996596665606,-4.055593299236262],[103.88735568421754,-4.063537414656412]]]}},{"type":"Feature","properties":{"code":"1601082018","desa":"Ujanmas","kecamatan":"Pengandonan","kecCode":"160108"},"geometry":{"type":"Polygon","coordinates":[[[104.01426219004809,-4.149517076297743],[103.99740148898756,-4.145931408257387],[103.98344815670713,-4.166480625608192],[103.88287634186973,-4.0649044624060755],[103.88735568421754,-4.063537414656412],[103.88039671583584,-4.050977665536605],[103.89181593036096,-4.066509577788183],[103.95669327187704,-4.10158154664732],[104.01426219004809,-4.149517076297743]]]}},{"type":"Feature","properties":{"code":"1601082019","desa":"Gunung Kuripan","kecamatan":"Pengandonan","kecCode":"160108"},"geometry":{"type":"Polygon","coordinates":[[[103.89136144177718,-4.059061801801972],[103.87931533773269,-4.037271982280453],[103.85109102273259,-4.007540259671059],[103.85311768903016,-3.9984942148415312],[103.86957300898722,-3.9912532829257046],[103.87440928236254,-3.976182541220288],[103.89666114659468,-3.9694015864502314],[103.906226579593,-3.976254435722609],[103.89356737083754,-4.004204536609434],[103.90437607429647,-4.05439926665901],[103.89136144177718,-4.059061801801972]]]}},{"type":"Feature","properties":{"code":"1601092001","desa":"Kepayang","kecamatan":"Peninjauan","kecCode":"160109"},"geometry":{"type":"Polygon","coordinates":[[[104.29610947826983,-4.015798624294063],[104.2862138061223,-4.025003434538116],[104.27977431133546,-4.021408519668521],[104.27170497520449,-4.000189404520954],[104.29029702678639,-4.002873397889684],[104.28865184840413,-4.010835240746088],[104.29610947826983,-4.015798624294063]]]}},{"type":"Feature","properties":{"code":"1601092002","desa":"Kedondong","kecamatan":"Peninjauan","kecCode":"160109"},"geometry":{"type":"Polygon","coordinates":[[[104.32312103320918,-3.9852944703828497],[104.31370435167457,-3.9959292233630657],[104.31325510523897,-3.9757789902376213],[104.32312103320918,-3.9852944703828497]]]}},{"type":"Feature","properties":{"code":"1601092002","desa":"Kedondong","kecamatan":"Peninjauan","kecCode":"160109"},"geometry":{"type":"Polygon","coordinates":[[[104.28867315064542,-4.010742821916107],[104.29029702678639,-4.002873397889684],[104.2720344643191,-3.9999999956070744],[104.27267401269557,-3.989420556328572],[104.28281968827802,-3.9585418527720124],[104.29334147562865,-3.955739514018072],[104.31136496592052,-3.973955989808479],[104.29870372379787,-3.968833982938783],[104.28413174608329,-3.9787020953517254],[104.29158582542556,-3.9918410627273007],[104.29787860571314,-3.9897701785655224],[104.30867598400953,-4.001607622795621],[104.29610947826983,-4.015798624294063],[104.28867315064542,-4.010742821916107]]]}},{"type":"Feature","properties":{"code":"1601092003","desa":"Belimbing","kecamatan":"Peninjauan","kecCode":"160109"},"geometry":{"type":"Polygon","coordinates":[[[104.30867598400953,-4.001607622795621],[104.29787860571314,-3.9897701785655224],[104.29158582542556,-3.9918410627273007],[104.28413174608329,-3.9787020953517254],[104.29870372379787,-3.968833982938783],[104.31417629340125,-3.974899896643294],[104.31645730056402,-3.9848813173387305],[104.30867598400953,-4.001607622795621]]]}},{"type":"Feature","properties":{"code":"1601092004","desa":"Durian","kecamatan":"Peninjauan","kecCode":"160109"},"geometry":{"type":"Polygon","coordinates":[[[104.32064794884384,-3.9829092335961196],[104.29501273165232,-3.9566116828326696],[104.33367173826018,-3.9617799157547906],[104.34228148420317,-3.9533026804276346],[104.35884992178654,-3.965169478529355],[104.33565017661441,-3.9808025375312095],[104.32064794884384,-3.9829092335961196]]]}},{"type":"Feature","properties":{"code":"1601092006","desa":"Lubuk Rukam","kecamatan":"Peninjauan","kecCode":"160109"},"geometry":{"type":"Polygon","coordinates":[[[104.30141882831633,-3.9572835096752774],[104.28310583007003,-3.958341127688833],[104.28650610557234,-3.903901820618285],[104.309757706553,-3.9026063139373486],[104.3200392130393,-3.91527084936384],[104.35693323538054,-3.92365508489898],[104.35911773089862,-3.942320419516715],[104.33367173826018,-3.9617799157547906],[104.31423644815362,-3.957110843439924],[104.32457901411028,-3.949101091899599],[104.32731505844329,-3.9247425909814004],[104.30605758089267,-3.924677293006338],[104.30141882831633,-3.9572835096752774]]]}},{"type":"Feature","properties":{"code":"1601092007","desa":"Bindu","kecamatan":"Peninjauan","kecCode":"160109"},"geometry":{"type":"Polygon","coordinates":[[[104.35693323538054,-3.92365508489898],[104.3200392130393,-3.91527084936384],[104.309757706553,-3.9026063139373486],[104.28715306706043,-3.904396267878652],[104.29141294964796,-3.8737479166707938],[104.34999461416015,-3.8985197415042934],[104.36303190689705,-3.9107592168627945],[104.35131807087231,-3.9110408503530985],[104.35693323538054,-3.92365508489898]]]}},{"type":"Feature","properties":{"code":"1601092009","desa":"Mendala","kecamatan":"Peninjauan","kecCode":"160109"},"geometry":{"type":"Polygon","coordinates":[[[104.31269112959198,-3.820815483941514],[104.32508090236183,-3.846515207677384],[104.33953954931081,-3.8585329641788664],[104.36512320926875,-3.8736718807905532],[104.38304775794772,-3.8747170800659156],[104.37727104822034,-3.886749727541831],[104.38136203632898,-3.893795916664715],[104.318135753862,-3.863683219653352],[104.30244040959728,-3.8437120424465037],[104.28765841230592,-3.8376658814514526],[104.29737744141585,-3.8191080167175295],[104.31269112959198,-3.820815483941514]]]}},{"type":"Feature","properties":{"code":"1601092010","desa":"Peninjauan","kecamatan":"Peninjauan","kecCode":"160109"},"geometry":{"type":"Polygon","coordinates":[[[104.3911601239406,-3.8935498063951677],[104.38304775794772,-3.8747170800659156],[104.37095367327343,-3.8737930356577883],[104.36539056062593,-3.8532893267005974],[104.38302236469043,-3.8281622174986136],[104.3937299420832,-3.8413682266345677],[104.39101735476714,-3.8526468717160114],[104.4036522944179,-3.8669950216478437],[104.3911601239406,-3.8935498063951677]]]}},{"type":"Feature","properties":{"code":"1601092011","desa":"Saung Naga","kecamatan":"Peninjauan","kecCode":"160109"},"geometry":{"type":"Polygon","coordinates":[[[104.3998984378627,-3.873630814148647],[104.4036522944179,-3.8669950216478437],[104.39101735476714,-3.8526468717160114],[104.3937299420832,-3.8413682266345677],[104.37389557871802,-3.808571398658257],[104.38035875535233,-3.8035122633927587],[104.40324104433881,-3.8123188745196153],[104.43013533667653,-3.849151960558466],[104.42244666558122,-3.8565124456489306],[104.42427926807379,-3.8642964385776235],[104.41764815024197,-3.860746431354316],[104.41125739241477,-3.8656980787496917],[104.41460105559429,-3.876822009862399],[104.40454495698425,-3.8797669990790693],[104.3998984378627,-3.873630814148647]]]}},{"type":"Feature","properties":{"code":"1601092022","desa":"Makartitama","kecamatan":"Peninjauan","kecCode":"160109"},"geometry":{"type":"Polygon","coordinates":[[[104.33045286141049,-3.8509803398327778],[104.31261910738594,-3.8279392359934232],[104.31616180942,-3.8155149544513005],[104.32297872179066,-3.818104852653779],[104.34187350585766,-3.8054028190953275],[104.37389557871802,-3.808571398658257],[104.38502111333376,-3.829161591819196],[104.33045286141049,-3.8509803398327778]]]}},{"type":"Feature","properties":{"code":"1601092023","desa":"Espetiga","kecamatan":"Peninjauan","kecCode":"160109"},"geometry":{"type":"Polygon","coordinates":[[[104.31423644815362,-3.957110843439924],[104.30141882831633,-3.9572835096752774],[104.30605758089267,-3.924677293006338],[104.32731505844329,-3.9247425909814004],[104.32457901411028,-3.949101091899599],[104.31423644815362,-3.957110843439924]]]}},{"type":"Feature","properties":{"code":"1601092024","desa":"Makarti Jaya","kecamatan":"Peninjauan","kecCode":"160109"},"geometry":{"type":"Polygon","coordinates":[[[104.31269112959198,-3.820815483941514],[104.2873005199031,-3.8164369627943624],[104.28731718434061,-3.7963648897479665],[104.2744050376624,-3.795777190885442],[104.27962644930125,-3.778276373994844],[104.27223848631718,-3.768630002022681],[104.27981277893667,-3.7674568777836046],[104.28782786886116,-3.755091811202236],[104.30527673463364,-3.7742771185378396],[104.33498829357495,-3.7671610466961925],[104.33417253293612,-3.785339227555164],[104.34210757780254,-3.8055094265292184],[104.31269112959198,-3.820815483941514]]]}},{"type":"Feature","properties":{"code":"1601092025","desa":"Mitra Kencana","kecamatan":"Peninjauan","kecCode":"160109"},"geometry":{"type":"Polygon","coordinates":[[[104.38508877382793,-3.802920135369093],[104.37360630368799,-3.8086114895356995],[104.34209716095529,-3.806894483202753],[104.33296703040416,-3.7630948376122744],[104.36082900405535,-3.7711781177229176],[104.3831149471971,-3.7636120817871648],[104.38508877382793,-3.802920135369093]]]}},{"type":"Feature","properties":{"code":"1601092026","desa":"Penilikan","kecamatan":"Peninjauan","kecCode":"160109"},"geometry":{"type":"Polygon","coordinates":[[[104.37095367327343,-3.8737930356577883],[104.36512320926875,-3.8736718807905532],[104.33045286141049,-3.8509803398327778],[104.3783824178144,-3.831303106935777],[104.36567609627491,-3.8508622768347696],[104.37095367327343,-3.8737930356577883]]]}},{"type":"Feature","properties":{"code":"1601092027","desa":"Panji Jaya","kecamatan":"Peninjauan","kecCode":"160109"},"geometry":{"type":"Polygon","coordinates":[[[104.29612463364498,-3.8215002367398694],[104.28765841230592,-3.8376658814514526],[104.26501368823118,-3.8404315224700496],[104.24385731606236,-3.821847284217766],[104.24806652814783,-3.781109535213261],[104.27486752661513,-3.770959531204601],[104.27962644930125,-3.778276373994844],[104.2744050376624,-3.795777190885442],[104.28731718434061,-3.7963648897479665],[104.2873005199031,-3.8164369627943624],[104.29612463364498,-3.8215002367398694]]]}},{"type":"Feature","properties":{"code":"1601092028","desa":"Karang Dapo","kecamatan":"Peninjauan","kecCode":"160109"},"geometry":{"type":"Polygon","coordinates":[[[104.36303190689705,-3.9107592168627945],[104.32458868991614,-3.884575165038078],[104.29141294964796,-3.8737479166707938],[104.29342398033248,-3.863338611136852],[104.2402869436876,-3.8630223429559654],[104.23083304191141,-3.8450185955001563],[104.22221389715367,-3.84258223675174],[104.24469810483372,-3.8218480306550844],[104.26501368823118,-3.8404315224700496],[104.28765841230592,-3.8376658814514526],[104.30244040959728,-3.8437120424465037],[104.318135753862,-3.863683219653352],[104.37683365844663,-3.8954169347584817],[104.36500611843768,-3.8990959704135433],[104.36303190689705,-3.9107592168627945]]]}},{"type":"Feature","properties":{"code":"1601131003","desa":"Tanjungagung","kecamatan":"Baturaja Barat","kecCode":"160113"},"geometry":{"type":"Polygon","coordinates":[[[104.14621641425616,-4.1304800608718955],[104.15762753038626,-4.129077162548219],[104.15894723332819,-4.131677548644444],[104.14621641425616,-4.1304800608718955]]]}},{"type":"Feature","properties":{"code":"1601131004","desa":"Saung Naga","kecamatan":"Baturaja Barat","kecCode":"160113"},"geometry":{"type":"Polygon","coordinates":[[[104.16053030992593,-4.136481371777307],[104.15835231021099,-4.12949924046436],[104.16227683380889,-4.131405980366529],[104.16053030992593,-4.136481371777307]]]}},{"type":"Feature","properties":{"code":"1601131005","desa":"Talang Jawa","kecamatan":"Baturaja Barat","kecCode":"160113"},"geometry":{"type":"Polygon","coordinates":[[[104.1637430587952,-4.123923955498842],[104.15458090338603,-4.1276604461414435],[104.15989778885192,-4.120832814758558],[104.1637430587952,-4.123923955498842]]]}},{"type":"Feature","properties":{"code":"1601131007","desa":"Batu Kuning","kecamatan":"Baturaja Barat","kecCode":"160113"},"geometry":{"type":"Polygon","coordinates":[[[104.0911864288107,-4.138696883111747],[104.09073059484113,-4.139476355205898],[104.09086432223073,-4.138730369368126],[104.0911864288107,-4.138696883111747]]]}},{"type":"Feature","properties":{"code":"1601131007","desa":"Batu Kuning","kecamatan":"Baturaja Barat","kecCode":"160113"},"geometry":{"type":"Polygon","coordinates":[[[104.07445623916419,-4.147366900709863],[104.05368241431205,-4.1430772586610685],[104.0821805989555,-4.115175700480099],[104.11267482168574,-4.107585316299266],[104.11661005980646,-4.120702619906108],[104.09380503067769,-4.134219104689752],[104.06835528966496,-4.136329981702891],[104.07445623916419,-4.147366900709863]]]}},{"type":"Feature","properties":{"code":"1601131007","desa":"Batu Kuning","kecamatan":"Baturaja Barat","kecCode":"160113"},"geometry":{"type":"Polygon","coordinates":[[[104.1619886946226,-4.050873548325478],[104.16527829865463,-4.105410794264985],[104.15607082101167,-4.1015041545894535],[104.12515161105806,-4.116452286324536],[104.1324176736368,-4.100524016767368],[104.12435531174827,-4.0974277453948345],[104.12746243794122,-4.067469708392644],[104.1356001962921,-4.068326314439265],[104.13655989792102,-4.047212852544873],[104.1619886946226,-4.050873548325478]]]}},{"type":"Feature","properties":{"code":"1601131011","desa":"Air Gading","kecamatan":"Baturaja Barat","kecCode":"160113"},"geometry":{"type":"Polygon","coordinates":[[[104.1648031679319,-4.12143801352882],[104.1599930279559,-4.120417224551638],[104.16614696910737,-4.116021765573083],[104.1648031679319,-4.12143801352882]]]}},{"type":"Feature","properties":{"code":"1601132001","desa":"Batu Putih","kecamatan":"Baturaja Barat","kecCode":"160113"},"geometry":{"type":"Polygon","coordinates":[[[104.1175653142879,-4.176447182308912],[104.10002629507748,-4.15747093857025],[104.1192323542898,-4.145663568568592],[104.13744424445638,-4.157907357975048],[104.13527069098967,-4.166917571116384],[104.12545209973469,-4.167357256858799],[104.1175653142879,-4.176447182308912]]]}},{"type":"Feature","properties":{"code":"1601132002","desa":"Laya","kecamatan":"Baturaja Barat","kecCode":"160113"},"geometry":{"type":"Polygon","coordinates":[[[104.17111079782512,-4.147791028180918],[104.14320687169982,-4.162196879514644],[104.1192323542898,-4.145663568568592],[104.14499853435495,-4.1292563632576025],[104.17111079782512,-4.147791028180918]]]}},{"type":"Feature","properties":{"code":"1601132006","desa":"Pusar","kecamatan":"Baturaja Barat","kecCode":"160113"},"geometry":{"type":"Polygon","coordinates":[[[104.10002629507748,-4.15747093857025],[104.08930188057741,-4.147446296457242],[104.09445107935392,-4.133114367596978],[104.15525741120062,-4.102268792366446],[104.14739768365621,-4.112532955416273],[104.15153427728512,-4.1262437306338935],[104.10002629507748,-4.15747093857025]]]}},{"type":"Feature","properties":{"code":"1601132008","desa":"Karang Agung","kecamatan":"Baturaja Barat","kecCode":"160113"},"geometry":{"type":"Polygon","coordinates":[[[104.11259339167174,-4.104534597386923],[104.13213213888719,-4.098953570250118],[104.13133263978953,-4.105549437348766],[104.11661005980646,-4.120702619906108],[104.11259339167174,-4.104534597386923]]]}},{"type":"Feature","properties":{"code":"1601132009","desa":"Karang Endah","kecamatan":"Baturaja Barat","kecCode":"160113"},"geometry":{"type":"Polygon","coordinates":[[[104.1204374008654,-4.096382014620069],[104.0997601299261,-4.113769521429652],[104.0821805989555,-4.115175700480099],[104.0980979759409,-4.095368319495177],[104.09723580039196,-4.083985934917859],[104.1204374008654,-4.096382014620069]]]}},{"type":"Feature","properties":{"code":"1601132010","desa":"Tanjung Karang","kecamatan":"Baturaja Barat","kecCode":"160113"},"geometry":{"type":"Polygon","coordinates":[[[104.13655989792102,-4.047212852544873],[104.1356001962921,-4.068326314439265],[104.12746243794122,-4.067469708392644],[104.12435531174827,-4.0974277453948345],[104.09723580039196,-4.083985934917859],[104.0882878859772,-4.04333983222534],[104.13655989792102,-4.047212852544873]]]}},{"type":"Feature","properties":{"code":"1601132012","desa":"Sukamaju","kecamatan":"Baturaja Barat","kecCode":"160113"},"geometry":{"type":"Polygon","coordinates":[[[104.1313508636515,-4.184137530631652],[104.1175653142879,-4.176447182308912],[104.12545209973469,-4.167357256858799],[104.14293773159108,-4.174216618122007],[104.1313508636515,-4.184137530631652]]]}},{"type":"Feature","properties":{"code":"1601141001","desa":"Baturaja Lama","kecamatan":"Baturaja Timur","kecCode":"160114"},"geometry":{"type":"Polygon","coordinates":[[[104.16199036286503,-4.127029550143028],[104.16652516370537,-4.1224342842890564],[104.17528848327692,-4.127138068636267],[104.17047034383135,-4.132940327197532],[104.16199036286503,-4.127029550143028]]]}},{"type":"Feature","properties":{"code":"1601141003","desa":"Pasar Baru","kecamatan":"Baturaja Timur","kecCode":"160114"},"geometry":{"type":"Polygon","coordinates":[[[104.1647257138207,-4.130055232828951],[104.16045654663235,-4.130347121288517],[104.16199036286503,-4.127029550143028],[104.1647257138207,-4.130055232828951]]]}},{"type":"Feature","properties":{"code":"1601141004","desa":"Kemalaraja","kecamatan":"Baturaja Timur","kecCode":"160114"},"geometry":{"type":"Polygon","coordinates":[[[104.17410350956935,-4.126495612752316],[104.16652516370537,-4.1224342842890564],[104.17963063584521,-4.099207091832615],[104.19291108008235,-4.107393354210069],[104.18714411900594,-4.116230228423087],[104.17621647121324,-4.118200810297887],[104.17410350956935,-4.126495612752316]]]}},{"type":"Feature","properties":{"code":"1601141005","desa":"Sukaraya","kecamatan":"Baturaja Timur","kecCode":"160114"},"geometry":{"type":"Polygon","coordinates":[[[104.18372605131627,-4.123847272106668],[104.17408209581214,-4.123711643550399],[104.17943588315956,-4.115274074620713],[104.18372605131627,-4.123847272106668]]]}},{"type":"Feature","properties":{"code":"1601141006","desa":"Sukajadi","kecamatan":"Baturaja Timur","kecCode":"160114"},"geometry":{"type":"Polygon","coordinates":[[[104.15458090338603,-4.1276604461414435],[104.147183532594,-4.115602460266825],[104.15607082101167,-4.1015041545894535],[104.17246618586584,-4.109340202076778],[104.16652516370537,-4.1224342842890564],[104.1644136697551,-4.115914491741529],[104.15458090338603,-4.1276604461414435]]]}},{"type":"Feature","properties":{"code":"1601141011","desa":"Kemelak Bindung Langit","kecamatan":"Baturaja Timur","kecCode":"160114"},"geometry":{"type":"Polygon","coordinates":[[[104.19570215033404,-4.197597679184558],[104.19659193956643,-4.1828003727496235],[104.1727528348755,-4.171325784280183],[104.16187416056414,-4.156923785642082],[104.176432600784,-4.1431981797046],[104.19885525166858,-4.158653969740962],[104.21819217123175,-4.186958997066244],[104.20509682365952,-4.204139263204545],[104.19570215033404,-4.197597679184558]]]}},{"type":"Feature","properties":{"code":"1601141012","desa":"Sepancar Lawang Kulon","kecamatan":"Baturaja Timur","kecCode":"160114"},"geometry":{"type":"Polygon","coordinates":[[[104.20509682365952,-4.204139263204545],[104.21734817367934,-4.1873211666442876],[104.23967845969321,-4.18085501416022],[104.24866117966972,-4.164938079658086],[104.26981102995512,-4.164958019426442],[104.26186294132174,-4.188074146509662],[104.26666689486136,-4.200584287226913],[104.2545677182257,-4.2135760499729],[104.27980983095897,-4.22617199860374],[104.26070224121553,-4.246085587723612],[104.22622182297879,-4.249923723341071],[104.20669556105132,-4.228269580039796],[104.2104656476716,-4.224469733058406],[104.20509682365952,-4.204139263204545]]]}},{"type":"Feature","properties":{"code":"1601141013","desa":"Baturaja Permai","kecamatan":"Baturaja Timur","kecCode":"160114"},"geometry":{"type":"Polygon","coordinates":[[[104.20765145225278,-4.1198423877929855],[104.26481527170749,-4.129229465434561],[104.2657018692459,-4.137182942797256],[104.19781134381849,-4.133817194070507],[104.1960954850187,-4.130962825039612],[104.20765145225278,-4.1198423877929855]]]}},{"type":"Feature","properties":{"code":"1601141014","desa":"Sekar Jaya","kecamatan":"Baturaja Timur","kecCode":"160114"},"geometry":{"type":"Polygon","coordinates":[[[104.18773624343292,-4.115535944609702],[104.2047857760428,-4.096247483236663],[104.22038397014414,-4.110302580087087],[104.24789856896382,-4.1183398445867425],[104.24802981332529,-4.123423986401042],[104.22887515126727,-4.126666002803538],[104.20765145225278,-4.1198423877929855],[104.2009690802589,-4.125330777564538],[104.18773624343292,-4.115535944609702]]]}},{"type":"Feature","properties":{"code":"1601142007","desa":"Tanjung Kemala","kecamatan":"Baturaja Timur","kecCode":"160114"},"geometry":{"type":"Polygon","coordinates":[[[104.16234952780854,-4.070599157554132],[104.1619886946226,-4.050873548325478],[104.17991034029001,-4.057199381389558],[104.18603414066312,-4.079384260494974],[104.2047857760428,-4.096247483236663],[104.19291108008235,-4.107393354210069],[104.18084416032978,-4.100991686713908],[104.17177332387983,-4.094107635463189],[104.16234952780854,-4.070599157554132]]]}},{"type":"Feature","properties":{"code":"1601142008","desa":"Tanjung Baru","kecamatan":"Baturaja Timur","kecCode":"160114"},"geometry":{"type":"Polygon","coordinates":[[[104.15858457631721,-4.135274337701225],[104.17528848327692,-4.127138068636267],[104.25792956569694,-4.13869905137725],[104.27665094608437,-4.130452767347112],[104.28135060344765,-4.151438876246811],[104.2754489868813,-4.148559540237322],[104.26981102995512,-4.164958019426442],[104.24866117966972,-4.164938079658086],[104.23967845969321,-4.18085501416022],[104.21819217123175,-4.186958997066244],[104.1895277657938,-4.149183714702706],[104.18150799130079,-4.143226732280154],[104.17175580868366,-4.1481488468389385],[104.15858457631721,-4.135274337701225]]]}},{"type":"Feature","properties":{"code":"1601142015","desa":"Air Paoh","kecamatan":"Baturaja Timur","kecCode":"160114"},"geometry":{"type":"Polygon","coordinates":[[[104.18224840583935,-4.117608325243371],[104.19768239003031,-4.118914778472204],[104.19974557869557,-4.129549425332473],[104.1816766942241,-4.1284804192038544],[104.18224840583935,-4.117608325243371]]]}},{"type":"Feature","properties":{"code":"1601142016","desa":"Terusan","kecamatan":"Baturaja Timur","kecCode":"160114"},"geometry":{"type":"Polygon","coordinates":[[[104.16454753474102,-4.106193757527294],[104.16234952780854,-4.070599157554132],[104.16592477990474,-4.070416234550837],[104.17177332387983,-4.094107635463189],[104.17963063584521,-4.099207091832615],[104.17246618586584,-4.109340202076778],[104.16454753474102,-4.106193757527294]]]}},{"type":"Feature","properties":{"code":"1601202001","desa":"Kelumpang","kecamatan":"Ulu Ogan","kecCode":"160120"},"geometry":{"type":"Polygon","coordinates":[[[103.70073683763502,-4.276045181452424],[103.62628944420254,-4.273308884412792],[103.61587665378458,-4.256098079096477],[103.69901948865851,-4.222824712059239],[103.73151443494326,-4.196168243666001],[103.7307753666899,-4.221493239691108],[103.70073683763502,-4.276045181452424]]]}},{"type":"Feature","properties":{"code":"1601202002","desa":"Gunung Tiga","kecamatan":"Ulu Ogan","kecCode":"160120"},"geometry":{"type":"Polygon","coordinates":[[[103.72928411896697,-4.1999566602641165],[103.69901948865851,-4.222824712059239],[103.61587665378458,-4.256098079096477],[103.61896181403652,-4.224565439809766],[103.64405935715365,-4.2177069697746346],[103.64726586922455,-4.198893363031916],[103.69600592793131,-4.186941952215516],[103.72928411896697,-4.1999566602641165]]]}},{"type":"Feature","properties":{"code":"1601202003","desa":"Mendingin","kecamatan":"Ulu Ogan","kecCode":"160120"},"geometry":{"type":"Polygon","coordinates":[[[103.70073683763502,-4.276045181452424],[103.73461009028351,-4.210959169411082],[103.73151443494326,-4.196168243666001],[103.74197934107376,-4.178391795360292],[103.75915255834393,-4.111409277701905],[103.76892895970377,-4.126344411535476],[103.77413998057567,-4.17245836528281],[103.79482770613379,-4.204418718536836],[103.79495917082913,-4.221701965143171],[103.76325303699808,-4.248198918986656],[103.73356899461344,-4.250556629324195],[103.70073683763502,-4.276045181452424]]]}},{"type":"Feature","properties":{"code":"1601202004","desa":"Ulak Lebar","kecamatan":"Ulu Ogan","kecCode":"160120"},"geometry":{"type":"Polygon","coordinates":[[[103.7400294238189,-4.181704158531858],[103.72928411896697,-4.1999566602641165],[103.68567733384197,-4.188151855128926],[103.70517714940598,-4.18391340698754],[103.7040319859874,-4.12951204141438],[103.72100705742979,-4.1636652898519895],[103.7400294238189,-4.181704158531858]]]}},{"type":"Feature","properties":{"code":"1601202005","desa":"Pedataran","kecamatan":"Ulu Ogan","kecCode":"160120"},"geometry":{"type":"Polygon","coordinates":[[[103.77834634990421,-4.069273878816889],[103.79501149698308,-4.07882232630966],[103.75960511698264,-4.109469784490917],[103.7400294238189,-4.181704158531858],[103.72100705742979,-4.1636652898519895],[103.70373872426278,-4.129658398882638],[103.70178681231157,-4.087005823271802],[103.75538707265537,-4.082559553496966],[103.77834634990421,-4.069273878816889]]]}},{"type":"Feature","properties":{"code":"1601202006","desa":"Sukajadi","kecamatan":"Ulu Ogan","kecCode":"160120"},"geometry":{"type":"Polygon","coordinates":[[[103.76453715556534,-4.116850361335248],[103.75915255834393,-4.111409277701905],[103.76083531669654,-4.107653773592657],[103.767525079319,-4.111008403101622],[103.76453715556534,-4.116850361335248]]]}},{"type":"Feature","properties":{"code":"1601202007","desa":"Belandang","kecamatan":"Ulu Ogan","kecCode":"160120"},"geometry":{"type":"Polygon","coordinates":[[[103.79041279571402,-4.0848690233007545],[103.79568964426174,-4.101677049252655],[103.786409746013,-4.142365833769436],[103.78748050222343,-4.157356437786761],[103.79625943582435,-4.167919965360359],[103.79482770613379,-4.204418718536836],[103.77413998057567,-4.17245836528281],[103.767525079319,-4.111008403101622],[103.76083531669654,-4.107653773592657],[103.79041279571402,-4.0848690233007545]]]}},{"type":"Feature","properties":{"code":"1601212001","desa":"Tanjung Kurung","kecamatan":"Semidang Aji","kecCode":"160121"},"geometry":{"type":"Polygon","coordinates":[[[103.90860037790519,-4.072556359315519],[103.88747555934964,-4.0578095102432625],[103.90437607429647,-4.05439926665901],[103.89356737083754,-4.004204536609434],[103.90347224304962,-3.9859347247264667],[103.9125917616006,-4.051001593798313],[103.90860037790519,-4.072556359315519]]]}},{"type":"Feature","properties":{"code":"1601212001","desa":"Tanjung Kurung","kecamatan":"Semidang Aji","kecCode":"160121"},"geometry":{"type":"Polygon","coordinates":[[[103.89908819826177,-3.9702581933962007],[103.88960527266526,-3.968928040333535],[103.88882784562861,-3.9671802349184637],[103.89389206656567,-3.9301636593032843],[103.91834848929142,-3.918426116262559],[103.89908819826177,-3.9702581933962007]]]}},{"type":"Feature","properties":{"code":"1601212002","desa":"Sukarami","kecamatan":"Semidang Aji","kecCode":"160121"},"geometry":{"type":"Polygon","coordinates":[[[103.91691930198425,-4.07780677318544],[103.90860037790519,-4.072556359315519],[103.90951218703788,-4.033867789334927],[103.9173433449195,-4.049934367427979],[103.91691930198425,-4.07780677318544]]]}},{"type":"Feature","properties":{"code":"1601212003","desa":"Batanghari","kecamatan":"Semidang Aji","kecCode":"160121"},"geometry":{"type":"Polygon","coordinates":[[[103.91234453527215,-4.042488404475094],[103.90038679501464,-3.958657815853082],[103.91834848929142,-3.918426116262559],[103.92906223603342,-3.915893149642137],[103.94066645998919,-3.8988076747455462],[103.9696781476285,-3.8885320129640792],[103.99469662774725,-3.9198645180218663],[103.99291092579863,-3.9396217815877623],[103.95926632757903,-4.018451960673672],[103.9407079663996,-4.02915309890925],[103.94023207305179,-4.043667810478594],[103.91833735208716,-4.0514149887600555],[103.91234453527215,-4.042488404475094]]]}},{"type":"Feature","properties":{"code":"1601212004","desa":"Nyiur Sayak","kecamatan":"Semidang Aji","kecCode":"160121"},"geometry":{"type":"Polygon","coordinates":[[[103.92053552179696,-4.081290823230652],[103.91609313978664,-4.051076546894839],[103.92139845727301,-4.048243169839093],[103.92242533106422,-4.069751151724222],[103.92053552179696,-4.081290823230652]]]}},{"type":"Feature","properties":{"code":"1601212005","desa":"Suka Merindu","kecamatan":"Semidang Aji","kecCode":"160121"},"geometry":{"type":"Polygon","coordinates":[[[103.93625866770337,-4.090362377329983],[103.92053552179696,-4.081290823230652],[103.92042658421957,-4.053818280336147],[103.92191022277858,-4.047712893588388],[103.94023207305179,-4.043667810478594],[103.93183616340825,-4.0615132268925365],[103.93906972268961,-4.078550167177066],[103.93625866770337,-4.090362377329983]]]}},{"type":"Feature","properties":{"code":"1601212006","desa":"Padang Bindu","kecamatan":"Semidang Aji","kecCode":"160121"},"geometry":{"type":"Polygon","coordinates":[[[103.9753289360816,-4.115104725084955],[103.93625866770337,-4.090362377329983],[103.93906972268961,-4.078550167177066],[103.93183616340825,-4.0615132268925365],[103.94023207305179,-4.043667810478594],[103.94582739401908,-4.075218921839924],[103.9753289360816,-4.115104725084955]]]}},{"type":"Feature","properties":{"code":"1601212007","desa":"Panggal Panggang","kecamatan":"Semidang Aji","kecCode":"160121"},"geometry":{"type":"Polygon","coordinates":[[[103.94582739401908,-4.075218921839924],[103.94311702533054,-4.024645353278109],[103.95926632757903,-4.018451960673672],[103.96429201166706,-4.049996634687798],[103.94936478285847,-4.06103368049911],[103.95201399225196,-4.072173210352779],[103.97112844472201,-4.091833702370044],[103.9753289360816,-4.115104725084955],[103.94582739401908,-4.075218921839924]]]}},{"type":"Feature","properties":{"code":"1601212008","desa":"Bedegung","kecamatan":"Semidang Aji","kecCode":"160121"},"geometry":{"type":"Polygon","coordinates":[[[103.99128403333151,-4.12684420346684],[103.9753289360816,-4.115104725084955],[103.97112844472201,-4.091833702370044],[103.95201399225196,-4.072173210352779],[103.94936478285847,-4.06103368049911],[103.95747342655744,-4.0551105728400785],[103.98095299758285,-4.093688297781358],[103.99128403333151,-4.12684420346684]]]}},{"type":"Feature","properties":{"code":"1601212009","desa":"Ulak Pandan","kecamatan":"Semidang Aji","kecCode":"160121"},"geometry":{"type":"Polygon","coordinates":[[[104.00542668189591,-4.139737261121706],[103.99128403333151,-4.12684420346684],[103.98095299758285,-4.093688297781358],[103.95747342655744,-4.0551105728400785],[103.9658148669626,-4.0405739708728685],[103.95926632757903,-4.018451960673672],[103.98801167379973,-3.9562845040767205],[103.99385312032528,-3.9861328714533313],[103.97319415058962,-4.0320382274520625],[104.00542668189591,-4.139737261121706]]]}},{"type":"Feature","properties":{"code":"1601212010","desa":"Keban Agung","kecamatan":"Semidang Aji","kecCode":"160121"},"geometry":{"type":"Polygon","coordinates":[[[104.01139172314957,-4.146939877421855],[103.99285221625684,-4.106561017268203],[103.98969275761469,-4.0768174424934145],[103.97319415058962,-4.0320382274520625],[103.98770987391163,-4.037947957695703],[104.00980079007444,-4.117888328262797],[104.01139172314957,-4.146939877421855]]]}},{"type":"Feature","properties":{"code":"1601212011","desa":"Tubohan","kecamatan":"Semidang Aji","kecCode":"160121"},"geometry":{"type":"Polygon","coordinates":[[[104.0142448610116,-4.149499138420202],[103.98770987391163,-4.037947957695703],[103.97319415058962,-4.0320382274520625],[103.99385312032528,-3.9861328714533313],[104.00794603368257,-3.9920869005022253],[103.99695098529979,-4.022999961758251],[104.00775847827123,-4.08652946317637],[104.02069801829894,-4.119986792833107],[104.0211738981569,-4.136738197469021],[104.0142448610116,-4.149499138420202]]]}},{"type":"Feature","properties":{"code":"1601212012","desa":"Raksa Jiwa","kecamatan":"Semidang Aji","kecCode":"160121"},"geometry":{"type":"Polygon","coordinates":[[[104.00192613198543,-4.046003179857921],[103.99695098529979,-4.022999961758251],[104.00794603368257,-3.9920869005022253],[104.0299434770099,-3.9963328804657436],[104.02009520902675,-4.016727702207737],[104.03513340068595,-4.038618743123375],[104.03903571822387,-4.080116543362763],[104.0200521800641,-4.082140185238238],[104.02076145737543,-4.045757126245669],[104.00192613198543,-4.046003179857921]]]}},{"type":"Feature","properties":{"code":"1601212013","desa":"Seleman","kecamatan":"Semidang Aji","kecCode":"160121"},"geometry":{"type":"Polygon","coordinates":[[[104.0657190916628,-4.132032434613301],[104.02332334259823,-4.163371278992447],[104.0142448610116,-4.149499138420202],[104.0211738981569,-4.136738197469021],[104.02069801829894,-4.119986792833107],[104.04360428321114,-4.119710775608945],[104.03513340158524,-4.083923680248634],[104.04217660676505,-4.072026376243786],[104.04093928621916,-4.0582255024471],[104.02009520902675,-4.016727702207737],[104.0222843117716,-4.003688256507708],[104.0299434770099,-3.9963328804657436],[104.07421348336563,-3.9947837074114148],[104.09113738967885,-4.000450154854064],[104.08340077032932,-4.0263407246205904],[104.05752413103384,-4.036007285473474],[104.04622168987913,-4.082258058479304],[104.0657190916628,-4.132032434613301]]]}},{"type":"Feature","properties":{"code":"1601212014","desa":"Kebun Jati","kecamatan":"Semidang Aji","kecCode":"160121"},"geometry":{"type":"Polygon","coordinates":[[[104.05571730041315,-4.096198788545249],[104.04622168987913,-4.082258058479304],[104.05752413103384,-4.036007285473474],[104.08340077032932,-4.0263407246205904],[104.09113738967885,-4.000450154854064],[104.12854593214911,-4.018286589738714],[104.11977560326152,-4.027115764855665],[104.08993370467681,-4.0275131401939355],[104.08146745635808,-4.034222689692897],[104.0590112922374,-4.063371086842839],[104.05187291000688,-4.083447789599249],[104.05571730041315,-4.096198788545249]]]}},{"type":"Feature","properties":{"code":"1601212015","desa":"Singapura","kecamatan":"Semidang Aji","kecCode":"160121"},"geometry":{"type":"Polygon","coordinates":[[[104.05571730041315,-4.096198788545249],[104.05187291000688,-4.083447789599249],[104.05609089587817,-4.071584703898929],[104.06580373855176,-4.072121292491084],[104.06336185076884,-4.096855481596516],[104.05571730041315,-4.096198788545249]]]}},{"type":"Feature","properties":{"code":"1601212016","desa":"Pengaringan","kecamatan":"Semidang Aji","kecCode":"160121"},"geometry":{"type":"Polygon","coordinates":[[[104.13655989792102,-4.047212852544873],[104.0882878859772,-4.04333983222534],[104.09723580039196,-4.083985934917859],[104.0847749083354,-4.077320675230926],[104.07464011994563,-4.10539922448686],[104.06336185076884,-4.096855481596516],[104.06580373855176,-4.072121292491084],[104.05609089587817,-4.071584703898929],[104.08607766085542,-4.030058632571749],[104.13474358934525,-4.029779047737081],[104.13655989792102,-4.047212852544873]]]}},{"type":"Feature","properties":{"code":"1601212017","desa":"Banjarsari","kecamatan":"Semidang Aji","kecCode":"160121"},"geometry":{"type":"Polygon","coordinates":[[[104.0821805989555,-4.115175700480099],[104.07464011994563,-4.10539922448686],[104.0847749083354,-4.077320675230926],[104.08978390640219,-4.079864929242312],[104.0904427839074,-4.0997494765553535],[104.0821805989555,-4.115175700480099]]]}},{"type":"Feature","properties":{"code":"1601212018","desa":"Pandan Dulang","kecamatan":"Semidang Aji","kecCode":"160121"},"geometry":{"type":"Polygon","coordinates":[[[104.09723580039196,-4.083985934917859],[104.0980979759409,-4.095368319495177],[104.08918031382046,-4.106973339338744],[104.08978390640219,-4.079864929242312],[104.09723580039196,-4.083985934917859]]]}},{"type":"Feature","properties":{"code":"1601212020","desa":"Panai Makmur","kecamatan":"Semidang Aji","kecCode":"160121"},"geometry":{"type":"Polygon","coordinates":[[[104.08010404006944,-4.117302114180904],[104.0657190916628,-4.132032434613301],[104.0511831947487,-4.095809292167532],[104.07001629971249,-4.097427122164654],[104.08010404006944,-4.117302114180904]]]}},{"type":"Feature","properties":{"code":"1601212021","desa":"Guna Makmur","kecamatan":"Semidang Aji","kecCode":"160121"},"geometry":{"type":"Polygon","coordinates":[[[104.02069801829894,-4.119986792833107],[104.00775847827123,-4.08652946317637],[104.03513340158524,-4.083923680248634],[104.04360428321114,-4.119710775608945],[104.02069801829894,-4.119986792833107]]]}},{"type":"Feature","properties":{"code":"1601212022","desa":"Tebing Kampung","kecamatan":"Semidang Aji","kecCode":"160121"},"geometry":{"type":"Polygon","coordinates":[[[104.00775847827123,-4.08652946317637],[104.00192613198543,-4.046003179857921],[104.02076145737543,-4.045757126245669],[104.0200521800641,-4.082140185238238],[104.00775847827123,-4.08652946317637]]]}},{"type":"Feature","properties":{"code":"1601222001","desa":"Merbau","kecamatan":"Lubuk Batang","kecCode":"160122"},"geometry":{"type":"Polygon","coordinates":[[[103.98801167379973,-3.9562845040767205],[103.99469662774725,-3.9198645180218663],[104.06277532102433,-3.9030506824496563],[104.06823988326408,-3.9054752313009415],[104.06312452777479,-3.9416076204610366],[104.08397318071775,-3.9558970239789786],[104.07683188468377,-3.960996442576885],[104.07945226720841,-3.97147350663104],[104.0867585339792,-3.975092288608463],[104.08802651331303,-3.9700486927284624],[104.10257576785745,-3.9708100542753],[104.10072762328126,-3.964122459925388],[104.11040299030583,-3.9650083487971055],[104.1472668835599,-4.009670688844767],[104.12922165395621,-4.019424398500423],[104.07421348336563,-3.9947837074114148],[104.03584721957361,-3.996854712981706],[104.0024107703408,-3.9904782094157167],[103.99385312032528,-3.9861328714533313],[103.98801167379973,-3.9562845040767205]]]}},{"type":"Feature","properties":{"code":"1601222002","desa":"Gunung Meraksa","kecamatan":"Lubuk Batang","kecCode":"160122"},"geometry":{"type":"Polygon","coordinates":[[[104.08397318071775,-3.9558970239789786],[104.06312452777479,-3.9416076204610366],[104.06823988326408,-3.9054752313009415],[104.07524301015683,-3.908582420443062],[104.13241100336518,-3.892817340065649],[104.14194775878212,-3.939869409013553],[104.13504943168596,-3.9576268960131378],[104.11040299030583,-3.9650083487971055],[104.10781246887039,-3.947528693853529],[104.10073159378805,-3.9449203154823587],[104.08397318071775,-3.9558970239789786]]]}},{"type":"Feature","properties":{"code":"1601222003","desa":"Kurup","kecamatan":"Lubuk Batang","kecCode":"160122"},"geometry":{"type":"Polygon","coordinates":[[[104.18014206770232,-4.058038868841091],[104.13655989792102,-4.047212852544873],[104.13474358934525,-4.029779047737081],[104.11977560326152,-4.027115764855665],[104.14113486068531,-4.010413078293633],[104.16477718471936,-4.009784903643826],[104.18333698031745,-4.015210074672884],[104.20028747059035,-4.033324712134255],[104.19904780731054,-4.047556693939725],[104.18014206770232,-4.058038868841091]]]}},{"type":"Feature","properties":{"code":"1601222004","desa":"Banu Ayu","kecamatan":"Lubuk Batang","kecCode":"160122"},"geometry":{"type":"Polygon","coordinates":[[[104.26481527170749,-4.129229465434561],[104.24666347693794,-4.125336266126985],[104.24789856896382,-4.1183398445867425],[104.21063494324805,-4.1023177613511015],[104.18603414066312,-4.079384260494974],[104.18014206770232,-4.058038868841091],[104.1889518993108,-4.053632628789756],[104.1967312175717,-4.063644482543241],[104.25000194383472,-4.092944280559559],[104.25372698341361,-4.113281128405289],[104.26481527170749,-4.129229465434561]]]}},{"type":"Feature","properties":{"code":"1601222005","desa":"Tanjung Dalam","kecamatan":"Lubuk Batang","kecCode":"160122"},"geometry":{"type":"Polygon","coordinates":[[[104.25000194383472,-4.092944280559559],[104.2376798099753,-4.083768288191037],[104.19893402508524,-4.063246821220642],[104.21586510888771,-4.060190347546539],[104.2539353644256,-4.077207644838971],[104.25000194383472,-4.092944280559559]]]}},{"type":"Feature","properties":{"code":"1601222006","desa":"Lubuk Batang Baru","kecamatan":"Lubuk Batang","kecCode":"160122"},"geometry":{"type":"Polygon","coordinates":[[[104.18744957733617,-4.052945071905268],[104.19979432644709,-4.045344825758875],[104.20769651638118,-4.051435353907756],[104.22494488280017,-4.051192202407798],[104.22540557580675,-4.04611868878142],[104.26187793661757,-4.072087652450649],[104.25444212070737,-4.077411696514403],[104.21586510888771,-4.060190347546539],[104.1967312175717,-4.063644482543241],[104.18744957733617,-4.052945071905268]]]}},{"type":"Feature","properties":{"code":"1601222007","desa":"Lubuk Batang Lama","kecamatan":"Lubuk Batang","kecCode":"160122"},"geometry":{"type":"Polygon","coordinates":[[[104.19911106202596,-4.0460069812922175],[104.20028747059035,-4.033324712134255],[104.1925414434329,-4.024492096211136],[104.20710938678882,-4.016783847782358],[104.2635731757615,-4.051069538478098],[104.26512436239949,-4.062381853277644],[104.25774733876874,-4.0704852683096675],[104.22540557580675,-4.04611868878142],[104.22494488280017,-4.051192202407798],[104.20769651638118,-4.051435353907756],[104.19911106202596,-4.0460069812922175]]]}},{"type":"Feature","properties":{"code":"1601222008","desa":"Belatung","kecamatan":"Lubuk Batang","kecCode":"160122"},"geometry":{"type":"Polygon","coordinates":[[[104.2658574222823,-4.053969635337037],[104.22652515081512,-4.024783135710709],[104.20710938678882,-4.016783847782358],[104.23572944305943,-4.005033138666879],[104.23824910241422,-4.016939968290756],[104.27479600443212,-4.041250803341961],[104.2658574222823,-4.053969635337037]]]}},{"type":"Feature","properties":{"code":"1601222009","desa":"Karta Mulya","kecamatan":"Lubuk Batang","kecCode":"160122"},"geometry":{"type":"Polygon","coordinates":[[[104.27170497520449,-4.000189404520954],[104.2751448523531,-4.017321676539604],[104.2862138061223,-4.025003434538116],[104.27479600443212,-4.041250803341961],[104.23824910241422,-4.016939968290756],[104.23423376167881,-3.9957925093250557],[104.2468079871989,-3.99778790439439],[104.25374999436679,-4.010157343479655],[104.27170497520449,-4.000189404520954]]]}},{"type":"Feature","properties":{"code":"1601222010","desa":"Lunggaian","kecamatan":"Lubuk Batang","kecCode":"160122"},"geometry":{"type":"Polygon","coordinates":[[[104.29342398033248,-3.863338611136852],[104.28469826141571,-3.942151124839675],[104.27318336082351,-3.946615723697061],[104.26763566795177,-3.9903976634353446],[104.25818932587676,-3.9903032427145155],[104.2631019525931,-4.00176840538948],[104.21648418869444,-3.988742626686556],[104.21594269160198,-3.978267626576543],[104.17241969001672,-3.945667829268286],[104.17015524566811,-3.9259990535956875],[104.136143035173,-3.8914627587182737],[104.21134838442049,-3.8524808577657588],[104.21477129136206,-3.8616202441295715],[104.29342398033248,-3.863338611136852]]]}},{"type":"Feature","properties":{"code":"1601222011","desa":"Bandar Agung","kecamatan":"Lubuk Batang","kecCode":"160122"},"geometry":{"type":"Polygon","coordinates":[[[104.1472668835599,-4.009670688844767],[104.11040299030583,-3.9650083487971055],[104.13504943168596,-3.9576268960131378],[104.14216496124402,-3.945467276854939],[104.136143035173,-3.8914627587182737],[104.17015524566811,-3.9259990535956875],[104.17241969001672,-3.945667829268286],[104.21594269160198,-3.978267626576543],[104.21648418869444,-3.988742626686556],[104.23453850774597,-3.994237025728054],[104.23575066795898,-4.004328825613994],[104.19781504183078,-4.018362104911565],[104.1963125480857,-4.024834175834003],[104.17648413193717,-4.012297613934461],[104.1472668835599,-4.009670688844767]]]}},{"type":"Feature","properties":{"code":"1601222012","desa":"Tanjung Manggus","kecamatan":"Lubuk Batang","kecCode":"160122"},"geometry":{"type":"Polygon","coordinates":[[[104.22221389715367,-3.84258223675174],[104.23083304191141,-3.8450185955001563],[104.2402869436876,-3.8630223429559654],[104.21477129136206,-3.8616202441295715],[104.21134838442049,-3.8524808577657588],[104.22221389715367,-3.84258223675174]]]}},{"type":"Feature","properties":{"code":"1601222015","desa":"Markisa","kecamatan":"Lubuk Batang","kecCode":"160122"},"geometry":{"type":"Polygon","coordinates":[[[104.2720344643191,-3.9999999956070744],[104.25374999436679,-4.010157343479655],[104.2468079871989,-3.99778790439439],[104.2631019525931,-4.00176840538948],[104.25818932587676,-3.9903032427145155],[104.27267401269557,-3.989420556328572],[104.2720344643191,-3.9999999956070744]]]}},{"type":"Feature","properties":{"code":"1601222016","desa":"Air Wall","kecamatan":"Lubuk Batang","kecCode":"160122"},"geometry":{"type":"Polygon","coordinates":[[[104.28469826141571,-3.942151124839675],[104.27409705133788,-3.9885511295468645],[104.26772821178758,-3.9901655610060667],[104.27318336082351,-3.946615723697061],[104.28469826141571,-3.942151124839675]]]}},{"type":"Feature","properties":{"code":"1601222017","desa":"Sumber Bahagia","kecamatan":"Lubuk Batang","kecCode":"160122"},"geometry":{"type":"Polygon","coordinates":[[[104.10847735924278,-3.963996697831282],[104.10072762328126,-3.964122459925388],[104.10028328084876,-3.971894058397622],[104.0865036589168,-3.970600728975386],[104.086651043411,-3.975092169897872],[104.07683188468377,-3.960996442576885],[104.10095963757725,-3.9449350922428508],[104.10781246887039,-3.947528693853529],[104.10847735924278,-3.963996697831282]]]}},{"type":"Feature","properties":{"code":"1601282001","desa":"Bandar Jaya","kecamatan":"Lengkiti","kecCode":"160128"},"geometry":{"type":"Polygon","coordinates":[[[104.23506311916765,-4.348002266628136],[104.21775388843128,-4.40157329804995],[104.1980699690539,-4.394282761328732],[104.18834912331344,-4.399335582454262],[104.1892947397605,-4.407744384769824],[104.17483135788092,-4.4145440013716515],[104.15129346492152,-4.405822759289234],[104.12551157280092,-4.417521251968217],[104.11968994103802,-4.393310542037251],[104.14770507822686,-4.370300288540978],[104.23506311916765,-4.348002266628136]],[[104.14587402166882,-4.390502925162173],[104.13427734392434,-4.39257811977453],[104.1340942365598,-4.400512688891343],[104.1486816403455,-4.3986205989453],[104.14587402166882,-4.390502925162173]]]}},{"type":"Feature","properties":{"code":"1601282002","desa":"Karang Endah","kecamatan":"Lengkiti","kecCode":"160128"},"geometry":{"type":"Polygon","coordinates":[[[104.11907959005111,-4.398010247959042],[104.12551157280092,-4.417521251968217],[104.09857380543683,-4.43736878948133],[104.06309898163278,-4.446108963192214],[104.04853157067548,-4.4560980622994135],[104.02490234256913,-4.401794428750363],[104.10192871104124,-4.345092768256551],[104.12375803690394,-4.342536023561252],[104.15763687434234,-4.327511786697963],[104.18692816120574,-4.327001470000721],[104.22547485777852,-4.315344815581917],[104.23807103305178,-4.324737290954517],[104.10729980494209,-4.377685541860002],[104.10632324192413,-4.390991204872027],[104.11907959005111,-4.398010247959042]]]}},{"type":"Feature","properties":{"code":"1601282003","desa":"Pajar Bulan","kecamatan":"Lengkiti","kecCode":"160128"},"geometry":{"type":"Polygon","coordinates":[[[104.22547485777852,-4.315344815581917],[104.18692816120574,-4.327001470000721],[104.15763687434234,-4.327511786697963],[104.10290527226054,-4.346801753536244],[104.09967040996149,-4.340820308654746],[104.11501559059707,-4.329613577860466],[104.1359975230673,-4.3258563236704655],[104.13452042977406,-4.314211333458574],[104.14321072709343,-4.308505882418887],[104.22649196043567,-4.280821050058828],[104.22436890210321,-4.2964134938786565],[104.22089621858566,-4.294240483604717],[104.22547485777852,-4.315344815581917]]]}},{"type":"Feature","properties":{"code":"1601282004","desa":"Pagar Dewa","kecamatan":"Lengkiti","kecCode":"160128"},"geometry":{"type":"Polygon","coordinates":[[[104.10513947330809,-4.255144008123932],[104.10941688188365,-4.252795910639659],[104.10688747297854,-4.238155022388617],[104.12022413293742,-4.231098568403866],[104.12143286043822,-4.212381411252512],[104.13886859700817,-4.19580117907803],[104.19570215033404,-4.197597679184558],[104.20681802533164,-4.205570143034281],[104.20669556105132,-4.228269580039796],[104.22747063326318,-4.251233734287938],[104.22529760769851,-4.2683846366621365],[104.230540289203,-4.2694482702408685],[104.23105321483405,-4.279443697877226],[104.14731059330926,-4.3066099901392105],[104.13452042977406,-4.314211333458574],[104.1359975230673,-4.3258563236704655],[104.09608732566959,-4.336148318039753],[104.09893242898846,-4.328477654077844],[104.09299763643185,-4.326111026962185],[104.1068725586217,-4.2985839788563],[104.09448242162652,-4.30609130435108],[104.09419112222257,-4.299897720191013],[104.11844853757003,-4.276840172247736],[104.11869600221877,-4.267394662954884],[104.11031673093242,-4.266922339016732],[104.10513947330809,-4.255144008123932]]]}},{"type":"Feature","properties":{"code":"1601282005","desa":"Bumi Kawa","kecamatan":"Lengkiti","kecCode":"160128"},"geometry":{"type":"Polygon","coordinates":[[[104.10192871104124,-4.345092768256551],[104.02490234256913,-4.401794428750363],[104.04853157067548,-4.4560980622994135],[104.01323096443753,-4.448408566533867],[104.00740179635584,-4.450282227572451],[104.0058901367205,-4.462958943416999],[103.99133977960717,-4.463732108565633],[103.96985610097833,-4.453008227374704],[103.97422596255818,-4.437668472365041],[103.95904404844413,-4.3989194301710866],[103.9492404003243,-4.394007983370384],[103.95606527799025,-4.3803558799228846],[103.93977718786698,-4.348975557012205],[103.93168211313906,-4.345859821612601],[103.9886595642875,-4.351407678155103],[104.00427059171447,-4.346087268251716],[104.00582062542156,-4.332122242101319],[103.98745591166106,-4.316641691030982],[104.02148437470417,-4.32952880416722],[104.022705076678,-4.331726069156685],[104.01208496105214,-4.335327143483073],[104.00488280969398,-4.3549804643065215],[104.04028320290757,-4.3677978476087125],[104.0531005853238,-4.352111811343558],[104.07470703040521,-4.34429930990601],[104.07891845662152,-4.329589839355786],[104.10783891433448,-4.334830071101571],[104.09967040996149,-4.340820308654746],[104.10192871104124,-4.345092768256551]]]}},{"type":"Feature","properties":{"code":"1601282006","desa":"Tanjunglengkayap","kecamatan":"Lengkiti","kecCode":"160128"},"geometry":{"type":"Polygon","coordinates":[[[104.08349609396964,-4.310913081549247],[104.1068725586217,-4.2985839788563],[104.09332275394199,-4.330078119964968],[104.08410644495655,-4.329406732890799],[104.08349609396964,-4.310913081549247]]]}},{"type":"Feature","properties":{"code":"1601282007","desa":"Lubuk Dalam","kecamatan":"Lengkiti","kecCode":"160128"},"geometry":{"type":"Polygon","coordinates":[[[104.06992455357533,-4.271241311554765],[104.08906763506337,-4.2662514942337655],[104.09310727907773,-4.27663672851403],[104.08169062492247,-4.2915966368713585],[104.1059377232474,-4.287002639960782],[104.09334988379014,-4.305778878973313],[104.08612060528179,-4.30657958496024],[104.07989501963948,-4.32360839447427],[104.06268310544101,-4.316894526430768],[104.06992455357533,-4.271241311554765]]]}},{"type":"Feature","properties":{"code":"1601282008","desa":"Negeri Ratu","kecamatan":"Lengkiti","kecCode":"160128"},"geometry":{"type":"Polygon","coordinates":[[[104.06813115522868,-4.346647838165503],[104.0531005853238,-4.352111811343558],[104.04028320290757,-4.3677978476087125],[104.00347900395292,-4.352600092852022],[104.01708984382128,-4.331603999678862],[104.02209472569109,-4.331298821937475],[104.02392577955112,-4.340026850304163],[104.04528808567663,-4.340087886392022],[104.04539233868552,-4.326494370178458],[104.06628417977113,-4.317687982083399],[104.07928466775327,-4.32360839447427],[104.0848999024086,-4.31878661637679],[104.06813115522868,-4.346647838165503]]]}},{"type":"Feature","properties":{"code":"1601282009","desa":"Segara Kembang","kecamatan":"Lengkiti","kecCode":"160128"},"geometry":{"type":"Polygon","coordinates":[[[104.06970214673673,-4.3383789011123595],[104.07470703040521,-4.34429930990601],[104.06813115522868,-4.346647838165503],[104.06970214673673,-4.3383789011123595]]]}},{"type":"Feature","properties":{"code":"1601282009","desa":"Segara Kembang","kecamatan":"Lengkiti","kecCode":"160128"},"geometry":{"type":"Polygon","coordinates":[[[104.06329345642791,-4.307189935047179],[104.06488037043282,-4.31860351260978],[104.02770063707482,-4.333657882157477],[104.02807617057884,-4.297943110275744],[104.0421142567676,-4.294494623920792],[104.06329345642791,-4.307189935047179]]]}},{"type":"Feature","properties":{"code":"1601282010","desa":"Tihang","kecamatan":"Lengkiti","kecCode":"160128"},"geometry":{"type":"Polygon","coordinates":[[[104.07952880940705,-4.252441401486708],[104.06902313341095,-4.269899360286172],[104.06304208062754,-4.265623828600211],[104.04431152265869,-4.273071284427778],[104.02209472569109,-4.258728022311031],[104.01708984382128,-4.2476196242885536],[104.06253873277637,-4.241457577553988],[104.07089696262479,-4.2317856963117935],[104.08345169803748,-4.238500677716015],[104.07633724586724,-4.244473051136021],[104.07952880940705,-4.252441401486708]]]}},{"type":"Feature","properties":{"code":"1601282010","desa":"Tihang","kecamatan":"Lengkiti","kecCode":"160128"},"geometry":{"type":"Polygon","coordinates":[[[104.03887939356923,-4.234860887575658],[104.04715684721077,-4.2114156257110125],[104.0609474426704,-4.210600624100826],[104.06710520324259,-4.229366247515868],[104.05027336232585,-4.21520878353498],[104.04608931057328,-4.231099640395787],[104.03887939356923,-4.234860887575658]]]}},{"type":"Feature","properties":{"code":"1601282011","desa":"Lubuk Hara","kecamatan":"Lengkiti","kecCode":"160128"},"geometry":{"type":"Polygon","coordinates":[[[104.04994888603231,-4.21531125138948],[104.07089696262479,-4.2317856963117935],[104.06253873277637,-4.241457577553988],[104.0321268330869,-4.24570594521753],[104.02896714781569,-4.2417049297872165],[104.04608931057328,-4.231099640395787],[104.04994888603231,-4.21531125138948]]]}},{"type":"Feature","properties":{"code":"1601282012","desa":"Sukaraja","kecamatan":"Lengkiti","kecCode":"160128"},"geometry":{"type":"Polygon","coordinates":[[[104.02392577955112,-4.340026850304163],[104.0153198233512,-4.312683100218849],[104.02728271492542,-4.300109858570284],[104.02709960756088,-4.332397456230858],[104.04539233868552,-4.326494370178458],[104.04528808567663,-4.340087886392022],[104.02392577955112,-4.340026850304163]]]}},{"type":"Feature","properties":{"code":"1601282013","desa":"Negeri Agung","kecamatan":"Lengkiti","kecCode":"160128"},"geometry":{"type":"Polygon","coordinates":[[[103.98071289028769,-4.223389100494357],[104.0119911302865,-4.23175741173419],[104.04039281767443,-4.225038328522157],[104.03887939356923,-4.234860887575658],[104.02896714781569,-4.2417049297872165],[104.0321268330869,-4.24570594521753],[104.01708984382128,-4.2476196242885536],[104.0186767578262,-4.25231933110962],[103.98729010185679,-4.275274384218706],[103.97991943283564,-4.252990718183779],[103.98071289028769,-4.223389100494357]]]}},{"type":"Feature","properties":{"code":"1601282014","desa":"Gedung Pekuon","kecamatan":"Lengkiti","kecCode":"160128"},"geometry":{"type":"Polygon","coordinates":[[[104.0186767578262,-4.25231933110962],[104.03851318333682,-4.270080561087724],[104.02728271492542,-4.281005854443813],[104.02410888691566,-4.305786128408281],[104.0123606689098,-4.316519429997646],[103.98729010185679,-4.275274384218706],[104.0186767578262,-4.25231933110962]]]}},{"type":"Feature","properties":{"code":"1601282015","desa":"Tualang","kecamatan":"Lengkiti","kecCode":"160128"},"geometry":{"type":"Polygon","coordinates":[[[103.99712255885908,-4.311243702010705],[104.00717505388569,-4.314055885643096],[103.9998145409084,-4.317241400339513],[103.99712255885908,-4.311243702010705]]]}},{"type":"Feature","properties":{"code":"1601282016","desa":"Sundan","kecamatan":"Lengkiti","kecCode":"160128"},"geometry":{"type":"Polygon","coordinates":[[[103.77933979229765,-4.340156772662073],[103.77729266102757,-4.337440388411154],[103.78016651837021,-4.338385217051093],[103.77933979229765,-4.340156772662073]]]}},{"type":"Feature","properties":{"code":"1601282016","desa":"Sundan","kecamatan":"Lengkiti","kecCode":"160128"},"geometry":{"type":"Polygon","coordinates":[[[103.96697147605283,-4.213949303695155],[103.98071289028769,-4.223389100494357],[103.97991943283564,-4.252990718183779],[103.98870849640001,-4.280090327514782],[104.00620248565627,-4.312420842622023],[103.98309326174466,-4.301696772573497],[103.94787597679492,-4.2979736269706885],[103.88730710194125,-4.300027494160803],[103.88969642704853,-4.285985388017223],[103.87000727181822,-4.284616327584909],[103.86778524489318,-4.271785622625327],[103.85449759708648,-4.262145351653734],[103.84979717440011,-4.24897594042822],[103.83683592383886,-4.244648804744041],[103.84736224377258,-4.207877400505782],[103.88202075115679,-4.184283474411832],[103.8967285157085,-4.188110348718589],[103.90087890583692,-4.206603999160711],[103.93609619078666,-4.215087884974497],[103.96697147605283,-4.213949303695155]]]}},{"type":"Feature","properties":{"code":"1601282017","desa":"Bunga Tanjung","kecamatan":"Lengkiti","kecCode":"160128"},"geometry":{"type":"Polygon","coordinates":[[[104.02148437470417,-4.32952880416722],[103.98745591166106,-4.316641691030982],[104.00582062542156,-4.332122242101319],[104.00427059171447,-4.346087268251716],[103.9886595642875,-4.351407678155103],[103.92071620728716,-4.345493263342923],[103.88730710194125,-4.300027494160803],[103.98309326174466,-4.301696772573497],[103.9998145409084,-4.317241400339513],[104.0153198233512,-4.313810532602744],[104.02148437470417,-4.32952880416722]]]}},{"type":"Feature","properties":{"code":"1601282018","desa":"Way Heling","kecamatan":"Lengkiti","kecCode":"160128"},"geometry":{"type":"Polygon","coordinates":[[[104.08169062492247,-4.2915966368713585],[104.10513947330809,-4.255144008123932],[104.11031673093242,-4.266922339016732],[104.11869600221877,-4.267394662954884],[104.1169447182242,-4.281850365508275],[104.08169062492247,-4.2915966368713585]]]}},{"type":"Feature","properties":{"code":"1601282019","desa":"Umpam","kecamatan":"Lengkiti","kecCode":"160128"},"geometry":{"type":"Polygon","coordinates":[[[104.23454795692271,-4.347884388890388],[104.14770507822686,-4.370300288540978],[104.12628173691269,-4.383605953351611],[104.11907959005111,-4.398010247959042],[104.10632324192413,-4.390991204872027],[104.10729980494209,-4.377685541860002],[104.11950683367348,-4.3707885691501716],[104.23885617627154,-4.326629600335097],[104.23454795692271,-4.347884388890388]]]}},{"type":"Feature","properties":{"code":"1601282020","desa":"Fajar Jaya","kecamatan":"Lengkiti","kecCode":"160128"},"geometry":{"type":"Polygon","coordinates":[[[104.14587402166882,-4.390502925162173],[104.1486816403455,-4.3986205989453],[104.1340942365598,-4.400512688891343],[104.13427734392434,-4.39257811977453],[104.14587402166882,-4.390502925162173]]]}},{"type":"Feature","properties":{"code":"1601282021","desa":"Simpang Empat","kecamatan":"Lengkiti","kecCode":"160128"},"geometry":{"type":"Polygon","coordinates":[[[104.06902313341095,-4.269899360286172],[104.06372070274828,-4.302978512432541],[104.03939819267252,-4.294006343311613],[104.02728271492542,-4.300109858570284],[104.02728271492542,-4.281005854443813],[104.03851318333682,-4.270080561087724],[104.0557250984346,-4.272094722310177],[104.06364039688685,-4.265569434904907],[104.06902313341095,-4.269899360286172]]]}},{"type":"Feature","properties":{"code":"1601282022","desa":"Tanjungagung","kecamatan":"Lengkiti","kecCode":"160128"},"geometry":{"type":"Polygon","coordinates":[[[104.08288574208336,-4.328796381005199],[104.09893242898846,-4.328477654077844],[104.0949185325643,-4.334100272161285],[104.0880737313177,-4.3339233350455055],[104.08288574208336,-4.328796381005199]]]}},{"type":"Feature","properties":{"code":"1601292001","desa":"Karya Jaya","kecamatan":"Sinar Peninjauan","kecCode":"160129"},"geometry":{"type":"Polygon","coordinates":[[[104.47008244944554,-3.930837538398793],[104.46538149885714,-3.9338879956083845],[104.47951823707704,-3.956508337239835],[104.45716628189841,-3.9521692180894052],[104.4409215993524,-3.9667051032969467],[104.41263775372941,-3.955123022460884],[104.40601597895431,-3.9331456781052436],[104.41756332258933,-3.9148672201401675],[104.43825997931462,-3.9164212396409],[104.45382402166132,-3.909180317617689],[104.45374803524366,-3.919313082522084],[104.46740073855328,-3.9239175376486486],[104.47008244944554,-3.930837538398793]]]}},{"type":"Feature","properties":{"code":"1601292002","desa":"Karya Mukti","kecamatan":"Sinar Peninjauan","kecCode":"160129"},"geometry":{"type":"Polygon","coordinates":[[[104.35884992178654,-3.965169478529355],[104.34228148420317,-3.9533026804276346],[104.35911773089862,-3.942320419516715],[104.35694392831971,-3.923158151013173],[104.39617530124923,-3.9176072700506244],[104.40899756428621,-3.923742932474986],[104.40601597895431,-3.9331456781052436],[104.41263775372941,-3.955123022460884],[104.4412985627785,-3.9688013906085318],[104.43646973399107,-3.980174375471862],[104.42284287090182,-3.9891264609327415],[104.42326863873677,-3.9763852052418236],[104.42103641709701,-3.981094848672124],[104.41938920085101,-3.9734745602346377],[104.40540001619785,-3.9695768706120997],[104.40906617536376,-3.965263267026749],[104.3799881798107,-3.9593467424051303],[104.35884992178654,-3.965169478529355]]]}},{"type":"Feature","properties":{"code":"1601292003","desa":"Marga Bakti","kecamatan":"Sinar Peninjauan","kecCode":"160129"},"geometry":{"type":"Polygon","coordinates":[[[104.29647062172188,-4.016487389867421],[104.32064794884384,-3.9829092335961196],[104.34400208422888,-3.977304729657417],[104.35884992178654,-3.965169478529355],[104.3799881798107,-3.9593467424051303],[104.40906617536376,-3.965263267026749],[104.40540001619785,-3.9695768706120997],[104.4183397972439,-3.975345450462065],[104.41937170723854,-3.983691513373745],[104.41687556605461,-3.9778229774756766],[104.4041933040778,-3.974391221208794],[104.41395289710857,-3.984058087831151],[104.40388152980881,-3.9791012783272546],[104.40311096459942,-3.9833522135552495],[104.41585741298928,-3.9924742394063424],[104.40927786857884,-3.998002006892967],[104.37815170303872,-4.010801569229386],[104.35936947991762,-4.007294327467249],[104.35094022521127,-4.012618033385933],[104.3434159906555,-4.037943846894592],[104.31661269262172,-4.02032109182719],[104.29647062172188,-4.016487389867421]]]}},{"type":"Feature","properties":{"code":"1601292004","desa":"Sri Mulya","kecamatan":"Sinar Peninjauan","kecCode":"160129"},"geometry":{"type":"Polygon","coordinates":[[[104.35694392831971,-3.923158151013173],[104.3514484365961,-3.910818796048991],[104.36201028874386,-3.9119864146385117],[104.36775200405178,-3.9056273318398254],[104.3652623964425,-3.8988262889132654],[104.38136203632898,-3.893795916664715],[104.37727104822034,-3.886749727541831],[104.38256652982152,-3.883152475334268],[104.3911601239406,-3.8935498063951677],[104.3984390836968,-3.873995926308447],[104.40454495698425,-3.8797669990790693],[104.41460105559429,-3.876822009862399],[104.42900434477474,-3.8911387896427025],[104.4192593657272,-3.8971458813901902],[104.42260813166,-3.912477552393746],[104.40899756428621,-3.923742932474986],[104.39617530124923,-3.9176072700506244],[104.35694392831971,-3.923158151013173]]]}},{"type":"Feature","properties":{"code":"1601292005","desa":"Marga Mulya","kecamatan":"Sinar Peninjauan","kecCode":"160129"},"geometry":{"type":"Polygon","coordinates":[[[104.42900434477474,-3.8911387896427025],[104.41125739241477,-3.8656980787496917],[104.42491144740539,-3.8636915446774687],[104.42244666558122,-3.8565124456489306],[104.42875084927232,-3.8489313433709826],[104.4521002443309,-3.861963169115269],[104.45866185266244,-3.861953853937497],[104.45922451080258,-3.855126399721157],[104.47987477510084,-3.8544689926081777],[104.46399378558482,-3.891534835782927],[104.45104647541454,-3.903390471499324],[104.45382402166132,-3.909180317617689],[104.43825997931462,-3.9164212396409],[104.42260813166,-3.912477552393746],[104.41742374421051,-3.9038345495306817],[104.42900434477474,-3.8911387896427025]]]}},{"type":"Feature","properties":{"code":"1601292006","desa":"Tanjung Makmur","kecamatan":"Sinar Peninjauan","kecCode":"160129"},"geometry":{"type":"Polygon","coordinates":[[[104.47008244944554,-3.930837538398793],[104.46740073855328,-3.9239175376486486],[104.45374803524366,-3.919313082522084],[104.45104647541454,-3.903390471499324],[104.45621214167704,-3.8934952247415975],[104.46113114188874,-3.8961286348426007],[104.47886483374513,-3.8623881797205937],[104.49489526090763,-3.8774608756527114],[104.5132064937847,-3.8666422275021177],[104.50917536275284,-3.884755950352902],[104.53483152785282,-3.8817270453960835],[104.5225776327516,-3.89277241892954],[104.5003212260438,-3.894647735620095],[104.48905121893864,-3.9070140576550165],[104.4896023603607,-3.9183102026441343],[104.47008244944554,-3.930837538398793]]]}},{"type":"Feature","properties":{"code":"1601302001","desa":"Batu Marta I","kecamatan":"Lubuk Raja","kecCode":"160130"},"geometry":{"type":"Polygon","coordinates":[[[104.27980983095897,-4.22617199860374],[104.2545677182257,-4.2135760499729],[104.26666689486136,-4.200584287226913],[104.26180737760848,-4.1905701042293],[104.26526577899254,-4.178177599332175],[104.29755905320779,-4.212448551039148],[104.28994474885116,-4.211968852660265],[104.27980983095897,-4.22617199860374]]]}},{"type":"Feature","properties":{"code":"1601302002","desa":"Batu Marta II","kecamatan":"Lubuk Raja","kecCode":"160130"},"geometry":{"type":"Polygon","coordinates":[[[104.32432340340237,-4.139991032715728],[104.32328209729104,-4.1548687691184565],[104.31068601105062,-4.1502110993077155],[104.31526133084581,-4.119764970554062],[104.32432340340237,-4.139991032715728]]]}},{"type":"Feature","properties":{"code":"1601302003","desa":"Lekis Rejo","kecamatan":"Lubuk Raja","kecCode":"160130"},"geometry":{"type":"Polygon","coordinates":[[[104.2558907306727,-4.1153242855691055],[104.24901225341283,-4.096903628600795],[104.26532302174012,-4.059161941311665],[104.30230256421201,-4.063258415280479],[104.3138920959435,-4.071721784860328],[104.3065791382167,-4.081662045384437],[104.31917462910592,-4.095447722437239],[104.31471925369065,-4.102747186728362],[104.30131677594852,-4.095671986375589],[104.30212341296522,-4.1067935864456695],[104.2558907306727,-4.1153242855691055]]]}},{"type":"Feature","properties":{"code":"1601302004","desa":"Lubuk Banjar","kecamatan":"Lubuk Raja","kecCode":"160130"},"geometry":{"type":"Polygon","coordinates":[[[104.26532302174012,-4.059161941311665],[104.29442015126902,-4.016144225662159],[104.31661269262172,-4.02032109182719],[104.34261015043813,-4.038115592224191],[104.34265075932511,-4.04721294697371],[104.31760701095486,-4.071518553366603],[104.30230256421201,-4.063258415280479],[104.26532302174012,-4.059161941311665]]]}},{"type":"Feature","properties":{"code":"1601302005","desa":"Marta Jaya","kecamatan":"Lubuk Raja","kecCode":"160130"},"geometry":{"type":"Polygon","coordinates":[[[104.2657018692459,-4.137182942797256],[104.26524357383192,-4.126159961483377],[104.2558907306727,-4.1153242855691055],[104.30212341296522,-4.1067935864456695],[104.30131677594852,-4.095671986375589],[104.31471925369065,-4.102747186728362],[104.31506228929328,-4.1335336998829035],[104.30966091072251,-4.140802952349271],[104.30699591732781,-4.1373646310314305],[104.30441895856814,-4.148612343031827],[104.27956019534679,-4.143443910460212],[104.27665094608437,-4.130452767347112],[104.2657018692459,-4.137182942797256]]]}},{"type":"Feature","properties":{"code":"1601302006","desa":"Batu Raden","kecamatan":"Lubuk Raja","kecCode":"160130"},"geometry":{"type":"Polygon","coordinates":[[[104.3021149494454,-4.174147158084596],[104.27956019534679,-4.143443910460212],[104.30441895856814,-4.148612343031827],[104.30699591732781,-4.1373646310314305],[104.31068601105062,-4.1502110993077155],[104.32463036000321,-4.154734975179084],[104.33342611902025,-4.181506554096115],[104.32832007241348,-4.186321720377958],[104.32009172984955,-4.176158452268339],[104.3021149494454,-4.174147158084596]]]}},{"type":"Feature","properties":{"code":"1601302007","desa":"Battu Winangun","kecamatan":"Lubuk Raja","kecCode":"160130"},"geometry":{"type":"Polygon","coordinates":[[[104.26526577899254,-4.178177599332175],[104.2754489868813,-4.148559540237322],[104.3021149494454,-4.174147158084596],[104.32456511688666,-4.179584876454866],[104.32832007241348,-4.186321720377958],[104.32158954442201,-4.207918340343238],[104.29755905320779,-4.212448551039148],[104.26526577899254,-4.178177599332175]]]}},{"type":"Feature","properties":{"code":"1601312001","desa":"Kemala Jaya","kecamatan":"Muara Jaya","kecCode":"160131"},"geometry":{"type":"Polygon","coordinates":[[[103.79104008992827,-4.0860020809440725],[103.81202142704728,-4.068382256767139],[103.82585853004717,-4.076587190868907],[103.84002722028002,-4.070473862208149],[103.79982965621372,-4.147603412515138],[103.79625943582435,-4.167919965360359],[103.78748050222343,-4.157356437786761],[103.786409746013,-4.142365833769436],[103.79568964426174,-4.101677049252655],[103.79104008992827,-4.0860020809440725]]]}},{"type":"Feature","properties":{"code":"1601312002","desa":"Lontar","kecamatan":"Muara Jaya","kecCode":"160131"},"geometry":{"type":"Polygon","coordinates":[[[103.82560848164614,-4.075850177567126],[103.82583635366484,-4.061501645423226],[103.84167539790133,-4.066365788783618],[103.84002722028002,-4.070473862208149],[103.82560848164614,-4.075850177567126]]]}},{"type":"Feature","properties":{"code":"1601312003","desa":"Muara Saeh","kecamatan":"Muara Jaya","kecCode":"160131"},"geometry":{"type":"Polygon","coordinates":[[[103.86337623132806,-4.0890004557160164],[103.85856091935102,-4.112722521711511],[103.85849165536564,-4.1447687026642],[103.84589139806963,-4.131290490328772],[103.85771627068944,-4.073286844438495],[103.86337623132806,-4.0890004557160164]]]}},{"type":"Feature","properties":{"code":"1601312003","desa":"Muara Saeh","kecamatan":"Muara Jaya","kecCode":"160131"},"geometry":{"type":"Polygon","coordinates":[[[103.84465130131655,-4.074732479445021],[103.84870590285522,-4.078073241408111],[103.84679281733469,-4.080900042620986],[103.84465130131655,-4.074732479445021]]]}},{"type":"Feature","properties":{"code":"1601312004","desa":"Lubuk Tupak","kecamatan":"Muara Jaya","kecCode":"160131"},"geometry":{"type":"Polygon","coordinates":[[[103.84161447782596,-4.06651762761976],[103.85726925277385,-4.0657026565865415],[103.85771627068944,-4.073286844438495],[103.8471554050979,-4.092669947765624],[103.81981347880905,-4.193585488778491],[103.84386798911646,-4.2322465116256955],[103.82892938208538,-4.239659096240994],[103.79574744458897,-4.236772166356104],[103.78879359604768,-4.222768181574751],[103.79495917082913,-4.221701965143171],[103.79982965621372,-4.147603412515138],[103.84161447782596,-4.06651762761976]],[[103.84913382006981,-4.070008814684718],[103.84423727592957,-4.078173180369037],[103.84679281733469,-4.080900042620986],[103.84913382006981,-4.070008814684718]]]}},{"type":"Feature","properties":{"code":"1601312005","desa":"Beringin","kecamatan":"Muara Jaya","kecCode":"160131"},"geometry":{"type":"Polygon","coordinates":[[[103.87616344328835,-4.186237973710494],[103.85632324242374,-4.203796382285678],[103.8620108949869,-4.076561639330903],[103.87301781532,-4.090950359479028],[103.87616344328835,-4.186237973710494]]]}},{"type":"Feature","properties":{"code":"1601312005","desa":"Beringin","kecamatan":"Muara Jaya","kecCode":"160131"},"geometry":{"type":"Polygon","coordinates":[[[103.84913382006981,-4.070008814684718],[103.84474609165886,-4.073359095971626],[103.8463546082786,-4.069228351537708],[103.84913382006981,-4.070008814684718]]]}},{"type":"Feature","properties":{"code":"1601312006","desa":"Surau","kecamatan":"Muara Jaya","kecCode":"160131"},"geometry":{"type":"Polygon","coordinates":[[[103.85632324242374,-4.203796382285678],[103.8393581300737,-4.223820355092728],[103.81981347880905,-4.193585488778491],[103.85301412759996,-4.080974303239578],[103.84611982586934,-4.133917415418545],[103.85849165536564,-4.1447687026642],[103.86005170302371,-4.1608961378801865],[103.85632324242374,-4.203796382285678]]]}},{"type":"Feature","properties":{"code":"1601312006","desa":"Surau","kecamatan":"Muara Jaya","kecCode":"160131"},"geometry":{"type":"Polygon","coordinates":[[[103.85771627068944,-4.073286844438495],[103.86072546880541,-4.059863006912617],[103.87439185440064,-4.0693467301977755],[103.87997554083857,-4.081591859594103],[103.89422123732032,-4.186563667685759],[103.87616344328835,-4.186237973710494],[103.87301781532,-4.090950359479028],[103.85771627068944,-4.073286844438495]]]}},{"type":"Feature","properties":{"code":"1601312007","desa":"Karang Lantang","kecamatan":"Muara Jaya","kecCode":"160131"},"geometry":{"type":"Polygon","coordinates":[[[103.86072546880541,-4.059863006912617],[103.87393677586157,-4.059861912437698],[103.89774084566358,-4.092984329168835],[103.93217385973587,-4.116414130788146],[103.9483609110273,-4.153831283328192],[103.94138063320969,-4.167883212766358],[103.9461024327811,-4.189171793347407],[103.96563549088522,-4.213811210996493],[103.93609619078666,-4.215087884974497],[103.89691162127434,-4.20336913596572],[103.87997554083857,-4.081591859594103],[103.86072546880541,-4.059863006912617]]]}},{"type":"Feature","properties":{"code":"1601322001","desa":"Bunglai","kecamatan":"Kedaton Peninjauan Raya","kecCode":"160132"},"geometry":{"type":"Polygon","coordinates":[[[104.43013533667653,-3.849151960558466],[104.40324104433881,-3.8123188745196153],[104.38508877382793,-3.802920135369093],[104.38132258666808,-3.767872597492915],[104.38759388934659,-3.7607075018078975],[104.39731573243517,-3.766316164211718],[104.40908725727115,-3.7607131729327348],[104.46352738278254,-3.818543434928051],[104.46531395077822,-3.8350044997368453],[104.4558500539369,-3.8454251133462276],[104.45866185266244,-3.861953853937497],[104.43013533667653,-3.849151960558466]]]}},{"type":"Feature","properties":{"code":"1601322002","desa":"Kedaton","kecamatan":"Kedaton Peninjauan Raya","kecCode":"160132"},"geometry":{"type":"Polygon","coordinates":[[[104.47987477510084,-3.8544689926081777],[104.45922451080258,-3.855126399721157],[104.4558500539369,-3.8454251133462276],[104.46531395077822,-3.8350044997368453],[104.46352738278254,-3.818543434928051],[104.47473285094036,-3.8184979490176425],[104.47987477510084,-3.8544689926081777]]]}},{"type":"Feature","properties":{"code":"1601322003","desa":"Kampai","kecamatan":"Kedaton Peninjauan Raya","kecCode":"160132"},"geometry":{"type":"Polygon","coordinates":[[[104.52427558065358,-3.84397959075493],[104.51477581974835,-3.845162814380537],[104.47511557992017,-3.809440136559255],[104.49978562940333,-3.799012647632911],[104.52645245531664,-3.8204382075517387],[104.52938251129392,-3.8355543326447137],[104.52427558065358,-3.84397959075493]]]}},{"type":"Feature","properties":{"code":"1601322004","desa":"Rantau Panjang","kecamatan":"Kedaton Peninjauan Raya","kecCode":"160132"},"geometry":{"type":"Polygon","coordinates":[[[104.46352738278254,-3.818543434928051],[104.43978767026482,-3.7881282671347405],[104.45485089994912,-3.767120232763834],[104.46173940285122,-3.768340609181754],[104.46272766155236,-3.7907744188304404],[104.47325160457797,-3.793207337671991],[104.47015953573407,-3.798678827383652],[104.49147734790137,-3.8019751727301916],[104.47511557992017,-3.809440136559255],[104.48202553435102,-3.8144227278275773],[104.47641238522345,-3.8186760147826466],[104.46352738278254,-3.818543434928051]]]}},{"type":"Feature","properties":{"code":"1601322005","desa":"Kedaton Timur","kecamatan":"Kedaton Peninjauan Raya","kecCode":"160132"},"geometry":{"type":"Polygon","coordinates":[[[104.47886483374513,-3.8623881797205937],[104.47473285094036,-3.8184979490176425],[104.48202553435102,-3.8144227278275773],[104.51477581974835,-3.845162814380537],[104.53500162382596,-3.8414725210120966],[104.53535204735914,-3.849723052540161],[104.55618123897307,-3.849652936896908],[104.5681022176433,-3.8620657017209448],[104.55594715983364,-3.862960940843983],[104.53483152785282,-3.8817270453960835],[104.50917536275284,-3.884755950352902],[104.5132064937847,-3.8666422275021177],[104.49489526090763,-3.8774608756527114],[104.47886483374513,-3.8623881797205937]]]}},{"type":"Feature","properties":{"code":"1601322006","desa":"Suka Pindah","kecamatan":"Kedaton Peninjauan Raya","kecCode":"160132"},"geometry":{"type":"Polygon","coordinates":[[[104.49978562940333,-3.799012647632911],[104.47603468255458,-3.801005431970309],[104.47015953573407,-3.798678827383652],[104.47280836831163,-3.792753602720561],[104.46272766155236,-3.7907744188304404],[104.46092122483469,-3.7554128287028763],[104.48970221928204,-3.7694569250458603],[104.49953493798705,-3.786566554833185],[104.50696407103509,-3.788526459057302],[104.50086670173697,-3.7896269585446483],[104.49978562940333,-3.799012647632911]]]}},{"type":"Feature","properties":{"code":"1601322007","desa":"Sinar Kedaton","kecamatan":"Kedaton Peninjauan Raya","kecCode":"160132"},"geometry":{"type":"Polygon","coordinates":[[[104.43978767026482,-3.7881282671347405],[104.4258613320349,-3.782661087873627],[104.40908725727115,-3.7607131729327348],[104.41754975811487,-3.7620844960593107],[104.41688713583272,-3.756931094756412],[104.44352015083433,-3.7471740675017475],[104.46332025632483,-3.74792667324915],[104.46173940285122,-3.768340609181754],[104.45485089994912,-3.767120232763834],[104.43978767026482,-3.7881282671347405]]]}},{"type":"Feature","properties":{"code":"1601322008","desa":"Lubuk Kemiling","kecamatan":"Kedaton Peninjauan Raya","kecCode":"160132"},"geometry":{"type":"Polygon","coordinates":[[[104.52427558065358,-3.84397959075493],[104.52938251129392,-3.8355543326447137],[104.52645245531664,-3.8204382075517387],[104.49978562940333,-3.799012647632911],[104.50086670173697,-3.7896269585446483],[104.5073209876735,-3.789002350605973],[104.49931392689626,-3.7854246622501764],[104.50557532624038,-3.782964564097789],[104.51881448889758,-3.7888011317949633],[104.51816568739662,-3.794223953794843],[104.5311064963678,-3.788202164427176],[104.53965046139972,-3.799331272936925],[104.5444549383448,-3.7929034729407576],[104.57241514764104,-3.8211868499868227],[104.55618123897307,-3.849652936896908],[104.53535204735914,-3.849723052540161],[104.53500162382596,-3.8414725210120966],[104.52427558065358,-3.84397959075493]]]}}]}