{"type":"FeatureCollection","features":[{"type":"Feature","properties":{"code":"1612011003","desa":"Talang Ubi Timur","kecamatan":"Talang Ubi","kecCode":"161201","kabCode":"1612","province":"Sumatera Selatan"},"geometry":{"type":"Polygon","coordinates":[[[103.86855684612163,-3.2777866640994344],[103.84039517159994,-3.2859167934926963],[103.83850397827602,-3.2792347452619133],[103.82703662933703,-3.279200662755084],[103.8231980215715,-3.276596811571075],[103.82446011394318,-3.2738281758101504],[103.81823475942666,-3.269098066508149],[103.83166535357326,-3.2712340831696536],[103.84579836230465,-3.2692080185206995],[103.85140867227243,-3.2707938560353784],[103.85607038633928,-3.2753948370808272],[103.86855684612163,-3.2777866640994344]]]}},{"type":"Feature","properties":{"code":"1612011010","desa":"Talang Ubi Barat","kecamatan":"Talang Ubi","kecCode":"161201","kabCode":"1612","province":"Sumatera Selatan"},"geometry":{"type":"Polygon","coordinates":[[[103.76217848924595,-3.2822790861822355],[103.76063317697957,-3.2801356150402827],[103.75540971218851,-3.281946451239444],[103.75242927169357,-3.2697480515162387],[103.74977641195193,-3.2671222460824696],[103.74133039927857,-3.2667795540212996],[103.73905021589479,-3.26085130853554],[103.74886183470596,-3.2551865752008773],[103.770279448238,-3.249899066095291],[103.783666667183,-3.2392499968077075],[103.79240537141084,-3.240382165021445],[103.80365225604685,-3.258789590264075],[103.81917227298207,-3.2651076432929695],[103.81925537123846,-3.2687514453088755],[103.789017965207,-3.2789767918204],[103.76217848924595,-3.2822790861822355]]]}},{"type":"Feature","properties":{"code":"1612011011","desa":"Talang Ubi Utara","kecamatan":"Talang Ubi","kecCode":"161201","kabCode":"1612","province":"Sumatera Selatan"},"geometry":{"type":"Polygon","coordinates":[[[103.79200668126339,-3.2401366204255706],[103.79555555624398,-3.2405138851240736],[103.79674527567397,-3.226477536440784],[103.80508423664827,-3.222175901033236],[103.82051331683618,-3.217620591158484],[103.84593214185492,-3.2167529657188827],[103.851687918063,-3.2022285378745083],[103.85130535455852,-3.207677401542732],[103.85914512524738,-3.2120836164129014],[103.86130384619558,-3.223949657285154],[103.87987344170601,-3.2261721338688325],[103.87538560436224,-3.236601665155357],[103.87652471624273,-3.240049195530852],[103.88963542063823,-3.237199326707544],[103.88980225297168,-3.2486329285744002],[103.88489377392858,-3.2517387120762047],[103.88507678956226,-3.2585357242412827],[103.88212346362701,-3.2592025436586995],[103.87782842833934,-3.2673347450898627],[103.88264103785365,-3.275964631340834],[103.86855684612163,-3.2777866640994344],[103.85607038633928,-3.2753948370808272],[103.84899955308695,-3.2697935841913974],[103.83166535357326,-3.2712340831696536],[103.81925537123846,-3.2687514453088755],[103.81917227298207,-3.2651076432929695],[103.80365225604685,-3.258789590264075],[103.79200668126339,-3.2401366204255706]]]}},{"type":"Feature","properties":{"code":"1612011012","desa":"Talang Ubi Selatan","kecamatan":"Talang Ubi","kecCode":"161201","kabCode":"1612","province":"Sumatera Selatan"},"geometry":{"type":"Polygon","coordinates":[[[103.88539414232588,-3.338792548247889],[103.87050796127345,-3.3285202103609115],[103.8569450327871,-3.3329174544936917],[103.85169118440069,-3.327149639966906],[103.84969243575739,-3.317494739723862],[103.84137225442605,-3.318904966622753],[103.82965340917752,-3.3153357750617087],[103.8261346893645,-3.319197088906051],[103.82123084093062,-3.3017799665225755],[103.82079944513833,-3.2860667482490857],[103.8231980215715,-3.276596811571075],[103.828772608669,-3.2798011553730615],[103.83850397827602,-3.2792347452619133],[103.84039517159994,-3.2859167934926963],[103.83546057084874,-3.2908042580721593],[103.86159798925587,-3.3041786265900854],[103.89668679166213,-3.3316828714853948],[103.88539414232588,-3.338792548247889]]]}},{"type":"Feature","properties":{"code":"1612011017","desa":"Pasar Bhayangkara","kecamatan":"Talang Ubi","kecCode":"161201","kabCode":"1612","province":"Sumatera Selatan"},"geometry":{"type":"Polygon","coordinates":[[[103.76474336741256,-3.2869522872845445],[103.76217848924595,-3.2822790861822355],[103.789017965207,-3.2789767918204],[103.81823475942666,-3.269098066508149],[103.82446011394318,-3.2738281758101504],[103.821527735017,-3.2802225866765617],[103.82083146280182,-3.2944101563619],[103.8261346893645,-3.319197088906051],[103.82179722226408,-3.3257617801065074],[103.81856115487345,-3.3262376725544534],[103.80085478442084,-3.309486267019641],[103.79317677029177,-3.296384598126838],[103.78551101482151,-3.291405003399688],[103.76474336741256,-3.2869522872845445]]]}},{"type":"Feature","properties":{"code":"1612011018","desa":"Handayani Mulya","kecamatan":"Talang Ubi","kecCode":"161201","kabCode":"1612","province":"Sumatera Selatan"},"geometry":{"type":"Polygon","coordinates":[[[103.84039517159994,-3.2859167934926963],[103.86880169644122,-3.2777244606915836],[103.88458708082919,-3.2757171532024443],[103.946597016739,-3.3014843126015667],[103.97406085692306,-3.3101686384132005],[103.93173923267948,-3.3164305881356624],[103.89668679166213,-3.3316828714853948],[103.86159798925587,-3.3041786265900854],[103.83546057084874,-3.2908042580721593],[103.84039517159994,-3.2859167934926963]]]}},{"type":"Feature","properties":{"code":"1612012001","desa":"Talang Bulang","kecamatan":"Talang Ubi","kecCode":"161201","kabCode":"1612","province":"Sumatera Selatan"},"geometry":{"type":"Polygon","coordinates":[[[103.91476593559952,-3.39490717267789],[103.90573634205862,-3.3577795613676122],[103.90549008969593,-3.3466062313944804],[103.9271798749513,-3.3375907275418033],[103.9545294652627,-3.358367364551576],[103.96327060935118,-3.3696943643805453],[103.97554643531981,-3.3972195616809358],[103.97818384740667,-3.4079077739606323],[103.975821882374,-3.4080936215592312],[103.97710746593684,-3.4131887324044294],[103.94427125211666,-3.4115633993635033],[103.91774026160385,-3.399190202011604],[103.91476593559952,-3.39490717267789]]]}},{"type":"Feature","properties":{"code":"1612012002","desa":"Benuang","kecamatan":"Talang Ubi","kecCode":"161201","kabCode":"1612","province":"Sumatera Selatan"},"geometry":{"type":"Polygon","coordinates":[[[103.93807091584017,-3.314846971047087],[103.97670826317584,-3.3110393125545325],[103.98332255109493,-3.317382022295975],[103.98261412634092,-3.3345083956609898],[103.9908909360679,-3.347969859022319],[104.00446572571273,-3.3605688266769347],[104.01444784609129,-3.374398382551441],[104.01705548162522,-3.384147322202699],[104.00553280369597,-3.3749530664023486],[103.99941404941893,-3.37607358839564],[103.96011640185054,-3.3366984633760444],[103.95670727342201,-3.338229995329061],[103.93807091584017,-3.314846971047087]]]}},{"type":"Feature","properties":{"code":"1612012004","desa":"Talang Akar","kecamatan":"Talang Ubi","kecCode":"161201","kabCode":"1612","province":"Sumatera Selatan"},"geometry":{"type":"Polygon","coordinates":[[[103.78026111086166,-3.1800444402804757],[103.78960105234675,-3.155382735633169],[103.79438376929556,-3.154597513273897],[103.7972391221878,-3.15038586762755],[103.79102872879287,-3.1354666463985827],[103.80187907086247,-3.1245449206533844],[103.81187280688461,-3.122332022748871],[103.81551338303625,-3.1173351547432095],[103.81484206341054,-3.1086536743865865],[103.82268887219374,-3.101261423442946],[103.85128929356607,-3.1488896304675458],[103.83260934134806,-3.152987439929445],[103.83151896282992,-3.1486784471682814],[103.82480441129461,-3.149245231397384],[103.82366008784282,-3.1822580603405988],[103.82064615029964,-3.1904288471840765],[103.82191671338568,-3.1984774197589276],[103.85018847301966,-3.2056904708925535],[103.84593214185492,-3.2167529657188827],[103.82051331683618,-3.217620591158484],[103.79674527567397,-3.226477536440784],[103.78857604824611,-3.1954478286194963],[103.78026111086166,-3.1800444402804757]]]}},{"type":"Feature","properties":{"code":"1612012005","desa":"Sungai Ibul","kecamatan":"Talang Ubi","kecCode":"161201","kabCode":"1612","province":"Sumatera Selatan"},"geometry":{"type":"Polygon","coordinates":[[[103.88264103785365,-3.275964631340834],[103.87782842833934,-3.2673347450898627],[103.88212346362701,-3.2592025436586995],[103.88507678956226,-3.2585357242412827],[103.88489377392858,-3.2517387120762047],[103.88961045635756,-3.2498293371605764],[103.88963542063823,-3.237199326707544],[103.91086219173684,-3.2036071131340877],[103.92272012973022,-3.1991548008145196],[103.9274567348405,-3.1996745244202733],[103.92876823596538,-3.194384754419108],[103.94997246375823,-3.2093145435814665],[103.9578366564366,-3.2270399175890883],[103.97855842223345,-3.250589917196478],[103.98955171873688,-3.25830616329599],[103.99937942462083,-3.2623427235307183],[104.01523124192835,-3.2626413946771526],[104.05341086402024,-3.255144911409145],[104.04991656709598,-3.2613374064900587],[104.02475806793058,-3.2801603490944826],[103.98137933558792,-3.280775465588224],[103.94661965267487,-3.2881521744482933],[103.93356031125943,-3.2958835975066942],[103.88264103785365,-3.275964631340834]]]}},{"type":"Feature","properties":{"code":"1612012006","desa":"Karta Dewa","kecamatan":"Talang Ubi","kecCode":"161201","kabCode":"1612","province":"Sumatera Selatan"},"geometry":{"type":"Polygon","coordinates":[[[103.97406085692306,-3.3101686384132005],[103.93356031125943,-3.2958835975066942],[103.94661965267487,-3.2881521744482933],[103.98137933558792,-3.280775465588224],[104.02475806793058,-3.2801603490944826],[104.0056954370948,-3.302439752342278],[104.00184702492031,-3.3173206552576144],[104.00848937888178,-3.3285879805722636],[104.02452740171827,-3.3386169906921546],[104.02265748095806,-3.3736189482287875],[104.01705548162522,-3.384147322202699],[104.01444784609129,-3.374398382551441],[104.00446572571273,-3.3605688266769347],[103.9908909360679,-3.347969859022319],[103.98261412634092,-3.3345083956609898],[103.98332255109493,-3.317382022295975],[103.97406085692306,-3.3101686384132005]]]}},{"type":"Feature","properties":{"code":"1612012007","desa":"Panta Dewa","kecamatan":"Talang Ubi","kecCode":"161201","kabCode":"1612","province":"Sumatera Selatan"},"geometry":{"type":"Polygon","coordinates":[[[104.0268344793278,-3.278329661260503],[104.04991656709598,-3.2613374064900587],[104.05341086402024,-3.255144911409145],[104.06461428532106,-3.2549181275704324],[104.10340854456877,-3.269501612994155],[104.04551020473222,-3.309740922647172],[104.03657705089023,-3.300645371038562],[104.0268344793278,-3.278329661260503]]]}},{"type":"Feature","properties":{"code":"1612012008","desa":"Sungai Baung","kecamatan":"Talang Ubi","kecCode":"161201","kabCode":"1612","province":"Sumatera Selatan"},"geometry":{"type":"MultiPolygon","coordinates":[[[[103.8000965372255,-3.309486267019641],[103.79076904955205,-3.317290899389078],[103.78458245221844,-3.316529471292435],[103.7771585334396,-3.3090103745716286],[103.76474336741256,-3.2869522872845445],[103.78551101482151,-3.291405003399688],[103.79317677029177,-3.296384598126838],[103.8000965372255,-3.309486267019641]]],[[[103.72950050664315,-3.3532184598589154],[103.72447508515711,-3.3414544039051552],[103.71613745428014,-3.3335165234848696],[103.72361848000888,-3.3187257928930842],[103.7223621244126,-3.305534061394106],[103.7065435919133,-3.2944960344226004],[103.69400551284421,-3.2752338611327163],[103.67654388299388,-3.2592207135612714],[103.68651268261424,-3.246841270417877],[103.69162026076644,-3.2464530672652816],[103.70511216079763,-3.238214960770732],[103.71586181387168,-3.236019286682026],[103.7220362568678,-3.2468254216654593],[103.72193055595045,-3.2557083294758438],[103.73905021589479,-3.26085130853554],[103.74133039927857,-3.2667795540212996],[103.74977641195193,-3.2671222460824696],[103.75334882129113,-3.2715943677686776],[103.75540971218851,-3.281946451239444],[103.74393649877042,-3.285570780235136],[103.73751671262623,-3.2944604464506937],[103.73846849662385,-3.3158161092612297],[103.73692442542192,-3.3286624219545686],[103.73475435682813,-3.330946705345069],[103.73909449401576,-3.3375140171699647],[103.73806656711842,-3.3461371845859427],[103.73252718218377,-3.353161352909059],[103.72950050664315,-3.3532184598589154]]]]}},{"type":"Feature","properties":{"code":"1612012009","desa":"Semangus","kecamatan":"Talang Ubi","kecCode":"161201","kabCode":"1612","province":"Sumatera Selatan"},"geometry":{"type":"Polygon","coordinates":[[[103.67588369157913,-3.315118317192519],[103.62666020230652,-3.3594145765096908],[103.61680955111996,-3.3488140769077424],[103.61527317991342,-3.339035325629936],[103.61815085487812,-3.324418187575216],[103.61020654699462,-3.316215462208553],[103.61103935788014,-3.3075899151865],[103.6050907058714,-3.287483470051828],[103.61490102516223,-3.2767114526487817],[103.62160025135057,-3.2748400534051476],[103.62589398981582,-3.2689113204868256],[103.63540069528591,-3.2805395842076424],[103.64188373794421,-3.297006648393536],[103.65327874631714,-3.2919219346105386],[103.65834291059689,-3.2999351332520654],[103.66703728004649,-3.2958586826887455],[103.67112727980019,-3.2963974152646194],[103.67588369157913,-3.315118317192519]]]}},{"type":"Feature","properties":{"code":"1612012013","desa":"Sinar Dewa","kecamatan":"Talang Ubi","kecCode":"161201","kabCode":"1612","province":"Sumatera Selatan"},"geometry":{"type":"Polygon","coordinates":[[[104.0056954370948,-3.302439752342278],[104.0268344793278,-3.278329661260503],[104.03657705089023,-3.300645371038562],[104.04551020473222,-3.309740922647172],[104.02815227390833,-3.323341787220793],[104.02452740171827,-3.3386169906921546],[104.00848937888178,-3.3285879805722636],[104.00184702492031,-3.3173206552576144],[104.0056954370948,-3.302439752342278]]]}},{"type":"Feature","properties":{"code":"1612012014","desa":"Benakat Minyak","kecamatan":"Talang Ubi","kecCode":"161201","kabCode":"1612","province":"Sumatera Selatan"},"geometry":{"type":"Polygon","coordinates":[[[103.7065435919133,-3.2944960344226004],[103.69066770425121,-3.30142235291],[103.67588369157913,-3.315118317192519],[103.67112727980019,-3.2963974152646194],[103.66703728004649,-3.2958586826887455],[103.65834291059689,-3.2999351332520654],[103.65327874631714,-3.2919219346105386],[103.64188373794421,-3.297006648393536],[103.63540069528591,-3.2805395842076424],[103.62589398981582,-3.2689113204868256],[103.63248524160069,-3.2547490271469655],[103.6483055556569,-3.2476833290310907],[103.63444304860785,-3.262761404707494],[103.65501885533597,-3.2659729242000144],[103.67654388299388,-3.2592207135612714],[103.69400551284421,-3.2752338611327163],[103.7065435919133,-3.2944960344226004]]]}},{"type":"Feature","properties":{"code":"1612012015","desa":"Suka Maju","kecamatan":"Talang Ubi","kecCode":"161201","kabCode":"1612","province":"Sumatera Selatan"},"geometry":{"type":"Polygon","coordinates":[[[103.88963542063823,-3.237199326707544],[103.87785737661669,-3.2407207867510945],[103.87538560436224,-3.236601665155357],[103.87987344170601,-3.2261721338688325],[103.85978159344586,-3.222512013654374],[103.85914512524738,-3.2120836164129014],[103.85130535455852,-3.207677401542732],[103.8541403369071,-3.1969670956184277],[103.86847504558692,-3.1983979853406583],[103.86905035628898,-3.1948566385887283],[103.89457146929794,-3.197564988296403],[103.89371031178155,-3.2012975291164674],[103.91086219173684,-3.2036071131340877],[103.88963542063823,-3.237199326707544]]]}},{"type":"Feature","properties":{"code":"1612012016","desa":"Suka Damai","kecamatan":"Talang Ubi","kecCode":"161201","kabCode":"1612","province":"Sumatera Selatan"},"geometry":{"type":"Polygon","coordinates":[[[103.8541403369071,-3.1969670956184277],[103.85018847301966,-3.2056904708925535],[103.82191671338568,-3.1984774197589276],[103.82064615029964,-3.1904288471840765],[103.82366008784282,-3.1822580603405988],[103.82513826302049,-3.148766968336503],[103.83151896282992,-3.1486784471682814],[103.83260934134806,-3.152987439929445],[103.85128929356607,-3.1488896304675458],[103.85863084433804,-3.161663700620926],[103.86965150990932,-3.167182821125979],[103.86944323681597,-3.183552310668606],[103.87203069695913,-3.192523300777949],[103.86962357067131,-3.1928382523514287],[103.86847504558692,-3.1983979853406583],[103.8541403369071,-3.1969670956184277]]]}},{"type":"Feature","properties":{"code":"1612012019","desa":"Beruge Darat","kecamatan":"Talang Ubi","kecCode":"161201","kabCode":"1612","province":"Sumatera Selatan"},"geometry":{"type":"Polygon","coordinates":[[[103.99267543832087,-3.4135621462060213],[103.97710746593684,-3.4131887324044294],[103.975821882374,-3.4080936215592312],[103.97818384740667,-3.4079077739606323],[103.97770785333482,-3.4045128224484746],[103.9727684304188,-3.3900461121935224],[103.96327060935118,-3.3696943643805453],[103.9545294652627,-3.358367364551576],[103.9183880126967,-3.331815358709799],[103.9056207566926,-3.3274618360175507],[103.93807091584017,-3.314846971047087],[103.95670727342201,-3.338229995329061],[103.96011640185054,-3.3366984633760444],[103.99941404941893,-3.37607358839564],[104.00553280369597,-3.3749530664023486],[104.00873802074311,-3.3770054784892807],[104.01705548162522,-3.384147322202699],[104.02030688335604,-3.3925869811567506],[104.02545225102061,-3.39291226863843],[104.02463754798451,-3.4057991542458654],[104.01073554720779,-3.4102071066062485],[103.99503110360263,-3.407922823215725],[103.99267543832087,-3.4135621462060213]]]}},{"type":"Feature","properties":{"code":"1612012020","desa":"Simpang Tais","kecamatan":"Talang Ubi","kecCode":"161201","kabCode":"1612","province":"Sumatera Selatan"},"geometry":{"type":"Polygon","coordinates":[[[103.90573634205862,-3.3577795613676122],[103.88539414232588,-3.338792548247889],[103.9056207566926,-3.3274618360175507],[103.91402713084744,-3.32959606033024],[103.9271798749513,-3.3375907275418033],[103.90549008969593,-3.3466062313944804],[103.90573634205862,-3.3577795613676122]]]}},{"type":"Feature","properties":{"code":"1612022001","desa":"Sukarami","kecamatan":"Penukal Utara","kecCode":"161202","kabCode":"1612","province":"Sumatera Selatan"},"geometry":{"type":"Polygon","coordinates":[[[103.9297620174032,-3.1915447232796956],[103.9274567348405,-3.1996745244202733],[103.92272012973022,-3.1991548008145196],[103.9091401986613,-3.204103593761575],[103.89864841269417,-3.1822664258342326],[103.86783566988031,-3.1546628733021764],[103.86001968356163,-3.140510448223127],[103.8727853342758,-3.139761556675869],[103.88867341674484,-3.15572541960049],[103.90698187161615,-3.1620184471948467],[103.93076750981277,-3.1662199125156527],[103.93759538042252,-3.1758088465873264],[103.93666855441035,-3.1893259249232293],[103.9297620174032,-3.1915447232796956]]]}},{"type":"Feature","properties":{"code":"1612022002","desa":"Tanjung Baru","kecamatan":"Penukal Utara","kecCode":"161202","kabCode":"1612","province":"Sumatera Selatan"},"geometry":{"type":"Polygon","coordinates":[[[103.93759538042252,-3.1758088465873264],[103.93076750981277,-3.1662199125156527],[103.90698187161615,-3.1620184471948467],[103.925606458871,-3.1348477914230766],[103.95219115329915,-3.140419358591173],[103.95158553544415,-3.142733993201326],[103.9380595825837,-3.1452438607350373],[103.93759538042252,-3.1758088465873264]]]}},{"type":"Feature","properties":{"code":"1612022003","desa":"Prabu Menang","kecamatan":"Penukal Utara","kecCode":"161202","kabCode":"1612","province":"Sumatera Selatan"},"geometry":{"type":"Polygon","coordinates":[[[103.95219115329915,-3.140419358591173],[103.93630995603966,-3.137649474571249],[103.94109659493198,-3.116115321515801],[103.94765944882454,-3.1089224196926453],[103.94723292735779,-3.0929770738088957],[103.95213368841905,-3.0890378903665825],[103.96069396085765,-3.0870851978060134],[103.96041444706913,-3.108988717713795],[103.95219115329915,-3.140419358591173]]]}},{"type":"Feature","properties":{"code":"1612022004","desa":"Tanding Marga","kecamatan":"Penukal Utara","kecCode":"161202","kabCode":"1612","province":"Sumatera Selatan"},"geometry":{"type":"Polygon","coordinates":[[[103.86267888262437,-3.082932366022747],[103.87379713363089,-3.077703618619651],[103.87800495806245,-3.079193794349053],[103.8817170698869,-3.075277424908443],[103.88971041240568,-3.0758372951495754],[103.89342450004068,-3.0706235979009153],[103.88962074460176,-3.070460598478211],[103.88922300413837,-3.0697363294692237],[103.89566302862589,-3.0653607751855536],[103.89478757009032,-3.0522097631901928],[103.89973241591831,-3.051200083538313],[103.89985734434099,-3.0485234556171883],[103.90633384083412,-3.043874961589426],[103.91165996773339,-3.096937046878925],[103.90661853022107,-3.127409368386358],[103.8808232040277,-3.1112228252294343],[103.86267888262437,-3.082932366022747]]]}},{"type":"Feature","properties":{"code":"1612022005","desa":"Karang Tanding","kecamatan":"Penukal Utara","kecCode":"161202","kabCode":"1612","province":"Sumatera Selatan"},"geometry":{"type":"Polygon","coordinates":[[[103.9068731372855,-3.038168550073883],[103.91189462963354,-3.0216305527610703],[103.92556631223555,-3.0242749930469444],[103.93185726060416,-3.0170075239364067],[103.93429012728762,-3.016585800353227],[103.93628168315318,-3.0221983649153104],[103.93337670926779,-3.0881845947244084],[103.92255487840497,-3.134049007287378],[103.90661853022107,-3.127409368386358],[103.91165996773339,-3.096937046878925],[103.90582317699806,-3.042119193577044],[103.909394281421,-3.03918589644623],[103.9068731372855,-3.038168550073883]]]}},{"type":"Feature","properties":{"code":"1612022006","desa":"Lubuk Tampui","kecamatan":"Penukal Utara","kecCode":"161202","kabCode":"1612","province":"Sumatera Selatan"},"geometry":{"type":"Polygon","coordinates":[[[103.93429012728762,-3.016585800353227],[103.94270747137277,-3.0123325142975124],[103.95038123170853,-3.0041828606227794],[103.95362324811445,-3.005194132074736],[103.95501195873499,-3.0212708113525477],[103.96163920498536,-3.0240596989466253],[103.95813603534981,-3.0392113076899587],[103.9623528494045,-3.063069461794598],[103.96069396085765,-3.0870851978060134],[103.95213368841905,-3.0890378903665825],[103.94723292735779,-3.0929770738088957],[103.94765944882454,-3.1089224196926453],[103.94109659493198,-3.116115321515801],[103.93630995603966,-3.137649474571249],[103.92255487840497,-3.134049007287378],[103.93337670926779,-3.0881845947244084],[103.93628168315318,-3.0221983649153104],[103.93429012728762,-3.016585800353227]]]}},{"type":"Feature","properties":{"code":"1612022007","desa":"Tempirai","kecamatan":"Penukal Utara","kecCode":"161202","kabCode":"1612","province":"Sumatera Selatan"},"geometry":{"type":"Polygon","coordinates":[[[103.95362324811445,-3.005194132074736],[104.00029042706159,-3.0209580604202446],[104.01832475778137,-3.0295399822291746],[104.01246237593796,-3.0417071853698054],[104.01100381317548,-3.056560582520285],[104.01425995343419,-3.0578539182377957],[104.0124425818597,-3.061921277554575],[104.01548911443115,-3.066597355588058],[104.01801365440667,-3.0845552610016065],[104.01380850635752,-3.0929596296591924],[103.98357661676748,-3.1062859429035288],[103.96357404240818,-3.1100369854760017],[103.96042462739466,-3.1084221448253695],[103.9623528494045,-3.063069461794598],[103.95813603534981,-3.0392113076899587],[103.96163920498536,-3.0240596989466253],[103.95501195873499,-3.0212708113525477],[103.95362324811445,-3.005194132074736]]]}},{"type":"Feature","properties":{"code":"1612022008","desa":"Tempirai Selatan","kecamatan":"Penukal Utara","kecCode":"161202","kabCode":"1612","province":"Sumatera Selatan"},"geometry":{"type":"Polygon","coordinates":[[[103.95158553544415,-3.142733993201326],[103.96042462739466,-3.1084221448253695],[103.96357404240818,-3.1100369854760017],[103.98357661676748,-3.1062859429035288],[104.02284893133316,-3.0894951227814076],[104.03108024705578,-3.0902808478617665],[104.03655300571671,-3.096645904856623],[104.04826296026744,-3.0985376134900324],[104.02397196243618,-3.119117380810137],[104.00464611982261,-3.122787447526348],[103.99021896893032,-3.1346676437276537],[103.95158553544415,-3.142733993201326]]]}},{"type":"Feature","properties":{"code":"1612022009","desa":"Kota Baru","kecamatan":"Penukal Utara","kecCode":"161202","kabCode":"1612","province":"Sumatera Selatan"},"geometry":{"type":"Polygon","coordinates":[[[103.82268887219374,-3.101261423442946],[103.82640299400303,-3.100218126233679],[103.82895327167618,-3.103155564742471],[103.83196748800923,-3.1016141321530686],[103.83317984607311,-3.1049706655267646],[103.83497543157095,-3.1045585503002697],[103.83640157287435,-3.0947625500256923],[103.84370612733596,-3.0869086006340125],[103.84952936079145,-3.0850298413386876],[103.84894670262827,-3.0829804644636765],[103.853866895341,-3.0801036411600187],[103.85805462801875,-3.0828377357598553],[103.8617880366886,-3.081822151159424],[103.88087584224638,-3.1110359236253706],[103.8727853342758,-3.139761556675869],[103.84687198825173,-3.1412815845011712],[103.82268887219374,-3.101261423442946]]]}},{"type":"Feature","properties":{"code":"1612022010","desa":"Tempirai Utara","kecamatan":"Penukal Utara","kecCode":"161202","kabCode":"1612","province":"Sumatera Selatan"},"geometry":{"type":"MultiPolygon","coordinates":[[[[104.01963346201472,-3.0301705409817274],[104.02449333180185,-3.0299197353517937],[104.02740324476399,-3.046664720626543],[104.02142606985728,-3.062603631860998],[104.02193320295504,-3.0896544466749307],[104.01997887542484,-3.0900135738465724],[104.01425995343419,-3.0578539182377957],[104.01100381317548,-3.056560582520285],[104.01246237593796,-3.0417071853698054],[104.01963346201472,-3.0301705409817274]]],[[[104.06638987079593,-3.0041868257336897],[104.09365849424415,-3.002544997327787],[104.11771484456449,-3.0118248955664613],[104.12471046031952,-3.0086840079280353],[104.13501867756997,-3.0121181590894714],[104.09245406460349,-3.0500150855503163],[104.09537613280234,-3.0550146533207525],[104.07072270818651,-3.1027123068928755],[104.04173485797735,-3.104113410169665],[104.04826296026744,-3.0985376134900324],[104.05603857242227,-3.08518653561458],[104.06336082284378,-3.089369156541237],[104.05837375744301,-3.083722451915635],[104.05742902323088,-3.0787311165391986],[104.07185112532919,-3.042923788232463],[104.06638987079593,-3.0041868257336897]]]]}},{"type":"Feature","properties":{"code":"1612022011","desa":"Tempirai Timur","kecamatan":"Penukal Utara","kecCode":"161202","kabCode":"1612","province":"Sumatera Selatan"},"geometry":{"type":"MultiPolygon","coordinates":[[[[104.01502895742048,-3.0914210470213592],[104.01725811596936,-3.0863800555782395],[104.01801365440667,-3.0845552610016065],[104.01997887542484,-3.0900135738465724],[104.01502895742048,-3.0914210470213592]]],[[[104.01548911443115,-3.066597355588058],[104.0124425818597,-3.061921277554575],[104.01459216030001,-3.0602169687496024],[104.01548911443115,-3.066597355588058]]],[[[104.02449333180185,-3.0299197353517937],[104.04554579180488,-3.012039047527756],[104.06564663508418,-3.004283769952156],[104.07185112532919,-3.042923788232463],[104.05742902323088,-3.0787311165391986],[104.05837375744301,-3.083722451915635],[104.06336082284378,-3.089369156541237],[104.05603857242227,-3.08518653561458],[104.04826296026744,-3.0985376134900324],[104.03512532927061,-3.0959915527407147],[104.03006897560276,-3.0898644401711346],[104.02193320295504,-3.0896544466749307],[104.02142606985728,-3.062603631860998],[104.02740324476399,-3.046664720626543],[104.02449333180185,-3.0299197353517937]]]]}},{"type":"Feature","properties":{"code":"1612022012","desa":"Tambak","kecamatan":"Penukal Utara","kecCode":"161202","kabCode":"1612","province":"Sumatera Selatan"},"geometry":{"type":"Polygon","coordinates":[[[103.85863084433804,-3.161663700620926],[103.84687198825173,-3.1412815845011712],[103.86001968356163,-3.140510448223127],[103.86783566988031,-3.1546628733021764],[103.89864841269417,-3.1822664258342326],[103.90876462828504,-3.2033218976440314],[103.89371031178155,-3.2012975291164674],[103.89457146929794,-3.197564988296403],[103.86980641633312,-3.1949368814975405],[103.87237518136958,-3.1915877999063134],[103.86944323681597,-3.183552310668606],[103.86965150990932,-3.167182821125979],[103.85863084433804,-3.161663700620926]]]}},{"type":"Feature","properties":{"code":"1612022013","desa":"Muara Ikan","kecamatan":"Penukal Utara","kecCode":"161202","kabCode":"1612","province":"Sumatera Selatan"},"geometry":{"type":"Polygon","coordinates":[[[103.90698187161615,-3.1620184471948467],[103.88867341674484,-3.15572541960049],[103.8727853342758,-3.139761556675869],[103.8808232040277,-3.1112228252294343],[103.9040611353132,-3.1267501536360753],[103.925606458871,-3.1348477914230766],[103.90698187161615,-3.1620184471948467]]]}},{"type":"Feature","properties":{"code":"1612032001","desa":"Purun","kecamatan":"Penukal","kecCode":"161203","kabCode":"1612","province":"Sumatera Selatan"},"geometry":{"type":"Polygon","coordinates":[[[104.06461428532106,-3.2549181275704324],[104.04924911095776,-3.256847497113095],[104.05937752765082,-3.2295849809902966],[104.10416741769221,-3.2123247921023625],[104.09478746626858,-3.225851538150232],[104.10419968176996,-3.2269604004331627],[104.10532138367499,-3.229507975640867],[104.11181767064903,-3.2291307532103786],[104.10198950521159,-3.2338788390607878],[104.10259826080112,-3.237576484386828],[104.10817658458176,-3.2611928971285704],[104.11862415178324,-3.2669334846804667],[104.10340854456877,-3.269501612994155],[104.06461428532106,-3.2549181275704324]]]}},{"type":"Feature","properties":{"code":"1612032002","desa":"Gunung Menang","kecamatan":"Penukal","kecCode":"161203","kabCode":"1612","province":"Sumatera Selatan"},"geometry":{"type":"Polygon","coordinates":[[[104.08194674734459,-3.1737612242895867],[104.08274682920283,-3.1896731594600785],[104.08519455988106,-3.1926792800928063],[104.06899640376109,-3.19514471122489],[104.06349896230732,-3.1882228920457316],[104.05626479238634,-3.186924845679403],[104.02549017543127,-3.1950815365491723],[104.01749933032988,-3.20359030750301],[104.01611843661664,-3.2102898151719264],[103.97670003258048,-3.21012579052208],[103.99177632221955,-3.200296750054863],[104.02013927220968,-3.1883386491820978],[104.03110696231651,-3.1693650503500983],[104.04142549029422,-3.161116256312424],[104.05025461056186,-3.170826162688981],[104.06076507274997,-3.1773785142916284],[104.07275029269192,-3.1779556506167843],[104.08194674734459,-3.1737612242895867]]]}},{"type":"Feature","properties":{"code":"1612032003","desa":"Mangkunegara","kecamatan":"Penukal","kecCode":"161203","kabCode":"1612","province":"Sumatera Selatan"},"geometry":{"type":"Polygon","coordinates":[[[103.94997246375823,-3.2093145435814665],[103.92876823596538,-3.194384754419108],[103.9297620174032,-3.1915447232796956],[103.96751787894702,-3.17939285627773],[103.98284675667253,-3.1685401094327403],[103.99260595400166,-3.145841251591239],[103.99484430542043,-3.1318401644259537],[104.02111461394833,-3.15966532879568],[104.02926411025055,-3.172202026492612],[104.02013927220968,-3.1883386491820978],[103.99177632221955,-3.200296750054863],[103.97670003258048,-3.21012579052208],[103.94997246375823,-3.2093145435814665]]]}},{"type":"Feature","properties":{"code":"1612032004","desa":"Raja Jaya","kecamatan":"Penukal","kecCode":"161203","kabCode":"1612","province":"Sumatera Selatan"},"geometry":{"type":"Polygon","coordinates":[[[103.93672025373678,-3.1885499664803496],[103.9380595825837,-3.1452438607350373],[103.98253126280758,-3.1368643745197486],[103.99484430542043,-3.1318401644259537],[103.99260595400166,-3.145841251591239],[103.98284675667253,-3.1685401094327403],[103.96751787894702,-3.17939285627773],[103.93672025373678,-3.1885499664803496]]]}},{"type":"Feature","properties":{"code":"1612032005","desa":"Air Itam","kecamatan":"Penukal","kecCode":"161203","kabCode":"1612","province":"Sumatera Selatan"},"geometry":{"type":"Polygon","coordinates":[[[104.01891877887863,-3.120653470527281],[104.02397196243618,-3.119117380810137],[104.04173485797735,-3.104113410169665],[104.0708351090531,-3.102685709443424],[104.07533975742393,-3.1114780636177275],[104.09006155139951,-3.1285651518977065],[104.07502093876536,-3.130763481684435],[104.07343654556017,-3.138720091385588],[104.07900736989427,-3.144559778830905],[104.08194674734459,-3.1737612242895867],[104.07275029269192,-3.1779556506167843],[104.06076507274997,-3.1773785142916284],[104.05025461056186,-3.170826162688981],[104.04098403378617,-3.1604984472484237],[104.03704730009288,-3.1430097496221165],[104.03211312472096,-3.134498370634319],[104.01891877887863,-3.120653470527281]]]}},{"type":"Feature","properties":{"code":"1612032006","desa":"Gunung Raja","kecamatan":"Penukal","kecCode":"161203","kabCode":"1612","province":"Sumatera Selatan"},"geometry":{"type":"Polygon","coordinates":[[[104.06899640376109,-3.19514471122489],[104.08519455988106,-3.1926792800928063],[104.08773463834297,-3.203769736640164],[104.0746808943079,-3.2037676556089583],[104.06512508855205,-3.206755125201698],[104.03497449497699,-3.2308513775159144],[104.03630512827907,-3.219723546043641],[104.04499474301302,-3.2067675871073438],[104.04894301231023,-3.2031082582962727],[104.06899640376109,-3.19514471122489]]]}},{"type":"Feature","properties":{"code":"1612032007","desa":"Air Itam Timur","kecamatan":"Penukal","kecCode":"161203","kabCode":"1612","province":"Sumatera Selatan"},"geometry":{"type":"Polygon","coordinates":[[[104.13501867756997,-3.0121181590894714],[104.1360780807389,-3.015803134766476],[104.13210523566816,-3.026626047501999],[104.13869446038109,-3.0386713349490098],[104.10413277131038,-3.05908509461414],[104.10260364324357,-3.0877363276510708],[104.10440547633175,-3.098481878905618],[104.10077052723811,-3.1067439712183855],[104.10287082372956,-3.1237149237474027],[104.09931945942553,-3.1272517415135495],[104.09006155139951,-3.1285651518977065],[104.07533975742393,-3.1114780636177275],[104.07067300085832,-3.102578232365114],[104.09537613280234,-3.0550146533207525],[104.09245406460349,-3.0500150855503163],[104.13501867756997,-3.0121181590894714]]]}},{"type":"Feature","properties":{"code":"1612032008","desa":"Sungai Langan","kecamatan":"Penukal","kecCode":"161203","kabCode":"1612","province":"Sumatera Selatan"},"geometry":{"type":"Polygon","coordinates":[[[103.99003006993183,-3.2585026390825034],[103.97855842223345,-3.250589917196478],[103.9578366564366,-3.2270399175890883],[103.94997246375823,-3.2093145435814665],[103.99845606459576,-3.2110452456897534],[103.9991767713909,-3.231129923633631],[104.01891203486257,-3.239878989840628],[104.00418185740686,-3.247126991326856],[103.99003006993183,-3.2585026390825034]]]}},{"type":"Feature","properties":{"code":"1612032009","desa":"Spantan Jaya","kecamatan":"Penukal","kecCode":"161203","kabCode":"1612","province":"Sumatera Selatan"},"geometry":{"type":"Polygon","coordinates":[[[103.99845606459576,-3.2110452456897534],[104.0398602112798,-3.2115171595370087],[104.0345359837487,-3.226236963297039],[104.03497449497699,-3.2308513775159144],[104.01891203486257,-3.239878989840628],[103.9991767713909,-3.231129923633631],[103.99845606459576,-3.2110452456897534]]]}},{"type":"Feature","properties":{"code":"1612032010","desa":"Babat","kecamatan":"Penukal","kecCode":"161203","kabCode":"1612","province":"Sumatera Selatan"},"geometry":{"type":"Polygon","coordinates":[[[104.04924911095776,-3.256847497113095],[104.01523124192835,-3.2626413946771526],[103.99937942462083,-3.2623427235307183],[103.99003006993183,-3.2585026390825034],[104.00418185740686,-3.247126991326856],[104.03540752933407,-3.23060634463422],[104.06512508855205,-3.206755125201698],[104.0746808943079,-3.2037676556089583],[104.09305460398684,-3.203770585600187],[104.10416741769221,-3.2123247921023625],[104.05937752765082,-3.2295849809902966],[104.04924911095776,-3.256847497113095]]]}},{"type":"Feature","properties":{"code":"1612032011","desa":"Suka Raja","kecamatan":"Penukal","kecCode":"161203","kabCode":"1612","province":"Sumatera Selatan"},"geometry":{"type":"Polygon","coordinates":[[[104.01611843661664,-3.2102898151719264],[104.01983769355478,-3.2002145331341296],[104.03321756683731,-3.192113770203087],[104.06007402829385,-3.1869510015617744],[104.06899640376109,-3.19514471122489],[104.04894301231023,-3.2031082582962727],[104.03659885225528,-3.2197776321707754],[104.0398602112798,-3.2115171595370087],[104.01611843661664,-3.2102898151719264]]]}},{"type":"Feature","properties":{"code":"1612032012","desa":"Purun Timur","kecamatan":"Penukal","kecCode":"161203","kabCode":"1612","province":"Sumatera Selatan"},"geometry":{"type":"Polygon","coordinates":[[[104.11862415178324,-3.2669334846804667],[104.10817658458176,-3.2611928971285704],[104.10259826080112,-3.237576484386828],[104.10198950521159,-3.2338788390607878],[104.1119529538658,-3.2297444083058795],[104.11439455566426,-3.239640084039974],[104.11723148324643,-3.242763978988452],[104.1202313230172,-3.2420840591467104],[104.13106192586724,-3.2624742035144134],[104.12690904731477,-3.2655578681904385],[104.11862415178324,-3.2669334846804667]]]}},{"type":"Feature","properties":{"code":"1612032013","desa":"Mangkunegara Timur","kecamatan":"Penukal","kecCode":"161203","kabCode":"1612","province":"Sumatera Selatan"},"geometry":{"type":"Polygon","coordinates":[[[103.99484430542043,-3.1318401644259537],[104.00464611982261,-3.122787447526348],[104.01891877887863,-3.120653470527281],[104.02634155461914,-3.1272220611880495],[104.03704730009288,-3.1430097496221165],[104.04142549029422,-3.161116256312424],[104.02926411025055,-3.172202026492612],[104.02111461394833,-3.15966532879568],[103.99484430542043,-3.1318401644259537]]]}},{"type":"Feature","properties":{"code":"1612042001","desa":"Betung","kecamatan":"Abab","kecCode":"161204","kabCode":"1612","province":"Sumatera Selatan"},"geometry":{"type":"Polygon","coordinates":[[[104.13734089976276,-3.155193014654541],[104.14986680920593,-3.1606783584222238],[104.15352711378533,-3.1706016676248425],[104.15647530279305,-3.1917142661695768],[104.12916022396523,-3.1796858401115746],[104.11079799233352,-3.1770560165069606],[104.11707971006062,-3.154108572562423],[104.13734089976276,-3.155193014654541]]]}},{"type":"Feature","properties":{"code":"1612042002","desa":"Betung Barat","kecamatan":"Abab","kecCode":"161204","kabCode":"1612","province":"Sumatera Selatan"},"geometry":{"type":"Polygon","coordinates":[[[104.08773463834297,-3.203769736640164],[104.08274682920283,-3.1896731594600785],[104.07897107685375,-3.144169725772768],[104.09348305180144,-3.147445315665793],[104.10278320278263,-3.1459114211938313],[104.10474172565016,-3.1487904001724107],[104.11707971006062,-3.154108572562423],[104.1088630433948,-3.1845844338014118],[104.11002850361263,-3.1916220694721953],[104.10586941344273,-3.2127393408943057],[104.09305460398684,-3.203770585600187],[104.08773463834297,-3.203769736640164]]]}},{"type":"Feature","properties":{"code":"1612042003","desa":"Karang Agung","kecamatan":"Abab","kecCode":"161204","kabCode":"1612","province":"Sumatera Selatan"},"geometry":{"type":"Polygon","coordinates":[[[104.07900736989427,-3.144559778830905],[104.07370327458652,-3.140006775717136],[104.07502093876536,-3.130763481684435],[104.09931945942553,-3.1272517415135495],[104.12495576119949,-3.127560997680472],[104.15431437490854,-3.1327139861944957],[104.15457928910297,-3.139439396136876],[104.13734089976276,-3.155193014654541],[104.11707971006062,-3.154108572562423],[104.10474172565016,-3.1487904001724107],[104.10278320278263,-3.1459114211938313],[104.09348305180144,-3.147445315665793],[104.07900736989427,-3.144559778830905]]]}},{"type":"Feature","properties":{"code":"1612042004","desa":"Tanjung Kurung","kecamatan":"Abab","kecCode":"161204","kabCode":"1612","province":"Sumatera Selatan"},"geometry":{"type":"Polygon","coordinates":[[[104.13869446038109,-3.0386713349490098],[104.14269500007424,-3.0476728264648463],[104.15526703844311,-3.0460672326434954],[104.17158692139935,-3.0528064660650625],[104.16585486930681,-3.059484586956404],[104.16652580672064,-3.0693221934660304],[104.16148944857922,-3.070323486939909],[104.160379474733,-3.073984584717388],[104.1605173003332,-3.080411098682869],[104.16383808026323,-3.0811676578499156],[104.16132660833637,-3.0853296339397636],[104.16242697562448,-3.090921596832445],[104.1557566419555,-3.0956265862710413],[104.17367638465747,-3.1246162737637775],[104.180787307888,-3.127673524451984],[104.18004986021292,-3.134464379858309],[104.15448928765056,-3.137154509301333],[104.15431437490854,-3.1327139861944957],[104.14370663035675,-3.1301069684975915],[104.09931945942553,-3.1272517415135495],[104.10287082372956,-3.1237149237474027],[104.10077052723811,-3.1067439712183855],[104.10440547633175,-3.098481878905618],[104.10260364324357,-3.0877363276510708],[104.10413277131038,-3.05908509461414],[104.13869446038109,-3.0386713349490098]]]}},{"type":"Feature","properties":{"code":"1612042005","desa":"Pengabuan","kecamatan":"Abab","kecCode":"161204","kabCode":"1612","province":"Sumatera Selatan"},"geometry":{"type":"Polygon","coordinates":[[[104.12690904731477,-3.2655578681904385],[104.13106192586724,-3.2624742035144134],[104.12417024566037,-3.2494997194432305],[104.12876094296318,-3.237154783286652],[104.14976880558594,-3.25235362442388],[104.16173373772186,-3.257890737665086],[104.15293552265632,-3.270917292482663],[104.16187092300474,-3.2738618913935977],[104.15735749275416,-3.280228165171253],[104.12690904731477,-3.2655578681904385]]]}},{"type":"Feature","properties":{"code":"1612042006","desa":"Prambatan","kecamatan":"Abab","kecCode":"161204","kabCode":"1612","province":"Sumatera Selatan"},"geometry":{"type":"Polygon","coordinates":[[[104.25790099963149,-3.0314899966086917],[104.24199573111814,-3.1612217117147297],[104.19255079368423,-3.1699035751825733],[104.1780884855952,-3.175230752484186],[104.16379449641892,-3.184180290165587],[104.15724532121465,-3.1982464603679936],[104.15144919782227,-3.1637786623546984],[104.14986680920593,-3.1606783584222238],[104.13731113580036,-3.1551929894734934],[104.15457928910297,-3.139439396136876],[104.15448928765056,-3.137154509301333],[104.18004986021292,-3.134464379858309],[104.180787307888,-3.127673524451984],[104.17367638465747,-3.1246162737637775],[104.1557566419555,-3.0956265862710413],[104.16273244024995,-3.090021902467992],[104.16132660833637,-3.0853296339397636],[104.16383808026323,-3.0811676578499156],[104.15955463723678,-3.0783639395360014],[104.16148944857922,-3.070323486939909],[104.16652580672064,-3.0693221934660304],[104.16703591927232,-3.056218445340847],[104.17032158877036,-3.056113296607298],[104.17158692139935,-3.0528064660650625],[104.18671229513637,-3.053957401331278],[104.19430336280999,-3.0512106577668594],[104.21911199512255,-3.0363560006662795],[104.23304199179454,-3.0201299988553236],[104.24272099387882,-3.0213379925079353],[104.25220599331196,-3.03251499261435],[104.25790099963149,-3.0314899966086917]]]}},{"type":"Feature","properties":{"code":"1612042007","desa":"Pengabuan Timur","kecamatan":"Abab","kecCode":"161204","kabCode":"1612","province":"Sumatera Selatan"},"geometry":{"type":"Polygon","coordinates":[[[104.2192601215574,-3.224261393782304],[104.21185838905348,-3.246303427271491],[104.1800468007193,-3.2455730941339573],[104.17087245320123,-3.2490611083906487],[104.16173373772186,-3.257890737665086],[104.14976880558594,-3.25235362442388],[104.12876094296318,-3.237154783286652],[104.14055973974024,-3.218604943203611],[104.15744754996452,-3.199861599593496],[104.16287879142317,-3.185845380435443],[104.16705416381865,-3.181368249525476],[104.19255079368423,-3.1699035751825733],[104.24199573111814,-3.1612217117147297],[104.23417842369535,-3.2111935277072323],[104.22692106835267,-3.2211872637185794],[104.2192601215574,-3.224261393782304]]]}},{"type":"Feature","properties":{"code":"1612042008","desa":"Betung Selatan","kecamatan":"Abab","kecCode":"161204","kabCode":"1612","province":"Sumatera Selatan"},"geometry":{"type":"Polygon","coordinates":[[[104.1119529538658,-3.2297444083058795],[104.09478746626858,-3.225851538150232],[104.10416741769221,-3.2123247921023625],[104.10586941344273,-3.2127393408943057],[104.11079799233352,-3.1770560165069606],[104.12916022396523,-3.1796858401115746],[104.15647530279305,-3.1917142661695768],[104.15744754996452,-3.199861599593496],[104.14055973974024,-3.218604943203611],[104.12455621669608,-3.2443022963262145],[104.12417024566037,-3.2494997194432305],[104.1202313230172,-3.2420840591467104],[104.11723148324643,-3.242763978988452],[104.11439455566426,-3.239640084039974],[104.1119529538658,-3.2297444083058795]]]}},{"type":"Feature","properties":{"code":"1612052001","desa":"Bumi Ayu","kecamatan":"Tanah Abang","kecCode":"161205","kabCode":"1612","province":"Sumatera Selatan"},"geometry":{"type":"Polygon","coordinates":[[[104.0838086110786,-3.3542474965185365],[104.07269499967458,-3.342214996531597],[104.06435645688502,-3.338989171523247],[104.06573718332442,-3.332864754221797],[104.07215938864492,-3.3349502181925863],[104.07359334595624,-3.3332255280521075],[104.09478722075369,-3.3485136790630063],[104.09246611102226,-3.3560377742157628],[104.0838086110786,-3.3542474965185365]]]}},{"type":"Feature","properties":{"code":"1612052002","desa":"Muara Sungai","kecamatan":"Tanah Abang","kecCode":"161205","kabCode":"1612","province":"Sumatera Selatan"},"geometry":{"type":"Polygon","coordinates":[[[104.13221469215438,-3.343942714689388],[104.11342675833826,-3.3513062313944113],[104.11148534327401,-3.3429343885171785],[104.11410567993325,-3.3330268012625237],[104.11053551530188,-3.335534260411731],[104.1100702834169,-3.346647124467201],[104.10547161002681,-3.3462627371379923],[104.1037998413896,-3.340167309482653],[104.11256345863677,-3.324809709226191],[104.12404217140916,-3.3242240770056517],[104.125452550295,-3.3323623218809852],[104.13146561714454,-3.3360071689091364],[104.13221469215438,-3.343942714689388]]]}},{"type":"Feature","properties":{"code":"1612052003","desa":"Tanah Abang Utara","kecamatan":"Tanah Abang","kecCode":"161205","kabCode":"1612","province":"Sumatera Selatan"},"geometry":{"type":"Polygon","coordinates":[[[104.1037998413896,-3.340167309482653],[104.09690574290579,-3.3371779135420336],[104.0956577276221,-3.333276484538538],[104.10057427897986,-3.3319253880639903],[104.10206619759703,-3.3255298656354833],[104.11256345863677,-3.324809709226191],[104.1037998413896,-3.340167309482653]]]}},{"type":"Feature","properties":{"code":"1612052004","desa":"Sedupi","kecamatan":"Tanah Abang","kecCode":"161205","kabCode":"1612","province":"Sumatera Selatan"},"geometry":{"type":"Polygon","coordinates":[[[104.18230046669322,-3.3058138926429854],[104.17667852759206,-3.3111487195779645],[104.18342493041627,-3.3280658683671316],[104.17791139559448,-3.3262715913847303],[104.17406107955524,-3.3307384115675447],[104.17177860919554,-3.3168938559007692],[104.1683860732587,-3.3183585763196386],[104.16028038832933,-3.307388515611774],[104.16374859322302,-3.295863793535918],[104.17436355483424,-3.2963430476497324],[104.18230046669322,-3.3058138926429854]]]}},{"type":"Feature","properties":{"code":"1612052005","desa":"Sukaraja","kecamatan":"Tanah Abang","kecCode":"161205","kabCode":"1612","province":"Sumatera Selatan"},"geometry":{"type":"Polygon","coordinates":[[[104.16374859322302,-3.295863793535918],[104.16028038832933,-3.307388515611774],[104.1683860732587,-3.3183585763196386],[104.16403975323209,-3.3217226630991976],[104.16141215005075,-3.328514896266927],[104.15748630714738,-3.320066838544393],[104.14225852131374,-3.3075564873860768],[104.13446922507472,-3.2940063571663694],[104.13748492708777,-3.2900596913646174],[104.14147062167187,-3.304668604219932],[104.15230541176537,-3.303976920346537],[104.15628783101863,-3.298898915505937],[104.15594790976824,-3.29573743159403],[104.14725625357329,-3.295414556094059],[104.13798978669934,-3.2897831840099787],[104.150772612666,-3.2832705905356083],[104.16091311085142,-3.2868276772219627],[104.16374859322302,-3.295863793535918]]]}},{"type":"Feature","properties":{"code":"1612052006","desa":"Curup","kecamatan":"Tanah Abang","kecCode":"161205","kabCode":"1612","province":"Sumatera Selatan"},"geometry":{"type":"Polygon","coordinates":[[[104.13146561714454,-3.3360071689091364],[104.125452550295,-3.3323623218809852],[104.12404217140916,-3.3242240770056517],[104.12847281277014,-3.323319936393033],[104.13074388871955,-3.315472040337965],[104.14225852131374,-3.3075564873860768],[104.15507344408422,-3.3187907095555644],[104.14974049133065,-3.323202767321089],[104.1550882918912,-3.3282899002804016],[104.1372394733231,-3.3342149963404],[104.13469210135948,-3.3304980308788075],[104.14346975342642,-3.325617530649096],[104.14463907443381,-3.3212582217189026],[104.13657743290224,-3.325766433198755],[104.12776294640292,-3.325098559775889],[104.12560530374185,-3.3312560307597625],[104.13134766656162,-3.333640783711145],[104.13146561714454,-3.3360071689091364]]]}},{"type":"Feature","properties":{"code":"1612052007","desa":"Raja","kecamatan":"Tanah Abang","kecCode":"161205","kabCode":"1612","province":"Sumatera Selatan"},"geometry":{"type":"Polygon","coordinates":[[[104.12847281277014,-3.323319936393033],[104.11042612986203,-3.3246197580210852],[104.11139863693761,-3.3084674844299053],[104.11690289884979,-3.291952570915302],[104.13446922507472,-3.2940063571663694],[104.14225852131374,-3.3075564873860768],[104.13074388871955,-3.315472040337965],[104.12847281277014,-3.323319936393033]]]}},{"type":"Feature","properties":{"code":"1612052008","desa":"Pandan","kecamatan":"Tanah Abang","kecCode":"161205","kabCode":"1612","province":"Sumatera Selatan"},"geometry":{"type":"Polygon","coordinates":[[[104.2238952516646,-3.2949269544730524],[104.22294142440727,-3.301256578179407],[104.21948931827745,-3.295130560984096],[104.21559639595698,-3.2953396236819397],[104.21741752040231,-3.3037964659822636],[104.20901113185828,-3.3051550376215637],[104.21412568874962,-3.3117595615940325],[104.20662231306936,-3.313834347914137],[104.19873241237099,-3.320932378456173],[104.19522674801607,-3.315574674567009],[104.19073139144062,-3.3173597667733357],[104.17436355483424,-3.2963430476497324],[104.16374859322302,-3.295863793535918],[104.16206955536573,-3.2889741287172023],[104.17142661994261,-3.278718374328678],[104.17593777940505,-3.27849752781409],[104.19617396075971,-3.2851662220117364],[104.20613466018648,-3.282648466524443],[104.20753741821733,-3.2893399945088886],[104.21079640393093,-3.2918052134009637],[104.21634343580098,-3.289868807562598],[104.2238952516646,-3.2949269544730524]]]}},{"type":"Feature","properties":{"code":"1612052009","desa":"Modong","kecamatan":"Tanah Abang","kecCode":"161205","kabCode":"1612","province":"Sumatera Selatan"},"geometry":{"type":"Polygon","coordinates":[[[104.21185838905348,-3.246303427271491],[104.21065548106566,-3.263467630618313],[104.22754965399338,-3.2653711986115366],[104.23360012544548,-3.281964896334589],[104.22713616280373,-3.28719549813979],[104.2238952516646,-3.2949269544730524],[104.21634343580098,-3.289868807562598],[104.21079640393093,-3.2918052134009637],[104.20753741821733,-3.2893399945088886],[104.20613466018648,-3.282648466524443],[104.19617396075971,-3.2851662220117364],[104.17593777940505,-3.27849752781409],[104.15885965824667,-3.2781093354533293],[104.16187092300474,-3.2738618913935977],[104.15293552265632,-3.270917292482663],[104.15947565967399,-3.260342478417696],[104.17087245320123,-3.2490611083906487],[104.1800468007193,-3.2455730941339573],[104.21185838905348,-3.246303427271491]]]}},{"type":"Feature","properties":{"code":"1612052010","desa":"Tanah Abang Selatan","kecamatan":"Tanah Abang","kecCode":"161205","kabCode":"1612","province":"Sumatera Selatan"},"geometry":{"type":"Polygon","coordinates":[[[104.09987985307282,-3.338737350558731],[104.09478722075369,-3.3485136790630063],[104.07359334595624,-3.3332255280521075],[104.07215938864492,-3.3349502181925863],[104.0619510033362,-3.330884212355487],[104.06478325174572,-3.311584754972189],[104.07399914704308,-3.3107870401304025],[104.07414033790633,-3.3143810511812797],[104.07965473068133,-3.3218157950915685],[104.08865978082429,-3.3272012232807393],[104.08847303120545,-3.330013387127942],[104.09987985307282,-3.338737350558731]]]}},{"type":"Feature","properties":{"code":"1612052011","desa":"Harapan Jaya","kecamatan":"Tanah Abang","kecCode":"161205","kabCode":"1612","province":"Sumatera Selatan"},"geometry":{"type":"Polygon","coordinates":[[[104.12776858605143,-3.2659432034050915],[104.15735749275416,-3.280228165171253],[104.15885965824667,-3.2781093354533293],[104.17142661994261,-3.278718374328678],[104.16206955536573,-3.2889741287172023],[104.150772612666,-3.2832705905356083],[104.1371160557614,-3.2902617186661556],[104.13446922507472,-3.2940063571663694],[104.10816973894235,-3.2911798257500857],[104.11167073941317,-3.2823709024664507],[104.12776858605143,-3.2659432034050915]]]}},{"type":"Feature","properties":{"code":"1612052012","desa":"Tanjung Dalam","kecamatan":"Tanah Abang","kecCode":"161205","kabCode":"1612","province":"Sumatera Selatan"},"geometry":{"type":"Polygon","coordinates":[[[104.19073139144062,-3.3173597667733357],[104.18845414164537,-3.3199696515089245],[104.18924056639906,-3.3265949929880594],[104.18433027792001,-3.3285167704540504],[104.17667852759206,-3.3111487195779645],[104.18230046669322,-3.3058138926429854],[104.19073139144062,-3.3173597667733357]]]}},{"type":"Feature","properties":{"code":"1612052013","desa":"Lunas Jaya","kecamatan":"Tanah Abang","kecCode":"161205","kabCode":"1612","province":"Sumatera Selatan"},"geometry":{"type":"Polygon","coordinates":[[[104.13798978669934,-3.2897831840099787],[104.14725625357329,-3.295414556094059],[104.15594790976824,-3.29573743159403],[104.15458484691321,-3.3018801923671717],[104.14874075368287,-3.304928671068249],[104.14147062167187,-3.304668604219932],[104.13798978669934,-3.2897831840099787]]]}},{"type":"Feature","properties":{"code":"1612052014","desa":"Raja Barat","kecamatan":"Tanah Abang","kecCode":"161205","kabCode":"1612","province":"Sumatera Selatan"},"geometry":{"type":"Polygon","coordinates":[[[104.11690289884979,-3.291952570915302],[104.11139863693761,-3.3084674844299053],[104.11102500909696,-3.3173183035304192],[104.10119201070279,-3.3177017762491348],[104.10230328856595,-3.303838851030227],[104.10816973894235,-3.2911798257500857],[104.11690289884979,-3.291952570915302]]]}},{"type":"Feature","properties":{"code":"1612052015","desa":"Tanah Abang Jaya","kecamatan":"Tanah Abang","kecCode":"161205","kabCode":"1612","province":"Sumatera Selatan"},"geometry":{"type":"Polygon","coordinates":[[[104.11042612986203,-3.3246197580210852],[104.10206619759703,-3.3255298656354833],[104.10057427897986,-3.3319253880639903],[104.09500135832609,-3.3347567821145496],[104.08847303120545,-3.330013387127942],[104.08865978082429,-3.3272012232807393],[104.07965473068133,-3.3218157950915685],[104.07414033790633,-3.3143810511812797],[104.07399914704308,-3.3107870401304025],[104.10053825483664,-3.310671940398458],[104.10119201070279,-3.3177017762491348],[104.10998219032587,-3.318065880268887],[104.11042612986203,-3.3246197580210852]]]}},{"type":"Feature","properties":{"code":"1612052016","desa":"Muara Dua","kecamatan":"Tanah Abang","kecCode":"161205","kabCode":"1612","province":"Sumatera Selatan"},"geometry":{"type":"Polygon","coordinates":[[[104.06159417123405,-3.298211309158744],[104.10345353585204,-3.269450193356941],[104.12776858605143,-3.2659432034050915],[104.11167073941317,-3.2823709024664507],[104.10053825483664,-3.310671940398458],[104.07099300032678,-3.3101376243931564],[104.06159417123405,-3.298211309158744]]]}},{"type":"Feature","properties":{"code":"1612052017","desa":"Sukamanis","kecamatan":"Tanah Abang","kecCode":"161205","kabCode":"1612","province":"Sumatera Selatan"},"geometry":{"type":"Polygon","coordinates":[[[104.05396388322667,-3.342373826697319],[104.02871833328453,-3.3412497182076737],[104.02545225102061,-3.39291226863843],[104.02030688335604,-3.3925869811567506],[104.01705548162522,-3.384147322202699],[104.02265748095806,-3.3736189482287875],[104.02317170880735,-3.3489799478657307],[104.02815227390833,-3.323341787220793],[104.06159417123405,-3.298211309158744],[104.07099300032678,-3.3101376243931564],[104.06478325174572,-3.311584754972189],[104.0619510033362,-3.330884212355487],[104.06602266231607,-3.3320658504762672],[104.06435645688502,-3.338989171523247],[104.05933305617566,-3.337652218686618],[104.05396388322667,-3.342373826697319]]]}}]}