{"type":"FeatureCollection","features":[{"type":"Feature","properties":{"code":"1613011007","desa":"Muara Rupit","kecamatan":"Rupit","kecCode":"161301"},"geometry":{"type":"Polygon","coordinates":[[[102.88972349144602,-2.6962121082097488],[102.89845425825746,-2.696821998743081],[102.88811629772901,-2.6995166355881075],[102.88963584172079,-2.703925523243408],[102.89983260688932,-2.708665327236986],[102.90448997633138,-2.7033821879372764],[102.90312294207017,-2.7166762631841164],[102.91593563991789,-2.719224645083718],[102.92556191834791,-2.713269392057677],[102.92846169864856,-2.7175897432561955],[102.92103143605196,-2.7341440650626763],[102.92243275426823,-2.7561227458102295],[102.8913614536682,-2.7413421856516136],[102.89003391583257,-2.7263619319322214],[102.88295248766724,-2.718848571986813],[102.84958397322184,-2.7144930617928953],[102.8450796477076,-2.7095845539768977],[102.88296487942567,-2.6867029062319765],[102.88972349144602,-2.6962121082097488]]]}},{"type":"Feature","properties":{"code":"1613012001","desa":"Tanjung Beringin","kecamatan":"Rupit","kecCode":"161301"},"geometry":{"type":"Polygon","coordinates":[[[102.81019150923083,-2.800798900342425],[102.88199779526212,-2.8317904975930586],[102.88003231074258,-2.849253542957282],[102.83231817434432,-2.844055475925793],[102.81346797057044,-2.831604431459249],[102.79624164383688,-2.804817657597892],[102.81019150923083,-2.800798900342425]]]}},{"type":"Feature","properties":{"code":"1613012002","desa":"Noman","kecamatan":"Rupit","kecCode":"161301"},"geometry":{"type":"Polygon","coordinates":[[[102.82895791507576,-2.81096872630805],[102.81019150923083,-2.800798900342425],[102.81061687327012,-2.797829316466414],[102.82890636233878,-2.7981346327034444],[102.82895791507576,-2.81096872630805]]]}},{"type":"Feature","properties":{"code":"1613012003","desa":"Batu Gajah","kecamatan":"Rupit","kecCode":"161301"},"geometry":{"type":"Polygon","coordinates":[[[102.83605389786914,-2.7970034852202375],[102.79797652509659,-2.804962700257309],[102.75727309597664,-2.789626717904338],[102.73783540468025,-2.792736748004704],[102.70862333729723,-2.7806298462058563],[102.6906295929814,-2.792847820572547],[102.6761607162441,-2.7750678136501885],[102.68163271857514,-2.766412564718984],[102.67263662388113,-2.7387531777779945],[102.69551486501905,-2.719257859744794],[102.7183192313475,-2.7178370846976034],[102.72504691208536,-2.7431045079230185],[102.74095249356282,-2.7507462973517134],[102.77827285660707,-2.752345740709585],[102.80546340631122,-2.7764262602836918],[102.84174373038888,-2.778888453856323],[102.83480628188448,-2.785233044080159],[102.83605389786914,-2.7970034852202375]]]}},{"type":"Feature","properties":{"code":"1613012004","desa":"Maur Lama","kecamatan":"Rupit","kecCode":"161301"},"geometry":{"type":"Polygon","coordinates":[[[102.84418833592304,-2.7828217611284103],[102.82758904889556,-2.7739382354838655],[102.80546340631122,-2.7764262602836918],[102.77827285660707,-2.752345740709585],[102.74095249356282,-2.7507462973517134],[102.72504691208536,-2.7431045079230185],[102.7183192313475,-2.7178370846976034],[102.75046949627027,-2.70287249986621],[102.78240080865042,-2.7028375072454236],[102.81519975276643,-2.727167004127629],[102.83046956212063,-2.747971477852433],[102.85837828522973,-2.7609516339476303],[102.85677446666834,-2.7697859271061263],[102.84418833592304,-2.7828217611284103]]]}},{"type":"Feature","properties":{"code":"1613012005","desa":"Maur Baru","kecamatan":"Rupit","kecCode":"161301"},"geometry":{"type":"Polygon","coordinates":[[[102.84418833592304,-2.7828217611284103],[102.85837828522973,-2.7609516339476303],[102.91010611660407,-2.7789337976739152],[102.90283717709411,-2.7922583428509684],[102.8641715820529,-2.7923889540895814],[102.84418833592304,-2.7828217611284103]]]}},{"type":"Feature","properties":{"code":"1613012006","desa":"Bingin Rupit","kecamatan":"Rupit","kecCode":"161301"},"geometry":{"type":"Polygon","coordinates":[[[102.78240080865042,-2.7028375072454236],[102.8608027747283,-2.715506211928563],[102.87578480822235,-2.738278196343312],[102.88234041807588,-2.769612251831387],[102.83046956212063,-2.747971477852433],[102.81519975276643,-2.727167004127629],[102.78240080865042,-2.7028375072454236]]]}},{"type":"Feature","properties":{"code":"1613012008","desa":"Lubuk Rumbai","kecamatan":"Rupit","kecCode":"161301"},"geometry":{"type":"Polygon","coordinates":[[[102.92445148584744,-2.7521073565158023],[102.92103143605196,-2.7341440650626763],[102.92846169864856,-2.7175897432561955],[102.91773238194395,-2.702071991730148],[102.92791102307528,-2.6897077858002603],[102.93438253732432,-2.6960738419418817],[102.9381433726186,-2.7212590707296913],[102.92445148584744,-2.7521073565158023]]]}},{"type":"Feature","properties":{"code":"1613012009","desa":"Pantai","kecamatan":"Rupit","kecCode":"161301"},"geometry":{"type":"Polygon","coordinates":[[[102.9381433726186,-2.7212590707296913],[102.93438253732432,-2.6960738419418817],[102.90639093899067,-2.6638425922047144],[102.91855094307162,-2.6625892781169327],[102.94069162591784,-2.6830665047372952],[102.94502317368055,-2.712409158145937],[102.94311907868256,-2.721392352055426],[102.9381433726186,-2.7212590707296913]]]}},{"type":"Feature","properties":{"code":"1613012010","desa":"Lawang Agung","kecamatan":"Rupit","kecCode":"161301"},"geometry":{"type":"Polygon","coordinates":[[[102.92556191834791,-2.713269392057677],[102.91593563991789,-2.719224645083718],[102.90312294207017,-2.7166762631841164],[102.90448997633138,-2.7033821879372764],[102.89926184765619,-2.708578216205747],[102.88744415432433,-2.7002904977113253],[102.89516313167326,-2.7017248723065066],[102.89777169171026,-2.6953568448509913],[102.88972349144602,-2.6962121082097488],[102.90329520900671,-2.68434467518712],[102.92556191834791,-2.713269392057677]]]}},{"type":"Feature","properties":{"code":"1613012011","desa":"Karang Waru","kecamatan":"Rupit","kecCode":"161301"},"geometry":{"type":"Polygon","coordinates":[[[102.88972349144602,-2.6962121082097488],[102.88384520868948,-2.686584836039369],[102.86950427939904,-2.698874936034084],[102.85919375628686,-2.6997906680085433],[102.87413563774952,-2.679176826275624],[102.8722392832164,-2.647746261840995],[102.88118377571072,-2.6382291467286043],[102.88964888638708,-2.643416520820939],[102.88844472834158,-2.6521755011540646],[102.89556804962587,-2.659663026275078],[102.89006794887678,-2.6814091738180053],[102.89941160456198,-2.6875835052915176],[102.88972349144602,-2.6962121082097488]]]}},{"type":"Feature","properties":{"code":"1613012012","desa":"Karang Anyar","kecamatan":"Rupit","kecCode":"161301"},"geometry":{"type":"Polygon","coordinates":[[[102.86215360140761,-2.702548626118776],[102.83225140687698,-2.7109590067442046],[102.81875558130508,-2.7095065036152377],[102.80843857408098,-2.7046814447911114],[102.84978428281846,-2.6653152392481227],[102.87469660786223,-2.6278243503956413],[102.8810273827076,-2.6418911941900967],[102.8722392832164,-2.647746261840995],[102.87413563774952,-2.679176826275624],[102.85989977265643,-2.6943750810546883],[102.86215360140761,-2.702548626118776]]]}},{"type":"Feature","properties":{"code":"1613012013","desa":"Sungai Jernih","kecamatan":"Rupit","kecCode":"161301"},"geometry":{"type":"Polygon","coordinates":[[[102.91855094307162,-2.6625892781169327],[102.90408963233072,-2.659513551756577],[102.89470420403586,-2.673798224840223],[102.88964888638708,-2.643416520820939],[102.8810273827076,-2.6418911941900967],[102.87885645975786,-2.6337908053770835],[102.91099653176455,-2.6480296436133277],[102.91855094307162,-2.6625892781169327]]]}},{"type":"Feature","properties":{"code":"1613012014","desa":"Beringin Jaya","kecamatan":"Rupit","kecCode":"161301"},"geometry":{"type":"Polygon","coordinates":[[[102.8608027747283,-2.715506211928563],[102.88295248766724,-2.718848571986813],[102.89003391583257,-2.7263619319322214],[102.8913614536682,-2.7413421856516136],[102.92242174296909,-2.7561227269244215],[102.91010611660407,-2.7789337976739152],[102.88234041807588,-2.769612251831387],[102.88238526996427,-2.753420488110096],[102.8608027747283,-2.715506211928563]]]}},{"type":"Feature","properties":{"code":"1613012015","desa":"Lubuk Rumbai Baru","kecamatan":"Rupit","kecCode":"161301"},"geometry":{"type":"Polygon","coordinates":[[[102.92791102307528,-2.6897077858002603],[102.91773238194395,-2.702071991730148],[102.90329520900671,-2.68434467518712],[102.89941160456198,-2.6875835052915176],[102.89006794887678,-2.6814091738180053],[102.90408963233072,-2.659513551756577],[102.92791102307528,-2.6897077858002603]]]}},{"type":"Feature","properties":{"code":"1613012016","desa":"Noman Baru","kecamatan":"Rupit","kecCode":"161301"},"geometry":{"type":"Polygon","coordinates":[[[102.88199779526212,-2.8317904975930586],[102.83337607744409,-2.815074723197819],[102.82786106233823,-2.7989064092988607],[102.89038774060178,-2.8160203387444964],[102.88199779526212,-2.8317904975930586]]]}},{"type":"Feature","properties":{"code":"1613012017","desa":"Batu Gajah Baru","kecamatan":"Rupit","kecCode":"161301"},"geometry":{"type":"Polygon","coordinates":[[[102.83388072121836,-2.798246879785845],[102.83480628188448,-2.785233044080159],[102.84185703507416,-2.779069758979271],[102.8641715820529,-2.7923889540895814],[102.90283717709411,-2.7922583428509684],[102.89038774060178,-2.8160203387444964],[102.83388072121836,-2.798246879785845]]]}},{"type":"Feature","properties":{"code":"1613021005","desa":"Pasar Surulangun","kecamatan":"Rawas Ulu","kecCode":"161302"},"geometry":{"type":"Polygon","coordinates":[[[102.78413256386676,-2.603791188221242],[102.78931187464337,-2.621367880012878],[102.78245127770434,-2.62616992608526],[102.7760385683253,-2.616530014842893],[102.7680660442126,-2.626450962425709],[102.74598519596007,-2.625773441975191],[102.75987374197967,-2.622653692002163],[102.76030007009223,-2.601639620482964],[102.77424092158135,-2.5979307012557986],[102.78413256386676,-2.603791188221242]]]}},{"type":"Feature","properties":{"code":"1613022001","desa":"Pangkalan","kecamatan":"Rawas Ulu","kecCode":"161302"},"geometry":{"type":"Polygon","coordinates":[[[102.6408710979229,-2.61288006416217],[102.66284986862661,-2.6120662910259447],[102.65314229777886,-2.702896822930243],[102.64383040794701,-2.7202790138467083],[102.65025261866349,-2.7322174303583537],[102.64226384290207,-2.730386901704354],[102.64276935272352,-2.7355730095513136],[102.62932348808859,-2.7112324123370626],[102.63321947709726,-2.670924462828824],[102.61930178494947,-2.6187893429459437],[102.6311388892484,-2.6200888857841167],[102.6408710979229,-2.61288006416217]]]}},{"type":"Feature","properties":{"code":"1613022002","desa":"Kerta Dewa","kecamatan":"Rawas Ulu","kecCode":"161302"},"geometry":{"type":"Polygon","coordinates":[[[102.73625297109777,-2.7110121072143603],[102.69201796096019,-2.7219990428009346],[102.69248992966658,-2.671597466884003],[102.68420038823739,-2.6619490840279103],[102.70727544420645,-2.646287387914704],[102.715218975975,-2.6930946173336725],[102.73625297109777,-2.7110121072143603]]]}},{"type":"Feature","properties":{"code":"1613022003","desa":"Teladas","kecamatan":"Rawas Ulu","kecCode":"161302"},"geometry":{"type":"Polygon","coordinates":[[[102.69201796096019,-2.7219990428009346],[102.66770623375572,-2.739644655036868],[102.64383040794701,-2.7202790138467083],[102.65314229777886,-2.702896822930243],[102.66256762539565,-2.6341189032401253],[102.68386745381996,-2.6421614161829656],[102.68063626884879,-2.6543107542911626],[102.69248992966658,-2.671597466884003],[102.69201796096019,-2.7219990428009346]]]}},{"type":"Feature","properties":{"code":"1613022004","desa":"Pulau Lebar","kecamatan":"Rawas Ulu","kecCode":"161302"},"geometry":{"type":"Polygon","coordinates":[[[102.6753876985835,-2.6052602244866443],[102.67733333326679,-2.593616664197318],[102.70097872488833,-2.5818922791377927],[102.72044420973253,-2.6124253246680396],[102.71086623388963,-2.646414436039279],[102.68420038823739,-2.6619490840279103],[102.68278936633624,-2.640761938880433],[102.66256762539565,-2.6341189032401253],[102.66284986862661,-2.6120662910259447],[102.6753876985835,-2.6052602244866443]]]}},{"type":"Feature","properties":{"code":"1613022006","desa":"Sungai Baung","kecamatan":"Rawas Ulu","kecCode":"161302"},"geometry":{"type":"Polygon","coordinates":[[[102.70282531363739,-2.582415369805364],[102.70762499989387,-2.583774997248721],[102.7151944460669,-2.56872117448947],[102.72239918297595,-2.584579718708549],[102.73675602037412,-2.593377492197381],[102.74316132833268,-2.610445867384051],[102.74012952485776,-2.6201940489067894],[102.75968983062124,-2.632756457321433],[102.75430602660191,-2.640495003010365],[102.75037816022399,-2.7033348701078763],[102.73625297109777,-2.7110121072143603],[102.715218975975,-2.6930946173336725],[102.70875594233291,-2.653011756442108],[102.72044420973253,-2.6124253246680396],[102.70282531363739,-2.582415369805364]]]}},{"type":"Feature","properties":{"code":"1613022007","desa":"Sungai Jauh","kecamatan":"Rawas Ulu","kecCode":"161302"},"geometry":{"type":"Polygon","coordinates":[[[102.77048426903383,-2.5978768417577807],[102.74278309416451,-2.6106984707587815],[102.73675602037412,-2.593377492197381],[102.72728274540242,-2.5865316774223324],[102.76236657275916,-2.574759012258842],[102.77048426903383,-2.5978768417577807]]]}},{"type":"Feature","properties":{"code":"1613022008","desa":"Sungai Kijang","kecamatan":"Rawas Ulu","kecCode":"161302"},"geometry":{"type":"Polygon","coordinates":[[[102.78413256386676,-2.603791188221242],[102.76742959400065,-2.593819107884926],[102.76236657275916,-2.574759012258842],[102.7663250376704,-2.5695478160248477],[102.79922169042875,-2.5518973798254714],[102.8377251242152,-2.5505463930683536],[102.8548389286737,-2.527058811807142],[102.8627178180729,-2.5354904542043135],[102.84826484494668,-2.6116500973739516],[102.83396883229585,-2.6112158372414953],[102.8258567217104,-2.6020785831704587],[102.79176955542071,-2.592873620041977],[102.78413256386676,-2.603791188221242]]]}},{"type":"Feature","properties":{"code":"1613022009","desa":"Surulangun","kecamatan":"Rawas Ulu","kecCode":"161302"},"geometry":{"type":"Polygon","coordinates":[[[102.76914872633272,-2.7029070743022494],[102.75046949627027,-2.70287249986621],[102.75430602660191,-2.640495003010365],[102.75968983062124,-2.632756457321433],[102.75331433338981,-2.6293253206875677],[102.7693104523156,-2.626052014173253],[102.7760385683253,-2.616530014842893],[102.77977597088444,-2.6262595462249956],[102.7896673002058,-2.622333023438502],[102.76956398828749,-2.6603592499260995],[102.76914872633272,-2.7029070743022494]]]}},{"type":"Feature","properties":{"code":"1613022010","desa":"Lesung Batu","kecamatan":"Rawas Ulu","kecCode":"161302"},"geometry":{"type":"Polygon","coordinates":[[[102.78240080865042,-2.7028375072454236],[102.76914872633272,-2.7029070743022494],[102.76956398828749,-2.6603592499260995],[102.7896673002058,-2.622333023438502],[102.7897300288178,-2.631592794849706],[102.80242155471103,-2.6293588078432144],[102.8051991018571,-2.6374475153622488],[102.79185605940967,-2.646414309234924],[102.78240080865042,-2.7028375072454236]]]}},{"type":"Feature","properties":{"code":"1613022011","desa":"Lubuk Kemang","kecamatan":"Rawas Ulu","kecCode":"161302"},"geometry":{"type":"Polygon","coordinates":[[[102.79165501596628,-2.7021544406759523],[102.78240080865042,-2.7028375072454236],[102.78233396474076,-2.6940467628577043],[102.79255670322931,-2.6449591863808677],[102.81248103657066,-2.6373444008952394],[102.8248820265843,-2.6016954333083517],[102.83396883229585,-2.6112158372414953],[102.84838015242218,-2.6116452545247566],[102.8265676276939,-2.6548631520655155],[102.79165501596628,-2.7021544406759523]]]}},{"type":"Feature","properties":{"code":"1613022012","desa":"Remban","kecamatan":"Rawas Ulu","kecCode":"161302"},"geometry":{"type":"Polygon","coordinates":[[[102.80843857408098,-2.7046814447911114],[102.79165501596628,-2.7021544406759523],[102.8265676276939,-2.6548631520655155],[102.84838015242218,-2.6116452545247566],[102.8627178180729,-2.5354904542043135],[102.88849439520021,-2.56421866021476],[102.87846389039629,-2.6213000684327623],[102.84978428281846,-2.6653152392481227],[102.80843857408098,-2.7046814447911114]]]}},{"type":"Feature","properties":{"code":"1613022013","desa":"Lesung Batu Muda","kecamatan":"Rawas Ulu","kecCode":"161302"},"geometry":{"type":"Polygon","coordinates":[[[102.79080465660967,-2.6324271651587026],[102.78413256386676,-2.603791188221242],[102.79176955542071,-2.592873620041977],[102.8248820265843,-2.6016954333083517],[102.81248103657066,-2.6373444008952394],[102.80516784322144,-2.6373314542550106],[102.80242155471103,-2.6293588078432144],[102.79080465660967,-2.6324271651587026]]]}},{"type":"Feature","properties":{"code":"1613022014","desa":"Simpang Nibung Rawas","kecamatan":"Rawas Ulu","kecCode":"161302"},"geometry":{"type":"Polygon","coordinates":[[[102.7151944460669,-2.56872117448947],[102.72511111108894,-2.5558611084643412],[102.72538333317435,-2.5796027751829014],[102.7348083334379,-2.579433330319087],[102.74733611077295,-2.5637583305348315],[102.7437277780146,-2.561247219238832],[102.77751388905477,-2.5539583300758744],[102.79052788665268,-2.5411859443528346],[102.79475683705846,-2.554486833762804],[102.76284030233812,-2.57467453534185],[102.7273368872876,-2.586415538973427],[102.7151944460669,-2.56872117448947]]]}},{"type":"Feature","properties":{"code":"1613022015","desa":"Lubuk Mas","kecamatan":"Rawas Ulu","kecCode":"161302"},"geometry":{"type":"Polygon","coordinates":[[[102.61930178494947,-2.6187893429459437],[102.63321947709726,-2.670924462828824],[102.62790987524062,-2.7018706829869634],[102.63858921841772,-2.732368398650703],[102.62990094277433,-2.7376265781663593],[102.60901639069391,-2.722950760247745],[102.60500962589356,-2.6975060572648375],[102.58986082211929,-2.672409244424635],[102.61579722226405,-2.6527194408045527],[102.61414999972277,-2.6221888863963687],[102.61930178494947,-2.6187893429459437]]]}},{"type":"Feature","properties":{"code":"1613022016","desa":"Sungai Lanang","kecamatan":"Rawas Ulu","kecCode":"161302"},"geometry":{"type":"Polygon","coordinates":[[[102.79052788665268,-2.5411859443528346],[102.79697415513323,-2.5264442888659366],[102.79291388876504,-2.520530553042186],[102.80834999985268,-2.513294441492812],[102.81452041838264,-2.4882543345048895],[102.85490204399417,-2.526963939626666],[102.8377251242152,-2.5505463930683536],[102.79475683705846,-2.554486833762804],[102.79052788665268,-2.5411859443528346]]]}},{"type":"Feature","properties":{"code":"1613022017","desa":"Sukomoro","kecamatan":"Rawas Ulu","kecCode":"161302"},"geometry":{"type":"Polygon","coordinates":[[[102.7593829288791,-2.6052536999052327],[102.75987374197967,-2.622653692002163],[102.74429816402908,-2.6247797387794747],[102.73924486625765,-2.616275084022751],[102.74316132833268,-2.610445867384051],[102.7593829288791,-2.6052536999052327]]]}},{"type":"Feature","properties":{"code":"1613051004","desa":"Karang Dapo","kecamatan":"Karang Dapo","kecCode":"161305"},"geometry":{"type":"Polygon","coordinates":[[[102.94940738664167,-2.8801146476799144],[102.90423919498295,-2.8856208979871205],[102.87925226937675,-2.8554896047952716],[102.88199779526212,-2.8317904975930586],[102.92445148584744,-2.7521073565158023],[102.96686489220109,-2.7223267782372242],[102.97264032309248,-2.704824517935231],[102.95525282166044,-2.6581055767600947],[102.96978839032202,-2.6586251016157045],[103.00027239675376,-2.770611602769591],[103.05037818120815,-2.8052532811026034],[103.03719605805169,-2.855859476167374],[103.02693158742288,-2.859484171187054],[103.01430040963623,-2.854419263173528],[102.94940738664167,-2.8801146476799144]]]}},{"type":"Feature","properties":{"code":"1613052001","desa":"Aringin","kecamatan":"Karang Dapo","kecCode":"161305"},"geometry":{"type":"Polygon","coordinates":[[[103.07392725004262,-2.7272161781577697],[103.06423272565983,-2.727273529723228],[103.0287639866687,-2.674678036093506],[103.0258241568594,-2.6570939959413917],[103.0545024370379,-2.6619389072996484],[103.06407976626826,-2.6757992676518807],[103.08215177408516,-2.6861737190603505],[103.06589529603116,-2.708642969191626],[103.07392725004262,-2.7272161781577697]]]}},{"type":"Feature","properties":{"code":"1613052002","desa":"Biaro Baru","kecamatan":"Karang Dapo","kecCode":"161305"},"geometry":{"type":"Polygon","coordinates":[[[103.02107138103945,-2.6699708873826804],[103.06423272565983,-2.727273529723228],[103.0836739737749,-2.7265813341356426],[103.08268966039958,-2.7475523119410816],[103.09614961561232,-2.770712207228837],[103.06040764369787,-2.770473306824129],[103.02880979633511,-2.7779988579792256],[103.02783465424595,-2.715420013709225],[103.00011119597495,-2.691419993350725],[103.0016959830832,-2.6806387623934707],[103.01111172932292,-2.683524908069422],[103.00242411198325,-2.6680267518713467],[103.01974690989202,-2.679992428632923],[103.02107138103945,-2.6699708873826804]]]}},{"type":"Feature","properties":{"code":"1613052003","desa":"Biaro Lama","kecamatan":"Karang Dapo","kecCode":"161305"},"geometry":{"type":"Polygon","coordinates":[[[103.00611599625626,-2.6066026892681635],[103.02889422289013,-2.670190626831903],[103.02107138103945,-2.6699708873826804],[103.02193661698135,-2.67930222414432],[103.00299542340014,-2.667788457609776],[103.01050296384079,-2.6848516239232416],[103.0016959830832,-2.6806387623934707],[102.99868306267325,-2.691634609362261],[102.98731486398987,-2.6846811556309693],[102.97629367321451,-2.6552056354839757],[102.97897681672673,-2.6352675803086743],[102.98292196267852,-2.625687868784686],[102.99914893487549,-2.6237976260462306],[103.00611599625626,-2.6066026892681635]]]}},{"type":"Feature","properties":{"code":"1613052005","desa":"Rantau Kadam","kecamatan":"Karang Dapo","kecCode":"161305"},"geometry":{"type":"Polygon","coordinates":[[[102.90866241783634,-2.6463643213183494],[102.87469660786223,-2.6278243503956413],[102.88675872973162,-2.5615351614732798],[102.90707497323149,-2.590403195873902],[102.91068309644783,-2.6232509137858764],[102.94605988155836,-2.636952890935403],[102.97264032309248,-2.704824517935231],[102.96686489220109,-2.7223267782372242],[102.95937635533461,-2.7288516888262957],[102.9490108827461,-2.6773929076845713],[102.90866241783634,-2.6463643213183494]]]}},{"type":"Feature","properties":{"code":"1613052006","desa":"Kerta Sari","kecamatan":"Karang Dapo","kecCode":"161305"},"geometry":{"type":"Polygon","coordinates":[[[102.92449375758093,-2.7520724808069024],[102.9381433726186,-2.7212590707296913],[102.94311907868256,-2.721392352055426],[102.94543318899052,-2.7013565864392315],[102.94069162591784,-2.6830665047372952],[102.92185371407771,-2.669094604169799],[102.91565668640702,-2.6529807963813554],[102.9490108827461,-2.6773929076845713],[102.95937635533461,-2.7288516888262957],[102.92449375758093,-2.7520724808069024]]]}},{"type":"Feature","properties":{"code":"1613052007","desa":"Karang Dapo II","kecamatan":"Karang Dapo","kecCode":"161305"},"geometry":{"type":"Polygon","coordinates":[[[103.05037818120815,-2.8052532811026034],[103.00027239675376,-2.770611602769591],[102.96978839032202,-2.6586251016157045],[102.9764491686942,-2.6549913603155484],[102.98731486398987,-2.6846811556309693],[103.02783465424595,-2.715420013709225],[103.02880979633511,-2.7779988579792256],[103.06035954435752,-2.770665715876359],[103.05037818120815,-2.8052532811026034]]]}},{"type":"Feature","properties":{"code":"1613052008","desa":"Setia Marga","kecamatan":"Karang Dapo","kecCode":"161305"},"geometry":{"type":"Polygon","coordinates":[[[103.10173558003304,-2.8433672922138267],[103.03719605805169,-2.855859476167374],[103.06040764369787,-2.770473306824129],[103.09614961561232,-2.770712207228837],[103.10182826865973,-2.784836432266363],[103.10173558003304,-2.8433672922138267]]]}},{"type":"Feature","properties":{"code":"1613052009","desa":"Bina Karya","kecamatan":"Karang Dapo","kecCode":"161305"},"geometry":{"type":"Polygon","coordinates":[[[103.11981117974221,-2.741536470689641],[103.11995994019912,-2.7925366074809035],[103.10208854594968,-2.792537120094408],[103.08473599666901,-2.7417940158389342],[103.11981117974221,-2.741536470689641]]]}},{"type":"Feature","properties":{"code":"1613061009","desa":"Karang Jaya","kecamatan":"Karang Jaya","kecCode":"161306"},"geometry":{"type":"Polygon","coordinates":[[[102.86996210716556,-2.971515986481349],[102.85658104318064,-2.9747032683454324],[102.84528784255997,-2.9909086064337256],[102.83466042084181,-2.971295170543624],[102.78513226194438,-2.923575988101191],[102.76406362943298,-2.8849846231435756],[102.73592848131443,-2.8619821029184935],[102.75738865975886,-2.8559496008267957],[102.79497959643128,-2.8655128457642105],[102.8709807395695,-2.957701580586211],[102.86996210716556,-2.971515986481349]]]}},{"type":"Feature","properties":{"code":"1613062001","desa":"Bukit Ulu","kecamatan":"Karang Jaya","kecCode":"161306"},"geometry":{"type":"Polygon","coordinates":[[[102.73323170587861,-3.0077165838217272],[102.72511807903618,-3.0047066122920185],[102.71251629379196,-3.0124064007980924],[102.69573542824747,-3.0068997350040516],[102.67270032196232,-3.031362887330174],[102.63477142006502,-3.040974558061783],[102.6234894771577,-3.0535303996270104],[102.59593912129348,-3.0472084876071728],[102.58493002190306,-3.066787260927686],[102.58413203636444,-3.0538977025352665],[102.59299406282581,-3.0441034928108617],[102.62211305667228,-3.0440247274882477],[102.65513052255561,-3.0224361582546018],[102.66282517234389,-3.0082057520617154],[102.65916510608486,-2.9953319075233806],[102.6751657288154,-2.986960561971304],[102.70797997579531,-2.988404582694706],[102.72181096790189,-2.982484468878954],[102.73323170587861,-3.0077165838217272]]]}},{"type":"Feature","properties":{"code":"1613062002","desa":"Sukaraja","kecamatan":"Karang Jaya","kecCode":"161306"},"geometry":{"type":"Polygon","coordinates":[[[102.73853819338295,-2.978997757739965],[102.66081646730616,-2.9928868757132436],[102.67049253670126,-2.969537934837737],[102.64837302659394,-2.946237973738658],[102.66706267080563,-2.938676682626196],[102.69655697692302,-2.941521260737886],[102.71421501690956,-2.9534430919524555],[102.72596148033813,-2.9451719740437374],[102.74095822764014,-2.9449520493342054],[102.73219900987647,-2.958363487906617],[102.73853819338295,-2.978997757739965]]]}},{"type":"Feature","properties":{"code":"1613062003","desa":"Lubuk Kumbung","kecamatan":"Karang Jaya","kecCode":"161306"},"geometry":{"type":"Polygon","coordinates":[[[102.49095719661737,-3.1086602853029355],[102.48139762180284,-3.1056617936191646],[102.46913222797001,-3.0852189318926087],[102.48475798629208,-3.0374609958644374],[102.50498695688259,-3.0288006792534845],[102.51047808599492,-3.013463454936679],[102.53217213133883,-3.0111872546527287],[102.5495623873943,-2.9635661585677404],[102.56142448295361,-2.9584122779262594],[102.5915456273289,-2.9630240346483943],[102.61386686526367,-2.9455160006988574],[102.65440861966215,-2.942959363022959],[102.64837302659394,-2.946237973738658],[102.67049253670126,-2.969537934837737],[102.65916510608486,-2.9953319075233806],[102.66282517234389,-3.0082057520617154],[102.65822081074191,-3.0196766955784873],[102.62211305667228,-3.0440247274882477],[102.59299406282581,-3.0441034928108617],[102.58413203636444,-3.0538977025352665],[102.58462790635285,-3.0713706134624252],[102.49095719661737,-3.1086602853029355]]]}},{"type":"Feature","properties":{"code":"1613062004","desa":"Muara Batang Empu","kecamatan":"Karang Jaya","kecCode":"161306"},"geometry":{"type":"Polygon","coordinates":[[[102.74095822764014,-2.9449520493342054],[102.72596148033813,-2.9451719740437374],[102.71421501690956,-2.9534430919524555],[102.69655697692302,-2.941521260737886],[102.68225724107889,-2.9422194368170964],[102.69573199283724,-2.915912169778959],[102.74095822764014,-2.9449520493342054]]]}},{"type":"Feature","properties":{"code":"1613062005","desa":"Tanjung Agung","kecamatan":"Karang Jaya","kecCode":"161306"},"geometry":{"type":"Polygon","coordinates":[[[102.62298291782746,-2.936371745405592],[102.5915456273289,-2.9630240346483943],[102.55399122201732,-2.959133136706065],[102.53452345109645,-2.994330292991605],[102.53217213133883,-3.0111872546527287],[102.51047808599492,-3.013463454936679],[102.50498695688259,-3.0288006792534845],[102.4869349212097,-3.033977462030203],[102.46913222797001,-3.0852189318926087],[102.44225836373253,-3.058649668060945],[102.40829986075003,-3.054693925401789],[102.38887709999824,-3.042365058331624],[102.39122711663815,-2.983351608684664],[102.39726253793582,-2.9668659105461064],[102.37538104599855,-2.944126728902885],[102.37242570468258,-2.922180404863101],[102.43389932359496,-2.886511744821286],[102.45566449901747,-2.891638108906126],[102.46234563174555,-2.8675363968080396],[102.48561197081585,-2.8886376000429834],[102.53650771975556,-2.870555405624976],[102.57661575901011,-2.8696748299479053],[102.61842053388055,-2.855823632787941],[102.62351099343766,-2.8477316589312607],[102.6531827699689,-2.846840678098095],[102.65402909676543,-2.8753544020962374],[102.67612887214977,-2.8915585530793897],[102.66600984887549,-2.903042012461024],[102.66946776282701,-2.9100314219870635],[102.66281136595182,-2.9233472338478363],[102.65046568244539,-2.9316124674924913],[102.62298291782746,-2.936371745405592]]]}},{"type":"Feature","properties":{"code":"1613062006","desa":"Rantau Telang","kecamatan":"Karang Jaya","kecCode":"161306"},"geometry":{"type":"Polygon","coordinates":[[[102.68225724107889,-2.9422194368170964],[102.66706267080563,-2.938676682626196],[102.63805302282879,-2.947725342683961],[102.6178770636756,-2.9454156624389505],[102.62298291782746,-2.936371745405592],[102.65046568244539,-2.9316124674924913],[102.66281136595182,-2.9233472338478363],[102.66946776282701,-2.9100314219870635],[102.66600984887549,-2.903042012461024],[102.67617849674029,-2.8913923520702043],[102.6963444842106,-2.9099156990249644],[102.68225724107889,-2.9422194368170964]]]}},{"type":"Feature","properties":{"code":"1613062007","desa":"Suka Menang","kecamatan":"Karang Jaya","kecCode":"161306"},"geometry":{"type":"Polygon","coordinates":[[[102.74095822764014,-2.9449520493342054],[102.69546105768171,-2.9158277414253346],[102.69492529017008,-2.9077088238801605],[102.66857985857364,-2.8811485208934524],[102.65407159782603,-2.8754058963772287],[102.6536890532073,-2.851508802527396],[102.66765340398149,-2.8642743507050015],[102.69796947730958,-2.8690409248179423],[102.71779747167601,-2.906374769558495],[102.74335126964542,-2.9347626460269782],[102.74095822764014,-2.9449520493342054]]]}},{"type":"Feature","properties":{"code":"1613062008","desa":"Terusan","kecamatan":"Karang Jaya","kecCode":"161306"},"geometry":{"type":"Polygon","coordinates":[[[102.84528784255997,-2.9909086064337256],[102.82773159863443,-2.995509267320476],[102.81915523372707,-2.9916520354989364],[102.82295132784157,-2.989204178918216],[102.79300211765364,-2.955350860678905],[102.76717892596672,-2.9554209718255566],[102.74530995708892,-2.9469086080802454],[102.74335126964542,-2.9347626460269782],[102.71779747167601,-2.906374769558495],[102.69350693070032,-2.8656518620665854],[102.73559733744725,-2.8627272766684877],[102.76406362943298,-2.8849846231435756],[102.78513226194438,-2.923575988101191],[102.83466042084181,-2.971295170543624],[102.84528784255997,-2.9909086064337256]]]}},{"type":"Feature","properties":{"code":"1613062010","desa":"Muara Tiku","kecamatan":"Karang Jaya","kecCode":"161306"},"geometry":{"type":"Polygon","coordinates":[[[102.79066981136275,-2.8634742904313284],[102.75738865975886,-2.8559496008267957],[102.73471475628105,-2.8647133538620135],[102.68093553085015,-2.8688573830810906],[102.66572375384823,-2.862980577017742],[102.6531827699689,-2.846840678098095],[102.62351099343766,-2.8477316589312607],[102.61842053388055,-2.855823632787941],[102.57661575901011,-2.8696748299479053],[102.53650771975556,-2.870555405624976],[102.48561197081585,-2.8886376000429834],[102.46234563174555,-2.8675363968080396],[102.45566449901747,-2.891638108906126],[102.43389932359496,-2.886511744821286],[102.39335169482489,-2.9058963509149027],[102.39855309744758,-2.887131403790673],[102.41219613934044,-2.88362567918502],[102.423849963605,-2.870898238879711],[102.4257481086883,-2.851604799759813],[102.44858493694532,-2.836246158088559],[102.46244172700415,-2.802945971470531],[102.485291528881,-2.7976148767220654],[102.49519781842463,-2.7792772199845888],[102.50632070004035,-2.776670357870469],[102.53544835525747,-2.776376774188818],[102.50581273057308,-2.8126598681389035],[102.52351636888538,-2.8191754554563158],[102.56127190127728,-2.8186481919345354],[102.56974348077705,-2.8116808023087474],[102.58785778820642,-2.8156667900675316],[102.60292390831177,-2.8333133196120506],[102.64403231923619,-2.8191232417177097],[102.66787379543939,-2.8298019148882707],[102.69295739456817,-2.823777726129578],[102.69988822855895,-2.8322960559773294],[102.72661979936429,-2.8334121766885545],[102.73324955382388,-2.841626216425695],[102.78914615207331,-2.8362676231070867],[102.80118602201736,-2.8524496975326774],[102.79066981136275,-2.8634742904313284]]]}},{"type":"Feature","properties":{"code":"1613062011","desa":"Embacang Baru","kecamatan":"Karang Jaya","kecCode":"161306"},"geometry":{"type":"Polygon","coordinates":[[[102.87626824778147,-2.911906186493801],[102.8709807395695,-2.957701580586211],[102.79065621091547,-2.8634678566814347],[102.80955469389409,-2.842461825101202],[102.86086803133463,-2.8809508624984397],[102.87626824778147,-2.911906186493801]]]}},{"type":"Feature","properties":{"code":"1613062012","desa":"Embacang Lama","kecamatan":"Karang Jaya","kecCode":"161306"},"geometry":{"type":"Polygon","coordinates":[[[102.79621897732403,-2.804559500010255],[102.81346797057044,-2.831604431459249],[102.80118602201736,-2.8524496975326774],[102.78914615207331,-2.8362676231070867],[102.73324955382388,-2.841626216425695],[102.72661979936429,-2.8334121766885545],[102.69988822855895,-2.8322960559773294],[102.69295739456817,-2.823777726129578],[102.66787379543939,-2.8298019148882707],[102.64403231923619,-2.8191232417177097],[102.60654790636083,-2.83362456687792],[102.58785778820642,-2.8156667900675316],[102.56974348077705,-2.8116808023087474],[102.56127190127728,-2.8186481919345354],[102.53952021388682,-2.821031760478769],[102.50581273057308,-2.8126598681389035],[102.53544835525747,-2.776376774188818],[102.57458113641034,-2.780263902173184],[102.6106157423227,-2.757466523601836],[102.62274462266627,-2.738962154140936],[102.62734543194618,-2.741866457128992],[102.65377712021795,-2.7286801377502354],[102.66261785343124,-2.7387737965345686],[102.67263662388113,-2.7387531777779945],[102.67952234068355,-2.7500849071415012],[102.68163271857514,-2.766412564718984],[102.6761607162441,-2.7750678136501885],[102.6906295929814,-2.792847820572547],[102.70862333729723,-2.7806298462058563],[102.73783540468025,-2.792736748004704],[102.75727309597664,-2.789626717904338],[102.79621897732403,-2.804559500010255]]]}},{"type":"Feature","properties":{"code":"1613062013","desa":"Rantau Jaya","kecamatan":"Karang Jaya","kecCode":"161306"},"geometry":{"type":"Polygon","coordinates":[[[102.79250308474963,-2.9937715684866655],[102.78798642233556,-2.9874826076265997],[102.76746373496348,-2.9867023926925222],[102.75424219991764,-2.978223577256726],[102.73853819338295,-2.978997757739965],[102.73219900987647,-2.958363487906617],[102.73753610490733,-2.9487511903475956],[102.74095822764014,-2.9449520493342054],[102.76717892596672,-2.9554209718255566],[102.79644078881141,-2.957203515353203],[102.81770055783453,-2.9861088770149222],[102.79250308474963,-2.9937715684866655]]]}},{"type":"Feature","properties":{"code":"1613062014","desa":"Bukit Langkap","kecamatan":"Karang Jaya","kecCode":"161306"},"geometry":{"type":"Polygon","coordinates":[[[102.79082599932049,-2.992688690315553],[102.77139309871264,-2.993880644559531],[102.73633309979277,-3.0139433106968787],[102.7227321767486,-2.9842745577185394],[102.74880083479076,-2.977416293628366],[102.79082599932049,-2.992688690315553]]]}},{"type":"Feature","properties":{"code":"1613062015","desa":"Embacang Baru Ilir","kecamatan":"Karang Jaya","kecCode":"161306"},"geometry":{"type":"Polygon","coordinates":[[[102.91090330534333,-2.93151289815291],[102.87510941286916,-2.927204680607386],[102.87626824778147,-2.911906186493801],[102.86086803133463,-2.8809508624984397],[102.80955469389409,-2.842461825101202],[102.81346797057044,-2.831604431459249],[102.83231817434432,-2.844055475925793],[102.87999998641033,-2.849251160653201],[102.87925226937675,-2.8554896047952716],[102.90344291905551,-2.882193043878731],[102.91090330534333,-2.93151289815291]]]}},{"type":"Feature","properties":{"code":"1613071007","desa":"Muara Kulam","kecamatan":"Ulu Rawas","kecCode":"161307"},"geometry":{"type":"Polygon","coordinates":[[[102.43284444401591,-2.6908333296078473],[102.47155822383303,-2.7040366012071706],[102.46594732480924,-2.7212423370444316],[102.47202287295727,-2.729570374843991],[102.45242187377049,-2.737406225379533],[102.41719313415585,-2.771591870993318],[102.4115906150149,-2.782813221166249],[102.41563310628288,-2.798504173125004],[102.40135845882587,-2.8038140294840628],[102.38788763800414,-2.835042977607498],[102.37511630177595,-2.8315051472047528],[102.36510593908787,-2.8648566077698994],[102.33565094233715,-2.883526818511196],[102.32425213342928,-2.9013600958756514],[102.30104692397639,-2.8963532660797533],[102.29501188399132,-2.8718343099215553],[102.28892525889364,-2.869194339266361],[102.28465236311614,-2.8354907518523254],[102.30782978801439,-2.7865356581031047],[102.36187020534578,-2.751650258099941],[102.37105397326229,-2.7311030687210494],[102.40449144682286,-2.715418367050547],[102.41570055723496,-2.7257561090324547],[102.4218094936133,-2.692377601356907],[102.43284444401591,-2.6908333296078473]]]}},{"type":"Feature","properties":{"code":"1613072001","desa":"Jangkat","kecamatan":"Ulu Rawas","kecCode":"161307"},"geometry":{"type":"Polygon","coordinates":[[[102.58986082211929,-2.672409244424635],[102.60500962589356,-2.6975060572648375],[102.60901639069391,-2.722950760247745],[102.62069872436673,-2.7284933539573837],[102.62829892555503,-2.741457785406615],[102.57864762069117,-2.7287069249566502],[102.55191122682173,-2.6988924107607595],[102.55322490700392,-2.6912474817987637],[102.53440392759921,-2.6890236058700885],[102.5222625943433,-2.68050810439013],[102.53884166730914,-2.675180552970594],[102.58064166677956,-2.678316664309682],[102.58986082211929,-2.672409244424635]]]}},{"type":"Feature","properties":{"code":"1613072002","desa":"Napal Licin","kecamatan":"Ulu Rawas","kecCode":"161307"},"geometry":{"type":"Polygon","coordinates":[[[102.38518912867539,-2.72657330498842],[102.37105397326229,-2.7311030687210494],[102.35358631255832,-2.758633430827543],[102.30913829529614,-2.785225907060372],[102.29209518024845,-2.8162547920016445],[102.28465236311614,-2.8354907518523254],[102.28892525889364,-2.869194339266361],[102.29501188399132,-2.8718343099215553],[102.29670827876411,-2.8906543180379565],[102.30840817799509,-2.8979907219818917],[102.26575766268603,-2.909164659896609],[102.2506976040113,-2.9045672167840846],[102.23485122400484,-2.9271893804414257],[102.22305007280265,-2.9292334711014933],[102.21074662775469,-2.91605295145053],[102.19350646585076,-2.91600985683742],[102.18343294197678,-2.902835069465264],[102.13134032039954,-2.8748173359640767],[102.12936617271077,-2.8348215042654226],[102.1195630956604,-2.8294913322214184],[102.11346343309098,-2.8142174696393454],[102.09246678411482,-2.8109221306342342],[102.07342960139503,-2.7949446897454577],[102.06388889435702,-2.7685194406482845],[102.0910077896778,-2.769613364292792],[102.1142859098669,-2.7854655008423124],[102.1647826368093,-2.8018383610438535],[102.19123193920267,-2.799834272228342],[102.21469379358376,-2.7563103255030255],[102.25907427535758,-2.7510954357533883],[102.26820935757586,-2.7395930708237035],[102.30321497359222,-2.7222394360802302],[102.34437688698381,-2.711398148396759],[102.35174806142396,-2.699890153711106],[102.34002641298859,-2.685089893903152],[102.31889535493673,-2.673519532132996],[102.31065042887423,-2.6778307866889888],[102.29653287589154,-2.6661628988390556],[102.29330728380415,-2.6713276010226465],[102.25700577889364,-2.651694642649737],[102.24816936332553,-2.6404249017562904],[102.27130785117646,-2.624472784877004],[102.29817777818197,-2.6329333296860513],[102.30522222172823,-2.649336107634011],[102.31921666741533,-2.654813886304536],[102.3344166668957,-2.656636107920804],[102.34960277814577,-2.6466083298722394],[102.37305688396809,-2.6561673291102075],[102.38517448231659,-2.6693990021989666],[102.37477280661977,-2.674784188470459],[102.36906135799535,-2.7029976009585885],[102.38165050956341,-2.709232267048763],[102.38518912867539,-2.72657330498842]]]}},{"type":"Feature","properties":{"code":"1613072003","desa":"Sosokan","kecamatan":"Ulu Rawas","kecCode":"161307"},"geometry":{"type":"Polygon","coordinates":[[[102.4225824932875,-2.690812940178452],[102.41541495503621,-2.7258702752681137],[102.40449144682286,-2.715418367050547],[102.38518912867539,-2.72657330498842],[102.38165050956341,-2.709232267048763],[102.36906135799535,-2.7029976009585885],[102.37477280661977,-2.674784188470459],[102.38517448231659,-2.6693990021989666],[102.4055638892621,-2.6890694407173723],[102.4225824932875,-2.690812940178452]]]}},{"type":"Feature","properties":{"code":"1613072004","desa":"Kuto Tanjung","kecamatan":"Ulu Rawas","kecCode":"161307"},"geometry":{"type":"Polygon","coordinates":[[[102.24816936332553,-2.6404249017562904],[102.27044110167553,-2.6612977167618532],[102.29330728380415,-2.6713276010226465],[102.29653287589154,-2.6661628988390556],[102.31065042887423,-2.6778307866889888],[102.31889535493673,-2.673519532132996],[102.34002641298859,-2.685089893903152],[102.35085883876445,-2.703434121986777],[102.33202312756532,-2.716985106562246],[102.30321497359222,-2.7222394360802302],[102.26820935757586,-2.7395930708237035],[102.25907427535758,-2.7510954357533883],[102.21469379358376,-2.7563103255030255],[102.19358398201523,-2.7992490312129354],[102.1647826368093,-2.8018383610438535],[102.09345482068346,-2.773596877117247],[102.10944444380607,-2.7387222186166125],[102.13558333260477,-2.722499996656378],[102.16436059756357,-2.7142034881883177],[102.16844444415585,-2.7071944410661075],[102.19418548996843,-2.708402792648943],[102.23608716589007,-2.6912149254414075],[102.24140986367433,-2.6510822717862017],[102.24816936332553,-2.6404249017562904]]]}},{"type":"Feature","properties":{"code":"1613072005","desa":"Muara Kuis","kecamatan":"Ulu Rawas","kecCode":"161307"},"geometry":{"type":"Polygon","coordinates":[[[102.50716294931071,-2.7758302966515207],[102.4912366942181,-2.783286344601612],[102.485291528881,-2.7976148767220654],[102.46244172700415,-2.802945971470531],[102.44858493694532,-2.836246158088559],[102.42556922993606,-2.851833961406014],[102.42049883785114,-2.87623515853701],[102.38773546641869,-2.892978150913999],[102.36043966815623,-2.9225152890103603],[102.31226343580897,-2.9221193687752827],[102.28738917097354,-2.905311680069616],[102.29863606999868,-2.897199975986603],[102.32425213342928,-2.9013600958756514],[102.33565094233715,-2.883526818511196],[102.36510593908787,-2.8648566077698994],[102.37511630177595,-2.8315051472047528],[102.38788763800414,-2.835042977607498],[102.40135845882587,-2.8038140294840628],[102.41563310628288,-2.798504173125004],[102.4115906150149,-2.782813221166249],[102.41719313415585,-2.771591870993318],[102.45242187377049,-2.737406225379533],[102.47202287295727,-2.729570374843991],[102.46594732480924,-2.7212423370444316],[102.47442222190806,-2.7016138860735928],[102.52069865891603,-2.733987119875997],[102.50694118728603,-2.7521903747324523],[102.50239966401335,-2.771121013849532],[102.50716294931071,-2.7758302966515207]]]}},{"type":"Feature","properties":{"code":"1613072006","desa":"Pulau Kidak","kecamatan":"Ulu Rawas","kecCode":"161307"},"geometry":{"type":"Polygon","coordinates":[[[102.39335169482489,-2.9058963509149027],[102.37162947821793,-2.9288873094557797],[102.37538104599855,-2.944126728902885],[102.39726253793582,-2.9668659105461064],[102.39122711663815,-2.983351608684664],[102.38952448686564,-3.04311184546535],[102.34866706773106,-3.0634994492481455],[102.31760584223588,-3.069936166921489],[102.28708739896432,-3.0404687226863203],[102.26769618822857,-3.042599183336225],[102.2538260036672,-3.035515992507346],[102.2428904841086,-3.019540493254768],[102.22305007280265,-2.9292334711014933],[102.23485122400484,-2.9271893804414257],[102.25478365124455,-2.9037559527563395],[102.26575766268603,-2.909164659896609],[102.28738917097354,-2.905311680069616],[102.31226343580897,-2.9221193687752827],[102.35883223072295,-2.9234081737082347],[102.36681072633398,-2.9107701053298487],[102.38773546641869,-2.892978150913999],[102.39659004379553,-2.8897656628516044],[102.3979278950564,-2.887128816441149],[102.39927890339874,-2.8870681589678795],[102.39335169482489,-2.9058963509149027]]]}},{"type":"Feature","properties":{"code":"1613072006","desa":"Pulau Kidak","kecamatan":"Ulu Rawas","kecCode":"161307"},"geometry":{"type":"Polygon","coordinates":[[[102.57458113641034,-2.780263902173184],[102.50263661378875,-2.777611153950301],[102.50716294931071,-2.7758302966515207],[102.50239966401335,-2.771121013849532],[102.50694118728603,-2.7521903747324523],[102.52069865891603,-2.733987119875997],[102.47731237856344,-2.7007713786987058],[102.49714444416081,-2.6944444412673554],[102.4981027779209,-2.701163886006618],[102.50699722224408,-2.7029583302628626],[102.51040555567192,-2.68996388573907],[102.5222625943433,-2.68050810439013],[102.53440392759921,-2.6890236058700885],[102.55322490700392,-2.6912474817987637],[102.55191122682173,-2.6988924107607595],[102.57864762069117,-2.7287069249566502],[102.5984077126459,-2.729950076705379],[102.62038093633123,-2.742039405751479],[102.59475346230249,-2.771041200816652],[102.57458113641034,-2.780263902173184]]]}},{"type":"Feature","properties":{"code":"1613031003","desa":"Karya Makmur","kecamatan":"Nibung","kecCode":"161303"},"geometry":{"type":"Polygon","coordinates":[[[103.01098179527365,-2.5057433262093465],[102.99761708905748,-2.5074891189415816],[102.94386128377128,-2.4923452902334295],[102.97384109968704,-2.458625229038526],[102.97551915188738,-2.448878636617919],[102.98469157575566,-2.448621012328253],[102.98444886402392,-2.4294709503235135],[102.99368941423512,-2.429402394104737],[102.9947392279331,-2.49563917143747],[103.01098179527365,-2.5057433262093465]]]}},{"type":"Feature","properties":{"code":"1613032001","desa":"Tebing Tinggi","kecamatan":"Nibung","kecCode":"161303"},"geometry":{"type":"Polygon","coordinates":[[[102.84843055582552,-2.350094441192015],[102.85999444428823,-2.342388886233113],[102.85593611056309,-2.3335361084094157],[102.86520833309817,-2.3318944409821967],[102.86450277808082,-2.3229944415565518],[102.87001111122385,-2.3275777752054263],[102.86754166731413,-2.3145166648377935],[102.87761666697565,-2.3245555531108972],[102.89276944395476,-2.317338886702824],[102.9109736296294,-2.324530420657004],[102.91500138910288,-2.3324776423352143],[102.92862222223785,-2.326877775301158],[102.9407138886351,-2.336177775185993],[102.96353333299696,-2.3356972197532166],[102.97234166723422,-2.3302222190884856],[102.98974444365119,-2.3395249969791174],[103.0293255557299,-2.3416249975914054],[103.02812757692617,-2.360057580468591],[103.03877971201415,-2.3868620880610862],[103.05182803763387,-2.3923321289647426],[103.0664277783194,-2.384905553596747],[103.07931111071922,-2.3928722195168572],[103.06802500035353,-2.4124388861637858],[103.08275000041225,-2.432583330352403],[103.1167527779184,-2.451491664483998],[103.09849625080142,-2.4545795910471573],[103.05377187996834,-2.4888387319562373],[103.06455083835056,-2.5359369720963056],[103.04269444469291,-2.559341910158148],[103.033411030095,-2.5471406703760984],[103.0342435343117,-2.5308177908966867],[102.99641280420757,-2.507133265302212],[103.01265518179126,-2.5048034483373045],[103.04008470564467,-2.471362798407879],[103.04238607255928,-2.482396679504561],[103.05505315937586,-2.4840372884297097],[103.06945793603501,-2.444645454007294],[103.04194223824373,-2.440147654878101],[103.04275269018454,-2.4301062215235985],[103.03461358824654,-2.4320417181473775],[103.02624863056991,-2.445343059916263],[102.99402274885085,-2.4582456782633035],[102.99368941423512,-2.429402394104737],[102.98444886402392,-2.4294709503235135],[102.98407987488639,-2.4098664995602386],[102.95644196102774,-2.422726772429392],[102.86987676689932,-2.395350857193173],[102.8524083327784,-2.3973999975464575],[102.84352777758492,-2.373966664290471],[102.85319999968031,-2.3702444413922836],[102.84843055582552,-2.350094441192015]]]}},{"type":"Feature","properties":{"code":"1613032002","desa":"Jadi Mulya","kecamatan":"Nibung","kecCode":"161303"},"geometry":{"type":"Polygon","coordinates":[[[102.96953756130951,-2.580852820235016],[102.89508463524776,-2.5656724754545803],[102.9155624095776,-2.566572312811226],[102.92794708678866,-2.5538414658740862],[102.92478413967638,-2.5244671815104978],[102.94329011174932,-2.5248554691994283],[102.94991021108746,-2.515829971180987],[102.94993878884405,-2.4974697783324737],[102.9949858058503,-2.506419767473365],[103.0342435343117,-2.5308177908966867],[103.03363282899191,-2.5490391500051834],[103.0188909198801,-2.556741246171544],[103.01914847402293,-2.5694300812793474],[103.01042842623092,-2.5771640629087957],[103.0113027588153,-2.6019332113591407],[102.99189940633259,-2.578668042332253],[102.96953756130951,-2.580852820235016]]]}},{"type":"Feature","properties":{"code":"1613032004","desa":"Mulya Jaya","kecamatan":"Nibung","kecCode":"161303"},"geometry":{"type":"Polygon","coordinates":[[[102.90405895105982,-2.4418418004446014],[102.91077767724806,-2.443092031656408],[102.92908156356337,-2.472782639958814],[102.90189823091866,-2.507615613083779],[102.88327446924141,-2.4855799764726414],[102.88344662825932,-2.4764957500266855],[102.897309354743,-2.4650086474915547],[102.90405895105982,-2.4418418004446014]]]}},{"type":"Feature","properties":{"code":"1613032005","desa":"Sumber Makmur","kecamatan":"Nibung","kecCode":"161303"},"geometry":{"type":"Polygon","coordinates":[[[102.94386200502761,-2.4918804360642444],[102.94993878884405,-2.4974697783324737],[102.94991021108746,-2.515829971180987],[102.94329011174932,-2.5248554691994283],[102.92476963181308,-2.5245972279748647],[102.90050963361278,-2.50695339819522],[102.92554015835167,-2.4787771699757815],[102.93035809095316,-2.4836903173942044],[102.94716547390755,-2.478696292145601],[102.94386200502761,-2.4918804360642444]]]}},{"type":"Feature","properties":{"code":"1613032005","desa":"Sumber Makmur","kecamatan":"Nibung","kecCode":"161303"},"geometry":{"type":"Polygon","coordinates":[[[102.89955922018194,-2.4572863217168286],[102.88344662825932,-2.4764957500266855],[102.88328085172998,-2.4855804009526463],[102.86197623531505,-2.476631435240258],[102.86510175174452,-2.4369455872602717],[102.90388061369941,-2.4415991345785355],[102.89955922018194,-2.4572863217168286]]]}},{"type":"Feature","properties":{"code":"1613032006","desa":"Sri Jaya Makmur","kecamatan":"Nibung","kecCode":"161303"},"geometry":{"type":"Polygon","coordinates":[[[102.98407987488639,-2.4098664995602386],[102.98469157575566,-2.448621012328253],[102.97551915188738,-2.448878636617919],[102.97384109968704,-2.458625229038526],[102.9491676705516,-2.485480653547289],[102.94716547390755,-2.478696292145601],[102.93035809095316,-2.4836903173942044],[102.92554015835167,-2.4787771699757815],[102.92908156356337,-2.472782639958814],[102.91077767724806,-2.443092031656408],[102.94721468480991,-2.45091274210527],[102.95670796699913,-2.4368874155131244],[102.95657734496854,-2.422715185564146],[102.98407987488639,-2.4098664995602386]]]}},{"type":"Feature","properties":{"code":"1613032008","desa":"Bumi Makmur","kecamatan":"Nibung","kecCode":"161303"},"geometry":{"type":"Polygon","coordinates":[[[103.01098179527365,-2.5057433262093465],[102.9947392279331,-2.49563917143747],[102.99402274885085,-2.4582456782633035],[103.02624863056991,-2.445343059916263],[103.03461358824654,-2.4320417181473775],[103.04307530757943,-2.430153058215705],[103.03651146263392,-2.4566709293894595],[103.0399956134069,-2.471576968355627],[103.01098179527365,-2.5057433262093465]]]}},{"type":"Feature","properties":{"code":"1613032009","desa":"Sumber Sari","kecamatan":"Nibung","kecCode":"161303"},"geometry":{"type":"Polygon","coordinates":[[[103.04194223824373,-2.440147654878101],[103.06945793603501,-2.444645454007294],[103.05505315937586,-2.4840372884297097],[103.04238607255928,-2.482396679504561],[103.03666260089834,-2.465312563484119],[103.04194223824373,-2.440147654878101]]]}},{"type":"Feature","properties":{"code":"1613032010","desa":"Krani Jaya","kecamatan":"Nibung","kecCode":"161303"},"geometry":{"type":"Polygon","coordinates":[[[102.92476963181308,-2.5245972279748647],[102.92794708678866,-2.5538414658740862],[102.9155624095776,-2.566572312811226],[102.8938071626705,-2.5650918065924473],[102.89255445472433,-2.5430613033114757],[102.88002271767435,-2.542927626284012],[102.87797509987102,-2.523481672037945],[102.89556234432678,-2.5082759465906777],[102.92476963181308,-2.5245972279748647]]]}},{"type":"Feature","properties":{"code":"1613032011","desa":"Jadi Mulya I","kecamatan":"Nibung","kecCode":"161303"},"geometry":{"type":"Polygon","coordinates":[[[102.89437874298464,-2.567652589243622],[102.81452041838264,-2.4882543345048895],[102.84771944389729,-2.45511388636807],[102.84948888880125,-2.4430833307156314],[102.87924722238147,-2.424349997459468],[102.86975540159057,-2.395455678573425],[102.90388061369941,-2.4415991345785355],[102.86510175174452,-2.4369455872602717],[102.86242861229067,-2.4479671503428064],[102.86197623531505,-2.476631435240258],[102.88724692130842,-2.4869641329247796],[102.90508471958418,-2.511143952041672],[102.89556234432678,-2.5082759465906777],[102.87797509987102,-2.523481672037945],[102.88002271767435,-2.542927626284012],[102.89255445472433,-2.5430613033114757],[102.89437874298464,-2.567652589243622]]]}},{"type":"Feature","properties":{"code":"1613041005","desa":"Bingin Teluk","kecamatan":"Rawas Ilir","kecCode":"161304"},"geometry":{"type":"Polygon","coordinates":[[[103.03402396843147,-2.5480011048366755],[103.07871716336642,-2.581906931791873],[103.1067507483484,-2.6157762102992543],[103.12133997865713,-2.6221763912158655],[103.09284526359812,-2.654479411348833],[103.08127323986821,-2.6554191048598628],[103.01083315532594,-2.6051785993198604],[103.01042842623092,-2.5771640629087957],[103.01914847402293,-2.5694300812793474],[103.0188909198801,-2.556741246171544],[103.03402396843147,-2.5480011048366755]]]}},{"type":"Feature","properties":{"code":"1613042001","desa":"Pauh","kecamatan":"Rawas Ilir","kecCode":"161304"},"geometry":{"type":"Polygon","coordinates":[[[103.30866684260076,-2.7314964321835618],[103.2629159028467,-2.7572771866337527],[103.25260725392168,-2.6796266671625504],[103.27973310999509,-2.6744870308829984],[103.28672872485082,-2.6570693770003904],[103.29227645369542,-2.5911709614930176],[103.34411431802141,-2.5627690672919727],[103.36141290708008,-2.5731836131751993],[103.34133483643357,-2.6946635898619538],[103.30866684260076,-2.7314964321835618]]]}},{"type":"Feature","properties":{"code":"1613042002","desa":"Batu Kucing","kecamatan":"Rawas Ilir","kecCode":"161304"},"geometry":{"type":"Polygon","coordinates":[[[103.2629159028467,-2.7572771866337527],[103.23109944558303,-2.765962981937461],[103.20562801292255,-2.753601352565235],[103.20381127537013,-2.7592449940999018],[103.1839525853436,-2.7580807641559315],[103.19079297631487,-2.6718140910815897],[103.22931721501755,-2.6171891117819044],[103.26303287766522,-2.649486791740577],[103.2511593688099,-2.664729618718861],[103.2629159028467,-2.7572771866337527]]]}},{"type":"Feature","properties":{"code":"1613042003","desa":"Belani","kecamatan":"Rawas Ilir","kecCode":"161304"},"geometry":{"type":"Polygon","coordinates":[[[103.23464590858184,-2.6172593722160213],[103.22403240657036,-2.6236752283159146],[103.19079297631487,-2.6718140910815897],[103.15682586861901,-2.6640999682815023],[103.20022912907109,-2.5883673942651773],[103.21211687329513,-2.581535581934355],[103.21559857971073,-2.5629327798770896],[103.23105292275424,-2.5720876840425784],[103.23464590858184,-2.6172593722160213]]]}},{"type":"Feature","properties":{"code":"1613042004","desa":"Tanjung Raja","kecamatan":"Rawas Ilir","kecCode":"161304"},"geometry":{"type":"Polygon","coordinates":[[[103.21559857971073,-2.5629327798770896],[103.21211687329513,-2.581535581934355],[103.20022912907109,-2.5883673942651773],[103.15682586861901,-2.6640999682815023],[103.14694151893598,-2.659743270982529],[103.14847006963804,-2.6031857574259267],[103.16711702303222,-2.58592344254086],[103.1676405049054,-2.532904291785695],[103.18448708840845,-2.5523206943094343],[103.19672115165984,-2.5520750714724723],[103.19436526064833,-2.5680802510502994],[103.21559857971073,-2.5629327798770896]]]}},{"type":"Feature","properties":{"code":"1613042006","desa":"Mandi Angin","kecamatan":"Rawas Ilir","kecCode":"161304"},"geometry":{"type":"Polygon","coordinates":[[[103.0739664272089,-2.7270005099394536],[103.06589529603116,-2.708642969191626],[103.08319873693222,-2.6877203668182874],[103.0545024370379,-2.6619389072996484],[103.0258241568594,-2.6570939959413917],[103.00995644673269,-2.6060458947082674],[103.10056670958602,-2.672274405473075],[103.11915028056107,-2.666219361874311],[103.11970565059532,-2.7290191893557973],[103.12900438424496,-2.729013339265921],[103.12913404310166,-2.7508220247645507],[103.11987027059654,-2.7508396478793617],[103.11981117974221,-2.741536470689641],[103.08473599666901,-2.7417940158389342],[103.0836739737749,-2.7265813341356426],[103.0739664272089,-2.7270005099394536]]]}},{"type":"Feature","properties":{"code":"1613042006","desa":"Mandi Angin","kecamatan":"Rawas Ilir","kecCode":"161304"},"geometry":{"type":"Polygon","coordinates":[[[102.97971444876286,-2.636695255853895],[102.97985245782472,-2.6505294432366573],[102.96978839032202,-2.6586251016157045],[102.96231789205711,-2.639531411814655],[102.97971444876286,-2.636695255853895]]]}},{"type":"Feature","properties":{"code":"1613042007","desa":"Air Bening","kecamatan":"Rawas Ilir","kecCode":"161304"},"geometry":{"type":"Polygon","coordinates":[[[103.27912696963398,-2.4692293690959035],[103.29681613875384,-2.5853288980388833],[103.29227645369542,-2.5911709614930176],[103.27483500732978,-2.577465266546138],[103.27610563786493,-2.569089562879526],[103.25978253533576,-2.5499729718425157],[103.23247761794778,-2.559101433241949],[103.23048809005336,-2.552799708304156],[103.25286454096583,-2.5098171237725517],[103.26491467577169,-2.4666675135534897],[103.27912696963398,-2.4692293690959035]]]}},{"type":"Feature","properties":{"code":"1613042008","desa":"Beringin Sakti","kecamatan":"Rawas Ilir","kecCode":"161304"},"geometry":{"type":"Polygon","coordinates":[[[102.96978839032202,-2.6586251016157045],[102.95525282166044,-2.6581055767600947],[102.94605988155836,-2.636952890935403],[102.91068309644783,-2.6232509137858764],[102.91041544831432,-2.600537496820085],[102.89696631644239,-2.5697064150647617],[102.96953756130951,-2.580852820235016],[102.99189940633259,-2.578668042332253],[103.0012168386862,-2.5853508909595253],[103.0114709059576,-2.605742762924546],[103.0035747306893,-2.6089440787091194],[102.99687892822003,-2.6257820970505916],[102.98292196267852,-2.625687868784686],[102.97954788712536,-2.6356958833319144],[102.96231789205711,-2.639531411814655],[102.96978839032202,-2.6586251016157045]]]}},{"type":"Feature","properties":{"code":"1613042009","desa":"Beringin Makmur I","kecamatan":"Rawas Ilir","kecCode":"161304"},"geometry":{"type":"Polygon","coordinates":[[[103.1839525853436,-2.7580807641559315],[103.1698383373694,-2.761958631821186],[103.16976693839354,-2.7706332656390558],[103.1199665511155,-2.770713519339676],[103.11987027059654,-2.7508396478793617],[103.12913404310166,-2.7508220247645507],[103.12900438424496,-2.729013339265921],[103.11970565059532,-2.7290191893557973],[103.11934476884606,-2.666608341141859],[103.10056670958602,-2.672274405473075],[103.08127323986821,-2.6554191048598628],[103.10525756168721,-2.644909923317874],[103.12133997865713,-2.6221763912158655],[103.12569236281234,-2.629367270463693],[103.12893188719686,-2.619598479177693],[103.14435100829246,-2.628714341974552],[103.14694151893598,-2.659743270982529],[103.19079297631487,-2.6718140910815897],[103.1839525853436,-2.7580807641559315]]]}},{"type":"Feature","properties":{"code":"1613042010","desa":"Beringin Makmur II","kecamatan":"Rawas Ilir","kecCode":"161304"},"geometry":{"type":"Polygon","coordinates":[[[103.0451555788669,-2.5565539353760216],[103.06455083835056,-2.5359369720963056],[103.05377187996834,-2.4888387319562373],[103.0998115866355,-2.4567471271476657],[103.11594366237016,-2.4677527830219512],[103.13401969375393,-2.458913155984453],[103.15490331233802,-2.4686066101634205],[103.16150791905528,-2.509098127488717],[103.18384304432114,-2.503673809916484],[103.21569896833277,-2.537286220464004],[103.19672115165984,-2.5520750714724723],[103.18448708840845,-2.5523206943094343],[103.1676405049054,-2.532904291785695],[103.16711702303222,-2.58592344254086],[103.14847006963804,-2.6031857574259267],[103.14824684171843,-2.6234311379236916],[103.14178952506659,-2.6305475622994297],[103.13940382962312,-2.622561763302653],[103.12757580667818,-2.619849604066887],[103.12569236281234,-2.629367270463693],[103.11720570078249,-2.6168892850066623],[103.1067507483484,-2.6157762102992543],[103.07871716336642,-2.581906931791873],[103.0451555788669,-2.5565539353760216]]]}},{"type":"Feature","properties":{"code":"1613042011","desa":"Pauh I","kecamatan":"Rawas Ilir","kecCode":"161304"},"geometry":{"type":"Polygon","coordinates":[[[103.29227645369542,-2.5911709614930176],[103.28672872485082,-2.6570693770003904],[103.27973310999509,-2.6744870308829984],[103.25260725392168,-2.6796266671625504],[103.2511593688099,-2.664729618718861],[103.26303287766522,-2.649486791740577],[103.23464590858184,-2.6172593722160213],[103.23105292275424,-2.5720876840425784],[103.21559857971073,-2.5629327798770896],[103.25978253533576,-2.5499729718425157],[103.27610563786493,-2.569089562879526],[103.27483500732978,-2.577465266546138],[103.29227645369542,-2.5911709614930176]]]}},{"type":"Feature","properties":{"code":"1613042012","desa":"Ketapat Bening","kecamatan":"Rawas Ilir","kecCode":"161304"},"geometry":{"type":"Polygon","coordinates":[[[103.28913029332841,-2.5141709792138642],[103.32385469313965,-2.5375222214543394],[103.34411431802141,-2.5627690672919727],[103.29227645369542,-2.5911709614930176],[103.29681613875384,-2.5853288980388833],[103.28443104335803,-2.5206051787854884],[103.28913029332841,-2.5141709792138642]]]}},{"type":"Feature","properties":{"code":"1613042013","desa":"Mekarsari","kecamatan":"Rawas Ilir","kecCode":"161304"},"geometry":{"type":"Polygon","coordinates":[[[103.1167527779184,-2.451491664483998],[103.14301388907978,-2.4347194414427333],[103.2000444442957,-2.4390444412368617],[103.20066666723294,-2.460733329844462],[103.22671944414708,-2.4700555528764023],[103.24977222211042,-2.4444805534177205],[103.26668611087536,-2.437416664737952],[103.27582499992387,-2.4467638862247805],[103.27912696963398,-2.4692293690959035],[103.26334775909184,-2.4683703789465428],[103.25286454096583,-2.5098171237725517],[103.23055947374074,-2.55182888835784],[103.23247761794778,-2.559101433241949],[103.19436526064833,-2.5680802510502994],[103.1978308781925,-2.5502076760105616],[103.21569896833277,-2.537286220464004],[103.21267730201593,-2.531207236912349],[103.20228069579751,-2.528896880377218],[103.18384304432114,-2.503673809916484],[103.16150791905528,-2.509098127488717],[103.15490331233802,-2.4686066101634205],[103.13401969375393,-2.458913155984453],[103.11594366237016,-2.4677527830219512],[103.09849625080142,-2.4545795910471573],[103.1167527779184,-2.451491664483998]]]}},{"type":"Feature","properties":{"code":"1613032007","desa":"Kelumpang Jaya","kecamatan":"Nibung","kecCode":"161303"},"geometry":{"type":"Polygon","coordinates":[[[102.86975540159057,-2.395455678573425],[102.95657734496854,-2.422715185564146],[102.95670796699913,-2.4368874155131244],[102.94721468480991,-2.45091274210527],[102.90405895105982,-2.4418418004446014],[102.86975540159057,-2.395455678573425]]]}}]}