{"type":"FeatureCollection","features":[{"type":"Feature","properties":{"code":"1672011001","desa":"Sukorejo","kecamatan":"Pagar Alam Utara","kecCode":"167201","kabCode":"1672","province":"Sumatera Selatan"},"geometry":{"type":"Polygon","coordinates":[[[103.2499116269201,-4.019218478933053],[103.25062648542405,-4.022306454959089],[103.24591979086573,-4.0242610172102165],[103.2469721316586,-4.021982182811986],[103.24437476908037,-4.021804549620986],[103.24504200218672,-4.020309992394483],[103.2499116269201,-4.019218478933053]]]}},{"type":"Feature","properties":{"code":"1672011002","desa":"Bangun Rejo","kecamatan":"Pagar Alam Utara","kecCode":"167201","kabCode":"1672","province":"Sumatera Selatan"},"geometry":{"type":"Polygon","coordinates":[[[103.23534285798655,-4.018166865692833],[103.23657498584696,-4.020083582673686],[103.23667620544255,-4.022650810766078],[103.22733196429878,-4.025442016812468],[103.20838431358527,-4.022327302143462],[103.20081762923023,-4.025966207350851],[103.1985905166391,-4.017845588288083],[103.2096134538978,-4.019719609954932],[103.21750117913615,-4.015589397919628],[103.22288621522671,-4.018951635693142],[103.23534285798655,-4.018166865692833]]]}},{"type":"Feature","properties":{"code":"1672011005","desa":"Pagar Alam","kecamatan":"Pagar Alam Utara","kecCode":"167201","kabCode":"1672","province":"Sumatera Selatan"},"geometry":{"type":"Polygon","coordinates":[[[103.25131211955875,-4.0177308563789165],[103.24369085534875,-4.0225461134922345],[103.23678090091789,-4.022698398392131],[103.23391317785092,-4.015995366279973],[103.25253576681223,-4.015040637003652],[103.25591209426777,-4.019275954605005],[103.25387533667747,-4.0206961918576045],[103.25131211955875,-4.0177308563789165]]]}},{"type":"Feature","properties":{"code":"1672011007","desa":"Alun Dua","kecamatan":"Pagar Alam Utara","kecCode":"167201","kabCode":"1672","province":"Sumatera Selatan"},"geometry":{"type":"Polygon","coordinates":[[[103.29083594302442,-4.009681536467225],[103.28781205987872,-4.012341967598437],[103.28970124501647,-4.014763157481876],[103.282306966993,-4.015659427227969],[103.27911200581447,-4.013689259940684],[103.25751661430036,-4.022599175291558],[103.25258983495297,-4.015816149382797],[103.25388435238101,-4.012753067490344],[103.24702657121935,-4.006936484527527],[103.25280696367047,-4.005095039003228],[103.25605217626695,-4.007708001218876],[103.2615332536568,-4.00488325315817],[103.26616557338258,-4.006362135201424],[103.27472846104968,-4.003935822779575],[103.27710430891675,-4.006393383944466],[103.28266335842731,-4.006278166401394],[103.28502368309654,-4.009134606570939],[103.28749863175653,-4.007336994902421],[103.29083594302442,-4.009681536467225]]]}},{"type":"Feature","properties":{"code":"1672011014","desa":"Selibar","kecamatan":"Pagar Alam Utara","kecCode":"167201","kabCode":"1672","province":"Sumatera Selatan"},"geometry":{"type":"Polygon","coordinates":[[[103.23755058479172,-3.9934436555109927],[103.23949020031255,-3.996317225966855],[103.23703333701894,-3.998364020888361],[103.22756895634232,-3.9977369092371258],[103.22404625163324,-4.0028839352461345],[103.21946177404169,-4.000936344539405],[103.2161890089157,-4.004827519473102],[103.20528502408466,-4.005978476323047],[103.202782854745,-4.005711801256352],[103.20151974793804,-4.002415940644343],[103.17966889140627,-3.9964802163963444],[103.18307749373137,-3.9905635379906386],[103.19001835336438,-3.989425261581567],[103.20216151044542,-3.9923805282506475],[103.22073742908913,-3.9885658199724787],[103.22941426355749,-3.992659098650007],[103.23755058479172,-3.9934436555109927]]]}},{"type":"Feature","properties":{"code":"1672011016","desa":"Beringin Jaya","kecamatan":"Pagar Alam Utara","kecCode":"167201","kabCode":"1672","province":"Sumatera Selatan"},"geometry":{"type":"Polygon","coordinates":[[[103.25253576681223,-4.015040637003652],[103.23870587367719,-4.016521092860398],[103.23391317785092,-4.015995366279973],[103.23409160604285,-4.012343009912686],[103.241177272713,-4.012988888616328],[103.24281799765252,-4.010127327707032],[103.24735366543939,-4.009561086668468],[103.25388435238101,-4.012753067490344],[103.25253576681223,-4.015040637003652]]]}},{"type":"Feature","properties":{"code":"1672011018","desa":"Dempo Makmur","kecamatan":"Pagar Alam Utara","kecCode":"167201","kabCode":"1672","province":"Sumatera Selatan"},"geometry":{"type":"Polygon","coordinates":[[[103.13055466436634,-4.016597803232227],[103.15231457156027,-4.013285318652231],[103.17099051999656,-4.012813809499936],[103.17996332584687,-4.015568735995659],[103.1881052714412,-4.013685129354508],[103.1985905166391,-4.017845588288083],[103.20194893139814,-4.030983724690061],[103.20461392659148,-4.029603637670163],[103.20601780967421,-4.03200689237405],[103.198265259734,-4.036974016202496],[103.1961472187192,-4.0340787163273895],[103.19129787729526,-4.036712779336175],[103.18608241916837,-4.03541309170703],[103.18441679559868,-4.0299641246166775],[103.17787973965828,-4.022965780325932],[103.14885983401415,-4.0237938337969155],[103.1410012333203,-4.018480638255042],[103.13055466436634,-4.016597803232227]]]}},{"type":"Feature","properties":{"code":"1672011019","desa":"Kuripan Babas","kecamatan":"Pagar Alam Utara","kecCode":"167201","kabCode":"1672","province":"Sumatera Selatan"},"geometry":{"type":"Polygon","coordinates":[[[103.23949020031255,-3.996317225966855],[103.24950482308918,-4.007480187656397],[103.24718969025207,-4.0066183790316945],[103.24832301139793,-4.009720705539615],[103.24281799765252,-4.010127327707032],[103.241177272713,-4.012988888616328],[103.23409160604285,-4.012343009912686],[103.23394602199134,-4.0153433488040395],[103.22890302955125,-4.007981741359568],[103.2161890089157,-4.004827519473102],[103.21946177404169,-4.000936344539405],[103.22404625163324,-4.0028839352461345],[103.22756895634232,-3.9977369092371258],[103.23630568835688,-3.998504383475886],[103.23949020031255,-3.996317225966855]]]}},{"type":"Feature","properties":{"code":"1672011020","desa":"Bangun Jaya","kecamatan":"Pagar Alam Utara","kecCode":"167201","kabCode":"1672","province":"Sumatera Selatan"},"geometry":{"type":"Polygon","coordinates":[[[103.25062648542405,-4.022306454959089],[103.24991618828153,-4.019169262634797],[103.25131211955875,-4.0177308563789165],[103.25417605468122,-4.020068047784692],[103.25062648542405,-4.022306454959089]]]}},{"type":"Feature","properties":{"code":"1672011021","desa":"Curup Jare","kecamatan":"Pagar Alam Utara","kecCode":"167201","kabCode":"1672","province":"Sumatera Selatan"},"geometry":{"type":"Polygon","coordinates":[[[103.13330222092083,-4.016209590187025],[103.1414887755866,-4.012202400011617],[103.16379289222823,-4.009907618834847],[103.17966889140627,-3.9964802163963444],[103.20151974793804,-4.002415940644343],[103.202782854745,-4.005711801256352],[103.22204593727024,-4.0048569515857135],[103.22890302955125,-4.007981741359568],[103.2355264518843,-4.0186020755094445],[103.22288621522671,-4.018951635693142],[103.21747320482461,-4.015589398818972],[103.2096134538978,-4.019719609954932],[103.20201885188855,-4.019259416971862],[103.1881052714412,-4.013685129354508],[103.17996332584687,-4.015568735995659],[103.17099051999656,-4.012813809499936],[103.13330222092083,-4.016209590187025]]]}},{"type":"Feature","properties":{"code":"1672021003","desa":"Sidorejo","kecamatan":"Pagar Alam Selatan","kecCode":"167202","kabCode":"1672","province":"Sumatera Selatan"},"geometry":{"type":"Polygon","coordinates":[[[103.23667620544255,-4.022650810766078],[103.24695071700204,-4.021910797326051],[103.24511450373144,-4.025418691995888],[103.2471267979634,-4.027547444833337],[103.24228015270694,-4.030204028664762],[103.24062126955602,-4.025029681252049],[103.23757088159095,-4.025272976643524],[103.23667620544255,-4.022650810766078]]]}},{"type":"Feature","properties":{"code":"1672021004","desa":"Nendagung","kecamatan":"Pagar Alam Selatan","kecCode":"167202","kabCode":"1672","province":"Sumatera Selatan"},"geometry":{"type":"Polygon","coordinates":[[[103.20081762923023,-4.025966207350851],[103.20838431358527,-4.022327302143462],[103.22521900085627,-4.025594302611641],[103.23667620544255,-4.022650810766078],[103.23757088159095,-4.025272976643524],[103.24062126955602,-4.025029681252049],[103.2424793390503,-4.034427302545275],[103.23637495234226,-4.035237853410637],[103.23318434568107,-4.03312846927214],[103.21959990361273,-4.039781243671083],[103.21843956593328,-4.0367999146491576],[103.203417816579,-4.035191480768725],[103.20332901931886,-4.032601758833382],[103.20601780967421,-4.03200689237405],[103.20461392659148,-4.029603637670163],[103.20194893139814,-4.030983724690061],[103.20081762923023,-4.025966207350851]]]}},{"type":"Feature","properties":{"code":"1672021005","desa":"Gunung Dempo","kecamatan":"Pagar Alam Selatan","kecCode":"167202","kabCode":"1672","province":"Sumatera Selatan"},"geometry":{"type":"Polygon","coordinates":[[[103.12124438432096,-4.015082570591961],[103.13982805691933,-4.018046663207615],[103.14885983401415,-4.0237938337969155],[103.17787973965828,-4.022965780325932],[103.18441679559868,-4.0299641246166775],[103.18608241916837,-4.03541309170703],[103.19129787729526,-4.036712779336175],[103.1961472187192,-4.0340787163273895],[103.19539620207314,-4.044292056889824],[103.19286207532457,-4.0426002603523745],[103.18510741197751,-4.043747160360589],[103.18351317299458,-4.0497196075250255],[103.17463030924142,-4.057922980403675],[103.16887948829782,-4.05264634500089],[103.16128900788145,-4.060141646559876],[103.16730904357756,-4.06587614750027],[103.16078932117028,-4.072776584398565],[103.1549596386764,-4.066899314284887],[103.141867680649,-4.071849025439911],[103.148404023427,-4.091528005719809],[103.14127263612335,-4.0792779192604405],[103.13340214009672,-4.073684028221134],[103.13308729014636,-4.066504814978631],[103.13777577972847,-4.065324601383856],[103.13815051823188,-4.062698966821248],[103.13614646268917,-4.04574747472153],[103.1335047401517,-4.042343819570553],[103.13010133500866,-4.024373314654724],[103.12593047001523,-4.023716079312268],[103.12124438432096,-4.015082570591961]]]}},{"type":"Feature","properties":{"code":"1672021018","desa":"Tebat Giri Indah","kecamatan":"Pagar Alam Selatan","kecCode":"167202","kabCode":"1672","province":"Sumatera Selatan"},"geometry":{"type":"Polygon","coordinates":[[[103.24591979086573,-4.0242610172102165],[103.2509730967311,-4.022132801268125],[103.25245788102643,-4.023942382913032],[103.24978858077844,-4.028231478174091],[103.24513673587171,-4.028992906270699],[103.2471267979634,-4.027547444833337],[103.24591979086573,-4.0242610172102165]]]}},{"type":"Feature","properties":{"code":"1672021019","desa":"Tumbak Ulas","kecamatan":"Pagar Alam Selatan","kecCode":"167202","kabCode":"1672","province":"Sumatera Selatan"},"geometry":{"type":"Polygon","coordinates":[[[103.24228015270694,-4.030204028664762],[103.25903504493145,-4.024531246397726],[103.26408753241373,-4.031953381813077],[103.2557058869172,-4.038416984719122],[103.25372182869948,-4.032688209762247],[103.2424793390503,-4.034427302545275],[103.24228015270694,-4.030204028664762]]]}},{"type":"Feature","properties":{"code":"1672021020","desa":"Ulu Rurah","kecamatan":"Pagar Alam Selatan","kecCode":"167202","kabCode":"1672","province":"Sumatera Selatan"},"geometry":{"type":"Polygon","coordinates":[[[103.28970124501647,-4.014763157481876],[103.28900121903108,-4.020267860955316],[103.2833136968697,-4.022855617872052],[103.285401046721,-4.0254173340196155],[103.28002469538342,-4.026050442350246],[103.27887518913873,-4.036969880220417],[103.27088026291385,-4.03960458984179],[103.26548364355534,-4.045372402570062],[103.25164166173334,-4.046960959634632],[103.25404836983647,-4.040236347390701],[103.26408753241373,-4.031953381813077],[103.25903504493145,-4.024531246397726],[103.27075706298814,-4.0217413281805],[103.26751196190757,-4.016983867797071],[103.27911200581447,-4.013689259940684],[103.282306966993,-4.015659427227969],[103.28970124501647,-4.014763157481876]]]}},{"type":"Feature","properties":{"code":"1672021021","desa":"Tanjung Agung","kecamatan":"Pagar Alam Selatan","kecCode":"167202","kabCode":"1672","province":"Sumatera Selatan"},"geometry":{"type":"Polygon","coordinates":[[[103.23637495234226,-4.035237853410637],[103.25372182869948,-4.032688209762247],[103.25582594461173,-4.0394886582369445],[103.2516952010727,-4.045246954339328],[103.25243296890648,-4.048446461587392],[103.23961234083691,-4.051510697310047],[103.23637495234226,-4.035237853410637]]]}},{"type":"Feature","properties":{"code":"1672021022","desa":"Besemah Serasan","kecamatan":"Pagar Alam Selatan","kecCode":"167202","kabCode":"1672","province":"Sumatera Selatan"},"geometry":{"type":"Polygon","coordinates":[[[103.25387533667747,-4.0206961918576045],[103.25766890099902,-4.022580140241126],[103.2674447942419,-4.017372417188668],[103.27075706298814,-4.0217413281805],[103.25395852486609,-4.0268358553657855],[103.2509730967311,-4.022132801268125],[103.25387533667747,-4.0206961918576045]]]}},{"type":"Feature","properties":{"code":"1672031006","desa":"Jangkar Mas","kecamatan":"Dempo Utara","kecCode":"167203","kabCode":"1672","province":"Sumatera Selatan"},"geometry":{"type":"Polygon","coordinates":[[[103.21976891770146,-4.03969512459205],[103.23543055627522,-4.033204611272426],[103.23868751221896,-4.039963997601865],[103.23959105478342,-4.050754898969477],[103.23516029740983,-4.0539184881943795],[103.23077957471763,-4.053401179268234],[103.23110974731702,-4.049005707699154],[103.22088038442229,-4.043841468666151],[103.21976891770146,-4.03969512459205]]]}},{"type":"Feature","properties":{"code":"1672031012","desa":"Bumi Agung","kecamatan":"Dempo Utara","kecCode":"167203","kabCode":"1672","province":"Sumatera Selatan"},"geometry":{"type":"Polygon","coordinates":[[[103.17463030924142,-4.057922980403675],[103.18351317299458,-4.0497196075250255],[103.18448875125493,-4.04405649027194],[103.19223134300216,-4.042931739666361],[103.20008501181388,-4.059804857648526],[103.1925672631687,-4.067994708320935],[103.19413644074422,-4.073042687496502],[103.18587055867941,-4.071185279905155],[103.17744685728665,-4.058333533507806],[103.17463030924142,-4.057922980403675]]]}},{"type":"Feature","properties":{"code":"1672031019","desa":"Muara Siban","kecamatan":"Dempo Utara","kecCode":"167203","kabCode":"1672","province":"Sumatera Selatan"},"geometry":{"type":"Polygon","coordinates":[[[103.2302007989278,-4.052500651232231],[103.2313162676317,-4.061907292725621],[103.23445382778198,-4.0634507604808],[103.24332434204479,-4.059866457611334],[103.24524701523762,-4.064366323382734],[103.23654322089298,-4.077118015705979],[103.22922782870135,-4.077162980908943],[103.22253898788402,-4.080381698575231],[103.21779466389268,-4.077946038600082],[103.2136597645865,-4.079408764322735],[103.21245981896556,-4.076835458611961],[103.20497868441879,-4.079875610490255],[103.20169407342279,-4.076687138822991],[103.19521206768285,-4.075628785164042],[103.1925672631687,-4.067994708320935],[103.20004975928902,-4.0601510588643395],[103.20614683630748,-4.062822074116696],[103.21118463786082,-4.060851925715161],[103.21320654674479,-4.056974563468805],[103.22230662285244,-4.057156425272064],[103.2302007989278,-4.052500651232231]]]}},{"type":"Feature","properties":{"code":"1672031022","desa":"Agung Lawangan","kecamatan":"Dempo Utara","kecCode":"167203","kabCode":"1672","province":"Sumatera Selatan"},"geometry":{"type":"Polygon","coordinates":[[[103.14857142772927,-4.09348510405913],[103.141867680649,-4.071849025439911],[103.1549596386764,-4.066899314284887],[103.16078932117028,-4.072776584398565],[103.16730904357756,-4.06587614750027],[103.16128900788145,-4.060141646559876],[103.16887948829782,-4.05264634500089],[103.17744685728665,-4.058333533507806],[103.18587055867941,-4.071185279905155],[103.19462072386739,-4.073124857652439],[103.19521206768285,-4.075628785164042],[103.20169407342279,-4.076687138822991],[103.20497868441879,-4.079875610490255],[103.21364505257719,-4.078080728264118],[103.2073155556684,-4.084147140193083],[103.20103563838404,-4.084456407151854],[103.19951023800712,-4.082593734929292],[103.19136885179113,-4.087344743576439],[103.14857142772927,-4.09348510405913]]]}},{"type":"Feature","properties":{"code":"1672031023","desa":"Pagar Wangi","kecamatan":"Dempo Utara","kecCode":"167203","kabCode":"1672","province":"Sumatera Selatan"},"geometry":{"type":"Polygon","coordinates":[[[103.19682490284701,-4.037056461550997],[103.20723670940669,-4.034875141541402],[103.20772423908242,-4.036557043737622],[103.21843956593328,-4.0367999146491576],[103.22088038442229,-4.043841468666151],[103.23065703669293,-4.048549114702236],[103.23110500968852,-4.0511860807226165],[103.22391829699188,-4.056715179205894],[103.21320654674479,-4.056974563468805],[103.21009581067318,-4.061577352151694],[103.20397373879706,-4.062210693406646],[103.19644105870792,-4.055451983367375],[103.19223134300216,-4.042931739666361],[103.19539620207314,-4.044292056889824],[103.19682490284701,-4.037056461550997]]]}},{"type":"Feature","properties":{"code":"1672031024","desa":"Burung Dinang","kecamatan":"Dempo Utara","kecCode":"167203","kabCode":"1672","province":"Sumatera Selatan"},"geometry":{"type":"Polygon","coordinates":[[[103.14663820099224,-4.116115599036583],[103.1421735859423,-4.097431844504716],[103.14737477362696,-4.0936856384861],[103.19136885179113,-4.087344743576439],[103.19951023800712,-4.082593734929292],[103.20103563838404,-4.084456407151854],[103.2073155556684,-4.084147140193083],[103.20707781808689,-4.08244903041494],[103.21570124271823,-4.078103059329847],[103.22253898788402,-4.080381698575231],[103.22922782870135,-4.077162980908943],[103.23588650895528,-4.077284543169114],[103.23116637223033,-4.085171408647237],[103.23755064684491,-4.094361645377541],[103.2388723993418,-4.1006972783539295],[103.23677739176327,-4.1077628694506565],[103.23061224685779,-4.11558925462186],[103.21747880310431,-4.118337568402644],[103.21445975831124,-4.131495385568295],[103.21575006601277,-4.139177895400119],[103.21001381498563,-4.14645124967438],[103.19429487430904,-4.155925397877754],[103.19318753097986,-4.159786965331068],[103.19056060588728,-4.159233741079705],[103.19431825128633,-4.163769468217066],[103.19195272583765,-4.170820850025431],[103.18696227089214,-4.175214492373469],[103.18495203520831,-4.174731234478019],[103.1847577213918,-4.170245467378222],[103.18743793491284,-4.164615721268237],[103.18108315806136,-4.158853440269907],[103.18371697555801,-4.154026247354371],[103.17815874263192,-4.138382535882741],[103.17314368403385,-4.135317316301769],[103.16514284206858,-4.117431335067553],[103.15727840117734,-4.113806889159991],[103.15373721270225,-4.117686444852787],[103.14663820099224,-4.116115599036583]]]}},{"type":"Feature","properties":{"code":"1672031025","desa":"Rebah Tinggi","kecamatan":"Dempo Utara","kecCode":"167203","kabCode":"1672","province":"Sumatera Selatan"},"geometry":{"type":"Polygon","coordinates":[[[103.23731604430007,-4.050707667474983],[103.26548364355534,-4.045372402570062],[103.27088026291385,-4.03960458984179],[103.27929310589217,-4.038627912610892],[103.27709220494135,-4.042748734824752],[103.27428443967523,-4.041666079685474],[103.27744620327972,-4.047011549197586],[103.27548624059756,-4.049927846443869],[103.26712546566779,-4.0515904123168305],[103.26395959306079,-4.056742571656052],[103.25872487775096,-4.058561172601768],[103.25288330082373,-4.056294735357949],[103.23445382778198,-4.0634507604808],[103.2313162676317,-4.061907292725621],[103.23007271298536,-4.052939870226505],[103.23516029740983,-4.0539184881943795],[103.23731604430007,-4.050707667474983]]]}},{"type":"Feature","properties":{"code":"1672041002","desa":"Lubuk Buntak","kecamatan":"Dempo Selatan","kecCode":"167204","kabCode":"1672","province":"Sumatera Selatan"},"geometry":{"type":"Polygon","coordinates":[[[103.33900468941492,-4.05720869746662],[103.34372322534665,-4.051151112383495],[103.34359030285025,-4.047469614384675],[103.34845789601513,-4.0457258433283645],[103.35098290723543,-4.0598936845861955],[103.35330603684417,-4.059140760478858],[103.35510008000476,-4.061708865410304],[103.35847194232633,-4.0589764516432965],[103.36113566767699,-4.062012586249984],[103.355646952345,-4.067480629759577],[103.35888014730102,-4.075504904451614],[103.34817683988933,-4.088441667359263],[103.34974887910755,-4.091521444266216],[103.3471450549004,-4.093567084458133],[103.34862673203808,-4.095434711945188],[103.34657286574519,-4.100930920422606],[103.33878279878716,-4.096626259695664],[103.337398420201,-4.092614587299109],[103.3408554672061,-4.081993797193021],[103.34345676701622,-4.081160127455805],[103.34737346741167,-4.072684448855096],[103.34432551121341,-4.064940244631647],[103.34609555596518,-4.061960582952719],[103.33900468941492,-4.05720869746662]]]}},{"type":"Feature","properties":{"code":"1672041018","desa":"Prahu Dipo","kecamatan":"Dempo Selatan","kecCode":"167204","kabCode":"1672","province":"Sumatera Selatan"},"geometry":{"type":"Polygon","coordinates":[[[103.32833018818769,-4.065024825869978],[103.33446533620632,-4.062474728963206],[103.3349084708493,-4.059207146633593],[103.33900468941492,-4.05720869746662],[103.34609555596518,-4.061960582952719],[103.34432551121341,-4.064940244631647],[103.34671843720615,-4.075200260907507],[103.3408554672061,-4.081993797193021],[103.337398420201,-4.092614587299109],[103.33878279878716,-4.096626259695664],[103.34675775466673,-4.102497886563525],[103.34037597836873,-4.109224399074973],[103.33538940939376,-4.107053810675328],[103.32786240672476,-4.085090722372666],[103.32993206331412,-4.08293486936473],[103.32813610729556,-4.077573900936459],[103.32047545277997,-4.078681182211314],[103.31265694386292,-4.072961964349676],[103.31576004828764,-4.070376289363539],[103.32444728341545,-4.072122583917571],[103.32833018818769,-4.065024825869978]]]}},{"type":"Feature","properties":{"code":"1672041020","desa":"Kance Diwe","kecamatan":"Dempo Selatan","kecCode":"167204","kabCode":"1672","province":"Sumatera Selatan"},"geometry":{"type":"Polygon","coordinates":[[[103.3760276430613,-4.21062886551099],[103.37339747411419,-4.2144278896126774],[103.37373443029979,-4.221750191287845],[103.3700167462759,-4.227354530650748],[103.37088777115378,-4.229509092232193],[103.3674646537708,-4.232433895266348],[103.3594781119254,-4.237265008326714],[103.35280862721639,-4.227551892269458],[103.33129109001185,-4.239298719911066],[103.33635575431468,-4.252182756466581],[103.3359885925995,-4.256903394108926],[103.32434500711646,-4.264419811749557],[103.31613663130052,-4.26717279121308],[103.31567805080147,-4.264216439961629],[103.30575410756609,-4.257511917672792],[103.29363434275075,-4.257317440179842],[103.2886157642062,-4.262127152073476],[103.26995353402843,-4.257817374204044],[103.27268984995669,-4.252315568346187],[103.27298253071928,-4.242424721071786],[103.27791653701865,-4.238957414604436],[103.27896851898201,-4.228361684107011],[103.28373951866394,-4.225111326492551],[103.28326676395004,-4.218534019602274],[103.28795008332976,-4.205826614393068],[103.29152641820968,-4.204203992808058],[103.29262172771064,-4.19839099634156],[103.3012994120383,-4.190800990775243],[103.30125266797631,-4.187376852665341],[103.31573697977785,-4.172896704740161],[103.31522642925637,-4.1584384517094675],[103.31263752660061,-4.154030539818418],[103.31888595232488,-4.142956435643557],[103.31988594088352,-4.130784077588543],[103.33655835808183,-4.1153973536866335],[103.33789246996156,-4.109144721839766],[103.34037597836873,-4.109224399074973],[103.34675775466673,-4.102497886563525],[103.34862673203808,-4.095434711945188],[103.3471450549004,-4.093567084458133],[103.34974887910755,-4.091521444266216],[103.34817683988933,-4.088441667359263],[103.35888014730102,-4.075504904451614],[103.35564505927215,-4.068412912857008],[103.35760321971287,-4.064221623364994],[103.37190848908557,-4.073341388320551],[103.37667991594542,-4.067347860148105],[103.38540852618257,-4.0741104759430025],[103.37628521159333,-4.082097054652227],[103.37484273500428,-4.0894234941081145],[103.37153956739718,-4.092657639644104],[103.36438399732366,-4.0979393715049435],[103.3596630673967,-4.09782587886147],[103.36369767700626,-4.113331776424237],[103.35854212991539,-4.116260258584875],[103.35581860234669,-4.122369024085549],[103.35685746410076,-4.128483665756463],[103.36144318095808,-4.1325615210609286],[103.36081204214206,-4.1380277992013585],[103.36298895187866,-4.138792597057702],[103.36482476764894,-4.145743333038055],[103.36295660506335,-4.157539832034853],[103.36003955777942,-4.161463467997698],[103.3561178958243,-4.161915875549822],[103.35961981090558,-4.171777946317369],[103.35910311441727,-4.181217800673245],[103.36745423422558,-4.193319284956551],[103.36823538805275,-4.206668740455481],[103.3760276430613,-4.21062886551099]]]}},{"type":"Feature","properties":{"code":"1672041021","desa":"Atung Bungsu","kecamatan":"Dempo Selatan","kecCode":"167204","kabCode":"1672","province":"Sumatera Selatan"},"geometry":{"type":"Polygon","coordinates":[[[103.38658427824191,-4.074433622138947],[103.37667991594542,-4.067347860148105],[103.37190848908557,-4.073341388320551],[103.3581128619191,-4.064337743827451],[103.36113566767699,-4.062012586249984],[103.36021208462004,-4.059504540742703],[103.35678854905233,-4.059089586356569],[103.35510008000476,-4.061708865410304],[103.35330603684417,-4.059140760478858],[103.35098290723543,-4.0598936845861955],[103.34909573298177,-4.046018561862222],[103.34359030285025,-4.047469614384675],[103.34191007608923,-4.04072907334869],[103.34526630909295,-4.022227352390657],[103.35172679855299,-4.0121203854383785],[103.35310036638883,-4.002594401211659],[103.36051764637232,-3.9967898727615974],[103.37260782259301,-3.994433147181645],[103.37580641343528,-3.9894087176531925],[103.37996549281331,-3.988102583683667],[103.3871794819476,-3.991832723313951],[103.38869867520377,-3.9900961855048065],[103.39201210317604,-3.991176021269517],[103.39555987918516,-3.98640341720212],[103.40651067912461,-3.9893825024155687],[103.41474660567137,-3.9855244665999523],[103.41281340681331,-4.003822436256143],[103.41007597932304,-4.008115222334806],[103.4114616196581,-4.009535601680331],[103.40700179529665,-4.01744278823942],[103.40856200843001,-4.020344897781071],[103.40613495766225,-4.022268692426392],[103.4058450009461,-4.027508602214847],[103.40276062400362,-4.027487782010233],[103.39965007409171,-4.032009749520221],[103.40154174585496,-4.034326749347416],[103.39875477201518,-4.037721913998994],[103.40071403592405,-4.048143536647711],[103.39366330611676,-4.058004020111843],[103.39522183841717,-4.063694543304864],[103.38658427824191,-4.074433622138947]]]}},{"type":"Feature","properties":{"code":"1672041022","desa":"Penjalang","kecamatan":"Dempo Selatan","kecCode":"167204","kabCode":"1672","province":"Sumatera Selatan"},"geometry":{"type":"Polygon","coordinates":[[[103.312737226342,-4.072278105477438],[103.32047545277997,-4.078681182211314],[103.32813610729556,-4.077573900936459],[103.32993331427109,-4.08233002222938],[103.32854561268994,-4.087597946798876],[103.33789246996156,-4.109144721839766],[103.33682194577624,-4.115002132224746],[103.31988594088352,-4.130784077588543],[103.31888595232488,-4.142956435643557],[103.31263752660061,-4.154030539818418],[103.31522642925637,-4.1584384517094675],[103.31573697977785,-4.172896704740161],[103.30125266797631,-4.187376852665341],[103.3012994120383,-4.190800990775243],[103.29262172771064,-4.19839099634156],[103.29152641820968,-4.204203992808058],[103.28795008332976,-4.205826614393068],[103.28326676395004,-4.218534019602274],[103.28373951866394,-4.225111326492551],[103.27896851898201,-4.228361684107011],[103.27791653701865,-4.238957414604436],[103.27298253071928,-4.242424721071786],[103.27268984995669,-4.252315568346187],[103.26995353402843,-4.257817374204044],[103.26294432412134,-4.254624994982492],[103.2546109866078,-4.254624994982492],[103.25031689740693,-4.252040827260033],[103.25206870120968,-4.245568583667707],[103.24958258207056,-4.243733593476955],[103.26127572469498,-4.233299423487057],[103.26243792487037,-4.22292783911682],[103.26085569723273,-4.214454347667269],[103.2580302207182,-4.211233149670766],[103.26082402580816,-4.200976554415887],[103.27220040832225,-4.1800432671965115],[103.28422749620204,-4.171043244273251],[103.28750442518913,-4.164867872283945],[103.28622082643005,-4.160475476396212],[103.28424732985047,-4.161893153279074],[103.28123629441949,-4.159042619856637],[103.27750260606047,-4.148709671260851],[103.28128813673816,-4.135054568574444],[103.28273117540346,-4.122569005429397],[103.28113254862825,-4.121514515257904],[103.28489628243756,-4.1178749634378775],[103.28926844268454,-4.117637089159659],[103.28866103877596,-4.113740778197809],[103.29352970842932,-4.111649170058842],[103.29804229331722,-4.10325053457902],[103.30044384740567,-4.103132005732155],[103.2979872655999,-4.100159128538748],[103.30248732293164,-4.097633854719076],[103.30151091999302,-4.093489442388726],[103.30545471066642,-4.091952164667159],[103.3030139758144,-4.081436576354507],[103.30671064178273,-4.0802697006050295],[103.30505680382849,-4.076185687642477],[103.30850393400941,-4.076563918213001],[103.312737226342,-4.072278105477438]]]}},{"type":"Feature","properties":{"code":"1672051001","desa":"Karang Dalo","kecamatan":"Dempo Tengah","kecCode":"167205","kabCode":"1672","province":"Sumatera Selatan"},"geometry":{"type":"Polygon","coordinates":[[[103.27974924922853,-4.032409973910645],[103.2849612683479,-4.036386316440542],[103.28734043381404,-4.035496107225748],[103.29566911373864,-4.045520327556637],[103.29841335359345,-4.0440803672722385],[103.30410529502342,-4.046731888819937],[103.29582952940933,-4.060667220255573],[103.283650356279,-4.058777378614725],[103.2799383973392,-4.054494348381573],[103.27421305688709,-4.042260944346172],[103.27687805387916,-4.04286770793676],[103.27884430641966,-4.03983071088017],[103.2774951021173,-4.037029366776403],[103.27974924922853,-4.032409973910645]]]}},{"type":"Feature","properties":{"code":"1672051003","desa":"Pelang Kenidai","kecamatan":"Dempo Tengah","kecCode":"167205","kabCode":"1672","province":"Sumatera Selatan"},"geometry":{"type":"Polygon","coordinates":[[[103.30250220671155,-4.0450326917614206],[103.3166975060851,-4.050117768870618],[103.323342371853,-4.06494578715339],[103.32470986926513,-4.065562518829517],[103.32668302500167,-4.064770012861036],[103.3275585473891,-4.064788422882611],[103.32833018818769,-4.065024825869978],[103.32444728341545,-4.072122583917571],[103.31576004828764,-4.070376289363539],[103.30850393400941,-4.076563918213001],[103.30505680382849,-4.076185687642477],[103.30671064178273,-4.0802697006050295],[103.3030139758144,-4.081436576354507],[103.30545471066642,-4.091952164667159],[103.30151091999302,-4.093489442388726],[103.30248732293164,-4.097633854719076],[103.2979872655999,-4.100159128538748],[103.30044384740567,-4.103132005732155],[103.29804229331722,-4.10325053457902],[103.29352970842932,-4.111649170058842],[103.2882904173689,-4.1142964099342745],[103.28926844268454,-4.117637089159659],[103.27966453399114,-4.1161226317350215],[103.27288952193396,-4.118803310202725],[103.27508507101923,-4.101874082618801],[103.28240796355675,-4.088471542837583],[103.2784616709694,-4.078267479681403],[103.2801663466996,-4.072411600841794],[103.27883674042327,-4.064345625485926],[103.2849567150804,-4.059762783765975],[103.29582952940933,-4.060667220255573],[103.30408511783399,-4.047266136476787],[103.30250220671155,-4.0450326917614206]]]}},{"type":"Feature","properties":{"code":"1672051008","desa":"Jokoh","kecamatan":"Dempo Tengah","kecCode":"167205","kabCode":"1672","province":"Sumatera Selatan"},"geometry":{"type":"Polygon","coordinates":[[[103.28471900357918,-4.118123043222702],[103.28113254862825,-4.121514515257904],[103.28273117540346,-4.122569005429397],[103.28128813673816,-4.135054568574444],[103.27750260606047,-4.148709671260851],[103.28123629441949,-4.159042619856637],[103.28424732985047,-4.161893153279074],[103.28622082643005,-4.160475476396212],[103.28750442518913,-4.164867872283945],[103.28422749620204,-4.171043244273251],[103.27220040832225,-4.1800432671965115],[103.26082402580816,-4.200976554415887],[103.2580302207182,-4.211233149670766],[103.26085569723273,-4.214454347667269],[103.26243792487037,-4.22292783911682],[103.26127572469498,-4.233299423487057],[103.25792669166354,-4.230016857552806],[103.24729517803013,-4.2312353346025535],[103.23457451680058,-4.222728248978019],[103.22467018328238,-4.224386621312291],[103.21325550134037,-4.218001834090874],[103.2148668697103,-4.213693429486182],[103.21036735556906,-4.207616888493037],[103.2138663838266,-4.205505420625285],[103.21249042829072,-4.202359534554876],[103.21729758071882,-4.2012011672912255],[103.22277575869435,-4.193027939687487],[103.23491536794997,-4.191089814345256],[103.2354515392572,-4.185749709289111],[103.2395097093057,-4.184539753315716],[103.23502283963239,-4.172682264995792],[103.23772967488462,-4.171417779529503],[103.2407621582471,-4.151130922298181],[103.23145121899863,-4.1482450527140164],[103.22872742433121,-4.14233347975954],[103.22955385182887,-4.137306918837803],[103.23934718022828,-4.132651167280992],[103.24466223107713,-4.125412639253014],[103.25127496856499,-4.110517237467441],[103.25475182583614,-4.091521869645517],[103.26542531982271,-4.08341761374736],[103.27851065704122,-4.078320831961704],[103.28240796355675,-4.088471542837583],[103.27508507101923,-4.101874082618801],[103.27288952193396,-4.118803310202725],[103.27966453399114,-4.1161226317350215],[103.28471900357918,-4.118123043222702]]]}},{"type":"Feature","properties":{"code":"1672051011","desa":"Padang Temu","kecamatan":"Dempo Tengah","kecCode":"167205","kabCode":"1672","province":"Sumatera Selatan"},"geometry":{"type":"Polygon","coordinates":[[[103.24653024167736,-4.076485944293705],[103.24361887001491,-4.060892549890537],[103.2468608846222,-4.0578964108331625],[103.26395959306079,-4.056742571656052],[103.26712546566779,-4.0515904123168305],[103.27505793757382,-4.050201485860503],[103.27744620327972,-4.047011549197586],[103.2822797867828,-4.057996915467695],[103.28751455155538,-4.05931678388345],[103.27883674042327,-4.064345625485926],[103.27916277344332,-4.077858816952228],[103.26542531982271,-4.08341761374736],[103.25468282265423,-4.0916596934468865],[103.24653024167736,-4.076485944293705]]]}},{"type":"Feature","properties":{"code":"1672051012","desa":"Candi Jaya","kecamatan":"Dempo Tengah","kecCode":"167205","kabCode":"1672","province":"Sumatera Selatan"},"geometry":{"type":"Polygon","coordinates":[[[103.17775002234572,-4.240741555328109],[103.17615875202482,-4.234944940911921],[103.18056603889164,-4.23221683939413],[103.1806653762062,-4.2276488445818625],[103.18685376498932,-4.217379839582102],[103.18565632937617,-4.207071252721114],[103.18340813307896,-4.204738725199451],[103.18787060234648,-4.199933918208307],[103.18620707779445,-4.1985544751029025],[103.18787106459803,-4.192291059485361],[103.18228102984567,-4.178432405146542],[103.19195272583765,-4.170820850025431],[103.19440145026675,-4.162995945138225],[103.19056060588728,-4.159233741079705],[103.19318753097986,-4.159786965331068],[103.19429487430904,-4.155925397877754],[103.21001381498563,-4.14645124967438],[103.21575006601277,-4.139177895400119],[103.21445975831124,-4.131495385568295],[103.21747880310431,-4.118337568402644],[103.23061224685779,-4.11558925462186],[103.23677739176327,-4.1077628694506565],[103.2388723993418,-4.1006972783539295],[103.23755064684491,-4.094361645377541],[103.23118421837705,-4.084398084318582],[103.24500596365435,-4.064704529625658],[103.24653024167736,-4.076485944293705],[103.25526892791875,-4.094738891190395],[103.24466223107713,-4.125412639253014],[103.23934718022828,-4.132651167280992],[103.22955385182887,-4.137306918837803],[103.2285558489733,-4.140929816112877],[103.23145121899863,-4.1482450527140164],[103.2407621582471,-4.151130922298181],[103.23772967488462,-4.171417779529503],[103.23502283963239,-4.172682264995792],[103.2395097093057,-4.184539753315716],[103.2354515392572,-4.185749709289111],[103.23478330700407,-4.191164768341118],[103.22277575869435,-4.193027939687487],[103.21729758071882,-4.2012011672912255],[103.21249042829072,-4.202359534554876],[103.2138663838266,-4.205505420625285],[103.21036735556906,-4.207616888493037],[103.2148668697103,-4.213693429486182],[103.21325550134037,-4.218001834090874],[103.22467018328238,-4.224386621312291],[103.23457451680058,-4.222728248978019],[103.24729517803013,-4.2312353346025535],[103.25792669166354,-4.230016857552806],[103.26127572469498,-4.233299423487057],[103.24958258207056,-4.243733593476955],[103.25206870120968,-4.245568583667707],[103.25031689740693,-4.252040827260033],[103.22961097766455,-4.245402772064918],[103.22405542112085,-4.240741661448043],[103.21016652616429,-4.248149994968069],[103.20369430235023,-4.248149994968069],[103.19719429937749,-4.245374995604232],[103.19069311559485,-4.236112338268227],[103.18525961234127,-4.236195288136415],[103.17775002234572,-4.240741555328109]]]}}]}