{"type":"FeatureCollection","features":[{"type":"Feature","properties":{"code":"1673011001","desa":"Air Kuti","kecamatan":"Lubuk Linggau Timur I","kecCode":"167301","kabCode":"1673","province":"Sumatera Selatan"},"geometry":{"type":"Polygon","coordinates":[[[102.91816215715788,-3.268723253361423],[102.91972026677695,-3.292476055485962],[102.9174974754282,-3.293494385716573],[102.91895654271035,-3.295917668322393],[102.91611805030783,-3.2965585324063005],[102.91159115001163,-3.292676561134543],[102.91183852203022,-3.2843176415151105],[102.90895461476373,-3.284051142715516],[102.90918926767063,-3.2796394851483113],[102.90691609090493,-3.2783915445096663],[102.90758435373499,-3.276690067669852],[102.91136347134716,-3.277348413675025],[102.91107829632635,-3.2691532264257774],[102.91816215715788,-3.268723253361423]]]}},{"type":"Feature","properties":{"code":"1673011002","desa":"Majapahit","kecamatan":"Lubuk Linggau Timur I","kecCode":"167301","kabCode":"1673","province":"Sumatera Selatan"},"geometry":{"type":"Polygon","coordinates":[[[102.91107829632635,-3.2691532264257774],[102.91136347134716,-3.277348413675025],[102.90758435373499,-3.276690067669852],[102.90649547168874,-3.279415641193295],[102.90207125328578,-3.279958103257693],[102.90129420666239,-3.2754078241905034],[102.91107829632635,-3.2691532264257774]]]}},{"type":"Feature","properties":{"code":"1673011003","desa":"Taba Jemekeh","kecamatan":"Lubuk Linggau Timur I","kecCode":"167301","kabCode":"1673","province":"Sumatera Selatan"},"geometry":{"type":"Polygon","coordinates":[[[102.90691609090493,-3.2783915445096663],[102.90924879379685,-3.2807520481414976],[102.90644780492231,-3.287254856092686],[102.90447979420719,-3.286767253572395],[102.90553280859228,-3.291615314356538],[102.9085618817255,-3.2915630871281087],[102.91021053059158,-3.2963726605260018],[102.90628239441702,-3.3038406379831105],[102.89664939805135,-3.3113588281873683],[102.8833824553361,-3.3004143127221663],[102.88516248526054,-3.2912405830481326],[102.8771109368203,-3.2912963679946],[102.87657391475442,-3.2857676535219555],[102.88095572292832,-3.286051166595343],[102.88234389665358,-3.2810696742986982],[102.88754184587953,-3.278061372809993],[102.89182951841757,-3.2842143372910706],[102.90691609090493,-3.2783915445096663]]]}},{"type":"Feature","properties":{"code":"1673011004","desa":"Nikan Jaya","kecamatan":"Lubuk Linggau Timur I","kecCode":"167301","kabCode":"1673","province":"Sumatera Selatan"},"geometry":{"type":"Polygon","coordinates":[[[102.90851008167498,-3.2820966191352228],[102.91183852203022,-3.2843176415151105],[102.91107002256352,-3.2879815056071866],[102.90644756840061,-3.2872620281860088],[102.90851008167498,-3.2820966191352228]]]}},{"type":"Feature","properties":{"code":"1673011005","desa":"Taba Lestari","kecamatan":"Lubuk Linggau Timur I","kecCode":"167301","kabCode":"1673","province":"Sumatera Selatan"},"geometry":{"type":"Polygon","coordinates":[[[102.91107002256352,-3.2879815056071866],[102.91303395305454,-3.2940241160787567],[102.90964879155852,-3.2956635621805384],[102.9085618817255,-3.2915630871281087],[102.90553280859228,-3.291615314356538],[102.90447979420719,-3.286767253572395],[102.91107002256352,-3.2879815056071866]]]}},{"type":"Feature","properties":{"code":"1673011007","desa":"Batu Urip Taba","kecamatan":"Lubuk Linggau Timur I","kecCode":"167301","kabCode":"1673","province":"Sumatera Selatan"},"geometry":{"type":"Polygon","coordinates":[[[102.89735419673883,-3.281342978268185],[102.89182951841757,-3.2842143372910706],[102.88754184587953,-3.278061372809993],[102.89360980285016,-3.2773673659877907],[102.89122136087718,-3.273721820186423],[102.89735419673883,-3.281342978268185]]]}},{"type":"Feature","properties":{"code":"1673011015","desa":"Taba Koji","kecamatan":"Lubuk Linggau Timur I","kecCode":"167301","kabCode":"1673","province":"Sumatera Selatan"},"geometry":{"type":"Polygon","coordinates":[[[102.87657391475442,-3.2857676535219555],[102.87736317327186,-3.289016015540764],[102.87334247977167,-3.2899956731248365],[102.87153602506754,-3.2881860096416133],[102.87657391475442,-3.2857676535219555]]]}},{"type":"Feature","properties":{"code":"1673011016","desa":"Watervang","kecamatan":"Lubuk Linggau Timur I","kecCode":"167301","kabCode":"1673","province":"Sumatera Selatan"},"geometry":{"type":"Polygon","coordinates":[[[102.89991511788845,-3.2704420097750613],[102.90207125328578,-3.279958103257693],[102.89735419673883,-3.281342978268185],[102.89122136087718,-3.273721820186423],[102.89991511788845,-3.2704420097750613]]]}},{"type":"Feature","properties":{"code":"1673021001","desa":"Kayu Ara","kecamatan":"Lubuk Linggau Barat I","kecCode":"167302","kabCode":"1673","province":"Sumatera Selatan"},"geometry":{"type":"Polygon","coordinates":[[[102.8450629868674,-3.3437055014128787],[102.84188347514231,-3.343500895755085],[102.83928290108507,-3.3397794723541225],[102.83977226357915,-3.334012665067975],[102.83109475371997,-3.334063266322207],[102.82968032698557,-3.3292757964615456],[102.82019283643028,-3.322726555613797],[102.81403754809439,-3.314458239992407],[102.80448309132167,-3.282458300381453],[102.7856179785869,-3.2740169363127856],[102.80176912894224,-3.268928872555123],[102.81190986275004,-3.27819081492989],[102.82131292764954,-3.2824934287997833],[102.83452281467623,-3.3198965995791814],[102.84391774340916,-3.3236803810714366],[102.84687560732344,-3.330520463567869],[102.84281645791327,-3.335540792187728],[102.8450629868674,-3.3437055014128787]]]}},{"type":"Feature","properties":{"code":"1673021002","desa":"Lubuk Tanjung","kecamatan":"Lubuk Linggau Barat I","kecCode":"167302","kabCode":"1673","province":"Sumatera Selatan"},"geometry":{"type":"Polygon","coordinates":[[[102.8450629868674,-3.3437055014128787],[102.84281645791327,-3.335540792187728],[102.84687560732344,-3.330520463567869],[102.84391774340916,-3.3236803810714366],[102.83452281467623,-3.3198965995791814],[102.82131292764954,-3.2824934287997833],[102.81190986275004,-3.27819081492989],[102.80176912894224,-3.268928872555123],[102.81118949679791,-3.2651021241535716],[102.82993531806056,-3.2630619446450906],[102.83877688224737,-3.296598517163756],[102.83642298323416,-3.298272760733437],[102.84436860232921,-3.308470257939142],[102.84147641140731,-3.310885509599109],[102.84458423097756,-3.3180980894879872],[102.84766900002437,-3.3154193004958956],[102.85357453943351,-3.3195638414292885],[102.85917193963337,-3.3151488770549076],[102.86034357369704,-3.318165373166054],[102.86161840496548,-3.3449449515520877],[102.8450629868674,-3.3437055014128787]]]}},{"type":"Feature","properties":{"code":"1673021003","desa":"Tanjung Indah","kecamatan":"Lubuk Linggau Barat I","kecCode":"167302","kabCode":"1673","province":"Sumatera Selatan"},"geometry":{"type":"Polygon","coordinates":[[[102.85579514992628,-3.3180785040524587],[102.85118798693611,-3.319345386211979],[102.84727116693084,-3.315418429952213],[102.84508653021923,-3.3188688147758363],[102.84147641140731,-3.310885509599109],[102.84593749032295,-3.3071260035067964],[102.84531740327559,-3.311112443624631],[102.84741455933448,-3.313076517105687],[102.84941423427955,-3.311918833326904],[102.85579514992628,-3.3180785040524587]]]}},{"type":"Feature","properties":{"code":"1673021004","desa":"Bandung Ujung","kecamatan":"Lubuk Linggau Barat I","kecCode":"167302","kabCode":"1673","province":"Sumatera Selatan"},"geometry":{"type":"Polygon","coordinates":[[[102.8555675683886,-3.2978996544999855],[102.85840299500227,-3.3006054159587332],[102.85558986977674,-3.3055606633401737],[102.85836583681395,-3.3071899201232213],[102.85321395086322,-3.311194493271428],[102.85001343996834,-3.307139839576503],[102.85430547781563,-3.3063810015273587],[102.85171861122502,-3.300295952947771],[102.8555675683886,-3.2978996544999855]]]}},{"type":"Feature","properties":{"code":"1673021008","desa":"Bandung Kiri","kecamatan":"Lubuk Linggau Barat I","kecCode":"167302","kabCode":"1673","province":"Sumatera Selatan"},"geometry":{"type":"Polygon","coordinates":[[[102.85840299500227,-3.3006054159587332],[102.86025461365955,-3.2974914594182536],[102.86426193873757,-3.297596728660915],[102.86359880743908,-3.3010529132124655],[102.85840299500227,-3.3006054159587332]]]}},{"type":"Feature","properties":{"code":"1673021009","desa":"Sukajadi","kecamatan":"Lubuk Linggau Barat I","kecCode":"167302","kabCode":"1673","province":"Sumatera Selatan"},"geometry":{"type":"Polygon","coordinates":[[[102.86036347659325,-3.3183419451571208],[102.85917193963337,-3.3151488770549076],[102.85579514992628,-3.3180785040524587],[102.84940426889192,-3.311897018472044],[102.85781494720209,-3.308857401690443],[102.85609066625129,-3.3034269210641187],[102.86153549376809,-3.300473404475756],[102.86757176672369,-3.3161133315998206],[102.86036347659325,-3.3183419451571208]]]}},{"type":"Feature","properties":{"code":"1673021010","desa":"Muara Enim","kecamatan":"Lubuk Linggau Barat I","kecCode":"167302","kabCode":"1673","province":"Sumatera Selatan"},"geometry":{"type":"Polygon","coordinates":[[[102.86161840496548,-3.3449449515520877],[102.86033260736399,-3.3183360366112677],[102.86757176672369,-3.3161133315998206],[102.86259394005832,-3.3063473632855223],[102.86265816873953,-3.301937364068281],[102.86678995009616,-3.3095319984449456],[102.87208708285266,-3.312352382095676],[102.8796988403293,-3.321629862956729],[102.88155090055369,-3.3287734675426828],[102.8875298660106,-3.331883720674982],[102.88303492312326,-3.3325318009190563],[102.88534542265319,-3.3350917939655207],[102.88194156964776,-3.339541033301618],[102.87542928283516,-3.3382528920683168],[102.87459569583471,-3.3413920664982837],[102.87640329717448,-3.3415543896308564],[102.87358626259599,-3.344749478509652],[102.87254430987207,-3.3415694235974724],[102.86161840496548,-3.3449449515520877]]]}},{"type":"Feature","properties":{"code":"1673021015","desa":"Watas Lubuk Durian","kecamatan":"Lubuk Linggau Barat I","kecCode":"167302","kabCode":"1673","province":"Sumatera Selatan"},"geometry":{"type":"Polygon","coordinates":[[[102.7856179785869,-3.2740169363127856],[102.80448309132167,-3.282458300381453],[102.81403754809439,-3.314458239992407],[102.82019283643028,-3.322726555613797],[102.82968032698557,-3.3292757964615456],[102.83109475371997,-3.334063266322207],[102.81260543529265,-3.3348509339381156],[102.7960390391704,-3.330255913599122],[102.79631220644326,-3.3219183996430006],[102.79001557795665,-3.3122540394314215],[102.79305585394457,-3.3099340277747253],[102.79054971679608,-3.3067104312863576],[102.79090571432731,-3.29976591771543],[102.78544671619306,-3.293109087374099],[102.77953630785436,-3.294029331247314],[102.77738219323368,-3.2922603360062843],[102.77827728127158,-3.2864151222269946],[102.77630392858349,-3.2823801106248607],[102.7856179785869,-3.2740169363127856]]]}},{"type":"Feature","properties":{"code":"1673021016","desa":"Lubuk Aman","kecamatan":"Lubuk Linggau Barat I","kecCode":"167302","kabCode":"1673","province":"Sumatera Selatan"},"geometry":{"type":"Polygon","coordinates":[[[102.85171861122502,-3.300295952947771],[102.85430547781563,-3.3063810015273587],[102.84819781937391,-3.3080043920326867],[102.84450547734599,-3.302874039454505],[102.8488109312795,-3.2997287892047917],[102.85171861122502,-3.300295952947771]]]}},{"type":"Feature","properties":{"code":"1673021018","desa":"Tanjung Aman","kecamatan":"Lubuk Linggau Barat I","kecCode":"167302","kabCode":"1673","province":"Sumatera Selatan"},"geometry":{"type":"Polygon","coordinates":[[[102.85321395086322,-3.311194493271428],[102.84741455933448,-3.313076517105687],[102.84454099427154,-3.3098359432158677],[102.84678033404526,-3.306489427390358],[102.85321395086322,-3.311194493271428]]]}},{"type":"Feature","properties":{"code":"1673021019","desa":"Pelita Jaya","kecamatan":"Lubuk Linggau Barat I","kecCode":"167302","kabCode":"1673","province":"Sumatera Selatan"},"geometry":{"type":"Polygon","coordinates":[[[102.84436860232921,-3.308470257939142],[102.83642298323416,-3.298272760733437],[102.8387137858126,-3.296647722670099],[102.8468570111422,-3.3064356964955115],[102.84436860232921,-3.308470257939142]]]}},{"type":"Feature","properties":{"code":"1673031001","desa":"Lubuk Kupang","kecamatan":"Lubuk Linggau Selatan I","kecCode":"167303","kabCode":"1673","province":"Sumatera Selatan"},"geometry":{"type":"Polygon","coordinates":[[[102.96801234439427,-3.281878929240964],[102.97294631831801,-3.2849629491492407],[102.9716761985977,-3.289475212074975],[102.97473188536826,-3.289302853407711],[102.97652060184437,-3.292468688239758],[102.97255563033815,-3.2964287620338264],[102.95929737507385,-3.2873036353204643],[102.94579863210122,-3.271354416056596],[102.94987648381273,-3.2628211259865525],[102.95405750125273,-3.2619909905849784],[102.96473864757058,-3.2676134602801192],[102.9679792349538,-3.2743826905885745],[102.96639030017229,-3.2835904964741793],[102.96801234439427,-3.281878929240964]]]}},{"type":"Feature","properties":{"code":"1673031003","desa":"Rahmah","kecamatan":"Lubuk Linggau Selatan I","kecCode":"167303","kabCode":"1673","province":"Sumatera Selatan"},"geometry":{"type":"Polygon","coordinates":[[[102.89664939805135,-3.3113588281873683],[102.9057812490055,-3.304271851212585],[102.91988862975654,-3.3042467844092105],[102.92091579133073,-3.2927807341036175],[102.92595304969353,-3.287743339948645],[102.92502560944439,-3.285483603553379],[102.93095677683385,-3.28312762710872],[102.93510712199615,-3.2779159263549698],[102.93786791207451,-3.3087169221910666],[102.93600412379134,-3.3122294744497447],[102.92549350871847,-3.3190249757537615],[102.92554552370699,-3.322470760545164],[102.89825654320498,-3.3266390112049047],[102.89664939805135,-3.3113588281873683]]]}},{"type":"Feature","properties":{"code":"1673031008","desa":"Jukung","kecamatan":"Lubuk Linggau Selatan I","kecCode":"167303","kabCode":"1673","province":"Sumatera Selatan"},"geometry":{"type":"Polygon","coordinates":[[[102.95813565603578,-3.309368541267265],[102.95787403785664,-3.3230728512584724],[102.9628517952742,-3.3260306405257634],[102.96295035557448,-3.3286748173103398],[102.95904750563795,-3.3298833649453647],[102.9666633856068,-3.3492475807104074],[102.96697805569276,-3.3623491632683424],[102.96541497282278,-3.3640188976372793],[102.96444154394214,-3.360554042721904],[102.95919221195105,-3.362676775497489],[102.95888179385973,-3.3605333439256957],[102.95655141481596,-3.36068214934854],[102.954286017186,-3.364185384630845],[102.94858545935153,-3.362672519006219],[102.94788577960507,-3.3659982029358098],[102.94635967505899,-3.364430849187113],[102.943306525276,-3.3660427571485982],[102.9429970766538,-3.363456326731986],[102.94133657472321,-3.3659210465002873],[102.94013367033266,-3.364679855273659],[102.93786639222024,-3.3690509561145476],[102.92840402782366,-3.36901962913048],[102.92549350871847,-3.3190249757537615],[102.93600412379134,-3.3122294744497447],[102.93786791207451,-3.3087169221910666],[102.94234843073554,-3.30607004923907],[102.94676367930042,-3.3071476861612843],[102.95274842020346,-3.302922555180863],[102.95774528821455,-3.304270917716273],[102.9558615475724,-3.3080383971978162],[102.95813565603578,-3.309368541267265]]]}},{"type":"Feature","properties":{"code":"1673031009","desa":"Air Kati","kecamatan":"Lubuk Linggau Selatan I","kecCode":"167303","kabCode":"1673","province":"Sumatera Selatan"},"geometry":{"type":"Polygon","coordinates":[[[102.89824411007767,-3.3266208565907798],[102.92554552370699,-3.322470760545164],[102.92651607655573,-3.3368647066534263],[102.91551249630469,-3.34742510728398],[102.90626249961473,-3.3512499437269287],[102.90431107869341,-3.354808552965541],[102.89820331233305,-3.3554364533221825],[102.89564295685703,-3.3593968131006755],[102.88998293956108,-3.3607080228437884],[102.89225039663853,-3.3393706747266636],[102.89824411007767,-3.3266208565907798]]]}},{"type":"Feature","properties":{"code":"1673031010","desa":"Air Teman","kecamatan":"Lubuk Linggau Selatan I","kecCode":"167303","kabCode":"1673","province":"Sumatera Selatan"},"geometry":{"type":"Polygon","coordinates":[[[102.97255563033815,-3.2964287620338264],[102.95813565603578,-3.309368541267265],[102.9558615475724,-3.3080383971978162],[102.95774528821455,-3.304270917716273],[102.95274842020346,-3.302922555180863],[102.94676367930042,-3.3071476861612843],[102.94234843073554,-3.30607004923907],[102.93786791207451,-3.3087169221910666],[102.93510827582634,-3.2779220966035645],[102.9413493253112,-3.276833359349295],[102.94579863210122,-3.271354416056596],[102.95929737507385,-3.2873036353204643],[102.97255563033815,-3.2964287620338264]]]}},{"type":"Feature","properties":{"code":"1673031011","desa":"Perumnas Rahmah","kecamatan":"Lubuk Linggau Selatan I","kecCode":"167303","kabCode":"1673","province":"Sumatera Selatan"},"geometry":{"type":"Polygon","coordinates":[[[102.91303395305454,-3.2940241160787567],[102.91835030432314,-3.2962879120137307],[102.91764910472244,-3.2932289831905472],[102.92091326783309,-3.2927347832437133],[102.91988862975654,-3.3042467844092105],[102.9057812490055,-3.304271851212585],[102.90808488041294,-3.2977368844043426],[102.91303395305454,-3.2940241160787567]]]}},{"type":"Feature","properties":{"code":"1673031012","desa":"Lubuk Binjai","kecamatan":"Lubuk Linggau Selatan I","kecCode":"167303","kabCode":"1673","province":"Sumatera Selatan"},"geometry":{"type":"Polygon","coordinates":[[[102.92651607655573,-3.3368647066534263],[102.92840402782366,-3.36901962913048],[102.92357314228673,-3.368143472721932],[102.92418034474719,-3.3702875041415066],[102.91717749484559,-3.3720445231108624],[102.91088541782783,-3.37797994518655],[102.90906306670722,-3.3761587712804455],[102.89691578443596,-3.3764038095581066],[102.89238389560033,-3.3736857642594638],[102.88998293956108,-3.3607080228437884],[102.89564295685703,-3.3593968131006755],[102.89820331233305,-3.3554364533221825],[102.90431107869341,-3.354808552965541],[102.90626249961473,-3.3512499437269287],[102.91551249630469,-3.34742510728398],[102.92651607655573,-3.3368647066534263]]]}},{"type":"Feature","properties":{"code":"1673041001","desa":"Durian Rampak","kecamatan":"Lubuk Linggau Utara I","kecCode":"167304","kabCode":"1673","province":"Sumatera Selatan"},"geometry":{"type":"Polygon","coordinates":[[[102.86115870121313,-3.1307397539715387],[102.88185475809068,-3.1567328158737524],[102.8686477183176,-3.176869657194108],[102.87062929080918,-3.1874677277271872],[102.87574986956086,-3.19601389069302],[102.87249001869947,-3.1979692641326234],[102.84618639028974,-3.198939875436217],[102.84233071159315,-3.1948478315279436],[102.83754173536285,-3.1984840792386993],[102.83620945000615,-3.196917331633096],[102.82275479000162,-3.199181106883674],[102.81077234087087,-3.1983108500277186],[102.81137635163736,-3.17874372832358],[102.81455930326926,-3.17489927317023],[102.82480506799953,-3.17410734366716],[102.82824458002341,-3.1755035474374163],[102.82989426940509,-3.1822228096143643],[102.83658545925158,-3.1828547281419013],[102.84525099823502,-3.1748180724834785],[102.84759220421692,-3.153275751785266],[102.84529337069254,-3.1468238922265317],[102.85483311905323,-3.1317514454068753],[102.86115870121313,-3.1307397539715387]]]}},{"type":"Feature","properties":{"code":"1673041002","desa":"Tanjung Raya","kecamatan":"Lubuk Linggau Utara I","kecCode":"167304","kabCode":"1673","province":"Sumatera Selatan"},"geometry":{"type":"Polygon","coordinates":[[[102.82824458002341,-3.1755035474374163],[102.8329577640896,-3.176438928699228],[102.83513021139021,-3.1567712133277253],[102.83764229305744,-3.1510718524971244],[102.84529337069254,-3.1468238922265317],[102.84759220421692,-3.153275751785266],[102.84525099823502,-3.1748180724834785],[102.83658545925158,-3.1828547281419013],[102.82989426940509,-3.1822228096143643],[102.82824458002341,-3.1755035474374163]]]}},{"type":"Feature","properties":{"code":"1673041003","desa":"Sumber Agung","kecamatan":"Lubuk Linggau Utara I","kecCode":"167304","kabCode":"1673","province":"Sumatera Selatan"},"geometry":{"type":"Polygon","coordinates":[[[102.82993961142397,-3.26307235699576],[102.81149322483253,-3.2650395196480493],[102.83561666907406,-3.231331798050397],[102.84485304733032,-3.22701634635828],[102.84520525781646,-3.2309325737061068],[102.84653775721176,-3.2300759685588036],[102.84702127321326,-3.2252476362023823],[102.8521970442582,-3.2233299965170836],[102.85184970539966,-3.2187365922598428],[102.86918529886252,-3.2181550402634405],[102.86951843292938,-3.2130658874268465],[102.87284967827009,-3.210242260820806],[102.88962161894261,-3.215443267736112],[102.88812536829118,-3.2273484911706123],[102.88114359939765,-3.2340015830300715],[102.88289873159124,-3.2366450610413655],[102.87979644465024,-3.2410096390994436],[102.88133664696875,-3.244171522310407],[102.87517265679276,-3.2444781668460823],[102.86759330818467,-3.2523540183269417],[102.85447405393448,-3.2549691560025757],[102.84598058763407,-3.2439782876805374],[102.83672575259146,-3.246678427477216],[102.8323698376979,-3.251161786192406],[102.82993961142397,-3.26307235699576]]]}},{"type":"Feature","properties":{"code":"1673041004","desa":"Marga Bakti","kecamatan":"Lubuk Linggau Utara I","kecCode":"167304","kabCode":"1673","province":"Sumatera Selatan"},"geometry":{"type":"Polygon","coordinates":[[[102.9172740460604,-3.152012464215946],[102.92463046532379,-3.172221445553512],[102.91840036508484,-3.174251903390654],[102.91583402731857,-3.190617719202687],[102.9128591005671,-3.1957090582912584],[102.90671724270662,-3.196629416378268],[102.9011902738121,-3.2018309475983213],[102.89616470303866,-3.1949322158147906],[102.89009195897677,-3.169267542256697],[102.88273576094666,-3.1565686644194595],[102.89271268234448,-3.151049673416845],[102.89841414579625,-3.1559524012901243],[102.9116125206014,-3.158573895373951],[102.9172740460604,-3.152012464215946]]]}},{"type":"Feature","properties":{"code":"1673041005","desa":"Belalau I","kecamatan":"Lubuk Linggau Utara I","kecCode":"167304","kabCode":"1673","province":"Sumatera Selatan"},"geometry":{"type":"Polygon","coordinates":[[[102.83041920728067,-3.262901335620407],[102.8323698376979,-3.251161786192406],[102.84121679332041,-3.2451844826890865],[102.84598058763407,-3.2439782876805374],[102.85447405393448,-3.2549691560025757],[102.83041920728067,-3.262901335620407]]]}},{"type":"Feature","properties":{"code":"1673041006","desa":"Belalau II","kecamatan":"Lubuk Linggau Utara I","kecCode":"167304","kabCode":"1673","province":"Sumatera Selatan"},"geometry":{"type":"Polygon","coordinates":[[[102.8435769722995,-3.1988384714797395],[102.87249001869947,-3.1979692641326234],[102.87567788872364,-3.196066720467192],[102.87794345362754,-3.2028126637306102],[102.8755361843475,-3.2061207425318043],[102.87630283930461,-3.2113575532564007],[102.87284967827009,-3.210242260820806],[102.86983569486148,-3.2124948161295714],[102.86918529886252,-3.2181550402634405],[102.85184970539966,-3.2187365922598428],[102.8521970442582,-3.2233299965170836],[102.84855504088249,-3.2237528316623885],[102.8435769722995,-3.1988384714797395]]]}},{"type":"Feature","properties":{"code":"1673041007","desa":"Taba Baru","kecamatan":"Lubuk Linggau Utara I","kecCode":"167304","kabCode":"1673","province":"Sumatera Selatan"},"geometry":{"type":"Polygon","coordinates":[[[102.88185475809068,-3.1567328158737524],[102.89009195897677,-3.169267542256697],[102.89616470303866,-3.1949322158147906],[102.90295074168345,-3.2045230393620447],[102.90197962316113,-3.20968154161958],[102.8991072829748,-3.211032944762836],[102.88302301430069,-3.2128399237697582],[102.8753835019471,-3.2106579184768402],[102.87787298455066,-3.2022363251041],[102.87062929080918,-3.1874677277271872],[102.8686477183176,-3.176869657194108],[102.88185475809068,-3.1567328158737524]]]}},{"type":"Feature","properties":{"code":"1673041008","desa":"Margorejo","kecamatan":"Lubuk Linggau Utara I","kecCode":"167304","kabCode":"1673","province":"Sumatera Selatan"},"geometry":{"type":"Polygon","coordinates":[[[102.92398906164595,-3.195915550726701],[102.93014417461404,-3.1960882277539415],[102.92796468472248,-3.198475625611446],[102.92894099772894,-3.2014535381089297],[102.93210310937104,-3.201119073045749],[102.9328151799766,-3.2038439684803643],[102.934596966277,-3.2025198417747496],[102.93620228760557,-3.209452673152304],[102.93893669697104,-3.210351280236437],[102.93696792632879,-3.2120400973198144],[102.91982017336238,-3.213377094223252],[102.9011902738121,-3.2018309475983213],[102.90671724270662,-3.196629416378268],[102.9128591005671,-3.1957090582912584],[102.91576201500504,-3.1906299041170882],[102.92398906164595,-3.195915550726701]]]}},{"type":"Feature","properties":{"code":"1673041009","desa":"Petanang Ulu","kecamatan":"Lubuk Linggau Utara I","kecCode":"167304","kabCode":"1673","province":"Sumatera Selatan"},"geometry":{"type":"Polygon","coordinates":[[[102.75821083975853,-3.289885283142423],[102.7530468822079,-3.2833247809840715],[102.76554159326999,-3.2704477411544675],[102.77826745258089,-3.268716442795566],[102.78329455579916,-3.2588743243871825],[102.7884542109931,-3.257654830204184],[102.79264622264515,-3.253214279218329],[102.79746786584938,-3.2546723725331184],[102.82102104998155,-3.2316635084901044],[102.83549817440125,-3.206272796305879],[102.84502082934783,-3.2065120024800753],[102.84856596674604,-3.223753660837299],[102.84706123818563,-3.2295048972615334],[102.84520525781646,-3.2309325737061068],[102.84485304733032,-3.22701634635828],[102.83561666907406,-3.231331798050397],[102.80982956808013,-3.2666778326041253],[102.78431411540419,-3.274427587443024],[102.77777794619531,-3.2820132375924556],[102.77028890301051,-3.2819662722973404],[102.76770408957213,-3.2910164612026556],[102.76616141591666,-3.288892842594826],[102.75821083975853,-3.289885283142423]]]}},{"type":"Feature","properties":{"code":"1673041010","desa":"Petanang Ilir","kecamatan":"Lubuk Linggau Utara I","kecCode":"167304","kabCode":"1673","province":"Sumatera Selatan"},"geometry":{"type":"Polygon","coordinates":[[[102.80746757157124,-3.2025245928930746],[102.81077234087087,-3.1983108500277186],[102.82275479000162,-3.199181106883674],[102.83620945000615,-3.196917331633096],[102.83754173536285,-3.1984840792386993],[102.84233071159315,-3.1948478315279436],[102.84618639028974,-3.198939875436217],[102.8435769722995,-3.1988384714797395],[102.84502082934783,-3.2065120024800753],[102.83549817440125,-3.206272796305879],[102.82102104998155,-3.2316635084901044],[102.79746786584938,-3.2546723725331184],[102.79264622264515,-3.253214279218329],[102.7884542109931,-3.257654830204184],[102.78281404802992,-3.2592719866090905],[102.77990780699974,-3.26754002613856],[102.77826745258089,-3.268716442795566],[102.77718395207779,-3.26876614832499],[102.77786843597958,-3.2602778846117615],[102.77016498812377,-3.254023049426074],[102.78314287884086,-3.242118668656315],[102.79191914235457,-3.243141415457506],[102.798147931382,-3.240985369994746],[102.80732002699773,-3.233655526605082],[102.80888636271554,-3.2246546781044687],[102.81190495784756,-3.222084682798222],[102.80746757157124,-3.2025245928930746]]]}},{"type":"Feature","properties":{"code":"1673051001","desa":"Jawa Kanan","kecamatan":"Lubuk Linggau Timur II","kecCode":"167305","kabCode":"1673","province":"Sumatera Selatan"},"geometry":{"type":"Polygon","coordinates":[[[102.87153602506754,-3.2881860096416133],[102.87333732036109,-3.2899884749511696],[102.86844090482394,-3.292147587102195],[102.8680612155527,-3.289570024000909],[102.87153602506754,-3.2881860096416133]]]}},{"type":"Feature","properties":{"code":"1673051002","desa":"Jawa Kanan SS","kecamatan":"Lubuk Linggau Timur II","kecCode":"167305","kabCode":"1673","province":"Sumatera Selatan"},"geometry":{"type":"Polygon","coordinates":[[[102.8680612155527,-3.289570024000909],[102.86922020424907,-3.293146003644761],[102.86434221222339,-3.2963163764558354],[102.86467332101698,-3.292080894278633],[102.8680612155527,-3.289570024000909]]]}},{"type":"Feature","properties":{"code":"1673051003","desa":"Wira Karya","kecamatan":"Lubuk Linggau Timur II","kecCode":"167305","kabCode":"1673","province":"Sumatera Selatan"},"geometry":{"type":"Polygon","coordinates":[[[102.87565729694677,-3.292667423123248],[102.87393425975836,-3.29582540327646],[102.86907291508304,-3.2948080434142852],[102.87168590068381,-3.292620044139924],[102.87565729694677,-3.292667423123248]]]}},{"type":"Feature","properties":{"code":"1673051004","desa":"Dempo","kecamatan":"Lubuk Linggau Timur II","kecCode":"167305","kabCode":"1673","province":"Sumatera Selatan"},"geometry":{"type":"Polygon","coordinates":[[[102.86434221222339,-3.2963163764558354],[102.8683800602916,-3.294304753120238],[102.869577823258,-3.2954684155920417],[102.86591597813992,-3.298228642691863],[102.86434221222339,-3.2963163764558354]]]}},{"type":"Feature","properties":{"code":"1673051005","desa":"Jawa Kiri","kecamatan":"Lubuk Linggau Timur II","kecCode":"167305","kabCode":"1673","province":"Sumatera Selatan"},"geometry":{"type":"Polygon","coordinates":[[[102.87333732036109,-3.2899884749511696],[102.87705971503391,-3.292167297543436],[102.8683800602916,-3.294304753120238],[102.86986842298937,-3.2919672955151866],[102.87333732036109,-3.2899884749511696]]]}},{"type":"Feature","properties":{"code":"1673051006","desa":"Karya Bakti","kecamatan":"Lubuk Linggau Timur II","kecCode":"167305","kabCode":"1673","province":"Sumatera Selatan"},"geometry":{"type":"Polygon","coordinates":[[[102.88310255483907,-3.298574785451784],[102.87676933024045,-3.306274314053831],[102.86776351657306,-3.2994785492484695],[102.86956090521163,-3.29546706930693],[102.87420290074333,-3.2942947751421396],[102.88310255483907,-3.298574785451784]]]}},{"type":"Feature","properties":{"code":"1673051007","desa":"Mesat Jaya","kecamatan":"Lubuk Linggau Timur II","kecCode":"167305","kabCode":"1673","province":"Sumatera Selatan"},"geometry":{"type":"Polygon","coordinates":[[[102.86208571068704,-3.301308418699378],[102.8642937801339,-3.2975730027467254],[102.86831740542395,-3.297341209684175],[102.86644703410337,-3.3039209321533125],[102.86208571068704,-3.301308418699378]]]}},{"type":"Feature","properties":{"code":"1673051008","desa":"Mesat Seni","kecamatan":"Lubuk Linggau Timur II","kecCode":"167305","kabCode":"1673","province":"Sumatera Selatan"},"geometry":{"type":"Polygon","coordinates":[[[102.88303475225204,-3.299334619050411],[102.89664939805135,-3.3113588281873683],[102.89824411007767,-3.3266208565907798],[102.88750922656959,-3.33094861640443],[102.88155090055369,-3.3287734675426828],[102.8796988403293,-3.321629862956729],[102.87208708285266,-3.312352382095676],[102.86678995009616,-3.3095319984449456],[102.86491286803448,-3.303897163071656],[102.86820285427837,-3.3022349803099567],[102.86776351657306,-3.2994785492484695],[102.87676933024045,-3.306274314053831],[102.88303475225204,-3.299334619050411]]]}},{"type":"Feature","properties":{"code":"1673051009","desa":"Cereme Taba","kecamatan":"Lubuk Linggau Timur II","kecCode":"167305","kabCode":"1673","province":"Sumatera Selatan"},"geometry":{"type":"Polygon","coordinates":[[[102.87481938330795,-3.2891216076400163],[102.8771109368203,-3.2912963679946],[102.88516248526054,-3.2912405830481326],[102.88314000620636,-3.2985533815870745],[102.88025914494362,-3.298503090598971],[102.87975945823246,-3.296052245571153],[102.87557160594491,-3.2965638294131194],[102.87451841799066,-3.294441825088367],[102.87705971503391,-3.292167297543436],[102.87481938330795,-3.2891216076400163]]]}},{"type":"Feature","properties":{"code":"1673061001","desa":"Sidorejo","kecamatan":"Lubuk Linggau Barat II","kecCode":"167306","kabCode":"1673","province":"Sumatera Selatan"},"geometry":{"type":"Polygon","coordinates":[[[102.83488021065322,-3.2835332420354257],[102.82993961142397,-3.26307235699576],[102.83250435559158,-3.2621580153731933],[102.85385264938031,-3.2942047907769765],[102.8580892548153,-3.2925591861177854],[102.85056362541103,-3.301428077094754],[102.8488109312795,-3.2997287892047917],[102.85204022407714,-3.297439365289505],[102.84919885204543,-3.2914069585258305],[102.84190335105886,-3.290534196158696],[102.83993552740269,-3.284380233430102],[102.83488021065322,-3.2835332420354257]]]}},{"type":"Feature","properties":{"code":"1673061002","desa":"Ulak Lebar","kecamatan":"Lubuk Linggau Barat II","kecCode":"167306","kabCode":"1673","province":"Sumatera Selatan"},"geometry":{"type":"Polygon","coordinates":[[[102.8387137858126,-3.296647722670099],[102.8352042184,-3.2863952166328314],[102.83605214509049,-3.282758762977393],[102.83993552740269,-3.284380233430102],[102.84190335105886,-3.290534196158696],[102.84829786985085,-3.2905732806947703],[102.85204022407714,-3.297439365289505],[102.84411506096137,-3.3033103311555325],[102.8387137858126,-3.296647722670099]]]}},{"type":"Feature","properties":{"code":"1673061003","desa":"Tapak Lebar","kecamatan":"Lubuk Linggau Barat II","kecCode":"167306","kabCode":"1673","province":"Sumatera Selatan"},"geometry":{"type":"Polygon","coordinates":[[[102.83250435559158,-3.2621580153731933],[102.83498625061503,-3.2614026792841027],[102.8404668693506,-3.2670785866951855],[102.85831550175907,-3.292556744458503],[102.85390417423832,-3.2942660013333116],[102.83250435559158,-3.2621580153731933]]]}},{"type":"Feature","properties":{"code":"1673061004","desa":"Bandung Kanan","kecamatan":"Lubuk Linggau Barat II","kecCode":"167306","kabCode":"1673","province":"Sumatera Selatan"},"geometry":{"type":"Polygon","coordinates":[[[102.85771847332894,-3.2997916814933954],[102.8555675683886,-3.2978996544999855],[102.85985990391151,-3.2960996020714006],[102.86031386189529,-3.297462810615153],[102.85771847332894,-3.2997916814933954]]]}},{"type":"Feature","properties":{"code":"1673061005","desa":"Keputraan","kecamatan":"Lubuk Linggau Barat II","kecCode":"167306","kabCode":"1673","province":"Sumatera Selatan"},"geometry":{"type":"Polygon","coordinates":[[[102.8555675683886,-3.2978996544999855],[102.85417812032404,-3.296499853441472],[102.8597692819269,-3.292215466131465],[102.8600519559331,-3.295990185155483],[102.8555675683886,-3.2978996544999855]]]}},{"type":"Feature","properties":{"code":"1673061006","desa":"Lubuklinggau Ilir","kecamatan":"Lubuk Linggau Barat II","kecCode":"167306","kabCode":"1673","province":"Sumatera Selatan"},"geometry":{"type":"Polygon","coordinates":[[[102.86731204521475,-3.289654388502579],[102.8645831450961,-3.2932873437953507],[102.86327864969002,-3.2932237914044205],[102.86325748324629,-3.2900449235973537],[102.86731204521475,-3.289654388502579]]]}},{"type":"Feature","properties":{"code":"1673061007","desa":"Lubuklinggau Ulu","kecamatan":"Lubuk Linggau Barat II","kecCode":"167306","kabCode":"1673","province":"Sumatera Selatan"},"geometry":{"type":"Polygon","coordinates":[[[102.85831550175907,-3.292556744458503],[102.8567966484466,-3.288333506550868],[102.86325748324629,-3.2900449235973537],[102.86331998792717,-3.292859172073074],[102.85831550175907,-3.292556744458503]]]}},{"type":"Feature","properties":{"code":"1673061008","desa":"Pasar Permiri","kecamatan":"Lubuk Linggau Barat II","kecCode":"167306","kabCode":"1673","province":"Sumatera Selatan"},"geometry":{"type":"Polygon","coordinates":[[[102.86426193873757,-3.297596728660915],[102.86031386189529,-3.297462810615153],[102.8597692819269,-3.292215466131465],[102.8645831450961,-3.2932873437953507],[102.86426193873757,-3.297596728660915]]]}},{"type":"Feature","properties":{"code":"1673071001","desa":"Tanah Periuk","kecamatan":"Lubuk Linggau Selatan II","kecCode":"167307","kabCode":"1673","province":"Sumatera Selatan"},"geometry":{"type":"Polygon","coordinates":[[[102.92794252093064,-3.2615845033158593],[102.93851635744396,-3.2675906076076853],[102.93849298226534,-3.277117214165024],[102.92954951140086,-3.2837893284844677],[102.92794252093064,-3.2615845033158593]]]}},{"type":"Feature","properties":{"code":"1673071002","desa":"Simpang Periuk","kecamatan":"Lubuk Linggau Selatan II","kecCode":"167307","kabCode":"1673","province":"Sumatera Selatan"},"geometry":{"type":"Polygon","coordinates":[[[102.93617500217464,-3.264939530325124],[102.9446253756606,-3.262197833756031],[102.94987648381273,-3.2628211259865525],[102.94438777027943,-3.2742561901510556],[102.93895586512116,-3.2779122903959452],[102.93851635744396,-3.2675906076076853],[102.93617500217464,-3.264939530325124]]]}},{"type":"Feature","properties":{"code":"1673071003","desa":"Karang Ketuan","kecamatan":"Lubuk Linggau Selatan II","kecCode":"167307","kabCode":"1673","province":"Sumatera Selatan"},"geometry":{"type":"Polygon","coordinates":[[[102.93702287130849,-3.2145004274972226],[102.94071408019072,-3.2195517782310814],[102.93971767273246,-3.230966385516982],[102.94543887360521,-3.2323888494909987],[102.94671549182651,-3.236615672995542],[102.95438767385212,-3.2383159006770836],[102.9495305820708,-3.24021579673835],[102.9285376050265,-3.2393598013314455],[102.93913027694076,-3.231630019535746],[102.93291240478374,-3.217924948718241],[102.93691220433483,-3.2170717681893173],[102.93702287130849,-3.2145004274972226]]]}},{"type":"Feature","properties":{"code":"1673071004","desa":"Siring Agung","kecamatan":"Lubuk Linggau Selatan II","kecCode":"167307","kabCode":"1673","province":"Sumatera Selatan"},"geometry":{"type":"Polygon","coordinates":[[[102.92728186456647,-3.256456369365177],[102.92740304011829,-3.2613672864649903],[102.92344510131045,-3.2602970311781427],[102.91856277275382,-3.2643259660612136],[102.91794809782652,-3.244378519265527],[102.93203011589719,-3.2481197034697424],[102.94981422824412,-3.246517230295917],[102.94879146795195,-3.2488891328345657],[102.93569893975432,-3.2486540923201135],[102.93569464818948,-3.2511050182869274],[102.93054411212113,-3.251396865377712],[102.92728186456647,-3.256456369365177]]]}},{"type":"Feature","properties":{"code":"1673071005","desa":"Eka Marga","kecamatan":"Lubuk Linggau Selatan II","kecCode":"167307","kabCode":"1673","province":"Sumatera Selatan"},"geometry":{"type":"Polygon","coordinates":[[[102.95438767385212,-3.2383159006770836],[102.95012380816728,-3.246487256791465],[102.93203011589719,-3.2481197034697424],[102.91793640304263,-3.2443750622715597],[102.92008437979035,-3.2414371965847826],[102.9285376050265,-3.2393598013314455],[102.9495305820708,-3.24021579673835],[102.95438767385212,-3.2383159006770836]]]}},{"type":"Feature","properties":{"code":"1673071006","desa":"Marga Mulya","kecamatan":"Lubuk Linggau Selatan II","kecCode":"167307","kabCode":"1673","province":"Sumatera Selatan"},"geometry":{"type":"Polygon","coordinates":[[[102.91972026677695,-3.292476055485962],[102.9195385704487,-3.284596162451793],[102.91816215715788,-3.268723253361423],[102.92337039642672,-3.2732677336000933],[102.92903347231697,-3.2737898512011703],[102.92939086559602,-3.2837888770247803],[102.92518669960657,-3.2852064504854765],[102.9256357706743,-3.2881798996476412],[102.91972026677695,-3.292476055485962]]]}},{"type":"Feature","properties":{"code":"1673071007","desa":"Marga Rahayu","kecamatan":"Lubuk Linggau Selatan II","kecCode":"167307","kabCode":"1673","province":"Sumatera Selatan"},"geometry":{"type":"Polygon","coordinates":[[[102.92740304011829,-3.2613672864649903],[102.92888253909796,-3.272854021177705],[102.92337039642672,-3.2732677336000933],[102.91831482966568,-3.2687904641944443],[102.91855323544353,-3.2643296955497156],[102.92344510131045,-3.2602970311781427],[102.92740304011829,-3.2613672864649903]]]}},{"type":"Feature","properties":{"code":"1673071008","desa":"Taba Pingin","kecamatan":"Lubuk Linggau Selatan II","kecCode":"167307","kabCode":"1673","province":"Sumatera Selatan"},"geometry":{"type":"Polygon","coordinates":[[[102.93688485055547,-3.2131753744898988],[102.93691220433483,-3.2170717681893173],[102.93291240478374,-3.217924948718241],[102.93583322022697,-3.221160518780255],[102.93491478399017,-3.2252803841152855],[102.91112298903477,-3.2244107891604283],[102.91379205276108,-3.2682943235106556],[102.90224766969423,-3.2747173445093516],[102.89949196168476,-3.2696339221527357],[102.90678036342308,-3.265662994440937],[102.90323542297642,-3.25819477146887],[102.89860238199441,-3.2543816549908255],[102.89803951880877,-3.250361773582764],[102.90303969002974,-3.23192918351068],[102.90192885823028,-3.205033983786052],[102.90463060331973,-3.204590821264576],[102.91982017336238,-3.213377094223252],[102.93688485055547,-3.2131753744898988]]]}},{"type":"Feature","properties":{"code":"1673071009","desa":"Moneng Sepati","kecamatan":"Lubuk Linggau Selatan II","kecCode":"167307","kabCode":"1673","province":"Sumatera Selatan"},"geometry":{"type":"Polygon","coordinates":[[[102.91816215715788,-3.268723253361423],[102.91379205276108,-3.2682943235106556],[102.91112298903477,-3.2244107891604283],[102.93491478399017,-3.2252803841152855],[102.93749455582916,-3.227207694210529],[102.93838700885345,-3.232651776183413],[102.91793640304263,-3.2443750622715597],[102.91816215715788,-3.268723253361423]]]}},{"type":"Feature","properties":{"code":"1673081001","desa":"Batu Urip","kecamatan":"Lubuk Linggau Utara II","kecCode":"167308","kabCode":"1673","province":"Sumatera Selatan"},"geometry":{"type":"Polygon","coordinates":[[[102.89360980285016,-3.2773673659877907],[102.88234389665358,-3.2810696742986982],[102.88186058929485,-3.2851255133000956],[102.87722970398771,-3.2798055440646032],[102.87559174266481,-3.268445544512581],[102.86783230931366,-3.2522039421620312],[102.87517265679276,-3.2444781668460823],[102.88133664696875,-3.244171522310407],[102.87979644465024,-3.2410096390994436],[102.88289873159124,-3.2366450610413655],[102.88114359939765,-3.2340015830300715],[102.88812536829118,-3.2273484911706123],[102.88962161894261,-3.215443267736112],[102.88302301430069,-3.2128399237697582],[102.90197962316113,-3.20968154161958],[102.90303969002974,-3.23192918351068],[102.89817874825069,-3.252084366504254],[102.90678036342308,-3.265662994440937],[102.8960520908314,-3.2726961092197815],[102.89190955987834,-3.2730330312307014],[102.89360980285016,-3.2773673659877907]]]}},{"type":"Feature","properties":{"code":"1673081002","desa":"Ulak Surung","kecamatan":"Lubuk Linggau Utara II","kecCode":"167308","kabCode":"1673","province":"Sumatera Selatan"},"geometry":{"type":"Polygon","coordinates":[[[102.85643670289159,-3.2886251027307902],[102.84687036967188,-3.2774976174975827],[102.84352275577062,-3.2715085013991976],[102.86219899558722,-3.285030525107034],[102.86416739840676,-3.2895758444131764],[102.85643670289159,-3.2886251027307902]]]}},{"type":"Feature","properties":{"code":"1673081003","desa":"Kenanga","kecamatan":"Lubuk Linggau Utara II","kecCode":"167308","kabCode":"1673","province":"Sumatera Selatan"},"geometry":{"type":"Polygon","coordinates":[[[102.87531703035671,-3.2862410026872264],[102.86826380133338,-3.289449685717991],[102.86443045370254,-3.2828123283970356],[102.87274100329472,-3.2802707966334625],[102.87531703035671,-3.2862410026872264]]]}},{"type":"Feature","properties":{"code":"1673081004","desa":"Pasar Satelit","kecamatan":"Lubuk Linggau Utara II","kecCode":"167308","kabCode":"1673","province":"Sumatera Selatan"},"geometry":{"type":"Polygon","coordinates":[[[102.86826380133338,-3.289449685717991],[102.86412186573158,-3.289859489686911],[102.86219899558722,-3.285030525107034],[102.85533166092745,-3.2798560293062295],[102.86443045370254,-3.2828123283970356],[102.86826380133338,-3.289449685717991]]]}},{"type":"Feature","properties":{"code":"1673081005","desa":"Senalang","kecamatan":"Lubuk Linggau Utara II","kecCode":"167308","kabCode":"1673","province":"Sumatera Selatan"},"geometry":{"type":"Polygon","coordinates":[[[102.88186058929485,-3.2851255133000956],[102.87531703035671,-3.2862410026872264],[102.87274100329472,-3.2802707966334625],[102.87870774966295,-3.2805798783318942],[102.88186058929485,-3.2851255133000956]]]}},{"type":"Feature","properties":{"code":"1673081006","desa":"Megang","kecamatan":"Lubuk Linggau Utara II","kecCode":"167308","kabCode":"1673","province":"Sumatera Selatan"},"geometry":{"type":"Polygon","coordinates":[[[102.86793172396995,-3.2813642877040303],[102.86154885769366,-3.282488436663133],[102.86170566078765,-3.2778215712846803],[102.86716865730772,-3.2753442969805406],[102.86793172396995,-3.2813642877040303]]]}},{"type":"Feature","properties":{"code":"1673081007","desa":"Jogoboyo","kecamatan":"Lubuk Linggau Utara II","kecCode":"167308","kabCode":"1673","province":"Sumatera Selatan"},"geometry":{"type":"Polygon","coordinates":[[[102.83498625061503,-3.2614026792841027],[102.85444982709788,-3.254978230162],[102.8624331889406,-3.2679274163040186],[102.86382929558556,-3.276835134610959],[102.85327986217594,-3.27823907255086],[102.84345618165753,-3.271462396755232],[102.83498625061503,-3.2614026792841027]]]}},{"type":"Feature","properties":{"code":"1673081008","desa":"Puncak Kemuning","kecamatan":"Lubuk Linggau Utara II","kecCode":"167308","kabCode":"1673","province":"Sumatera Selatan"},"geometry":{"type":"Polygon","coordinates":[[[102.85447405393448,-3.2549691560025757],[102.86782762834241,-3.25217050267039],[102.87559174266481,-3.268445544512581],[102.87311177129128,-3.2723377392773267],[102.86380158837267,-3.276836390064541],[102.8624331889406,-3.2679274163040186],[102.85447405393448,-3.2549691560025757]]]}},{"type":"Feature","properties":{"code":"1673081009","desa":"Ponorogo","kecamatan":"Lubuk Linggau Utara II","kecCode":"167308","kabCode":"1673","province":"Sumatera Selatan"},"geometry":{"type":"Polygon","coordinates":[[[102.87570962400001,-3.268896987092068],[102.87720959784473,-3.2800023606941924],[102.86805291570954,-3.2817205730179473],[102.86716865730772,-3.2753442969805406],[102.87570962400001,-3.268896987092068]]]}},{"type":"Feature","properties":{"code":"1673081010","desa":"Kali Serayu","kecamatan":"Lubuk Linggau Utara II","kecCode":"167308","kabCode":"1673","province":"Sumatera Selatan"},"geometry":{"type":"Polygon","coordinates":[[[102.86154885769366,-3.282488436663133],[102.85327986217594,-3.27823907255086],[102.86168015871243,-3.2781696889557463],[102.86154885769366,-3.282488436663133]]]}}]}