{"type":"FeatureCollection","features":[{"type":"Feature","properties":{"code":"1707011004","desa":"Kampung Jawa","kecamatan":"Lebong Utara","kecCode":"170701","kabCode":"1707","province":"Bengkulu"},"geometry":{"type":"Polygon","coordinates":[[[102.20554817221044,-3.105322991125726],[102.1991112162097,-3.1087536187434273],[102.19695407087373,-3.114732522140616],[102.19242405082933,-3.1103433197455983],[102.19140604974945,-3.10464092370302],[102.19763821123449,-3.1061017077893536],[102.20297857530106,-3.102717257660723],[102.20554817221044,-3.105322991125726]]]}},{"type":"Feature","properties":{"code":"1707011006","desa":"Pasar Muara Aman","kecamatan":"Lebong Utara","kecCode":"170701","kabCode":"1707","province":"Bengkulu"},"geometry":{"type":"Polygon","coordinates":[[[102.20204633806809,-3.117706967751569],[102.20013416805743,-3.119965616866522],[102.19802298976924,-3.120111833141176],[102.1972986344245,-3.1155061108699043],[102.20204633806809,-3.117706967751569]]]}},{"type":"Feature","properties":{"code":"1707012002","desa":"Gandung","kecamatan":"Lebong Utara","kecCode":"170701","kabCode":"1707","province":"Bengkulu"},"geometry":{"type":"Polygon","coordinates":[[[102.19406981736824,-3.114672573333086],[102.19851133602941,-3.122986619480412],[102.195113456321,-3.124848527279178],[102.18694996926574,-3.1249992932240938],[102.18481368820119,-3.1195494106239785],[102.19406981736824,-3.114672573333086]]]}},{"type":"Feature","properties":{"code":"1707012005","desa":"Tunggang","kecamatan":"Lebong Utara","kecCode":"170701","kabCode":"1707","province":"Bengkulu"},"geometry":{"type":"Polygon","coordinates":[[[102.20554817221044,-3.105322991125726],[102.20297857530106,-3.102717257660723],[102.19312844032531,-3.106241384194171],[102.17142355994939,-3.0841465488097453],[102.16655091529258,-3.074923974257547],[102.17179762755853,-3.0724612311991257],[102.17222593058226,-3.0696058774106127],[102.17780390092933,-3.0691479723028587],[102.17794793904618,-3.0631979407406793],[102.19501525934679,-3.088308802790063],[102.20309270556395,-3.0852783662879237],[102.2064299790603,-3.0895884022626148],[102.20398162784987,-3.0967747066592297],[102.20651099538617,-3.0976360719181106],[102.20793153391321,-3.1033122743068517],[102.20554817221044,-3.105322991125726]]]}},{"type":"Feature","properties":{"code":"1707012007","desa":"Talang Ulu","kecamatan":"Lebong Utara","kecCode":"170701","kabCode":"1707","province":"Bengkulu"},"geometry":{"type":"Polygon","coordinates":[[[102.19498198173314,-3.1286545804818973],[102.20641445766114,-3.127663270382098],[102.20583624844414,-3.1309968953253033],[102.2095732013422,-3.1346535117809924],[102.20668082965665,-3.1384303154334963],[102.19454639240216,-3.1322091652542903],[102.19498198173314,-3.1286545804818973]]]}},{"type":"Feature","properties":{"code":"1707012014","desa":"Nangai Amen","kecamatan":"Lebong Utara","kecCode":"170701","kabCode":"1707","province":"Bengkulu"},"geometry":{"type":"Polygon","coordinates":[[[102.19766153065517,-3.114669164003241],[102.1991112162097,-3.1087536187434273],[102.20554817221044,-3.105322991125726],[102.21062487843544,-3.1120273587309724],[102.20381781543989,-3.1175874514491007],[102.20017977357777,-3.117598280185772],[102.19766153065517,-3.114669164003241]]]}},{"type":"Feature","properties":{"code":"1707012016","desa":"Lebong Tambang","kecamatan":"Lebong Utara","kecCode":"170701","kabCode":"1707","province":"Bengkulu"},"geometry":{"type":"Polygon","coordinates":[[[102.19140604974945,-3.10464092370302],[102.19406981736824,-3.114672573333086],[102.18915290628165,-3.117977834558344],[102.18481368820119,-3.1195494106239785],[102.18054050643929,-3.117899693365191],[102.17544442791808,-3.112222503520815],[102.18417378908913,-3.107617044750915],[102.18685894168685,-3.101419511667956],[102.19140604974945,-3.10464092370302]]]}},{"type":"Feature","properties":{"code":"1707012022","desa":"Ladang Palembang","kecamatan":"Lebong Utara","kecCode":"170701","kabCode":"1707","province":"Bengkulu"},"geometry":{"type":"Polygon","coordinates":[[[102.14362334544107,-3.1129417273331956],[102.14020539286464,-3.108158335898025],[102.14049529562146,-3.0999371870200254],[102.14501190497548,-3.0888102126016954],[102.14031267389082,-3.0733977195263664],[102.14643456770118,-3.072683417703564],[102.15171697136122,-3.0685074625518896],[102.15459612031475,-3.0744323202914488],[102.15956919226447,-3.0744561154534193],[102.16039010691799,-3.076752295975235],[102.16655091529258,-3.074923974257547],[102.17142355994939,-3.0841465488097453],[102.18685894168685,-3.101419511667956],[102.18417378908913,-3.107617044750915],[102.16464509269696,-3.119393488865829],[102.14362334544107,-3.1129417273331956]]]}},{"type":"Feature","properties":{"code":"1707012023","desa":"Kampung Dalam","kecamatan":"Lebong Utara","kecCode":"170701","kabCode":"1707","province":"Bengkulu"},"geometry":{"type":"Polygon","coordinates":[[[102.19774367203291,-3.1208702062407836],[102.19988536072087,-3.1200210924461116],[102.19851133602941,-3.122986619480412],[102.19774367203291,-3.1208702062407836]]]}},{"type":"Feature","properties":{"code":"1707012024","desa":"Kampung Muara Aman","kecamatan":"Lebong Utara","kecCode":"170701","kabCode":"1707","province":"Bengkulu"},"geometry":{"type":"Polygon","coordinates":[[[102.19851133602941,-3.122986619480412],[102.20189734828402,-3.1189704064069947],[102.2010852415907,-3.1255501126882534],[102.19851133602941,-3.122986619480412]]]}},{"type":"Feature","properties":{"code":"1707012028","desa":"Lokasari","kecamatan":"Lebong Utara","kecCode":"170701","kabCode":"1707","province":"Bengkulu"},"geometry":{"type":"Polygon","coordinates":[[[102.19372381040557,-3.112193008455752],[102.19796212455246,-3.1147632429816925],[102.19789446585695,-3.1180284771813516],[102.19499796628314,-3.1162101739112247],[102.19372381040557,-3.112193008455752]]]}},{"type":"Feature","properties":{"code":"1707012033","desa":"Gandung Baru","kecamatan":"Lebong Utara","kecCode":"170701","kabCode":"1707","province":"Bengkulu"},"geometry":{"type":"Polygon","coordinates":[[[102.1927149689207,-3.12451096135363],[102.19901943320036,-3.122858541632038],[102.20308797333136,-3.126997020235441],[102.19840837624564,-3.126714711354316],[102.1943008792822,-3.1310526946608794],[102.1927149689207,-3.12451096135363]]]}},{"type":"Feature","properties":{"code":"1707022001","desa":"Sukau Kayo","kecamatan":"Lebong Atas","kecCode":"170702","kabCode":"1707","province":"Bengkulu"},"geometry":{"type":"Polygon","coordinates":[[[102.17938649998706,-3.166691157267264],[102.1761534624124,-3.1662332323744518],[102.15568550508203,-3.18691107346162],[102.15861282082506,-3.176106379192033],[102.16626812887112,-3.1689499547703557],[102.16672899994347,-3.1598930991907586],[102.17329358682962,-3.1629395930880344],[102.17456562660243,-3.159900718247101],[102.17737902072531,-3.1614133671350806],[102.17962009708987,-3.1585865677208775],[102.18190771966562,-3.162973070351139],[102.17938649998706,-3.166691157267264]]]}},{"type":"Feature","properties":{"code":"1707022004","desa":"Tik Tebing","kecamatan":"Lebong Atas","kecCode":"170702","kabCode":"1707","province":"Bengkulu"},"geometry":{"type":"Polygon","coordinates":[[[102.14632889556212,-3.2061962415167753],[102.14149633998414,-3.1969375205136346],[102.14774958967189,-3.1979418366088646],[102.15145730561022,-3.1940556142418184],[102.15620576198636,-3.194027631836387],[102.1586117038671,-3.1868283241422497],[102.16124100766642,-3.1874469848642093],[102.16244263591898,-3.1840205606778027],[102.17105190971789,-3.1799499494124777],[102.17132354364668,-3.1765357164357546],[102.17839153144409,-3.1944460198341162],[102.21114276292819,-3.2287969212699603],[102.19120024529514,-3.221105570203252],[102.17567442863201,-3.225756158752087],[102.16640473319194,-3.2238807575253414],[102.15989684406418,-3.220377439505376],[102.14632889556212,-3.2061962415167753]]]}},{"type":"Feature","properties":{"code":"1707022005","desa":"Tabeak Blau","kecamatan":"Lebong Atas","kecCode":"170702","kabCode":"1707","province":"Bengkulu"},"geometry":{"type":"Polygon","coordinates":[[[102.21114276292819,-3.2287969212699603],[102.17789575498516,-3.193786130592334],[102.17307369269685,-3.179876888489553],[102.1759677263296,-3.17618794680224],[102.18267846024281,-3.1788885839240555],[102.18728362404005,-3.1895807271403167],[102.19449284496885,-3.1934870655429077],[102.21114276292819,-3.2287969212699603]]]}},{"type":"Feature","properties":{"code":"1707022006","desa":"Tabeak Blau I","kecamatan":"Lebong Atas","kecCode":"170702","kabCode":"1707","province":"Bengkulu"},"geometry":{"type":"Polygon","coordinates":[[[102.2090960228632,-3.224259418871057],[102.19449284496885,-3.1934870655429077],[102.18728362404005,-3.1895807271403167],[102.18267846024281,-3.1788885839240555],[102.17391983693095,-3.1741263751202493],[102.17389517841981,-3.171267002261617],[102.17899912241164,-3.166855481391381],[102.19846402719314,-3.1833601273462078],[102.20329436504295,-3.189181865222804],[102.2060423721578,-3.1988961045329662],[102.21002796871585,-3.199925221232282],[102.20664525967105,-3.212661999198438],[102.2090960228632,-3.224259418871057]]]}},{"type":"Feature","properties":{"code":"1707022008","desa":"Daneu","kecamatan":"Lebong Atas","kecCode":"170702","kabCode":"1707","province":"Bengkulu"},"geometry":{"type":"Polygon","coordinates":[[[102.17938649998706,-3.166691157267264],[102.18190771966562,-3.162973070351139],[102.18029439886749,-3.15828747479236],[102.20465910063706,-3.1586650623476253],[102.20558245526614,-3.16043842649512],[102.19367580279612,-3.17975488915888],[102.17938649998706,-3.166691157267264]]]}},{"type":"Feature","properties":{"code":"1707022012","desa":"Blau","kecamatan":"Lebong Atas","kecCode":"170702","kabCode":"1707","province":"Bengkulu"},"geometry":{"type":"Polygon","coordinates":[[[102.15568550508203,-3.18691107346162],[102.1761534624124,-3.1662332323744518],[102.17938649998706,-3.166691157267264],[102.17389517841981,-3.171267002261617],[102.17391983693095,-3.1741263751202493],[102.17809043932238,-3.1757359538375716],[102.17355852080912,-3.179995083687997],[102.17132354364668,-3.1765357164357546],[102.17105190971789,-3.1799499494124777],[102.16244263591898,-3.1840205606778027],[102.16124100766642,-3.1874469848642093],[102.1586117038671,-3.1868283241422497],[102.15868991880477,-3.1895233126223137],[102.15554765340151,-3.1943541010272263],[102.15744112830549,-3.187715286804498],[102.15568550508203,-3.18691107346162]]]}},{"type":"Feature","properties":{"code":"1707031005","desa":"Embong Panjang","kecamatan":"Lebong Tengah","kecCode":"170703","kabCode":"1707","province":"Bengkulu"},"geometry":{"type":"Polygon","coordinates":[[[102.2336905158047,-3.145118641831385],[102.22906695097906,-3.148672626755979],[102.22473254696949,-3.1462343794314],[102.22905398005719,-3.140969394745818],[102.2336905158047,-3.145118641831385]]]}},{"type":"Feature","properties":{"code":"1707032006","desa":"Tanjung Bungai I","kecamatan":"Lebong Tengah","kecCode":"170703","kabCode":"1707","province":"Bengkulu"},"geometry":{"type":"Polygon","coordinates":[[[102.21802372591428,-3.232276064614035],[102.21114276292819,-3.2287969212699603],[102.20751788804017,-3.2167914162329185],[102.22467253431006,-3.1729356907189703],[102.23371041690227,-3.1582000121262794],[102.23383450176088,-3.1519594734630987],[102.2397332737716,-3.149063644786606],[102.24113589600483,-3.15251072280317],[102.23847980320039,-3.1562608318793735],[102.2401828187821,-3.158056443455589],[102.22961555631291,-3.178100878536601],[102.23458808057552,-3.188183391123552],[102.22980968936571,-3.1962301173902476],[102.21885896676797,-3.2021151711360987],[102.2186448157057,-3.213750736452661],[102.22337276663995,-3.2169776964054506],[102.21802372591428,-3.232276064614035]]]}},{"type":"Feature","properties":{"code":"1707032007","desa":"Semelako I","kecamatan":"Lebong Tengah","kecCode":"170703","kabCode":"1707","province":"Bengkulu"},"geometry":{"type":"Polygon","coordinates":[[[102.25394467730506,-3.161276160268595],[102.25514498265487,-3.166983953142804],[102.25138733995384,-3.1702154240949043],[102.25125646881105,-3.1760617602281265],[102.24454779794256,-3.1720605775240465],[102.24181188221263,-3.1673736131971717],[102.24759183579465,-3.1657798112864173],[102.25042830831983,-3.1610154567003272],[102.25394467730506,-3.161276160268595]]]}},{"type":"Feature","properties":{"code":"1707032008","desa":"Pagar Agung","kecamatan":"Lebong Tengah","kecCode":"170703","kabCode":"1707","province":"Bengkulu"},"geometry":{"type":"Polygon","coordinates":[[[102.20485857566281,-3.195088911889292],[102.20301117572524,-3.188724622915424],[102.19367580279612,-3.17975488915888],[102.20398155770278,-3.1619361313487486],[102.22473254696949,-3.1462343794314],[102.23111626580311,-3.152531700389202],[102.21783960591313,-3.1697328676706404],[102.20485857566281,-3.195088911889292]]]}},{"type":"Feature","properties":{"code":"1707032009","desa":"Karang Anyar","kecamatan":"Lebong Tengah","kecCode":"170703","kabCode":"1707","province":"Bengkulu"},"geometry":{"type":"Polygon","coordinates":[[[102.23294901758315,-3.1839344398001104],[102.22961555631291,-3.178100878536601],[102.2401828187821,-3.158056443455589],[102.23846552466425,-3.1557085986809312],[102.24107354420876,-3.150701753596529],[102.2433958959039,-3.1522569017464277],[102.24762577441003,-3.1475743701778893],[102.25359863077227,-3.1554168765959676],[102.25394467730506,-3.161276160268595],[102.25042830831983,-3.1610154567003272],[102.24759183579465,-3.1657798112864173],[102.24094252557717,-3.1676129416791543],[102.23294901758315,-3.1839344398001104]]]}},{"type":"Feature","properties":{"code":"1707032013","desa":"Semelako II","kecamatan":"Lebong Tengah","kecCode":"170703","kabCode":"1707","province":"Bengkulu"},"geometry":{"type":"Polygon","coordinates":[[[102.22337276663995,-3.2169776964054506],[102.2186448157057,-3.213750736452661],[102.21885896676797,-3.2021151711360987],[102.22704100234046,-3.198338025741227],[102.23289212826914,-3.1918591595415826],[102.23461945792172,-3.187954607192548],[102.23294901758315,-3.1839344398001104],[102.24094252557717,-3.1676129416791543],[102.25125646881105,-3.1760617602281265],[102.25138733995384,-3.1702154240949043],[102.25455500311097,-3.1674523533387897],[102.25674465983828,-3.1708797119208163],[102.25482343365462,-3.1722327976956772],[102.25610180465463,-3.1800192484713175],[102.2508216232194,-3.1809396074577516],[102.24929368135838,-3.175400011188355],[102.2480497094266,-3.177119875566731],[102.24477402959786,-3.1758056396049255],[102.23786553206871,-3.188247615308115],[102.23699505397859,-3.207398153054499],[102.22337276663995,-3.2169776964054506]]]}},{"type":"Feature","properties":{"code":"1707032014","desa":"Semelako III","kecamatan":"Lebong Tengah","kecCode":"170703","kabCode":"1707","province":"Bengkulu"},"geometry":{"type":"Polygon","coordinates":[[[102.24257660722469,-3.2459988610691024],[102.21802372591428,-3.232276064614035],[102.22337276663995,-3.2169776964054506],[102.23699505397859,-3.207398153054499],[102.23786553206871,-3.188247615308115],[102.24477402959786,-3.1758056396049255],[102.24267410722433,-3.19686654871584],[102.24804907360588,-3.201438325177166],[102.24824798925333,-3.2208196415509076],[102.24257660722469,-3.2459988610691024]]]}},{"type":"Feature","properties":{"code":"1707032015","desa":"Semelako Atas","kecamatan":"Lebong Tengah","kecCode":"170703","kabCode":"1707","province":"Bengkulu"},"geometry":{"type":"Polygon","coordinates":[[[102.26343634790918,-3.2678294261740035],[102.25082398393977,-3.2634904410226406],[102.24258191142616,-3.2460136468227936],[102.24824798925333,-3.2208196415509076],[102.24804907360588,-3.201438325177166],[102.24267410722433,-3.19686654871584],[102.2445455838117,-3.19278115259608],[102.2433374966282,-3.181307883432477],[102.24562531885344,-3.175978973137271],[102.2480497094266,-3.177119875566731],[102.24929368135838,-3.175400011188355],[102.25067885584455,-3.180856326639035],[102.25610180465463,-3.1800192484713175],[102.25482343365462,-3.1722327976956772],[102.25674465983828,-3.1708797119208163],[102.26089967158265,-3.1723732906848645],[102.2641286280338,-3.178040526832783],[102.25763652740387,-3.1905576543826344],[102.25819202424259,-3.1989728445823995],[102.25240926657442,-3.207999808495892],[102.255881441975,-3.2150490517162567],[102.25531722980638,-3.2194742090067168],[102.26131807397002,-3.2271461194287174],[102.26530476770091,-3.2617570625319154],[102.26343634790918,-3.2678294261740035]]]}},{"type":"Feature","properties":{"code":"1707032016","desa":"Danau Liang","kecamatan":"Lebong Tengah","kecCode":"170703","kabCode":"1707","province":"Bengkulu"},"geometry":{"type":"Polygon","coordinates":[[[102.28937122999832,-3.282289824986728],[102.27898406935935,-3.275623798178332],[102.27095794655207,-3.2756016226952815],[102.26343634790918,-3.2678294261740035],[102.26530476770091,-3.2617570625319154],[102.26131807397002,-3.2271461194287174],[102.25531722980638,-3.2194742090067168],[102.255881441975,-3.2150490517162567],[102.25359047931721,-3.213694719481062],[102.25240897159684,-3.20757495077538],[102.25819202424259,-3.1989728445823995],[102.25763652740387,-3.1905576543826344],[102.2641286280338,-3.178040526832783],[102.26835307733273,-3.1857405221829582],[102.26870668626464,-3.202599864349644],[102.27349610586064,-3.2139634701831357],[102.27021627655995,-3.2161063693562673],[102.27418433094219,-3.2234953683513963],[102.27309710904437,-3.2330311300071943],[102.27577158668942,-3.239212088584869],[102.27146892784879,-3.2481744901687706],[102.28374419264041,-3.250713752043451],[102.28937122999832,-3.282289824986728]]]}},{"type":"Feature","properties":{"code":"1707032020","desa":"Suka Damai","kecamatan":"Lebong Tengah","kecCode":"170703","kabCode":"1707","province":"Bengkulu"},"geometry":{"type":"Polygon","coordinates":[[[102.22906695097906,-3.148672626755979],[102.2336905158047,-3.145118641831385],[102.23474924358275,-3.1458858372802805],[102.23111626580311,-3.152531700389202],[102.22906695097906,-3.148672626755979]]]}},{"type":"Feature","properties":{"code":"1707032023","desa":"Tanjung Bungai II","kecamatan":"Lebong Tengah","kecCode":"170703","kabCode":"1707","province":"Bengkulu"},"geometry":{"type":"Polygon","coordinates":[[[102.20751788804017,-3.2167914162329185],[102.20664525967105,-3.212661999198438],[102.21014099281263,-3.200537932039562],[102.20638144534746,-3.1993125104249818],[102.20485857566281,-3.195088911889292],[102.21783960591313,-3.1697328676706404],[102.23474924358275,-3.1458858372802805],[102.2397332737716,-3.149063644786606],[102.23383450176088,-3.1519594734630987],[102.23371041690227,-3.1582000121262794],[102.22467253431006,-3.1729356907189703],[102.20751788804017,-3.2167914162329185]]]}},{"type":"Feature","properties":{"code":"1707041002","desa":"Tes","kecamatan":"Lebong Selatan","kecCode":"170704","kabCode":"1707","province":"Bengkulu"},"geometry":{"type":"Polygon","coordinates":[[[102.28954085922332,-3.2974224283573683],[102.29175567808214,-3.2857966413694197],[102.28592838688559,-3.2668148011501814],[102.31147245329117,-3.2416411295496976],[102.33362725999011,-3.205430676538772],[102.35046428100183,-3.219205107569097],[102.31818483026574,-3.2696575095713643],[102.28954085922332,-3.2974224283573683]]]}},{"type":"Feature","properties":{"code":"1707041003","desa":"Taba Anyar","kecamatan":"Lebong Selatan","kecCode":"170704","kabCode":"1707","province":"Bengkulu"},"geometry":{"type":"Polygon","coordinates":[[[102.28592838688559,-3.2668148011501814],[102.28374419264041,-3.250713752043451],[102.31578841040685,-3.224676170102669],[102.31568026783013,-3.2220901075088015],[102.32199039334205,-3.216683434634925],[102.32381665021829,-3.2077475792392334],[102.33109824498807,-3.2009349395550037],[102.33362725999011,-3.205430676538772],[102.33248823534387,-3.207803643874814],[102.31147245329117,-3.2416411295496976],[102.28592838688559,-3.2668148011501814]]]}},{"type":"Feature","properties":{"code":"1707041004","desa":"Mubai","kecamatan":"Lebong Selatan","kecCode":"170704","kabCode":"1707","province":"Bengkulu"},"geometry":{"type":"Polygon","coordinates":[[[102.28374419264041,-3.250713752043451],[102.27146892784879,-3.2481744901687706],[102.275717016727,-3.239792356349368],[102.27309710904437,-3.2330311300071943],[102.28430175791986,-3.229492184445091],[102.30499954329433,-3.2160209121781995],[102.31009594916878,-3.2181227617966264],[102.31596174843598,-3.208977687220977],[102.31975674987414,-3.2097983932308476],[102.32234884242519,-3.2138422505646265],[102.32017293093605,-3.2198450741296343],[102.31568026783013,-3.2220901075088015],[102.31578841040685,-3.224676170102669],[102.30312223640215,-3.236805599019625],[102.28374419264041,-3.250713752043451]]]}},{"type":"Feature","properties":{"code":"1707041005","desa":"Turan Lalang","kecamatan":"Lebong Selatan","kecCode":"170704","kabCode":"1707","province":"Bengkulu"},"geometry":{"type":"Polygon","coordinates":[[[102.27309710904437,-3.2330311300071943],[102.27421303370458,-3.2240168132595812],[102.30473309305783,-3.202480392113919],[102.30936525540226,-3.2025376996125656],[102.3117454856657,-3.1973921314047513],[102.32436619804167,-3.18823441955574],[102.32869942304,-3.196409379253519],[102.30108642489864,-3.218994137409167],[102.28430175791986,-3.229492184445091],[102.27309710904437,-3.2330311300071943]]]}},{"type":"Feature","properties":{"code":"1707042001","desa":"Kutai Donok","kecamatan":"Lebong Selatan","kecCode":"170704","kabCode":"1707","province":"Bengkulu"},"geometry":{"type":"Polygon","coordinates":[[[102.33069966275929,-3.2509864372793342],[102.3354370134075,-3.240486906362088],[102.34380556567434,-3.231709559174727],[102.35046428100183,-3.219205107569097],[102.36777977641559,-3.233125452701917],[102.36186163660527,-3.2418289916296517],[102.35543027258903,-3.2422279030098755],[102.34974592593379,-3.247319099106222],[102.35414511530489,-3.252163150712638],[102.36798526071128,-3.259478655311641],[102.39854008605619,-3.2960450554913674],[102.39804753726412,-3.3013500645046254],[102.38883902360215,-3.3081267690786142],[102.38895799671423,-3.3120290866123097],[102.3863881776723,-3.3114580144157193],[102.3889817909769,-3.3146464923781442],[102.38548398399871,-3.3145989029535228],[102.3856632359696,-3.320395270055914],[102.3821654289914,-3.320466654642565],[102.38127312975121,-3.3307102322105586],[102.38006235269546,-3.3226881950319704],[102.3653325619482,-3.3115009660365886],[102.35332396233103,-3.298689631574911],[102.3517101469058,-3.2884796823560634],[102.35510855631486,-3.27325914237661],[102.3531752450416,-3.2667156248143603],[102.33546893574281,-3.2608843334396624],[102.33535472094364,-3.2587713726974035],[102.33849560858552,-3.258086087500375],[102.33852490400118,-3.2545042316862425],[102.3321301019227,-3.2536119324470016],[102.33069966275929,-3.2509864372793342]]]}},{"type":"Feature","properties":{"code":"1707042013","desa":"Turan Tiging","kecamatan":"Lebong Selatan","kecCode":"170704","kabCode":"1707","province":"Bengkulu"},"geometry":{"type":"Polygon","coordinates":[[[102.33109824498807,-3.2009349395550037],[102.32381665021829,-3.2077475792392334],[102.32200315741983,-3.2129741763633026],[102.3156877232099,-3.205565535275438],[102.32869942304,-3.196409379253519],[102.33109824498807,-3.2009349395550037]]]}},{"type":"Feature","properties":{"code":"1707042014","desa":"Suka Sari","kecamatan":"Lebong Selatan","kecCode":"170704","kabCode":"1707","province":"Bengkulu"},"geometry":{"type":"Polygon","coordinates":[[[102.37051548889876,-3.262754035662615],[102.34974592593379,-3.247319099106222],[102.35543027258903,-3.2422279030098755],[102.36186163660527,-3.2418289916296517],[102.36777977641559,-3.233125452701917],[102.39209813522079,-3.245571142605152],[102.38862544271005,-3.2463207212344476],[102.38374094678731,-3.2548350922666374],[102.376309553743,-3.2530622542225247],[102.37173861004884,-3.257632307582893],[102.37051548889876,-3.262754035662615]]]}},{"type":"Feature","properties":{"code":"1707042016","desa":"Mangkurajo","kecamatan":"Lebong Selatan","kecCode":"170704","kabCode":"1707","province":"Bengkulu"},"geometry":{"type":"Polygon","coordinates":[[[102.3878531975671,-3.3667264388544127],[102.38650880643632,-3.3718116454659115],[102.37991916623662,-3.3758547239868406],[102.37518309982028,-3.383522264603112],[102.37413024731313,-3.381297822101461],[102.34587097926232,-3.374893906300284],[102.31778716534546,-3.3764588858387534],[102.28060150725382,-3.364815710459049],[102.2702102645921,-3.364931105168649],[102.27580261689728,-3.342785343874628],[102.28962707992586,-3.3266434520571733],[102.29660797018177,-3.322799683086557],[102.29530334797118,-3.3064274856852336],[102.28954085922332,-3.2974224283573683],[102.31818483026574,-3.2696575095713643],[102.33069966275929,-3.2509864372793342],[102.3321301019227,-3.2536119324470016],[102.33852490400118,-3.2545042316862425],[102.33849560858552,-3.258086087500375],[102.33535472094364,-3.2587713726974035],[102.33546893574281,-3.2608843334396624],[102.35139064925909,-3.2649310281345154],[102.35451369165361,-3.2693925171362097],[102.35243166309083,-3.296310170234362],[102.3653325619482,-3.3115009660365886],[102.38006235269546,-3.3226881950319704],[102.38127312975121,-3.3307102322105586],[102.3738849032657,-3.3367421677294584],[102.3795242262621,-3.340168591016577],[102.37357752668156,-3.346377477141083],[102.37551916837498,-3.3486046526824103],[102.37666131007148,-3.346320370191243],[102.38286694335483,-3.344968836646254],[102.3878531975671,-3.3667264388544127]]]}},{"type":"Feature","properties":{"code":"1707042018","desa":"Tik Jeniak","kecamatan":"Lebong Selatan","kecCode":"170704","kabCode":"1707","province":"Bengkulu"},"geometry":{"type":"Polygon","coordinates":[[[102.27421303370458,-3.2240168132595812],[102.27080251942078,-3.214417112504369],[102.28908611523207,-3.2097576188686663],[102.29795372738266,-3.2040169656662707],[102.29694102690695,-3.1979650741911825],[102.30441804705526,-3.190573355646215],[102.30398227965856,-3.1841979537498135],[102.31355948568175,-3.1733522908644876],[102.32436619804167,-3.18823441955574],[102.3117454856657,-3.1973921314047513],[102.30936525540226,-3.2025376996125656],[102.30473309305783,-3.202480392113919],[102.27421303370458,-3.2240168132595812]]]}},{"type":"Feature","properties":{"code":"1707042019","desa":"Manai Blau","kecamatan":"Lebong Selatan","kecCode":"170704","kabCode":"1707","province":"Bengkulu"},"geometry":{"type":"Polygon","coordinates":[[[102.3173728018134,-3.2081691157634338],[102.31009594916878,-3.2181227617966264],[102.30499954329433,-3.2160209121781995],[102.3156877232099,-3.205565535275438],[102.3173728018134,-3.2081691157634338]]]}},{"type":"Feature","properties":{"code":"1707051002","desa":"Rimbo Pengadang","kecamatan":"Rimbo Pengadang","kecCode":"170705","kabCode":"1707","province":"Bengkulu"},"geometry":{"type":"Polygon","coordinates":[[[102.38127312975121,-3.3307102322105586],[102.3821654289914,-3.320466654642565],[102.3856632359696,-3.320395270055914],[102.38548398399871,-3.3145989029535228],[102.3889817909769,-3.3146464923781442],[102.38650715168377,-3.3129570754469193],[102.3863881776723,-3.3114580144157193],[102.38895799671423,-3.3120290866123097],[102.38883902360215,-3.3081267690786142],[102.39804753726412,-3.3013500645046254],[102.39689914887668,-3.292322501642642],[102.40534269560897,-3.285873943495175],[102.40383870808996,-3.2802002457183717],[102.40602984600065,-3.274895625212227],[102.39955801878762,-3.2719393845774194],[102.40859221326006,-3.2675325914431927],[102.41588057542828,-3.273918005491961],[102.42455418492774,-3.2699734872712374],[102.42656154368036,-3.2774629405387885],[102.43904426588021,-3.274158135269843],[102.45462625779561,-3.2793320779875277],[102.46269315496517,-3.2856234877015527],[102.45290401920516,-3.2936969256315956],[102.44421898561772,-3.289961171533932],[102.4362953810271,-3.291769561577089],[102.437865824848,-3.294779578972246],[102.4313223072787,-3.2983963590586556],[102.43549766708372,-3.299814520675973],[102.43672903681568,-3.305132613925723],[102.43301707787587,-3.306673315366204],[102.42787838497952,-3.3143586490691637],[102.41647433572206,-3.3134713284767185],[102.40907147636761,-3.3185379541954987],[102.40282539157863,-3.315958619429783],[102.39773334561743,-3.319051919442208],[102.39533770277285,-3.328350375191351],[102.38551528760053,-3.3316625854780457],[102.38127312975121,-3.3307102322105586]]]}},{"type":"Feature","properties":{"code":"1707052009","desa":"Talang Ratau","kecamatan":"Rimbo Pengadang","kecCode":"170705","kabCode":"1707","province":"Bengkulu"},"geometry":{"type":"Polygon","coordinates":[[[102.39684323083048,-3.2927549676277237],[102.37051548889876,-3.262754035662615],[102.37173861004884,-3.257632307582893],[102.376309553743,-3.2530622542225247],[102.38374094678731,-3.2548350922666374],[102.38862544271005,-3.2463207212344476],[102.39159501040147,-3.245578328188239],[102.40296363896083,-3.255768966264695],[102.38925159568463,-3.2677566917049576],[102.38794548509611,-3.2730006394493274],[102.39278768770168,-3.270478410734116],[102.39698743712057,-3.2737977580405735],[102.398888626409,-3.2713802265993],[102.40610122878871,-3.275338204972995],[102.40383870808996,-3.2802002457183717],[102.40534269560897,-3.285873943495175],[102.39684323083048,-3.2927549676277237]]]}},{"type":"Feature","properties":{"code":"1707052010","desa":"Bioa Sengok","kecamatan":"Rimbo Pengadang","kecCode":"170705","kabCode":"1707","province":"Bengkulu"},"geometry":{"type":"Polygon","coordinates":[[[102.49420083899757,-3.3017818883737458],[102.50050967038503,-3.3086870215317083],[102.50056427092441,-3.317050301963714],[102.49650847328745,-3.3215887162751745],[102.4929067721299,-3.3220013836854307],[102.48812404259053,-3.3266896915994377],[102.4700881803253,-3.3200679932738466],[102.46654194395565,-3.3222885623953924],[102.46052552443346,-3.3202876355962516],[102.45626088263367,-3.3218434159695707],[102.45536862206433,-3.3187677705481686],[102.45338216085808,-3.3211730891961317],[102.44975272460863,-3.3207418543829483],[102.45048208288188,-3.32828174253012],[102.44371744810182,-3.332200854003775],[102.44610699534161,-3.3363952281702147],[102.44210250043011,-3.3417479902847402],[102.44210907177631,-3.347076043526086],[102.43213665867988,-3.351207819482347],[102.42294664227376,-3.3585486112185445],[102.39913995544464,-3.3565221121970175],[102.39076881402961,-3.3525729651657943],[102.38637955227459,-3.353592722620503],[102.38242912370514,-3.3447023360480492],[102.37551916837498,-3.3486046526824103],[102.37357752668156,-3.346377477141083],[102.3795242262621,-3.340168591016577],[102.3738849032657,-3.3367421677294584],[102.38127312975121,-3.3307102322105586],[102.38956989093778,-3.3309773011803445],[102.39807884266452,-3.326922699646116],[102.4067448394029,-3.328022010229644],[102.41884801892097,-3.3219360875090325],[102.44334844727308,-3.323478688317753],[102.44804446597936,-3.315101871290255],[102.45395580781432,-3.3154152904189393],[102.46081027407496,-3.306311003695263],[102.4767645592371,-3.3094161981411374],[102.47798025558438,-3.3040961776443214],[102.48222542256525,-3.3012784433963094],[102.49420083899757,-3.3017818883737458]]]}},{"type":"Feature","properties":{"code":"1707052011","desa":"Tik Kuto","kecamatan":"Rimbo Pengadang","kecCode":"170705","kabCode":"1707","province":"Bengkulu"},"geometry":{"type":"Polygon","coordinates":[[[102.48727989575063,-3.2907133375127873],[102.48858764670257,-3.2969551541125632],[102.49420083899757,-3.3017818883737458],[102.48222542256525,-3.3012784433963094],[102.47798025558438,-3.3040961776443214],[102.4767645592371,-3.3094161981411374],[102.46081027407496,-3.306311003695263],[102.45395580781432,-3.3154152904189393],[102.44804446597936,-3.315101871290255],[102.44334844727308,-3.323478688317753],[102.41884801892097,-3.3219360875090325],[102.4067448394029,-3.328022010229644],[102.39630852272023,-3.3274366630942307],[102.39773334561743,-3.319051919442208],[102.40282539157863,-3.315958619429783],[102.40907147636761,-3.3185379541954987],[102.41388072241745,-3.3141613710873723],[102.42312492837281,-3.3153273079446],[102.43181813320035,-3.3109585912064237],[102.43301707787587,-3.306673315366204],[102.43672903681568,-3.305132613925723],[102.43549766708372,-3.299814520675973],[102.4313223072787,-3.2983963590586556],[102.437865824848,-3.294779578972246],[102.4362953810271,-3.291769561577089],[102.44421898561772,-3.289961171533932],[102.45290401920516,-3.2936969256315956],[102.46269315496517,-3.2856234877015527],[102.48727989575063,-3.2907133375127873]]]}},{"type":"Feature","properties":{"code":"1707052012","desa":"Teluk Dien","kecamatan":"Rimbo Pengadang","kecCode":"170705","kabCode":"1707","province":"Bengkulu"},"geometry":{"type":"Polygon","coordinates":[[[102.48956166373982,-3.2368392795295606],[102.4930919524317,-3.2396338805165312],[102.4892510558916,-3.2464861443300723],[102.48471642862035,-3.2474712895772746],[102.48423762416706,-3.254473264430944],[102.49134038515069,-3.2604318404519783],[102.4444557582267,-3.2621949325431605],[102.43951249340688,-3.2583274430541955],[102.43683685024052,-3.260441110663652],[102.41580636876898,-3.262882463347271],[102.39858881402262,-3.2714516102866114],[102.3979320822998,-3.2736502323529857],[102.39278768770168,-3.270478410734116],[102.3877908187913,-3.2726675143760295],[102.38925159568463,-3.2677566917049576],[102.3948005008425,-3.2647680880670538],[102.3971767893774,-3.259309604350876],[102.40223076523768,-3.2571205007090724],[102.40315852024956,-3.254291047395501],[102.41770383486413,-3.25433178218746],[102.41863182369973,-3.259263216420448],[102.42478297425491,-3.2586164626765135],[102.43213761465925,-3.246057168613838],[102.44741035130669,-3.2365857534504068],[102.46165693092267,-3.2358573394661168],[102.47169749734165,-3.238278898071526],[102.48956166373982,-3.2368392795295606]]]}},{"type":"Feature","properties":{"code":"1707052013","desa":"Bajok","kecamatan":"Rimbo Pengadang","kecCode":"170705","kabCode":"1707","province":"Bengkulu"},"geometry":{"type":"Polygon","coordinates":[[[102.49134038515069,-3.2604318404519783],[102.49433336938954,-3.2691123954062635],[102.48639548896067,-3.282566237013245],[102.48727989575063,-3.2907133375127873],[102.46269315496517,-3.2856234877015527],[102.45462625779561,-3.2793320779875277],[102.43904426588021,-3.274158135269843],[102.42656154368036,-3.2774629405387885],[102.42470078701177,-3.2700359640730166],[102.41588057542828,-3.273918005491961],[102.40859221326006,-3.2675325914431927],[102.41580636876898,-3.262882463347271],[102.43683685024052,-3.260441110663652],[102.43951249340688,-3.2583274430541955],[102.4444557582267,-3.2621949325431605],[102.49134038515069,-3.2604318404519783]]]}},{"type":"Feature","properties":{"code":"1707061001","desa":"Topos","kecamatan":"Topos","kecCode":"170706","kabCode":"1707","province":"Bengkulu"},"geometry":{"type":"Polygon","coordinates":[[[102.37083252060438,-3.235254232518935],[102.33365859596749,-3.2054821240550386],[102.32245347584727,-3.1846259222253],[102.31529703073345,-3.1762820068949],[102.42653740767531,-3.185063778746766],[102.42252352833822,-3.1901404283089327],[102.42585893843932,-3.1972145656628514],[102.417345226601,-3.205361840630831],[102.41679794956575,-3.20869784428084],[102.4140568096741,-3.207351068149552],[102.415137087007,-3.2098732986633225],[102.40508386442882,-3.2208902023585853],[102.40488160869933,-3.222764029771754],[102.41001410796478,-3.2234445557565317],[102.40831013730302,-3.224609901759159],[102.41285845135648,-3.232556853640891],[102.40756134108307,-3.237028606605072],[102.39058409867725,-3.244484171619384],[102.37083252060438,-3.235254232518935]]]}},{"type":"Feature","properties":{"code":"1707062002","desa":"Tik Sirong","kecamatan":"Topos","kecCode":"170706","kabCode":"1707","province":"Bengkulu"},"geometry":{"type":"Polygon","coordinates":[[[102.48624878885056,-3.132076813827541],[102.49137165637688,-3.1390331121145585],[102.48726678633318,-3.144834919216006],[102.48836791444774,-3.1554370097185647],[102.48671995985829,-3.1569639398406886],[102.48868075171536,-3.1609618418179237],[102.49339304455344,-3.163444957218739],[102.49390509424478,-3.169066571658589],[102.48973547391306,-3.1855266103406334],[102.48621907255222,-3.1833524363440047],[102.47760542265216,-3.1834476160927108],[102.4722278428407,-3.180021192805592],[102.45543825207375,-3.184687300055573],[102.43168603178498,-3.185506994328195],[102.31529703073345,-3.1762820068949],[102.30643579207822,-3.1623606518235228],[102.2995050318318,-3.136732928710306],[102.31893144562973,-3.1127774598664],[102.33416394930686,-3.1010904515303057],[102.31202256588875,-3.0707600034714795],[102.31534984342062,-3.0681124902021795],[102.31760584223588,-3.069936166921489],[102.32499180962434,-3.069348772929153],[102.34866706773106,-3.0634994492481455],[102.36903246727462,-3.0553686462627327],[102.38920364023585,-3.043026129282587],[102.40829986075003,-3.054693925401789],[102.4321328671382,-3.055325364590673],[102.44225836373253,-3.058649668060945],[102.45036918828747,-3.0689996282322407],[102.46162763820502,-3.076200610463956],[102.47087959002113,-3.086983862197987],[102.48139762180284,-3.1056617936191646],[102.48652871542792,-3.1099100803435804],[102.48327082239058,-3.117926806126178],[102.48739324270406,-3.1250889241557824],[102.48624878885056,-3.132076813827541]]]}},{"type":"Feature","properties":{"code":"1707062003","desa":"Suka Negeri","kecamatan":"Topos","kecCode":"170706","kabCode":"1707","province":"Bengkulu"},"geometry":{"type":"Polygon","coordinates":[[[102.41289705655394,-3.2334663811925717],[102.4089793785955,-3.225975147267343],[102.41208007463581,-3.226968393607512],[102.4127046825751,-3.2245889322670482],[102.41713048108686,-3.225374154626295],[102.42501601377808,-3.220998325150106],[102.43114372080612,-3.223384924409634],[102.42153646663466,-3.230530196338694],[102.41289705655394,-3.2334663811925717]]]}},{"type":"Feature","properties":{"code":"1707062004","desa":"Ajai Siang","kecamatan":"Topos","kecCode":"170706","kabCode":"1707","province":"Bengkulu"},"geometry":{"type":"Polygon","coordinates":[[[102.48973547391306,-3.1855266103406334],[102.4913365090727,-3.1938473240615783],[102.48796972432336,-3.2033745268694482],[102.46622442211947,-3.2128183301481563],[102.44450404282735,-3.227599944312374],[102.42501601377808,-3.220998325150106],[102.41713048108686,-3.225374154626295],[102.4127046825751,-3.2245889322670482],[102.41190161496763,-3.2270100331175544],[102.40831013730302,-3.224609901759159],[102.40900402631483,-3.222079933478515],[102.40488160869933,-3.222764029771754],[102.415137087007,-3.2098732986633225],[102.4140568096741,-3.207351068149552],[102.41679794956575,-3.20869784428084],[102.417345226601,-3.205361840630831],[102.42585893843932,-3.1972145656628514],[102.42252352833822,-3.1901404283089327],[102.42653740767531,-3.185063778746766],[102.45543825207375,-3.184687300055573],[102.4722278428407,-3.180021192805592],[102.47760542265216,-3.1834476160927108],[102.48621907255222,-3.1833524363440047],[102.48973547391306,-3.1855266103406334]]]}},{"type":"Feature","properties":{"code":"1707062005","desa":"Talang Donok","kecamatan":"Topos","kecCode":"170706","kabCode":"1707","province":"Bengkulu"},"geometry":{"type":"Polygon","coordinates":[[[102.40315852024956,-3.254291047395501],[102.39725673730862,-3.249494534851651],[102.41629540930573,-3.244770040017127],[102.41979066580666,-3.2586555759908853],[102.41770383486413,-3.25433178218746],[102.40315852024956,-3.254291047395501]]]}},{"type":"Feature","properties":{"code":"1707062006","desa":"Talang Donok I","kecamatan":"Topos","kecCode":"170706","kabCode":"1707","province":"Bengkulu"},"geometry":{"type":"Polygon","coordinates":[[[102.48545761207917,-3.2050711806451813],[102.49044193364834,-3.216955735860348],[102.48432236278688,-3.2282035908526985],[102.48594770212479,-3.234125024873316],[102.48956166373982,-3.2368392795295606],[102.47169749734165,-3.238278898071526],[102.46165693092267,-3.2358573394661168],[102.44741035130669,-3.2365857534504068],[102.43213761465925,-3.246057168613838],[102.4248872569414,-3.258556248568942],[102.41936856720564,-3.258448908187651],[102.41629540930573,-3.244770040017127],[102.42693879309086,-3.240839532334638],[102.43602071998032,-3.2339971556677036],[102.43831392464794,-3.227037231314104],[102.44450404282735,-3.227599944312374],[102.46622442211947,-3.2128183301481563],[102.48545761207917,-3.2050711806451813]]]}},{"type":"Feature","properties":{"code":"1707062007","desa":"Talang Baru I","kecamatan":"Topos","kecCode":"170706","kabCode":"1707","province":"Bengkulu"},"geometry":{"type":"Polygon","coordinates":[[[102.41525808809035,-3.238865601384618],[102.39058409867725,-3.244484171619384],[102.4328705009729,-3.224097651519578],[102.42728450237792,-3.231025872073009],[102.42254176479065,-3.231903965621265],[102.42304668285816,-3.2337718880858968],[102.41792370291658,-3.2351043874797636],[102.41525808809035,-3.238865601384618]]]}},{"type":"Feature","properties":{"code":"1707062008","desa":"Talang Baru II","kecamatan":"Topos","kecCode":"170706","kabCode":"1707","province":"Bengkulu"},"geometry":{"type":"Polygon","coordinates":[[[102.39725673730862,-3.249494534851651],[102.39288304821416,-3.2461346551006027],[102.40865887460745,-3.2393056036883814],[102.41525808809035,-3.238865601384618],[102.41792370291658,-3.2351043874797636],[102.42304668285816,-3.2337718880858968],[102.42254176479065,-3.231903965621265],[102.42728450237792,-3.231025872073009],[102.4328705009729,-3.224097651519578],[102.4381272586661,-3.2266628795196977],[102.43602071998032,-3.2339971556677036],[102.42693879309086,-3.240839532334638],[102.39725673730862,-3.249494534851651]]]}},{"type":"Feature","properties":{"code":"1707072001","desa":"Karang Dapo Atas","kecamatan":"Bingin Kuning","kecCode":"170707","kabCode":"1707","province":"Bengkulu"},"geometry":{"type":"Polygon","coordinates":[[[102.29922895165487,-3.178509319133187],[102.30526088628095,-3.189174063604051],[102.29694102690695,-3.1979650741911825],[102.28744692993195,-3.184561645880134],[102.29922895165487,-3.178509319133187]]]}},{"type":"Feature","properties":{"code":"1707072002","desa":"Bukit Nibung","kecamatan":"Bingin Kuning","kecCode":"170707","kabCode":"1707","province":"Bengkulu"},"geometry":{"type":"Polygon","coordinates":[[[102.27345406795092,-3.2138512923485028],[102.27164070105755,-3.208643567497501],[102.27457375627387,-3.202724828745065],[102.2734996905583,-3.19409540834297],[102.28744692993195,-3.184561645880134],[102.29694102690695,-3.1979650741911825],[102.29795372738266,-3.2040169656662707],[102.28908611523207,-3.2097576188686663],[102.27345406795092,-3.2138512923485028]]]}},{"type":"Feature","properties":{"code":"1707072003","desa":"Karang Dapo Bawah","kecamatan":"Bingin Kuning","kecCode":"170707","kabCode":"1707","province":"Bengkulu"},"geometry":{"type":"Polygon","coordinates":[[[102.29922895165487,-3.178509319133187],[102.29181732840703,-3.1807773913445057],[102.2734996905583,-3.19409540834297],[102.27085287336148,-3.1921490164326554],[102.27015093271945,-3.1895316097675037],[102.27631112955503,-3.1855090663662025],[102.27477881069363,-3.1816921277694785],[102.2805083069129,-3.1772484192638837],[102.28441051203554,-3.178381825844135],[102.28566504290744,-3.1746460717464537],[102.2902305753808,-3.1742348324595326],[102.29922895165487,-3.178509319133187]]]}},{"type":"Feature","properties":{"code":"1707072004","desa":"Pungguk Pedaro","kecamatan":"Bingin Kuning","kecCode":"170707","kabCode":"1707","province":"Bengkulu"},"geometry":{"type":"Polygon","coordinates":[[[102.31355948568175,-3.1733522908644876],[102.30440812303651,-3.1842152944775313],[102.29776463233195,-3.177088829171053],[102.28566504290744,-3.1746460717464537],[102.28441051203554,-3.178381825844135],[102.2805083069129,-3.1772484192638837],[102.27477881069363,-3.1816921277694785],[102.27631112955503,-3.1855090663662025],[102.27015093271945,-3.1895316097675037],[102.27141282184431,-3.182745516271416],[102.27510244971836,-3.1784870195437938],[102.30560016271737,-3.1596474116025353],[102.31355948568175,-3.1733522908644876]]]}},{"type":"Feature","properties":{"code":"1707072005","desa":"Talang Kerinci","kecamatan":"Bingin Kuning","kecCode":"170707","kabCode":"1707","province":"Bengkulu"},"geometry":{"type":"Polygon","coordinates":[[[102.30380945873958,-3.1550984212638724],[102.30560016271737,-3.1596474116025353],[102.27510244971836,-3.1784870195437938],[102.27395129231837,-3.1751255857642806],[102.2829943244286,-3.166811119633543],[102.30380945873958,-3.1550984212638724]]]}},{"type":"Feature","properties":{"code":"1707072006","desa":"Pelabuhan Talang Liak","kecamatan":"Bingin Kuning","kecCode":"170707","kabCode":"1707","province":"Bengkulu"},"geometry":{"type":"Polygon","coordinates":[[[102.3016275208934,-3.1464084198308777],[102.30380945873958,-3.1550984212638724],[102.28398442224334,-3.166151054124622],[102.27602524766712,-3.1733620323209175],[102.2724350704222,-3.167810464276467],[102.27500334083156,-3.1638885181398733],[102.28455287381615,-3.158703431922728],[102.28801094694767,-3.160934483542013],[102.29752274078191,-3.1574891088414465],[102.30061842130317,-3.1539817825431755],[102.3016275208934,-3.1464084198308777]]]}},{"type":"Feature","properties":{"code":"1707072007","desa":"Talang Liak I","kecamatan":"Bingin Kuning","kecCode":"170707","kabCode":"1707","province":"Bengkulu"},"geometry":{"type":"Polygon","coordinates":[[[102.25674465983828,-3.1708797119208163],[102.2535248189153,-3.1555706903433176],[102.26135728980717,-3.1472144363144663],[102.27901285665808,-3.161526570196803],[102.27690485657395,-3.164379420272738],[102.27333187706455,-3.1615987704686086],[102.25674465983828,-3.1708797119208163]]]}},{"type":"Feature","properties":{"code":"1707072008","desa":"Talang Liak II","kecamatan":"Bingin Kuning","kecCode":"170707","kabCode":"1707","province":"Bengkulu"},"geometry":{"type":"Polygon","coordinates":[[[102.2995050318318,-3.136732928710306],[102.30189751266015,-3.148243083567604],[102.29752274078191,-3.1574891088414465],[102.29281378712663,-3.160265939224838],[102.28658055904559,-3.160721179641378],[102.28455287381615,-3.158703431922728],[102.27892366369618,-3.1615255917344713],[102.27202919199368,-3.1570644390792393],[102.27064718132243,-3.1543497518491352],[102.27370923259507,-3.1513461771970817],[102.2995050318318,-3.136732928710306]]]}},{"type":"Feature","properties":{"code":"1707072009","desa":"Bungin","kecamatan":"Bingin Kuning","kecCode":"170707","kabCode":"1707","province":"Bengkulu"},"geometry":{"type":"Polygon","coordinates":[[[102.26835307733273,-3.1857405221829582],[102.26089967158265,-3.1723732906848645],[102.25674465983828,-3.1708797119208163],[102.27450350033631,-3.161452995761061],[102.27594902562707,-3.1635163696843485],[102.2724350704222,-3.167810464276467],[102.27606582327917,-3.1735724233174842],[102.27010530741404,-3.1858530912226413],[102.27482359873015,-3.2005357242039105],[102.27209136842195,-3.2118488681781145],[102.26870668626464,-3.202599864349644],[102.26835307733273,-3.1857405221829582]]]}},{"type":"Feature","properties":{"code":"1707082001","desa":"Ujung Tanjung I","kecamatan":"Lebong Sakti","kecCode":"170708","kabCode":"1707","province":"Bengkulu"},"geometry":{"type":"Polygon","coordinates":[[[102.2433958959039,-3.1522569017464277],[102.23725394091666,-3.147757639420206],[102.24134018600084,-3.142300880603776],[102.24815677731344,-3.140055207806651],[102.24759760404623,-3.1385133165630053],[102.24935364455513,-3.1378423081034734],[102.25609431240264,-3.1445301803437498],[102.27559271333313,-3.1302010969387535],[102.27827437206469,-3.1328852638765863],[102.27189809871834,-3.1408464960930544],[102.26427326330052,-3.14094673183023],[102.25113112130424,-3.150818354297004],[102.24762577441003,-3.1475743701778893],[102.2433958959039,-3.1522569017464277]]]}},{"type":"Feature","properties":{"code":"1707082002","desa":"Muning Agung","kecamatan":"Lebong Sakti","kecCode":"170708","kabCode":"1707","province":"Bengkulu"},"geometry":{"type":"Polygon","coordinates":[[[102.27559271333313,-3.1302010969387535],[102.25609431240264,-3.1445301803437498],[102.25310745974154,-3.141791523483186],[102.26498114036741,-3.1301613217233704],[102.2677012738947,-3.1236229347933953],[102.27258747223414,-3.1229826687586666],[102.27559271333313,-3.1302010969387535]]]}},{"type":"Feature","properties":{"code":"1707082003","desa":"Ujung Tanjung II","kecamatan":"Lebong Sakti","kecCode":"170708","kabCode":"1707","province":"Bengkulu"},"geometry":{"type":"Polygon","coordinates":[[[102.25359863077227,-3.1554168765959676],[102.25139800231601,-3.1491606303739728],[102.26427326330052,-3.14094673183023],[102.27189809871834,-3.1408464960930544],[102.27844005056795,-3.1333329158137087],[102.27769882304233,-3.1358363145238535],[102.2823284403053,-3.138211714525997],[102.27010616806523,-3.1463468351564963],[102.2679797246846,-3.1455424383519373],[102.26568774399423,-3.1505821671469256],[102.26113680841699,-3.1472701987778504],[102.25359863077227,-3.1554168765959676]]]}},{"type":"Feature","properties":{"code":"1707082004","desa":"Ujung Tanjung III","kecamatan":"Lebong Sakti","kecCode":"170708","kabCode":"1707","province":"Bengkulu"},"geometry":{"type":"Polygon","coordinates":[[[102.27064718132243,-3.1543497518491352],[102.26568774399423,-3.1505821671469256],[102.26767634468763,-3.1457780058690994],[102.27010616806523,-3.1463468351564963],[102.2823284403053,-3.138211714525997],[102.28693842356944,-3.1432348274469013],[102.27064718132243,-3.1543497518491352]]]}},{"type":"Feature","properties":{"code":"1707082005","desa":"Magelang Baru","kecamatan":"Lebong Sakti","kecCode":"170708","kabCode":"1707","province":"Bengkulu"},"geometry":{"type":"Polygon","coordinates":[[[102.25310745974154,-3.141791523483186],[102.24815320790428,-3.1347823216775277],[102.26142614280228,-3.1243473243116093],[102.2677012738947,-3.1236229347933953],[102.26498114036741,-3.1301613217233704],[102.25310745974154,-3.141791523483186]]]}},{"type":"Feature","properties":{"code":"1707082006","desa":"Lemeu Pit","kecamatan":"Lebong Sakti","kecCode":"170708","kabCode":"1707","province":"Bengkulu"},"geometry":{"type":"Polygon","coordinates":[[[102.24935364455513,-3.1378423081034734],[102.24414143567877,-3.1415506985292985],[102.24571407564412,-3.1384526671836164],[102.23942650243121,-3.1321747086294143],[102.23008143660905,-3.1297262665901076],[102.2384320294147,-3.1303919222848524],[102.24205504630339,-3.128875190474797],[102.2416933677548,-3.1267431937827905],[102.24333271673157,-3.12960741039001],[102.2450715577063,-3.1270222345276117],[102.25362738569538,-3.1244007827119304],[102.25547831727056,-3.128153932395951],[102.24815320790428,-3.1347823216775277],[102.24935364455513,-3.1378423081034734]]]}},{"type":"Feature","properties":{"code":"1707082007","desa":"Tabeak Kauk","kecamatan":"Lebong Sakti","kecCode":"170708","kabCode":"1707","province":"Bengkulu"},"geometry":{"type":"Polygon","coordinates":[[[102.27258747223414,-3.1229826687586666],[102.26142614280228,-3.1243473243116093],[102.25547831727056,-3.128153932395951],[102.25362738569538,-3.1244007827119304],[102.2450715577063,-3.1270222345276117],[102.24333271673157,-3.12960741039001],[102.2416933677548,-3.1267431937827905],[102.24167433180503,-3.129265422497919],[102.23562557805803,-3.1292669126745887],[102.24610332201074,-3.110851029308213],[102.25412745911501,-3.114789671358614],[102.25361654796535,-3.116772684561989],[102.26279772223717,-3.112032215969329],[102.2717071798425,-3.1163080021633127],[102.27258747223414,-3.1229826687586666]]]}},{"type":"Feature","properties":{"code":"1707082008","desa":"Tabeak Dipoa","kecamatan":"Lebong Sakti","kecCode":"170708","kabCode":"1707","province":"Bengkulu"},"geometry":{"type":"Polygon","coordinates":[[[102.23562557805803,-3.1292669126745887],[102.23157497400591,-3.128503482687127],[102.23206690676238,-3.1199721306560613],[102.2379152987521,-3.1129916828742],[102.24197584840674,-3.1130995106880732],[102.24319413300289,-3.110087113686767],[102.2515193784166,-3.10630373059425],[102.26279772223717,-3.112032215969329],[102.25361654796535,-3.116772684561989],[102.25412745911501,-3.114789671358614],[102.24610332201074,-3.110851029308213],[102.23562557805803,-3.1292669126745887]]]}},{"type":"Feature","properties":{"code":"1707082009","desa":"Suka Bumi","kecamatan":"Lebong Sakti","kecCode":"170708","kabCode":"1707","province":"Bengkulu"},"geometry":{"type":"Polygon","coordinates":[[[102.23725394091666,-3.147757639420206],[102.22488881406757,-3.1339447353928724],[102.23008143660905,-3.1297262665901076],[102.23942650243121,-3.1321747086294143],[102.24571407564412,-3.1384526671836164],[102.23725394091666,-3.147757639420206]]]}},{"type":"Feature","properties":{"code":"1707091001","desa":"Tanjung Agung","kecamatan":"Tubei","kecCode":"170709","kabCode":"1707","province":"Bengkulu"},"geometry":{"type":"Polygon","coordinates":[[[102.1943008792822,-3.1310526946608794],[102.20668082965665,-3.1384303154334963],[102.20910147725141,-3.143022223218856],[102.1996830303476,-3.1536022191774493],[102.20465910063706,-3.1586650623476253],[102.17962009708987,-3.1585865677208775],[102.18023675502229,-3.156831714319036],[102.17712727530358,-3.156296336214412],[102.17427112920933,-3.151600866099603],[102.167948662301,-3.1496169517756076],[102.17931711189527,-3.1327457934165532],[102.17777467566084,-3.127402947226917],[102.1943008792822,-3.1310526946608794]]]}},{"type":"Feature","properties":{"code":"1707092002","desa":"Sukau Datang","kecamatan":"Tubei","kecCode":"170709","kabCode":"1707","province":"Bengkulu"},"geometry":{"type":"Polygon","coordinates":[[[102.12915692025574,-3.1609781950899785],[102.13668061341963,-3.144192208823919],[102.13215587239563,-3.13541552173899],[102.14847468965523,-3.1362279782677582],[102.14891532598158,-3.1447666633707376],[102.1519238289216,-3.1486533632778473],[102.1513489471962,-3.1565252928152367],[102.15856379428372,-3.16038155966428],[102.16453761471921,-3.170567693935931],[102.1618334666412,-3.1730956162589457],[102.15090974798652,-3.16313803389323],[102.1377936125852,-3.158029638262763],[102.12915692025574,-3.1609781950899785]]]}},{"type":"Feature","properties":{"code":"1707092003","desa":"Sukau Datang I","kecamatan":"Tubei","kecCode":"170709","kabCode":"1707","province":"Bengkulu"},"geometry":{"type":"Polygon","coordinates":[[[102.16848314558075,-3.1590737376672986],[102.16453761471921,-3.170567693935931],[102.15856379428372,-3.16038155966428],[102.1513489471962,-3.1565252928152367],[102.1519238289216,-3.1486533632778473],[102.14891532598158,-3.1447666633707376],[102.14937708108748,-3.141242191497615],[102.1672329026764,-3.1514317216093675],[102.16653621497443,-3.153512445253601],[102.16592945228246,-3.1514899041483897],[102.16360924007444,-3.1519995067839224],[102.16848314558075,-3.1590737376672986]]]}},{"type":"Feature","properties":{"code":"1707092004","desa":"Gunung Alam","kecamatan":"Tubei","kecCode":"170709","kabCode":"1707","province":"Bengkulu"},"geometry":{"type":"Polygon","coordinates":[[[102.13215587239563,-3.13541552173899],[102.13302611396404,-3.128030535518842],[102.14282225993942,-3.118509048801888],[102.14362334544107,-3.1129417273331956],[102.16464509269696,-3.119393488865829],[102.17544442791808,-3.112222503520815],[102.179255597368,-3.117314345330383],[102.18481368820119,-3.1195494106239785],[102.18694996926574,-3.1249992932240938],[102.19315992109351,-3.124870403287908],[102.1920647860611,-3.127839912520175],[102.19353111626805,-3.12868230118456],[102.1943008792822,-3.1310526946608794],[102.17777467566084,-3.127402947226917],[102.17931711189527,-3.1327457934165532],[102.16736780727854,-3.149823275138449],[102.16804846276642,-3.1523287153096873],[102.14937708108748,-3.141242191497615],[102.14847468965523,-3.1362279782677582],[102.13215587239563,-3.13541552173899]]]}},{"type":"Feature","properties":{"code":"1707092005","desa":"Tabeak Blau II","kecamatan":"Tubei","kecCode":"170709","kabCode":"1707","province":"Bengkulu"},"geometry":{"type":"Polygon","coordinates":[[[102.1791724208706,-3.155450438395371],[102.17737902072531,-3.1614133671350806],[102.17456562660243,-3.159900718247101],[102.17329358682962,-3.1629395930880344],[102.16561838398127,-3.1567957684168704],[102.16360924007444,-3.1519995067839224],[102.16592945228246,-3.1514899041483897],[102.16653621497443,-3.153512445253601],[102.16903298298581,-3.151796299571849],[102.16736780727854,-3.149823275138449],[102.17087064056766,-3.149835860251192],[102.17712727530358,-3.156296336214412],[102.1791724208706,-3.155450438395371]]]}},{"type":"Feature","properties":{"code":"1707092006","desa":"Kota Baru Santan","kecamatan":"Tubei","kecCode":"170709","kabCode":"1707","province":"Bengkulu"},"geometry":{"type":"Polygon","coordinates":[[[102.1289888288714,-3.174360771720181],[102.1412797436653,-3.165547703461174],[102.15165907030989,-3.1691305386369955],[102.14754403702773,-3.171207986051067],[102.13700621026845,-3.1893636227047044],[102.1289888288714,-3.174360771720181]]]}},{"type":"Feature","properties":{"code":"1707092007","desa":"Tik Teleu","kecamatan":"Tubei","kecCode":"170709","kabCode":"1707","province":"Bengkulu"},"geometry":{"type":"Polygon","coordinates":[[[102.12857167384374,-3.1734884122492386],[102.12710572315062,-3.170422798765351],[102.12915692025574,-3.1609781950899785],[102.1377936125852,-3.158029638262763],[102.15090974798652,-3.16313803389323],[102.1618334666412,-3.1730956162589457],[102.15655704886876,-3.1758902775005677],[102.15161245125368,-3.1690183922786668],[102.14448541756803,-3.165278136174761],[102.12857167384374,-3.1734884122492386]]]}},{"type":"Feature","properties":{"code":"1707092008","desa":"Pelabai","kecamatan":"Tubei","kecCode":"170709","kabCode":"1707","province":"Bengkulu"},"geometry":{"type":"Polygon","coordinates":[[[102.14149633998414,-3.1969375205136346],[102.13700621026845,-3.1893636227047044],[102.14754403702773,-3.171207986051067],[102.15158722437097,-3.169573697561181],[102.15849675072451,-3.176478949429606],[102.1561691541832,-3.193258370644781],[102.15145730561022,-3.1940556142418184],[102.14774958967189,-3.1979418366088646],[102.14149633998414,-3.1969375205136346]]]}},{"type":"Feature","properties":{"code":"1707101009","desa":"Amen","kecamatan":"Amen","kecCode":"170710","kabCode":"1707","province":"Bengkulu"},"geometry":{"type":"Polygon","coordinates":[[[102.200733791931,-3.1189025912295154],[102.20336483501916,-3.117326448406515],[102.20665091101078,-3.1212792116116765],[102.21159051109326,-3.1196343246115026],[102.21444947026691,-3.1217499113741147],[102.20598402504277,-3.1276418737119385],[102.20254951055152,-3.1271657285545023],[102.200733791931,-3.1189025912295154]]]}},{"type":"Feature","properties":{"code":"1707102001","desa":"Nangai Tayau","kecamatan":"Amen","kecCode":"170710","kabCode":"1707","province":"Bengkulu"},"geometry":{"type":"Polygon","coordinates":[[[102.22488881406757,-3.1339447353928724],[102.22378401402108,-3.142190097617597],[102.21883783180056,-3.1429857287302285],[102.20299495195552,-3.15637244224178],[102.1996830303476,-3.1536022191774493],[102.22018781221783,-3.131301399474522],[102.22488881406757,-3.1339447353928724]]]}},{"type":"Feature","properties":{"code":"1707102002","desa":"Nangai Tayau I","kecamatan":"Amen","kecCode":"170710","kabCode":"1707","province":"Bengkulu"},"geometry":{"type":"Polygon","coordinates":[[[102.20558245526614,-3.16043842649512],[102.20299495195552,-3.15637244224178],[102.21883783180056,-3.1429857287302285],[102.22383451994722,-3.142145300587902],[102.22574846162229,-3.1359114232031042],[102.22903496928846,-3.140978900579831],[102.22348557579873,-3.1479082425878366],[102.20558245526614,-3.16043842649512]]]}},{"type":"Feature","properties":{"code":"1707102003","desa":"Pyang Mbik","kecamatan":"Amen","kecCode":"170710","kabCode":"1707","province":"Bengkulu"},"geometry":{"type":"Polygon","coordinates":[[[102.20668082965665,-3.1384303154334963],[102.21274208757733,-3.130237297349035],[102.21901386329921,-3.1268926152412586],[102.22130237170717,-3.1305170566521845],[102.20910147725141,-3.143022223218856],[102.20668082965665,-3.1384303154334963]]]}},{"type":"Feature","properties":{"code":"1707102004","desa":"Sukau Mergo","kecamatan":"Amen","kecCode":"170710","kabCode":"1707","province":"Bengkulu"},"geometry":{"type":"Polygon","coordinates":[[[102.2095732013422,-3.1346535117809924],[102.20583624844414,-3.1309968953253033],[102.20598402504277,-3.1276418737119385],[102.21444947026691,-3.1217499113741147],[102.21718255043442,-3.122294479650766],[102.21901386329921,-3.1268926152412586],[102.2095732013422,-3.1346535117809924]]]}},{"type":"Feature","properties":{"code":"1707102005","desa":"Sukau Rajo","kecamatan":"Amen","kecCode":"170710","kabCode":"1707","province":"Bengkulu"},"geometry":{"type":"Polygon","coordinates":[[[102.20634863807925,-3.1160334373442438],[102.21062487843544,-3.1120273587309724],[102.20930181382772,-3.109172474388645],[102.2170822112751,-3.1167246382817555],[102.21288363996807,-3.120126217797324],[102.20634863807925,-3.1160334373442438]]]}},{"type":"Feature","properties":{"code":"1707102006","desa":"Talang Bunut","kecamatan":"Amen","kecCode":"170710","kabCode":"1707","province":"Bengkulu"},"geometry":{"type":"Polygon","coordinates":[[[102.21620464922522,-3.101345648549773],[102.21867353825326,-3.1069855686898755],[102.21823213840253,-3.1095201711770093],[102.20870037692093,-3.1023687227041883],[102.21128136824062,-3.103596086854375],[102.21620464922522,-3.101345648549773]]]}},{"type":"Feature","properties":{"code":"1707102007","desa":"Selebar Jaya","kecamatan":"Amen","kecCode":"170710","kabCode":"1707","province":"Bengkulu"},"geometry":{"type":"Polygon","coordinates":[[[102.20554817221044,-3.105322991125726],[102.20870037692093,-3.1023687227041883],[102.21823213840253,-3.1095201711770093],[102.22048073040143,-3.114659807456669],[102.21707293296954,-3.11673670268693],[102.20554817221044,-3.105322991125726]]]}},{"type":"Feature","properties":{"code":"1707102008","desa":"Garut","kecamatan":"Amen","kecCode":"170710","kabCode":"1707","province":"Bengkulu"},"geometry":{"type":"Polygon","coordinates":[[[102.23157497400591,-3.128503482687127],[102.22488881406757,-3.1339447353928724],[102.21718255043442,-3.122294479650766],[102.21287604069676,-3.1201091225845405],[102.22048073040143,-3.114659807456669],[102.22361328942183,-3.1169298123110494],[102.22730740221486,-3.1157995695458127],[102.22839600726996,-3.1191962495549],[102.23290029771061,-3.1215675936146163],[102.23157497400591,-3.128503482687127]]]}},{"type":"Feature","properties":{"code":"1707102010","desa":"Sungai Gerong","kecamatan":"Amen","kecCode":"170710","kabCode":"1707","province":"Bengkulu"},"geometry":{"type":"Polygon","coordinates":[[[102.20399511228464,-3.1174853999806733],[102.20819089659267,-3.115680332932414],[102.21159051109326,-3.1196343246115026],[102.20665091101078,-3.1212792116116765],[102.20399511228464,-3.1174853999806733]]]}},{"type":"Feature","properties":{"code":"1707112001","desa":"Embong","kecamatan":"Uram Jaya","kecCode":"170711","kabCode":"1707","province":"Bengkulu"},"geometry":{"type":"Polygon","coordinates":[[[102.24611576772854,-3.025582338403192],[102.2538260036672,-3.035515992507346],[102.26124238972453,-3.0371129447431544],[102.26769618822857,-3.042599183336225],[102.2792588850895,-3.0374190325984993],[102.29792048394324,-3.0473133764366636],[102.3117515291098,-3.060680002690922],[102.31534984342062,-3.0681124902021795],[102.31202256588875,-3.0707600034714795],[102.33416394930686,-3.1010904515303057],[102.31893144562973,-3.1127774598664],[102.2995050318318,-3.136732928710306],[102.28693842356944,-3.1432348274469013],[102.27769882304233,-3.1358363145238535],[102.2717071798425,-3.1163080021633127],[102.2515193784166,-3.10630373059425],[102.24027774492201,-3.1130201814904463],[102.23089170328956,-3.101858707279877],[102.23488146370863,-3.0983031998030626],[102.23824834558472,-3.099107310623248],[102.23747097700402,-3.092826603740891],[102.24254454099783,-3.0904701722393417],[102.24653672239191,-3.0821547213510367],[102.25164066728301,-3.0784070719205694],[102.25118694582096,-3.0716350033518336],[102.2341488687753,-3.0723428453443518],[102.22465392373965,-3.062062320928829],[102.22831829325467,-3.0543290704481216],[102.23355310569133,-3.04980809578977],[102.23424717007087,-3.0442832367107737],[102.2444641735828,-3.0378315462246523],[102.24611576772854,-3.025582338403192]]]}},{"type":"Feature","properties":{"code":"1707112002","desa":"Embong I","kecamatan":"Uram Jaya","kecCode":"170711","kabCode":"1707","province":"Bengkulu"},"geometry":{"type":"Polygon","coordinates":[[[102.2404520919905,-3.113072814313167],[102.23438179858117,-3.115609088640019],[102.23206690676238,-3.1199721306560613],[102.22810452260568,-3.118880971527546],[102.22661289806682,-3.1103550253213443],[102.23089170328956,-3.101858707279877],[102.2404520919905,-3.113072814313167]]]}},{"type":"Feature","properties":{"code":"1707112003","desa":"Kota Baru","kecamatan":"Uram Jaya","kecCode":"170711","kabCode":"1707","province":"Bengkulu"},"geometry":{"type":"Polygon","coordinates":[[[102.22379174998933,-3.1169595564883577],[102.2192932206057,-3.112515056579433],[102.23405199470385,-3.098623621952486],[102.23464505892241,-3.0909073722556766],[102.238636982211,-3.089979102832593],[102.24195069976503,-3.0711403852202808],[102.25118694582096,-3.0716350033518336],[102.25114097877321,-3.0800132062345233],[102.24717917737718,-3.0813694998910584],[102.24254454099783,-3.0904701722393417],[102.23747097700402,-3.092826603740891],[102.23824834558472,-3.099107310623248],[102.23488146370863,-3.0983031998030626],[102.23089170328956,-3.101858707279877],[102.22609982674567,-3.1154842906190874],[102.22379174998933,-3.1169595564883577]]]}},{"type":"Feature","properties":{"code":"1707112004","desa":"Kota Agung","kecamatan":"Uram Jaya","kecCode":"170711","kabCode":"1707","province":"Bengkulu"},"geometry":{"type":"Polygon","coordinates":[[[102.2341488687753,-3.0723428453443518],[102.2424181997402,-3.072123996223997],[102.23880909626284,-3.0895185806976477],[102.23464505892241,-3.0909073722556766],[102.23405199470385,-3.098623621952486],[102.22393322773632,-3.108812341774976],[102.22059416099182,-3.1028480568576553],[102.22357562581452,-3.0909443074120126],[102.22061449466328,-3.0872442204266672],[102.22309389226938,-3.0805091544633934],[102.2341488687753,-3.0723428453443518]]]}},{"type":"Feature","properties":{"code":"1707112005","desa":"Lemeu","kecamatan":"Uram Jaya","kecCode":"170711","kabCode":"1707","province":"Bengkulu"},"geometry":{"type":"Polygon","coordinates":[[[102.22955298957885,-3.06775535233093],[102.2341488687753,-3.0723428453443518],[102.22309389226938,-3.0805091544633934],[102.22061449466328,-3.0872442204266672],[102.22357562581452,-3.0909443074120126],[102.22266219070757,-3.093719115220173],[102.2173151869464,-3.0959807401917536],[102.21653388383174,-3.0900744885259823],[102.21266705534038,-3.090341638434661],[102.21192008744212,-3.086327604418604],[102.21521171944532,-3.0840018595838554],[102.21508092294629,-3.0807080440303296],[102.22079310182026,-3.0783980373313327],[102.22556739302081,-3.0698671259680927],[102.22955298957885,-3.06775535233093]]]}},{"type":"Feature","properties":{"code":"1707112006","desa":"Pangkalan","kecamatan":"Uram Jaya","kecCode":"170711","kabCode":"1707","province":"Bengkulu"},"geometry":{"type":"Polygon","coordinates":[[[102.2192932206057,-3.112515056579433],[102.2158530997408,-3.1021836620123966],[102.22152013444673,-3.101052809506813],[102.22386184494826,-3.1091573648789024],[102.2192932206057,-3.112515056579433]]]}},{"type":"Feature","properties":{"code":"1707112007","desa":"Tangua","kecamatan":"Uram Jaya","kecCode":"170711","kabCode":"1707","province":"Bengkulu"},"geometry":{"type":"Polygon","coordinates":[[[102.20793153391321,-3.1033122743068517],[102.20651099538617,-3.0976360719181106],[102.20398162784987,-3.0967747066592297],[102.20466223567371,-3.091964791519027],[102.21354205522175,-3.0874583049387936],[102.21266705534038,-3.090341638434661],[102.21629117839524,-3.0897461226648995],[102.2168051418439,-3.095528212130529],[102.22187928859834,-3.095676169492714],[102.22154882371927,-3.101055004751886],[102.20793153391321,-3.1033122743068517]]]}},{"type":"Feature","properties":{"code":"1707122001","desa":"Ketenong I","kecamatan":"Pinang Belapis","kecCode":"170712","kabCode":"1707","province":"Bengkulu"},"geometry":{"type":"Polygon","coordinates":[[[102.23436336427788,-2.973700687941803],[102.2346717750824,-2.977678463990931],[102.23763850271477,-2.9800768668523436],[102.23464262805491,-2.989334110269366],[102.242570528707,-3.0107961170122803],[102.1049957251726,-3.039284704959366],[102.10453032331583,-3.026979441495553],[102.09189605455937,-3.0131480707893705],[102.1257226881516,-3.0010787489606883],[102.13631323766583,-3.0001495631284842],[102.13981030180405,-2.993901261517401],[102.21935299044821,-2.9788761855872266],[102.23436336427788,-2.973700687941803]]]}},{"type":"Feature","properties":{"code":"1707122002","desa":"Ketenong II","kecamatan":"Pinang Belapis","kecCode":"170712","kabCode":"1707","province":"Bengkulu"},"geometry":{"type":"Polygon","coordinates":[[[102.1923593518027,-2.9150438626532433],[102.2041998375525,-2.9190251901251916],[102.20718115218847,-2.9154463443419725],[102.21074662775469,-2.91605295145053],[102.21518691974063,-2.9235355078172556],[102.22408677438516,-2.930730363867219],[102.22451000613194,-2.940148630896368],[102.14376263693623,-2.968044659145183],[102.13779048923975,-2.974244709430538],[102.13669953965211,-2.981000285332334],[102.13383761091704,-2.983652791637592],[102.12558761627554,-2.9774323878956843],[102.12679513688612,-2.9796367988981145],[102.12388188294261,-2.9781808729493937],[102.12453896000505,-2.9800351419067903],[102.1221857282888,-2.981093803133848],[102.11838899655497,-2.9795171494959067],[102.08773573771418,-2.9873518273155315],[102.05751800794974,-2.9907720039116565],[102.04216004524994,-2.984064090279647],[102.04057004117453,-2.959464975748867],[102.11831279160212,-2.954613400414175],[102.12768286487238,-2.9579931335986434],[102.13928925169766,-2.952352868118912],[102.14184046916237,-2.953118419607059],[102.14525267507092,-2.9483747170523813],[102.15206112572042,-2.950506577946726],[102.15415520429927,-2.9481475707868188],[102.1578017582446,-2.948560799374055],[102.1718504654267,-2.9272217218607834],[102.1923593518027,-2.9150438626532433]]]}},{"type":"Feature","properties":{"code":"1707122003","desa":"Ketenong Jaya","kecamatan":"Pinang Belapis","kecCode":"170712","kabCode":"1707","province":"Bengkulu"},"geometry":{"type":"Polygon","coordinates":[[[102.22451000613194,-2.940148630896368],[102.22553686283601,-2.945378240749355],[102.22880300625377,-2.9468807299961877],[102.22907804231782,-2.955847317924128],[102.23436336427788,-2.973700687941803],[102.21935299044821,-2.9788761855872266],[102.13981030180405,-2.993901261517401],[102.13631323766583,-3.0001495631284842],[102.1257226881516,-3.0010787489606883],[102.09189605455937,-3.0131480707893705],[102.0826110922282,-3.0107700762431517],[102.07775115409252,-3.0000178888912896],[102.0669860920346,-2.9920735396475266],[102.05751800794974,-2.9907720039116565],[102.08773573771418,-2.9873518273155315],[102.11838899655497,-2.9795171494959067],[102.1221857282888,-2.981093803133848],[102.12453896000505,-2.9800351419067903],[102.12388188294261,-2.9781808729493937],[102.12679513688612,-2.9796367988981145],[102.12558761627554,-2.9774323878956843],[102.13383761091704,-2.983652791637592],[102.13669953965211,-2.981000285332334],[102.13779048923975,-2.974244709430538],[102.14376263693623,-2.968044659145183],[102.22451000613194,-2.940148630896368]]]}},{"type":"Feature","properties":{"code":"1707122004","desa":"Tambang Saweak","kecamatan":"Pinang Belapis","kecCode":"170712","kabCode":"1707","province":"Bengkulu"},"geometry":{"type":"Polygon","coordinates":[[[102.242570528707,-3.0107961170122803],[102.2428904841086,-3.019540493254768],[102.24611576772854,-3.025582338403192],[102.24195256405966,-3.0320378725918022],[102.20711875992288,-3.045951078906127],[102.18950935976919,-3.0475244563138686],[102.18352590759463,-3.04470871406421],[102.1750786799372,-3.0482283925507483],[102.16627948461058,-3.0447087149635244],[102.15818422462233,-3.0492842955571016],[102.1455133840355,-3.04805240781702],[102.12806474759009,-3.0591837025784065],[102.1049957251726,-3.039284704959366],[102.242570528707,-3.0107961170122803]]]}},{"type":"Feature","properties":{"code":"1707122005","desa":"Air Kopras","kecamatan":"Pinang Belapis","kecCode":"170712","kabCode":"1707","province":"Bengkulu"},"geometry":{"type":"Polygon","coordinates":[[[102.2064299790603,-3.0895884022626148],[102.20309270556395,-3.0852783662879237],[102.19501525934679,-3.088308802790063],[102.17794793904618,-3.0631979407406793],[102.18240942895204,-3.0641378276058857],[102.18265927140828,-3.059057678781582],[102.19258876256139,-3.0525712672699243],[102.2067679703656,-3.0632842351874965],[102.22123033511197,-3.0464376517027296],[102.23260839935817,-3.046489435565389],[102.23424717007087,-3.0442832367107737],[102.23355310569133,-3.04980809578977],[102.22534396725035,-3.0584931284684864],[102.22465392373965,-3.062062320928829],[102.22955298957885,-3.06775535233093],[102.22556739302081,-3.0698671259680927],[102.22079310182026,-3.0783980373313327],[102.21508092294629,-3.0807080440303296],[102.21222634526968,-3.0894170814129924],[102.2064299790603,-3.0895884022626148]]]}},{"type":"Feature","properties":{"code":"1707122006","desa":"Bioa Putiak","kecamatan":"Pinang Belapis","kecCode":"170712","kabCode":"1707","province":"Bengkulu"},"geometry":{"type":"Polygon","coordinates":[[[102.14031267389082,-3.0733977195263664],[102.13741302758922,-3.065980672475266],[102.12806474759009,-3.0591837025784065],[102.1455133840355,-3.04805240781702],[102.15818422462233,-3.0492842955571016],[102.16627948461058,-3.0447087149635244],[102.1750786799372,-3.0482283925507483],[102.18352590759463,-3.04470871406421],[102.18950935976919,-3.0475244563138686],[102.20711875992288,-3.045951078906127],[102.23649706159017,-3.0352055825102577],[102.24195256405966,-3.0320378725918022],[102.24611576772854,-3.025582338403192],[102.24346480016044,-3.0388666128385724],[102.23260839935817,-3.046489435565389],[102.22123033511197,-3.0464376517027296],[102.2067679703656,-3.0632842351874965],[102.19258876256139,-3.0525712672699243],[102.18265927140828,-3.059057678781582],[102.18240942895204,-3.0641378276058857],[102.17794793904618,-3.0631979407406793],[102.17780390092933,-3.0691479723028587],[102.17222593058226,-3.0696058774106127],[102.17179762755853,-3.0724612311991257],[102.16826412738759,-3.0743172115662527],[102.16011646929967,-3.0767166036819322],[102.15956919226447,-3.0744561154534193],[102.15356105369972,-3.0738255584994447],[102.15171697136122,-3.0685074625518896],[102.14643456770118,-3.072683417703564],[102.14031267389082,-3.0733977195263664]]]}},{"type":"Feature","properties":{"code":"1707122007","desa":"Sebelat","kecamatan":"Pinang Belapis","kecCode":"170712","kabCode":"1707","province":"Bengkulu"},"geometry":{"type":"Polygon","coordinates":[[[102.13178501986282,-2.8599413397500415],[102.13134032039954,-2.8748173359640767],[102.15790299672597,-2.8899204757457837],[102.16561232614798,-2.897411035179372],[102.18343294197678,-2.902835069465264],[102.1923593518027,-2.9150438626532433],[102.1718504654267,-2.9272217218607834],[102.1578017582446,-2.948560799374055],[102.15415520429927,-2.9481475707868188],[102.15206112572042,-2.950506577946726],[102.14525267507092,-2.9483747170523813],[102.14184046916237,-2.953118419607059],[102.13928925169766,-2.952352868118912],[102.12768286487238,-2.9579931335986434],[102.11831279160212,-2.954613400414175],[102.04057004117453,-2.959464975748867],[102.03864288665993,-2.950834510334574],[102.0310516319273,-2.9370579703941804],[102.03601075269414,-2.9230363400154795],[102.02499390024838,-2.905897851883416],[102.02583733032861,-2.896333786764285],[102.13178501986282,-2.8599413397500415]]]}},{"type":"Feature","properties":{"code":"1707122008","desa":"Sungai Lisai","kecamatan":"Pinang Belapis","kecCode":"170712","kabCode":"1707","province":"Bengkulu"},"geometry":{"type":"Polygon","coordinates":[[[102.0629320930417,-2.7641792863783468],[102.07086565582539,-2.781078128567705],[102.07342960139503,-2.7949446897454577],[102.09246678411482,-2.8109221306342342],[102.11346343309098,-2.8142174696393454],[102.1195630956604,-2.8294913322214184],[102.12936617271077,-2.8348215042654226],[102.13178501986282,-2.8599413397500415],[102.02583733032861,-2.896333786764285],[102.02645873038614,-2.891016482220096],[102.019309986167,-2.8719718495371764],[102.01856232669007,-2.8547637475835543],[102.00159454785016,-2.840748310835802],[101.9897537185593,-2.8438563246562447],[101.9832229632692,-2.832712172287555],[101.9742050132508,-2.830945486505605],[101.97315215894503,-2.8270523465533905],[101.96675109938377,-2.8245418018302675],[101.96663664806294,-2.8204355108621466],[101.95633696627804,-2.808037029071163],[101.9557952938178,-2.802984228630281],[101.94879913577154,-2.7956514435583495],[101.94132233056114,-2.781665805846569],[101.92630767415987,-2.7703311401965798],[101.92139435676421,-2.7469892428114067],[101.92257690589958,-2.741540678617478],[101.9191057017668,-2.735593853138336],[101.93013000509568,-2.7311074223390905],[101.94258951129694,-2.732949261766388],[101.95377598127658,-2.7307011338201086],[101.96401444531044,-2.7218169642610435],[101.98013054638767,-2.7266111655471783],[101.99036901042153,-2.723306687631477],[101.99692379379809,-2.724065093106646],[102.01041256418853,-2.739937420335462],[102.02000096677124,-2.7453004248286454],[102.02793713129363,-2.755024258106338],[102.0547792422683,-2.7650189491975525],[102.0629320930417,-2.7641792863783468]]]}}]}