{"type":"FeatureCollection","features":[{"type":"Feature","properties":{"code":"1771011001","desa":"Pagar Dewa","kecamatan":"Selebar","kecCode":"177101","kabCode":"1771","province":"Bengkulu"},"geometry":{"type":"Polygon","coordinates":[[[102.33631716100824,-3.828857897059824],[102.33298172932342,-3.8333988600500533],[102.33308864522483,-3.83734654658235],[102.33114192865713,-3.8370993975959022],[102.3315586196346,-3.842339636536193],[102.31839741830628,-3.8522817748446303],[102.30987490030644,-3.852472753075441],[102.30784909466007,-3.850578179202052],[102.3087699455766,-3.8476400203362204],[102.3037219214296,-3.8449785936555294],[102.30808754540396,-3.841026653329986],[102.3108070628957,-3.841485425384175],[102.30917415756134,-3.8394242179275926],[102.31140042299118,-3.836573154804535],[102.31523135594239,-3.8382245007356532],[102.31738636898581,-3.8325500987896106],[102.32579149937821,-3.834522196022028],[102.32566499983994,-3.8297560958517525],[102.33026780021885,-3.8260867944584716],[102.33423037323318,-3.8258788118463634],[102.33631716100824,-3.828857897059824]]]}},{"type":"Feature","properties":{"code":"1771011002","desa":"Sukarami","kecamatan":"Selebar","kecCode":"177101","kabCode":"1771","province":"Bengkulu"},"geometry":{"type":"Polygon","coordinates":[[[102.35381575119601,-3.815246598551712],[102.34929023585573,-3.823055525184056],[102.35410429417787,-3.832924969492974],[102.34641582543007,-3.834346046712397],[102.3456557382218,-3.8383076574479267],[102.33405752983117,-3.8476839926875908],[102.33376650022387,-3.852675695886861],[102.32908479872452,-3.857895397009605],[102.31858314899318,-3.852639371370136],[102.32137830126764,-3.848219761098058],[102.32628386201064,-3.847263967024408],[102.3315586196346,-3.842339636536193],[102.33114192865713,-3.8370993975959022],[102.33308864522483,-3.83734654658235],[102.33447549964465,-3.8301066956516645],[102.33910468523311,-3.827097924716833],[102.34135601926492,-3.8172846106940823],[102.35381575119601,-3.815246598551712]]]}},{"type":"Feature","properties":{"code":"1771011003","desa":"Pekan Sabtu","kecamatan":"Selebar","kecCode":"177101","kabCode":"1771","province":"Bengkulu"},"geometry":{"type":"Polygon","coordinates":[[[102.35410429417787,-3.832924969492974],[102.3610538961205,-3.8522255546263207],[102.34371250203043,-3.8593530379654375],[102.33969406672787,-3.8679412100627397],[102.32908479872452,-3.857895397009605],[102.33376650022387,-3.852675695886861],[102.33405752983117,-3.8476839926875908],[102.3456557382218,-3.8383076574479267],[102.34641582543007,-3.834346046712397],[102.35410429417787,-3.832924969492974]]]}},{"type":"Feature","properties":{"code":"1771011004","desa":"Bumu Ayu","kecamatan":"Selebar","kecCode":"177101","kabCode":"1771","province":"Bengkulu"},"geometry":{"type":"Polygon","coordinates":[[[102.3140596913018,-3.8536086651669454],[102.31810551185991,-3.8516050997568563],[102.32908479872452,-3.857895397009605],[102.33969406672787,-3.8679412100627397],[102.33692141459164,-3.8741158059370973],[102.33554738090697,-3.875335543836365],[102.33003689029032,-3.871208050451653],[102.3276268708834,-3.872908770062338],[102.32428587599242,-3.8711352791103897],[102.31426557129913,-3.858717139937769],[102.3140596913018,-3.8536086651669454]]]}},{"type":"Feature","properties":{"code":"1771011005","desa":"Betungan","kecamatan":"Selebar","kecCode":"177101","kabCode":"1771","province":"Bengkulu"},"geometry":{"type":"Polygon","coordinates":[[[102.36198610007851,-3.8883249953245325],[102.35403060013215,-3.8833194398678357],[102.3490222001145,-3.887652773679556],[102.33376113666718,-3.883250598563969],[102.3276268708834,-3.872908770062338],[102.33003689029032,-3.871208050451653],[102.33576214081022,-3.875239527718211],[102.34371250203043,-3.8593530379654375],[102.35427730665242,-3.853471009538812],[102.3610538961205,-3.8522255546263207],[102.36167598955535,-3.855111103152477],[102.3713397220506,-3.856461662731663],[102.36668395699904,-3.8599231173104904],[102.37016223429976,-3.8736017507581106],[102.36508743733542,-3.8726804384903533],[102.35966910834274,-3.876772369983416],[102.36507779840173,-3.8835234115036177],[102.36198610007851,-3.8883249953245325]]]}},{"type":"Feature","properties":{"code":"1771011006","desa":"Sumur Dewa","kecamatan":"Selebar","kecCode":"177101","kabCode":"1771","province":"Bengkulu"},"geometry":{"type":"Polygon","coordinates":[[[102.3373192243028,-3.803389718173596],[102.35157439514228,-3.8101133627470034],[102.35381592836245,-3.8152452999306306],[102.34302453775227,-3.8161660717059207],[102.3387668890807,-3.823289428056106],[102.33885272487339,-3.8273865009733483],[102.33631716100824,-3.828857897059824],[102.33423037323318,-3.8258788118463634],[102.33026780021885,-3.8260867944584716],[102.32566499983994,-3.8297560958517525],[102.32579149937821,-3.834522196022028],[102.3190819156979,-3.83376848500786],[102.3157633606906,-3.8300129017582836],[102.31646281830449,-3.82325552361505],[102.3373192243028,-3.803389718173596]]]}},{"type":"Feature","properties":{"code":"1771021001","desa":"Padang Harapan","kecamatan":"Gading Cempaka","kecCode":"177102","kabCode":"1771","province":"Bengkulu"},"geometry":{"type":"Polygon","coordinates":[[[102.28305152580731,-3.8142538585298094],[102.28647938801338,-3.8185676536707827],[102.29012948708623,-3.8181427320983534],[102.29233575698963,-3.820551168695834],[102.2952886962164,-3.826708181025557],[102.29267490931964,-3.8278356529796436],[102.29289772984639,-3.831955604649671],[102.28690971361242,-3.8297108239799442],[102.28668454855313,-3.827290071167082],[102.28517222521809,-3.8284737966143267],[102.27885499955862,-3.8182588957282704],[102.28305152580731,-3.8142538585298094]]]}},{"type":"Feature","properties":{"code":"1771021002","desa":"Jalan Gedang","kecamatan":"Gading Cempaka","kecCode":"177102","kabCode":"1771","province":"Bengkulu"},"geometry":{"type":"Polygon","coordinates":[[[102.30225563708801,-3.8333683559456313],[102.29012948708623,-3.8181427320983534],[102.29221507066904,-3.8161510125582017],[102.3039116361132,-3.823326775101972],[102.30697022499594,-3.82885563436551],[102.30468461420365,-3.8288385796223046],[102.30225563708801,-3.8333683559456313]]]}},{"type":"Feature","properties":{"code":"1771021021","desa":"Sidomulyo","kecamatan":"Gading Cempaka","kecCode":"177102","kabCode":"1771","province":"Bengkulu"},"geometry":{"type":"Polygon","coordinates":[[[102.33344132695571,-3.7988852199943453],[102.3373192243028,-3.803389718173596],[102.31646281830449,-3.82325552361505],[102.31732399470667,-3.836072401497964],[102.31510286440573,-3.838291127009368],[102.31065955339574,-3.8368777075172122],[102.30487143307022,-3.829038979150923],[102.30697022499594,-3.82885563436551],[102.3073378930294,-3.8217075754374057],[102.3168817521912,-3.813876132478983],[102.31507730297523,-3.809801416707804],[102.32002112807264,-3.805678267947916],[102.31987308527471,-3.793531996527584],[102.32307679056152,-3.800249773024598],[102.33344132695571,-3.7988852199943453]]]}},{"type":"Feature","properties":{"code":"1771021024","desa":"Lingkar Barat","kecamatan":"Gading Cempaka","kecCode":"177102","kabCode":"1771","province":"Bengkulu"},"geometry":{"type":"Polygon","coordinates":[[[102.30750914463135,-3.8415300596365634],[102.3036886069437,-3.844869138968085],[102.30879374163793,-3.847693558776166],[102.30884728007798,-3.8500730210160468],[102.30593063569034,-3.850758676733749],[102.28893472605681,-3.8324788589938397],[102.29314540223857,-3.831783709133307],[102.29267490931964,-3.8278356529796436],[102.29589727463956,-3.8262497965791433],[102.30750914463135,-3.8415300596365634]]]}},{"type":"Feature","properties":{"code":"1771021027","desa":"Cempaka Permai","kecamatan":"Gading Cempaka","kecCode":"177102","kabCode":"1771","province":"Bengkulu"},"geometry":{"type":"Polygon","coordinates":[[[102.31097354179559,-3.836968066000334],[102.30917415756134,-3.8394242179275926],[102.3108070628957,-3.841485425384175],[102.30750914463135,-3.8415300596365634],[102.30225563708801,-3.8333683559456313],[102.30468461420365,-3.8288385796223046],[102.31097354179559,-3.836968066000334]]]}},{"type":"Feature","properties":{"code":"1771031001","desa":"Berkas","kecamatan":"Teluk Segara","kecCode":"177103","kabCode":"1771","province":"Bengkulu"},"geometry":{"type":"Polygon","coordinates":[[[102.25582646192174,-3.7987896715237257],[102.2544770139031,-3.8006206201610944],[102.24853709341221,-3.7950918706148578],[102.25090913804632,-3.793718650818024],[102.25582646192174,-3.7987896715237257]]]}},{"type":"Feature","properties":{"code":"1771031002","desa":"Pasar Baru","kecamatan":"Teluk Segara","kecCode":"177103","kabCode":"1771","province":"Bengkulu"},"geometry":{"type":"Polygon","coordinates":[[[102.25582646192174,-3.7987896715237257],[102.25081724082303,-3.7937364250189325],[102.24983478274908,-3.7906998155701803],[102.25460916568049,-3.794963300837273],[102.25582646192174,-3.7987896715237257]]]}},{"type":"Feature","properties":{"code":"1771031003","desa":"Jitra","kecamatan":"Teluk Segara","kecCode":"177103","kabCode":"1771","province":"Bengkulu"},"geometry":{"type":"Polygon","coordinates":[[[102.25526385144565,-3.7965584930999037],[102.25052829674354,-3.7914953090865726],[102.25201670081013,-3.7900108935148165],[102.25530371569398,-3.7917367365861474],[102.25526385144565,-3.7965584930999037]]]}},{"type":"Feature","properties":{"code":"1771031004","desa":"Pasar Melintang","kecamatan":"Teluk Segara","kecCode":"177103","kabCode":"1771","province":"Bengkulu"},"geometry":{"type":"Polygon","coordinates":[[[102.25596546383514,-3.79864954545784],[102.25499622669457,-3.7921575500554776],[102.2590553895946,-3.7925826119221706],[102.25878702020486,-3.797230118494348],[102.25596546383514,-3.79864954545784]]]}},{"type":"Feature","properties":{"code":"1771031005","desa":"Kebun Roos","kecamatan":"Teluk Segara","kecCode":"177103","kabCode":"1771","province":"Bengkulu"},"geometry":{"type":"Polygon","coordinates":[[[102.25536546224635,-3.7919339696018723],[102.25426348607107,-3.7889007047318293],[102.25906152476959,-3.7904661375286404],[102.25836148169707,-3.792504369105618],[102.25536546224635,-3.7919339696018723]]]}},{"type":"Feature","properties":{"code":"1771031007","desa":"Tengah Padang","kecamatan":"Teluk Segara","kecCode":"177103","kabCode":"1771","province":"Bengkulu"},"geometry":{"type":"Polygon","coordinates":[[[102.2590553895946,-3.7925826119221706],[102.2563967768898,-3.788308511957014],[102.25647937422383,-3.7847872056974623],[102.26336728177472,-3.7908791340907553],[102.2590553895946,-3.7925826119221706]]]}},{"type":"Feature","properties":{"code":"1771031008","desa":"Bajak","kecamatan":"Teluk Segara","kecCode":"177103","kabCode":"1771","province":"Bengkulu"},"geometry":{"type":"Polygon","coordinates":[[[102.26336728177472,-3.7908791340907553],[102.25799747030707,-3.7844540806241365],[102.26064312468053,-3.781877409650307],[102.26409333683806,-3.7844399109060274],[102.26336728177472,-3.7908791340907553]]]}},{"type":"Feature","properties":{"code":"1771031010","desa":"Pondok Besi","kecamatan":"Teluk Segara","kecCode":"177103","kabCode":"1771","province":"Bengkulu"},"geometry":{"type":"Polygon","coordinates":[[[102.2563967768898,-3.788308511957014],[102.25425420326893,-3.788928995604717],[102.25334621535562,-3.785597190889227],[102.2564655093758,-3.7848010705453903],[102.2563967768898,-3.788308511957014]]]}},{"type":"Feature","properties":{"code":"1771031011","desa":"Kebun Keling","kecamatan":"Teluk Segara","kecCode":"177103","kabCode":"1771","province":"Bengkulu"},"geometry":{"type":"Polygon","coordinates":[[[102.25341623027485,-3.7904733527894052],[102.24879376711873,-3.786077329935936],[102.25247375695835,-3.782652130626081],[102.25154338761729,-3.7836277097846787],[102.25115125262829,-3.785575537013069],[102.25265459623267,-3.78350492984247],[102.2548618284107,-3.7849397307163213],[102.25341623027485,-3.7904733527894052]]]}},{"type":"Feature","properties":{"code":"1771031013","desa":"Sumur Meleleh","kecamatan":"Teluk Segara","kecCode":"177103","kabCode":"1771","province":"Bengkulu"},"geometry":{"type":"Polygon","coordinates":[[[102.2508014766069,-3.7936667968082043],[102.24853709341221,-3.7950918706148578],[102.2472423934218,-3.7912212254047972],[102.24952210016482,-3.7900529961757217],[102.2508014766069,-3.7936667968082043]]]}},{"type":"Feature","properties":{"code":"1771031014","desa":"Malabero","kecamatan":"Teluk Segara","kecCode":"177103","kabCode":"1771","province":"Bengkulu"},"geometry":{"type":"Polygon","coordinates":[[[102.25201670081013,-3.7900108935148165],[102.2472423934218,-3.7912212254047972],[102.24879376711873,-3.786077329935936],[102.25201670081013,-3.7900108935148165]]]}},{"type":"Feature","properties":{"code":"1771031018","desa":"Pintu Batu","kecamatan":"Teluk Segara","kecCode":"177103","kabCode":"1771","province":"Bengkulu"},"geometry":{"type":"Polygon","coordinates":[[[102.25956960755137,-3.7949547195063453],[102.2590553895946,-3.7925826119221706],[102.26256247128106,-3.7926389139788075],[102.26198455434375,-3.7942158284201613],[102.25956960755137,-3.7949547195063453]]]}},{"type":"Feature","properties":{"code":"1771031019","desa":"Kampung Bali","kecamatan":"Teluk Segara","kecCode":"177103","kabCode":"1771","province":"Bengkulu"},"geometry":{"type":"Polygon","coordinates":[[[102.26429941288768,-3.789272489861239],[102.26409333683806,-3.7844399109060274],[102.2608360994065,-3.7824286625876984],[102.26114332310594,-3.780714502608997],[102.2652561170762,-3.781836080406421],[102.26429941288768,-3.789272489861239]]]}},{"type":"Feature","properties":{"code":"1771041001","desa":"Kandang Limun","kecamatan":"Muara Bangka Hulu","kecCode":"177104","kabCode":"1771","province":"Bengkulu"},"geometry":{"type":"Polygon","coordinates":[[[102.26969926710755,-3.7446695617261567],[102.27196681591589,-3.7433365515172783],[102.27521081982353,-3.746218557613933],[102.28299316879973,-3.744285535924389],[102.28661541407018,-3.7394305485617725],[102.29485553235702,-3.7396509894821737],[102.28711701543796,-3.7514864291233962],[102.28861258440332,-3.7638668687158066],[102.2809139847926,-3.7633659868061806],[102.27817800880814,-3.768345037443512],[102.27942160032664,-3.7707200957032865],[102.2710024998655,-3.7647225727424076],[102.27460390604551,-3.7546505300624924],[102.2695370716786,-3.749346485122457],[102.26969926710755,-3.7446695617261567]]]}},{"type":"Feature","properties":{"code":"1771041002","desa":"Bentiring","kecamatan":"Muara Bangka Hulu","kecCode":"177104","kabCode":"1771","province":"Bengkulu"},"geometry":{"type":"Polygon","coordinates":[[[102.30816803832435,-3.7607076906655266],[102.31469360992224,-3.774595611641454],[102.3221306947758,-3.773436576181614],[102.32039767241469,-3.784453722693975],[102.31475834132448,-3.7832848549461424],[102.31488393434614,-3.787740661131892],[102.31021348156695,-3.7865097905250393],[102.31200886381804,-3.784147731066072],[102.30372281985233,-3.7865628550223156],[102.30139538608823,-3.7818352970969187],[102.29641011303636,-3.7807018518458113],[102.30209071941124,-3.764958442431756],[102.30632703976113,-3.764420497662041],[102.30816803832435,-3.7607076906655266]]]}},{"type":"Feature","properties":{"code":"1771041003","desa":"Pematang Gubernur","kecamatan":"Muara Bangka Hulu","kecCode":"177104","kabCode":"1771","province":"Bengkulu"},"geometry":{"type":"Polygon","coordinates":[[[102.29485553235702,-3.7396509894821737],[102.29861568686452,-3.7410513858918546],[102.2976342234407,-3.7439203248391624],[102.30223479979622,-3.7472811857505923],[102.29847759866232,-3.758425752706892],[102.29022140139658,-3.7708064809816717],[102.27942160032664,-3.7707200957032865],[102.27817800880814,-3.768345037443512],[102.2809139847926,-3.7633659868061806],[102.28861258440332,-3.7638668687158066],[102.28711701543796,-3.7514864291233962],[102.29485553235702,-3.7396509894821737]]]}},{"type":"Feature","properties":{"code":"1771041004","desa":"Rawa Makmur","kecamatan":"Muara Bangka Hulu","kecCode":"177104","kabCode":"1771","province":"Bengkulu"},"geometry":{"type":"Polygon","coordinates":[[[102.28966010483003,-3.782944889629368],[102.28078518298986,-3.781690709494406],[102.27447172638908,-3.783481912594042],[102.26970575481681,-3.7768089870860737],[102.265807807984,-3.7779196426171926],[102.2645461616761,-3.775285861995543],[102.27803801044587,-3.772847522040704],[102.27942160032664,-3.7707200957032865],[102.28966010483003,-3.782944889629368]]]}},{"type":"Feature","properties":{"code":"1771041005","desa":"Beringin Raya","kecamatan":"Muara Bangka Hulu","kecCode":"177104","kabCode":"1771","province":"Bengkulu"},"geometry":{"type":"Polygon","coordinates":[[[102.26107124783988,-3.7510671975615653],[102.26969926710755,-3.7446695617261567],[102.2695370716786,-3.749346485122457],[102.27372439066818,-3.752211192759515],[102.27424059882463,-3.7575401956849728],[102.27161939431966,-3.758586411194322],[102.2724486915539,-3.760915925087817],[102.26869749968989,-3.76623009459544],[102.26165474956706,-3.7666532858722133],[102.25759359197076,-3.7557211810510878],[102.26172960373826,-3.754465906441229],[102.26107124783988,-3.7510671975615653]]]}},{"type":"Feature","properties":{"code":"1771041006","desa":"Bentiring Permai","kecamatan":"Muara Bangka Hulu","kecCode":"177104","kabCode":"1771","province":"Bengkulu"},"geometry":{"type":"Polygon","coordinates":[[[102.30223479979622,-3.7472811857505923],[102.30803409329882,-3.7614518589734773],[102.30632703976113,-3.764420497662041],[102.30209071941124,-3.764958442431756],[102.29641011303636,-3.7807018518458113],[102.29246604986838,-3.7803067311080114],[102.28966010483003,-3.782944889629368],[102.27942160032664,-3.7707200957032865],[102.29022140139658,-3.7708064809816717],[102.29847759866232,-3.758425752706892],[102.30223479979622,-3.7472811857505923]]]}},{"type":"Feature","properties":{"code":"1771041007","desa":"Rawa Makmur Permai","kecamatan":"Muara Bangka Hulu","kecCode":"177104","kabCode":"1771","province":"Bengkulu"},"geometry":{"type":"Polygon","coordinates":[[[102.27093980003178,-3.763699194617089],[102.27942160032664,-3.7707200957032865],[102.2786623818635,-3.772442061797354],[102.2645461616761,-3.775285861995543],[102.26317832971621,-3.768257270806482],[102.27093980003178,-3.763699194617089]]]}},{"type":"Feature","properties":{"code":"1771051001","desa":"Kandang","kecamatan":"Kampung Melayu","kecCode":"177105","kabCode":"1771","province":"Bengkulu"},"geometry":{"type":"Polygon","coordinates":[[[102.31216690258054,-3.8582164019196923],[102.31319760298702,-3.871362315658649],[102.31918812383292,-3.878922045548255],[102.32326178740162,-3.886291882688685],[102.32181858595901,-3.8868705784383137],[102.30953791084595,-3.887803875071592],[102.30944273289589,-3.8855957345806584],[102.30378001673442,-3.8834221586331865],[102.29998971155601,-3.860996830490712],[102.3085937000393,-3.8566038959090476],[102.31216690258054,-3.8582164019196923]]]}},{"type":"Feature","properties":{"code":"1771051002","desa":"Kandang Mas","kecamatan":"Kampung Melayu","kecCode":"177105","kabCode":"1771","province":"Bengkulu"},"geometry":{"type":"Polygon","coordinates":[[[102.31216690258054,-3.8582164019196923],[102.33338141142303,-3.880686313053315],[102.33376113666718,-3.883250598563969],[102.32607233606949,-3.8893559898082413],[102.31319760298702,-3.871362315658649],[102.31216690258054,-3.8582164019196923]]]}},{"type":"Feature","properties":{"code":"1771051003","desa":"Teluk Sepang","kecamatan":"Kampung Melayu","kecCode":"177105","kabCode":"1771","province":"Bengkulu"},"geometry":{"type":"Polygon","coordinates":[[[102.31007164678914,-3.936410273786305],[102.30901633463617,-3.9399709011036537],[102.3063346507236,-3.938800161866655],[102.30171110028708,-3.9528999954921513],[102.30063035530674,-3.9820644383459762],[102.28087871697925,-3.963709818595487],[102.2774989172413,-3.9568219937895215],[102.2786196110063,-3.938743268056057],[102.26564703078589,-3.9153898917236605],[102.27633901933035,-3.8987907584978636],[102.28179275732991,-3.9081822158377673],[102.27402694958413,-3.913111300142317],[102.27682115757044,-3.917183477127374],[102.2876880804406,-3.925422605251861],[102.29784915961108,-3.9203314703093675],[102.30158650011695,-3.929880996988583],[102.30766415357789,-3.937049061335671],[102.31007164678914,-3.936410273786305]]]}},{"type":"Feature","properties":{"code":"1771051004","desa":"Sumber Jaya","kecamatan":"Kampung Melayu","kecCode":"177105","kabCode":"1771","province":"Bengkulu"},"geometry":{"type":"Polygon","coordinates":[[[102.34808060003974,-3.88694443975781],[102.34655370858684,-3.8937953860646775],[102.33988924389352,-3.891685139476337],[102.33087054743787,-3.895859936301297],[102.32385055106215,-3.8919005280054106],[102.32029959684898,-3.896088820956357],[102.31655221900974,-3.8957849814060843],[102.31765421766805,-3.901332601426863],[102.31543606142515,-3.9016831265830825],[102.3190008274263,-3.910276690116115],[102.31306489003269,-3.9246335922501823],[102.3151833609234,-3.9295951061076995],[102.31013384929774,-3.9292688707405716],[102.30981441640226,-3.9368328912956687],[102.30766415357789,-3.937049061335671],[102.30158650011695,-3.929880996988583],[102.29784915961108,-3.9203314703093675],[102.30393586384912,-3.9125014338906356],[102.30352357235506,-3.906073846134463],[102.30628405486527,-3.906386322773668],[102.30488192635987,-3.903994427406536],[102.30735119220384,-3.890957961160481],[102.28531692073936,-3.9060137678245948],[102.278751311324,-3.898277823874196],[102.2856347717274,-3.9027028957290515],[102.29157109582944,-3.9001863030651043],[102.30154783466492,-3.8895977212787676],[102.30378001673442,-3.8834221586331865],[102.30944273289589,-3.8855957345806584],[102.30953791084595,-3.887803875071592],[102.32326178740162,-3.886291882688685],[102.32607233606949,-3.8893559898082413],[102.33376113666718,-3.883250598563969],[102.34808060003974,-3.88694443975781]]]}},{"type":"Feature","properties":{"code":"1771051005","desa":"Padang Serai","kecamatan":"Kampung Melayu","kecCode":"177105","kabCode":"1771","province":"Bengkulu"},"geometry":{"type":"Polygon","coordinates":[[[102.34655370858684,-3.8937953860646775],[102.34200830024291,-3.900716662952777],[102.34686373007712,-3.913290598877739],[102.33202780044267,-3.904136106601514],[102.32969439967684,-3.9074361067928955],[102.3190008274263,-3.910276690116115],[102.31543606142515,-3.9016831265830825],[102.31765421766805,-3.901332601426863],[102.31655221900974,-3.8957849814060843],[102.32029959684898,-3.896088820956357],[102.32385055106215,-3.8919005280054106],[102.33087054743787,-3.895859936301297],[102.33988924389352,-3.891685139476337],[102.34655370858684,-3.8937953860646775]]]}},{"type":"Feature","properties":{"code":"1771051006","desa":"Muara Dua","kecamatan":"Kampung Melayu","kecCode":"177105","kabCode":"1771","province":"Bengkulu"},"geometry":{"type":"Polygon","coordinates":[[[102.30846061656428,-3.8499952107734106],[102.3140596913018,-3.8536086651669454],[102.31391719732083,-3.858008200772312],[102.3085937000393,-3.8566038959090476],[102.29998971155601,-3.860996830490712],[102.29115825574894,-3.8396332464512595],[102.29592559159282,-3.8399025817125523],[102.3000850855583,-3.8466568607921197],[102.30587828885199,-3.8507467787030687],[102.30846061656428,-3.8499952107734106]]]}},{"type":"Feature","properties":{"code":"1771061001","desa":"Kebun Tebeng","kecamatan":"Ratu Agung","kecCode":"177106","kabCode":"1771","province":"Bengkulu"},"geometry":{"type":"Polygon","coordinates":[[[102.28872676862551,-3.798176202587839],[102.28894565192034,-3.8053608855069934],[102.28487846167172,-3.8034292541693726],[102.28060371329082,-3.8046216976445453],[102.27829107157578,-3.8034366295094597],[102.27861699487846,-3.7999978855102423],[102.27685030459791,-3.8005321556501674],[102.28363492681046,-3.796230080474116],[102.28872676862551,-3.798176202587839]]]}},{"type":"Feature","properties":{"code":"1771061002","desa":"Tanah Patah","kecamatan":"Ratu Agung","kecCode":"177106","kabCode":"1771","province":"Bengkulu"},"geometry":{"type":"Polygon","coordinates":[[[102.2846062207006,-3.8153637901067112],[102.28305152580731,-3.8142538585298094],[102.27405265670478,-3.8220079678862553],[102.2722057675822,-3.81934861953879],[102.2810844180115,-3.810385163949355],[102.2758956967291,-3.803716048868834],[102.2889861438955,-3.8053171011138867],[102.2864544677995,-3.8059357699297314],[102.2846062207006,-3.8153637901067112]]]}},{"type":"Feature","properties":{"code":"1771061003","desa":"Nusa Indah","kecamatan":"Ratu Agung","kecCode":"177106","kabCode":"1771","province":"Bengkulu"},"geometry":{"type":"MultiPolygon","coordinates":[[[[102.18007245428036,-3.8380042091027504],[102.17927295608212,-3.838161254114185],[102.17927771529439,-3.8376425305545214],[102.18007245428036,-3.8380042091027504]]],[[[102.27709756689926,-3.8048471918554996],[102.28078868584923,-3.81190125903943],[102.2722057675822,-3.81934861953879],[102.26871272431282,-3.8145770658796194],[102.2702898770762,-3.8102063319620414],[102.27709756689926,-3.8048471918554996]]]]}},{"type":"Feature","properties":{"code":"1771061004","desa":"Kebun Beler","kecamatan":"Ratu Agung","kecCode":"177106","kabCode":"1771","province":"Bengkulu"},"geometry":{"type":"Polygon","coordinates":[[[102.27289825005425,-3.8079918809283066],[102.26995229136521,-3.811412606110931],[102.26858444501619,-3.809869082597824],[102.26932004908105,-3.806583351050043],[102.26595950922405,-3.8031467681217364],[102.2674409201624,-3.7999393099674843],[102.27289825005425,-3.8079918809283066]]]}},{"type":"Feature","properties":{"code":"1771061005","desa":"Kebun Kenanga","kecamatan":"Ratu Agung","kecCode":"177106","kabCode":"1771","province":"Bengkulu"},"geometry":{"type":"Polygon","coordinates":[[[102.27640134864339,-3.803425783685548],[102.27298623073,-3.8080630415837486],[102.26840434228659,-3.8023144221866207],[102.26844392324851,-3.7987898882602407],[102.27640134864339,-3.803425783685548]]]}},{"type":"Feature","properties":{"code":"1771061006","desa":"Sawah Lebar","kecamatan":"Ratu Agung","kecCode":"177106","kabCode":"1771","province":"Bengkulu"},"geometry":{"type":"Polygon","coordinates":[[[102.28872676862551,-3.798176202587839],[102.28363492681046,-3.796230080474116],[102.27686469464999,-3.800572916522545],[102.27681105728453,-3.7971774245177725],[102.2726504076902,-3.7985396330154524],[102.27401189043643,-3.794844308839553],[102.28085082000938,-3.794397317004774],[102.28735413608455,-3.790803727735873],[102.29226857133754,-3.7939390899397565],[102.28872676862551,-3.798176202587839]]]}},{"type":"Feature","properties":{"code":"1771061007","desa":"Sawah Lebar Baru","kecamatan":"Ratu Agung","kecCode":"177106","kabCode":"1771","province":"Bengkulu"},"geometry":{"type":"Polygon","coordinates":[[[102.2873195445614,-3.7908238509659693],[102.28085082000938,-3.794397317004774],[102.2700482975909,-3.793551713264069],[102.2726990484224,-3.7881646770870683],[102.28225780305524,-3.784234387040414],[102.2873195445614,-3.7908238509659693]]]}},{"type":"Feature","properties":{"code":"1771061008","desa":"Lempuing","kecamatan":"Ratu Agung","kecCode":"177106","kabCode":"1771","province":"Bengkulu"},"geometry":{"type":"Polygon","coordinates":[[[102.27862400869111,-3.8174504420819124],[102.28413519987963,-3.8272868956608987],[102.2900313512659,-3.831096154946741],[102.28893472605681,-3.8324788589938397],[102.29329085408972,-3.8385948604396005],[102.28840338770623,-3.8382527781187217],[102.2754749264268,-3.8241472868583717],[102.27862400869111,-3.8174504420819124]]]}},{"type":"Feature","properties":{"code":"1771071001","desa":"Padang Jati","kecamatan":"Ratu Samban","kecCode":"177107","kabCode":"1771","province":"Bengkulu"},"geometry":{"type":"Polygon","coordinates":[[[102.27705006830602,-3.800554540675174],[102.27861699487846,-3.7999978855102423],[102.27843201332682,-3.8032818804671753],[102.26601143338098,-3.797306625619422],[102.2700482975909,-3.793551713264069],[102.27401189043643,-3.794844308839553],[102.2726504076902,-3.7985396330154524],[102.27705495342342,-3.797376706189086],[102.27705006830602,-3.800554540675174]]]}},{"type":"Feature","properties":{"code":"1771071002","desa":"Kebun Dahri","kecamatan":"Ratu Samban","kecCode":"177107","kabCode":"1771","province":"Bengkulu"},"geometry":{"type":"Polygon","coordinates":[[[102.26304724813207,-3.7931066360859784],[102.26645439175684,-3.7942938715872194],[102.26507776442736,-3.796186670198989],[102.26304724813207,-3.7931066360859784]]]}},{"type":"Feature","properties":{"code":"1771071003","desa":"Belakang Pondok","kecamatan":"Ratu Samban","kecCode":"177107","kabCode":"1771","province":"Bengkulu"},"geometry":{"type":"Polygon","coordinates":[[[102.2713159396789,-3.7892963578682775],[102.26982582600112,-3.7940375746968793],[102.26601143338098,-3.797306625619422],[102.26595729869045,-3.7925013437862694],[102.2713159396789,-3.7892963578682775]]]}},{"type":"Feature","properties":{"code":"1771071004","desa":"Penurunan","kecamatan":"Ratu Samban","kecCode":"177107","kabCode":"1771","province":"Bengkulu"},"geometry":{"type":"Polygon","coordinates":[[[102.26995229136521,-3.811412606110931],[102.26816279337827,-3.814540430197465],[102.26112885481285,-3.8072565223791677],[102.26355547930201,-3.802289261853722],[102.26170554417558,-3.8008242626449897],[102.26601143338098,-3.797306625619422],[102.26844392324851,-3.7987898882602407],[102.26595950922405,-3.8031467681217364],[102.26932004908105,-3.806583351050043],[102.26800039380316,-3.8086071242265165],[102.26995229136521,-3.811412606110931]]]}},{"type":"Feature","properties":{"code":"1771071005","desa":"Anggut Bawah","kecamatan":"Ratu Samban","kecCode":"177107","kabCode":"1771","province":"Bengkulu"},"geometry":{"type":"Polygon","coordinates":[[[102.2544770139031,-3.8006206201610944],[102.26355547930201,-3.802289261853722],[102.26242089281003,-3.806044051901303],[102.26112885481285,-3.8072565223791677],[102.2544770139031,-3.8006206201610944]]]}},{"type":"Feature","properties":{"code":"1771071006","desa":"Anggut Atas","kecamatan":"Ratu Samban","kecCode":"177107","kabCode":"1771","province":"Bengkulu"},"geometry":{"type":"Polygon","coordinates":[[[102.25560037955391,-3.799666876541719],[102.25952521521657,-3.7966766181512157],[102.26177486931482,-3.799152975146872],[102.26601143338098,-3.797306625619422],[102.26165804288443,-3.801437953713358],[102.25560037955391,-3.799666876541719]]]}},{"type":"Feature","properties":{"code":"1771071007","desa":"Anggut Dalam","kecamatan":"Ratu Samban","kecCode":"177107","kabCode":"1771","province":"Bengkulu"},"geometry":{"type":"Polygon","coordinates":[[[102.264600163267,-3.7954596618550105],[102.26601143338098,-3.797306625619422],[102.26177486931482,-3.799152975146872],[102.26041757021476,-3.7967804421833584],[102.264600163267,-3.7954596618550105]]]}},{"type":"Feature","properties":{"code":"1771071008","desa":"Kebun Geran","kecamatan":"Ratu Samban","kecCode":"177107","kabCode":"1771","province":"Bengkulu"},"geometry":{"type":"Polygon","coordinates":[[[102.25897900927392,-3.796843462175686],[102.26256247128106,-3.7926389139788075],[102.264600163267,-3.7954596618550105],[102.26251268481265,-3.7965341682372142],[102.25897900927392,-3.796843462175686]]]}},{"type":"Feature","properties":{"code":"1771071009","desa":"Pengantungan","kecamatan":"Ratu Samban","kecCode":"177107","kabCode":"1771","province":"Bengkulu"},"geometry":{"type":"Polygon","coordinates":[[[102.26256247128106,-3.7926389139788075],[102.26460737672909,-3.7883723188560787],[102.2660059753955,-3.788925931614512],[102.26780085132827,-3.791281821724241],[102.26256247128106,-3.7926389139788075]]]}},{"type":"Feature","properties":{"code":"1771081001","desa":"Kampung Kelawi","kecamatan":"Sungai Serut","kecCode":"177108","kabCode":"1771","province":"Bengkulu"},"geometry":{"type":"Polygon","coordinates":[[[102.26460737672909,-3.7883723188560787],[102.26441138477766,-3.780893438018382],[102.26954185966918,-3.776706833094948],[102.27254425441384,-3.781337564613065],[102.26694558976719,-3.782804393042845],[102.26460737672909,-3.7883723188560787]]]}},{"type":"Feature","properties":{"code":"1771081002","desa":"Sukamerindu","kecamatan":"Sungai Serut","kecCode":"177108","kabCode":"1771","province":"Bengkulu"},"geometry":{"type":"Polygon","coordinates":[[[102.27254425441384,-3.781337564613065],[102.27432536532342,-3.784878614588802],[102.26903119583307,-3.7918122238799827],[102.26563671915932,-3.7888589330214644],[102.26694558976719,-3.782804393042845],[102.27254425441384,-3.781337564613065]]]}},{"type":"Feature","properties":{"code":"1771081003","desa":"Semarang","kecamatan":"Sungai Serut","kecCode":"177108","kabCode":"1771","province":"Bengkulu"},"geometry":{"type":"Polygon","coordinates":[[[102.29188923460055,-3.78076688362154],[102.29856024006305,-3.779838685244878],[102.30336021769993,-3.786351785037647],[102.3078506585811,-3.786854832514738],[102.30315703476941,-3.7931954225541724],[102.29751753370726,-3.7962574315554485],[102.28819591141223,-3.792004421591589],[102.29290052044273,-3.7874614935826365],[102.29188923460055,-3.78076688362154]]]}},{"type":"Feature","properties":{"code":"1771081004","desa":"Tanjung Agung","kecamatan":"Sungai Serut","kecCode":"177108","kabCode":"1771","province":"Bengkulu"},"geometry":{"type":"Polygon","coordinates":[[[102.27455142970479,-3.7834975904752435],[102.28024595668562,-3.7817423314791014],[102.28420071099407,-3.7818892447283985],[102.28335686272906,-3.785448990710062],[102.27291454756835,-3.7879845761563025],[102.27455142970479,-3.7834975904752435]]]}},{"type":"Feature","properties":{"code":"1771081005","desa":"Tanjung Jaya","kecamatan":"Sungai Serut","kecCode":"177108","kabCode":"1771","province":"Bengkulu"},"geometry":{"type":"Polygon","coordinates":[[[102.28420071099407,-3.7818892447283985],[102.29180684321129,-3.7837180997441555],[102.29290052044273,-3.7874614935826365],[102.28819591141223,-3.792004421591589],[102.28301202578444,-3.7855543867572057],[102.28420071099407,-3.7818892447283985]]]}},{"type":"Feature","properties":{"code":"1771081006","desa":"Surabaya","kecamatan":"Sungai Serut","kecCode":"177108","kabCode":"1771","province":"Bengkulu"},"geometry":{"type":"Polygon","coordinates":[[[102.33497519085245,-3.7850837049811603],[102.33158091202954,-3.7923357111485663],[102.33344132695571,-3.7988852199943453],[102.32307679056152,-3.800249773024598],[102.32150182584864,-3.7939174711370995],[102.31462280359955,-3.792950219700626],[102.30326640042409,-3.7985500498627127],[102.29751753370726,-3.7962574315554485],[102.30614087829895,-3.790154472977317],[102.30690058599333,-3.7858790384181935],[102.31228236833668,-3.784206900161368],[102.31004661056267,-3.786299332978725],[102.31461514767095,-3.7877631486796566],[102.31475834132448,-3.7832848549461424],[102.32009118975668,-3.784869316498108],[102.3221306947758,-3.773436576181614],[102.32975054525149,-3.7734056538923886],[102.33136653433814,-3.7802968520552898],[102.32567598955535,-3.779937425409511],[102.3255228628899,-3.782281006498427],[102.32844603275828,-3.7857747899060215],[102.33497519085245,-3.7850837049811603]]]}},{"type":"Feature","properties":{"code":"1771081007","desa":"Pasar Bengkulu","kecamatan":"Sungai Serut","kecCode":"177108","kabCode":"1771","province":"Bengkulu"},"geometry":{"type":"Polygon","coordinates":[[[102.26441138477766,-3.780893438018382],[102.26114332310594,-3.780714502608997],[102.26165474956706,-3.7666532858722133],[102.26795859960976,-3.7656964944504776],[102.26317832971621,-3.768257270806482],[102.26599042881531,-3.7779597505817764],[102.26441138477766,-3.780893438018382]]]}},{"type":"Feature","properties":{"code":"1771091001","desa":"Panorama","kecamatan":"Singaran Pati","kecCode":"177109","kabCode":"1771","province":"Bengkulu"},"geometry":{"type":"Polygon","coordinates":[[[102.29901150727528,-3.82052044785478],[102.29049852029057,-3.8143518117876405],[102.29189252701855,-3.8115695180227736],[102.28818276422322,-3.8023664389737086],[102.29226857133754,-3.7939390899397565],[102.29644928570605,-3.795714161899866],[102.29802573160231,-3.8014968350255756],[102.29696158990548,-3.808088130870147],[102.30106947987262,-3.816105659747473],[102.29901150727528,-3.82052044785478]]]}},{"type":"Feature","properties":{"code":"1771091002","desa":"Jembatan Kecil","kecamatan":"Singaran Pati","kecCode":"177109","kabCode":"1771","province":"Bengkulu"},"geometry":{"type":"Polygon","coordinates":[[[102.29221507066904,-3.8161510125582017],[102.28647938801338,-3.8185676536707827],[102.2846062207006,-3.8153637901067112],[102.2864544677995,-3.8059357699297314],[102.2892938433363,-3.8058056937878453],[102.29165548281433,-3.8105971449472507],[102.29049852029057,-3.8143518117876405],[102.29221507066904,-3.8161510125582017]]]}},{"type":"Feature","properties":{"code":"1771091003","desa":"Dusun Besar","kecamatan":"Singaran Pati","kecCode":"177109","kabCode":"1771","province":"Bengkulu"},"geometry":{"type":"Polygon","coordinates":[[[102.31987308527471,-3.793531996527584],[102.31901945598315,-3.807588490024962],[102.31507730297523,-3.809801416707804],[102.30969226238807,-3.8087501308208114],[102.30675675921712,-3.8113702768210005],[102.30520750522224,-3.809108093370403],[102.30170930074371,-3.816585496621975],[102.29959311682892,-3.814884770716012],[102.29644928570605,-3.795714161899866],[102.30326640042409,-3.7985500498627127],[102.31171034375738,-3.793020413584932],[102.31987308527471,-3.793531996527584]]]}},{"type":"Feature","properties":{"code":"1771091004","desa":"Padang Nangka","kecamatan":"Singaran Pati","kecCode":"177109","kabCode":"1771","province":"Bengkulu"},"geometry":{"type":"Polygon","coordinates":[[[102.30170930074371,-3.816585496621975],[102.30422296791566,-3.8097790038038695],[102.30973106813433,-3.810778186568842],[102.30849743301019,-3.8175306418233124],[102.30474625193801,-3.819570457106334],[102.30170930074371,-3.816585496621975]]]}},{"type":"Feature","properties":{"code":"1771091005","desa":"Timur Indah","kecamatan":"Singaran Pati","kecCode":"177109","kabCode":"1771","province":"Bengkulu"},"geometry":{"type":"Polygon","coordinates":[[[102.31507730297523,-3.809801416707804],[102.31667486585246,-3.8142409568557154],[102.3073378930294,-3.8217075754374057],[102.30474625193801,-3.819570457106334],[102.30933338163032,-3.816600195141498],[102.30969226238807,-3.8087501308208114],[102.31507730297523,-3.809801416707804]]]}},{"type":"Feature","properties":{"code":"1771091006","desa":"Lingkar Timur","kecamatan":"Singaran Pati","kecCode":"177109","kabCode":"1771","province":"Bengkulu"},"geometry":{"type":"Polygon","coordinates":[[[102.3067781756723,-3.8259849786124627],[102.29901150727528,-3.82052044785478],[102.30106947987262,-3.816105659747473],[102.30849791684545,-3.8227326991467967],[102.3067781756723,-3.8259849786124627]]]}}]}