{"type":"FeatureCollection","features":[{"type":"Feature","properties":{"code":"1812011001","desa":"Mulyo Asri","kecamatan":"Tulang Bawang Tengah","kecCode":"181201"},"geometry":{"type":"Polygon","coordinates":[[[105.16784079521659,-4.6089378186896495],[105.17217693581699,-4.626520632167424],[105.18150391897075,-4.635007592763328],[105.1725217538759,-4.64716929834896],[105.15943925132046,-4.639459416751216],[105.13189363758136,-4.638671502720988],[105.14422712987817,-4.613712314930673],[105.16784079521659,-4.6089378186896495]]]}},{"type":"Feature","properties":{"code":"1812011007","desa":"Panaragan Jaya","kecamatan":"Tulang Bawang Tengah","kecCode":"181201"},"geometry":{"type":"Polygon","coordinates":[[[105.10300286199252,-4.543589466313124],[105.08563148270683,-4.5407207288138975],[105.08241672385276,-4.507063361155621],[105.08843665882482,-4.497284857191042],[105.09733601344635,-4.4972667340531896],[105.09662656256585,-4.514408199841319],[105.10214906542711,-4.5135547890859025],[105.10257505539454,-4.522081439461645],[105.09790201976243,-4.522082074382988],[105.09705410206521,-4.535298583104116],[105.10300176931628,-4.535724110819588],[105.10300286199252,-4.543589466313124]]]}},{"type":"Feature","properties":{"code":"1812012002","desa":"Panaragan","kecamatan":"Tulang Bawang Tengah","kecCode":"181201"},"geometry":{"type":"Polygon","coordinates":[[[105.1215052196902,-4.623217156995622],[105.11902986363735,-4.618561832616769],[105.12289655093512,-4.619492333257892],[105.1215052196902,-4.623217156995622]]]}},{"type":"Feature","properties":{"code":"1812012002","desa":"Panaragan","kecamatan":"Tulang Bawang Tengah","kecCode":"181201"},"geometry":{"type":"Polygon","coordinates":[[[105.10386888843851,-4.5854715423665],[105.10494797237106,-4.583574444095967],[105.10490651272545,-4.585519263092135],[105.10386888843851,-4.5854715423665]]]}},{"type":"Feature","properties":{"code":"1812012002","desa":"Panaragan","kecamatan":"Tulang Bawang Tengah","kecCode":"181201"},"geometry":{"type":"Polygon","coordinates":[[[105.10358559569873,-4.571489751953731],[105.10622455461959,-4.565470240568657],[105.10572567370093,-4.571489446184224],[105.10358559569873,-4.571489751953731]]]}},{"type":"Feature","properties":{"code":"1812012002","desa":"Panaragan","kecamatan":"Tulang Bawang Tengah","kecCode":"181201"},"geometry":{"type":"Polygon","coordinates":[[[105.06825228471524,-4.540086234627996],[105.06256473107754,-4.53750871019745],[105.0682433742324,-4.537455636707014],[105.06825228471524,-4.540086234627996]]]}},{"type":"Feature","properties":{"code":"1812012002","desa":"Panaragan","kecamatan":"Tulang Bawang Tengah","kecCode":"181201"},"geometry":{"type":"Polygon","coordinates":[[[105.0780606650677,-4.538474654019704],[105.08523350122515,-4.536554087041147],[105.08563148270683,-4.5407207288138975],[105.08225657707942,-4.538474198962777],[105.0780606650677,-4.538474654019704]]]}},{"type":"Feature","properties":{"code":"1812012002","desa":"Panaragan","kecamatan":"Tulang Bawang Tengah","kecCode":"181201"},"geometry":{"type":"Polygon","coordinates":[[[105.13642025459114,-4.522054967017903],[105.13303659856025,-4.525366043259606],[105.13303599421583,-4.52200500518167],[105.13642025459114,-4.522054967017903]]]}},{"type":"Feature","properties":{"code":"1812012002","desa":"Panaragan","kecamatan":"Tulang Bawang Tengah","kecCode":"181201"},"geometry":{"type":"Polygon","coordinates":[[[105.01860764202911,-4.469333420810572],[105.04544695611219,-4.451252612247002],[105.06391008987877,-4.465085365211713],[105.05993733474025,-4.467003412289937],[105.12642386556898,-4.498656862003762],[105.125739607397,-4.515947252824625],[105.10593476967391,-4.515183741898142],[105.10678802394818,-4.4994214557140655],[105.10096559628526,-4.497259162660933],[105.08843665882482,-4.497284857191042],[105.07998517917275,-4.513165876368143],[105.05760111729779,-4.513202931134345],[105.04983163042544,-4.4910564377914834],[105.01860764202911,-4.469333420810572]]]}},{"type":"Feature","properties":{"code":"1812012003","desa":"Bandar Dewa","kecamatan":"Tulang Bawang Tengah","kecCode":"181201"},"geometry":{"type":"Polygon","coordinates":[[[105.11150978934535,-4.625316642296425],[105.11253079326156,-4.625486426204692],[105.11162197167671,-4.625742687122105],[105.11150978934535,-4.625316642296425]]]}},{"type":"Feature","properties":{"code":"1812012003","desa":"Bandar Dewa","kecamatan":"Tulang Bawang Tengah","kecCode":"181201"},"geometry":{"type":"Polygon","coordinates":[[[105.13718427183674,-4.622361658913714],[105.1348306039493,-4.62986891606013],[105.13192362457568,-4.628713861898868],[105.13316254141817,-4.624569411796938],[105.13718427183674,-4.622361658913714]]]}},{"type":"Feature","properties":{"code":"1812012003","desa":"Bandar Dewa","kecamatan":"Tulang Bawang Tengah","kecCode":"181201"},"geometry":{"type":"Polygon","coordinates":[[[105.11432998773881,-4.624503399760174],[105.11396152380536,-4.6250527937989006],[105.11383621766736,-4.62463273486077],[105.11432998773881,-4.624503399760174]]]}},{"type":"Feature","properties":{"code":"1812012003","desa":"Bandar Dewa","kecamatan":"Tulang Bawang Tengah","kecCode":"181201"},"geometry":{"type":"Polygon","coordinates":[[[105.12289202105,-4.621555389720593],[105.12721176970744,-4.625248747978656],[105.12536223388001,-4.626095320289219],[105.12289202105,-4.621555389720593]]]}},{"type":"Feature","properties":{"code":"1812012003","desa":"Bandar Dewa","kecamatan":"Tulang Bawang Tengah","kecCode":"181201"},"geometry":{"type":"Polygon","coordinates":[[[105.10455126972539,-4.612759694564565],[105.09331568507088,-4.615338862056424],[105.09315967158165,-4.611672741565205],[105.10455126972539,-4.612759694564565]]]}},{"type":"Feature","properties":{"code":"1812012003","desa":"Bandar Dewa","kecamatan":"Tulang Bawang Tengah","kecCode":"181201"},"geometry":{"type":"Polygon","coordinates":[[[105.1176449697396,-4.4955212857612],[105.10028345601677,-4.489118996833385],[105.06671853143513,-4.469519699184399],[105.08641540644588,-4.471213346526595],[105.08816965370659,-4.4604772021802415],[105.09998459241505,-4.454901934301747],[105.10751843173027,-4.474938330343643],[105.1140973619038,-4.476645623998522],[105.1176449697396,-4.4955212857612]]]}},{"type":"Feature","properties":{"code":"1812012004","desa":"Menggala Mas","kecamatan":"Tulang Bawang Tengah","kecCode":"181201"},"geometry":{"type":"Polygon","coordinates":[[[105.16899084555115,-4.598296767756987],[105.15758381234313,-4.587939660672939],[105.14912018734684,-4.5936900391441196],[105.14758978224273,-4.5848287510353956],[105.1629131597146,-4.583036317663172],[105.1616376458607,-4.578773267667831],[105.17148250541332,-4.575242436688466],[105.16899084555115,-4.598296767756987]]]}},{"type":"Feature","properties":{"code":"1812012004","desa":"Menggala Mas","kecamatan":"Tulang Bawang Tengah","kecCode":"181201"},"geometry":{"type":"Polygon","coordinates":[[[105.14888109268831,-4.564944496901137],[105.15299779601156,-4.568390429181389],[105.14948793002401,-4.56839116033023],[105.14888109268831,-4.564944496901137]]]}},{"type":"Feature","properties":{"code":"1812012004","desa":"Menggala Mas","kecamatan":"Tulang Bawang Tengah","kecCode":"181201"},"geometry":{"type":"Polygon","coordinates":[[[105.11879154599313,-4.551288725118885],[105.12331276617131,-4.555902667193814],[105.1187922240819,-4.556138061141877],[105.11879154599313,-4.551288725118885]]]}},{"type":"Feature","properties":{"code":"1812012004","desa":"Menggala Mas","kecamatan":"Tulang Bawang Tengah","kecCode":"181201"},"geometry":{"type":"Polygon","coordinates":[[[105.05993733474025,-4.467003412289937],[105.06933435979295,-4.455149809940419],[105.09967286940747,-4.445842002141064],[105.10990277819069,-4.45432621890538],[105.1140973619038,-4.476645623998522],[105.10751843173027,-4.474938330343643],[105.09998459241505,-4.454901934301747],[105.08816965370659,-4.4604772021802415],[105.08641540644588,-4.471213346526595],[105.05993733474025,-4.467003412289937]]]}},{"type":"Feature","properties":{"code":"1812012005","desa":"Penumangan","kecamatan":"Tulang Bawang Tengah","kecCode":"181201"},"geometry":{"type":"Polygon","coordinates":[[[105.18435181108724,-4.473471118802586],[105.17520848838107,-4.529005696703083],[105.15822870089391,-4.531877267966085],[105.15356392373616,-4.49058250946289],[105.13456448736126,-4.495403690410565],[105.13677784572103,-4.516916282220843],[105.125739607397,-4.515947252824625],[105.12642386556898,-4.498656862003762],[105.1176449697396,-4.4955212857612],[105.10990277819069,-4.45432621890538],[105.11939532563383,-4.448753274875071],[105.11227670420656,-4.436111205412341],[105.12194304473574,-4.436621917811268],[105.12650949991354,-4.451271328937423],[105.13436573089383,-4.434848009573902],[105.14754663906619,-4.453910975836796],[105.16453515267523,-4.45601397119155],[105.19640142788363,-4.466563827271523],[105.18435181108724,-4.473471118802586]]]}},{"type":"Feature","properties":{"code":"1812012006","desa":"Penumangan Baru","kecamatan":"Tulang Bawang Tengah","kecCode":"181201"},"geometry":{"type":"Polygon","coordinates":[[[105.13656499327988,-4.524156396652981],[105.13456448736126,-4.495403690410565],[105.15400518419192,-4.490738001345146],[105.15822888165762,-4.532729935881455],[105.13656499327988,-4.524156396652981]]]}},{"type":"Feature","properties":{"code":"1812012008","desa":"Tirta Kencana","kecamatan":"Tulang Bawang Tengah","kecCode":"181201"},"geometry":{"type":"Polygon","coordinates":[[[105.15822888165762,-4.532729935881455],[105.16162432420326,-4.557517514139738],[105.12161360238588,-4.560640680637459],[105.12046350078998,-4.568423088061517],[105.10491194822787,-4.564988934201954],[105.11215384782189,-4.561206159050959],[105.11032047281161,-4.544337791287612],[105.13158083808524,-4.543838235877963],[105.13240697779986,-4.52550144788474],[105.15822888165762,-4.532729935881455]],[[105.1187922240819,-4.556138061141877],[105.12334078544892,-4.551293808986372],[105.11879154599313,-4.551288725118885],[105.1187922240819,-4.556138061141877]]]}},{"type":"Feature","properties":{"code":"1812012009","desa":"Pulung Kencana","kecamatan":"Tulang Bawang Tengah","kecCode":"181201"},"geometry":{"type":"Polygon","coordinates":[[[105.10513059679964,-4.565141079706961],[105.10358559569873,-4.571489751953731],[105.10622455461959,-4.565470240568657],[105.12479018411976,-4.571174436154881],[105.1158660756589,-4.588593074795992],[105.1087420538028,-4.588787600852342],[105.11914751024943,-4.589694058118583],[105.11490736328426,-4.596261807014205],[105.1219151243835,-4.60748451516403],[105.09315967158165,-4.611672741565205],[105.08739562970459,-4.5876081516813425],[105.09246782133293,-4.564329506312387],[105.10513059679964,-4.565141079706961]],[[105.10490651272545,-4.585519263092135],[105.10387457934841,-4.583586568755759],[105.10386888843851,-4.5854715423665],[105.10490651272545,-4.585519263092135]]]}},{"type":"Feature","properties":{"code":"1812012010","desa":"Mulya Kencana","kecamatan":"Tulang Bawang Tengah","kecCode":"181201"},"geometry":{"type":"Polygon","coordinates":[[[105.16181266472273,-4.54478562938439],[105.17550825310342,-4.546527555031882],[105.17546844281445,-4.559835166874825],[105.17022563900213,-4.56094377914638],[105.1746936588853,-4.5650292831848285],[105.1629131597146,-4.583036317663172],[105.14984956270723,-4.584984251011588],[105.14254341644556,-4.567353990202045],[105.14782129471705,-4.566205902189406],[105.14624986344052,-4.558018161326342],[105.16162432420326,-4.557517514139738],[105.16181266472273,-4.54478562938439]],[[105.15265615885471,-4.564628011084259],[105.14948793002401,-4.56839116033023],[105.15299779601156,-4.568390429181389],[105.15265615885471,-4.564628011084259]]]}},{"type":"Feature","properties":{"code":"1812012010","desa":"Mulya Kencana","kecamatan":"Tulang Bawang Tengah","kecCode":"181201"},"geometry":{"type":"Polygon","coordinates":[[[105.15822245959889,-4.53187726976474],[105.16182415625984,-4.53900976142842],[105.15890372932368,-4.543000965255275],[105.15822245959889,-4.53187726976474]]]}},{"type":"Feature","properties":{"code":"1812012011","desa":"Candra Kencana","kecamatan":"Tulang Bawang Tengah","kecCode":"181201"},"geometry":{"type":"Polygon","coordinates":[[[105.14422712987817,-4.613712314930673],[105.13076064378872,-4.628080350671998],[105.1207582104231,-4.583769589785192],[105.14675942021113,-4.580856284583373],[105.14912018734684,-4.5936900391441196],[105.13679368997684,-4.600140583894253],[105.14422712987817,-4.613712314930673]]]}},{"type":"Feature","properties":{"code":"1812012012","desa":"Tunas Asri","kecamatan":"Tulang Bawang Tengah","kecCode":"181201"},"geometry":{"type":"Polygon","coordinates":[[[105.1725217538759,-4.64716929834896],[105.16060371688809,-4.672832248807093],[105.14463987103329,-4.66491138086162],[105.14333218303386,-4.640050159818939],[105.15943925132046,-4.639459416751216],[105.1725217538759,-4.64716929834896]]]}},{"type":"Feature","properties":{"code":"1812012013","desa":"Wono Kerto","kecamatan":"Tulang Bawang Tengah","kecCode":"181201"},"geometry":{"type":"Polygon","coordinates":[[[105.18027777699785,-4.564861106365116],[105.19892044782044,-4.602775155919407],[105.1842270796161,-4.597937788973473],[105.17723897499877,-4.610525825369155],[105.16920234271402,-4.61067677297713],[105.17256463804766,-4.565229659331071],[105.18027777699785,-4.564861106365116]]]}},{"type":"Feature","properties":{"code":"1812012014","desa":"Panaragan Jaya Utama","kecamatan":"Tulang Bawang Tengah","kecCode":"181201"},"geometry":{"type":"Polygon","coordinates":[[[105.08241672385276,-4.507063361155621],[105.08523350122515,-4.536554087041147],[105.06256473107754,-4.53750871019745],[105.05760111729779,-4.513202931134345],[105.07998517917275,-4.513165876368143],[105.08241672385276,-4.507063361155621]]]}},{"type":"Feature","properties":{"code":"1812012015","desa":"Panaragan Jaya Indah","kecamatan":"Tulang Bawang Tengah","kecCode":"181201"},"geometry":{"type":"Polygon","coordinates":[[[105.10300286199252,-4.543589466313124],[105.10300176931628,-4.535724110819588],[105.09705410206521,-4.535298583104116],[105.09790201976243,-4.522082074382988],[105.10257505539454,-4.522081439461645],[105.10214906542711,-4.5135547890859025],[105.09662656256585,-4.514408199841319],[105.09733601344635,-4.4972667340531896],[105.10678802394818,-4.4994214557140655],[105.10593476967391,-4.515183741898142],[105.13677784572103,-4.516916282220843],[105.13158083808524,-4.543838235877963],[105.10300286199252,-4.543589466313124]]]}},{"type":"Feature","properties":{"code":"1812012016","desa":"Mulya Jaya","kecamatan":"Tulang Bawang Tengah","kecCode":"181201"},"geometry":{"type":"Polygon","coordinates":[[[105.1498455975963,-4.583376157074898],[105.1207582104231,-4.583769589785192],[105.12039973975625,-4.589251027797458],[105.10878085055589,-4.5899446479112],[105.1158660756589,-4.588593074795992],[105.12479018411976,-4.571174436154881],[105.12161360238588,-4.560640680637459],[105.14174645433546,-4.555572100691743],[105.1498455975963,-4.583376157074898]]]}},{"type":"Feature","properties":{"code":"1812012017","desa":"Tirta Makmur","kecamatan":"Tulang Bawang Tengah","kecCode":"181201"},"geometry":{"type":"Polygon","coordinates":[[[105.08976545121463,-4.544945508159599],[105.11032047281161,-4.544337791287612],[105.11215384782189,-4.561206159050959],[105.09246782133293,-4.564329506312387],[105.08976545121463,-4.544945508159599]]]}},{"type":"Feature","properties":{"code":"1812012018","desa":"Candra Mukti","kecamatan":"Tulang Bawang Tengah","kecCode":"181201"},"geometry":{"type":"Polygon","coordinates":[[[105.12726929034551,-4.620346439189233],[105.10809217941062,-4.622402697676631],[105.09331568507088,-4.615338862056424],[105.1219151243835,-4.60748451516403],[105.11490736328426,-4.596261807014205],[105.1196738456715,-4.59075955329388],[105.12877545602254,-4.6045036807691355],[105.12726929034551,-4.620346439189233]]]}},{"type":"Feature","properties":{"code":"1812012019","desa":"Candra Jaya","kecamatan":"Tulang Bawang Tengah","kecCode":"181201"},"geometry":{"type":"Polygon","coordinates":[[[105.16784079521659,-4.6089378186896495],[105.14422712987817,-4.613712314930673],[105.13679368997684,-4.600140583894253],[105.15758381234313,-4.587939660672939],[105.16899084555115,-4.598296767756987],[105.16784079521659,-4.6089378186896495]]]}},{"type":"Feature","properties":{"code":"1812021001","desa":"Daya Murni","kecamatan":"Tumijajar","kecCode":"181202"},"geometry":{"type":"Polygon","coordinates":[[[105.05626154833186,-4.617568005314487],[105.07851300337245,-4.628755811675016],[105.0792068788944,-4.63846465325471],[105.0884902323384,-4.642722606792058],[105.076605413609,-4.657343898815811],[105.05969334866916,-4.648783026538304],[105.05946692365967,-4.640303721870944],[105.04975238936133,-4.633795669972606],[105.04754348534362,-4.627980996270404],[105.05626154833186,-4.617568005314487]]]}},{"type":"Feature","properties":{"code":"1812022002","desa":"Daya Sakti","kecamatan":"Tumijajar","kecCode":"181202"},"geometry":{"type":"Polygon","coordinates":[[[105.05788377781413,-4.659103943104611],[105.03819390942145,-4.671783160863122],[105.02919148080223,-4.662580260778924],[105.0326857642367,-4.651506437192342],[105.04140687232933,-4.655045113857249],[105.05770255183135,-4.644792570048072],[105.07133758166411,-4.652461483029975],[105.07443977687427,-4.65919561999389],[105.05864272827932,-4.663155069658627],[105.05788377781413,-4.659103943104611]]]}},{"type":"Feature","properties":{"code":"1812022003","desa":"Margo Mulyo","kecamatan":"Tumijajar","kecCode":"181202"},"geometry":{"type":"Polygon","coordinates":[[[105.1598557399505,-4.673256926663264],[105.14322073994526,-4.678677493163527],[105.10683128673458,-4.641947412772799],[105.1348306039493,-4.62986891606013],[105.13189363758136,-4.638671502720988],[105.14333218303386,-4.640050159818939],[105.14463987103329,-4.66491138086162],[105.1598557399505,-4.673256926663264]]]}},{"type":"Feature","properties":{"code":"1812022004","desa":"Makarti","kecamatan":"Tumijajar","kecCode":"181202"},"geometry":{"type":"Polygon","coordinates":[[[105.08644684224805,-4.679548475772429],[105.06039601776207,-4.6963429255590485],[105.06021306687961,-4.681877737855781],[105.04617653561866,-4.6708945947096305],[105.05788377781413,-4.659103943104611],[105.05864272827932,-4.663155069658627],[105.072077435925,-4.65643594687635],[105.08836804325068,-4.659813954261957],[105.08644684224805,-4.679548475772429]]]}},{"type":"Feature","properties":{"code":"1812022005","desa":"Gunung Menanti","kecamatan":"Tumijajar","kecCode":"181202"},"geometry":{"type":"Polygon","coordinates":[[[105.144006866124,-4.67902451456114],[105.14221839606216,-4.706065732710721],[105.1253830010247,-4.726212825404055],[105.0836368538578,-4.699237505976532],[105.08921438083904,-4.69435758850745],[105.10299547136394,-4.699437396488939],[105.10317314682332,-4.6873293327653],[105.13597684565495,-4.687258938332235],[105.144006866124,-4.67902451456114]]]}},{"type":"Feature","properties":{"code":"1812022006","desa":"Daya Asri","kecamatan":"Tumijajar","kecCode":"181202"},"geometry":{"type":"Polygon","coordinates":[[[105.09315967158165,-4.611672741565205],[105.09662088244784,-4.6161086718345],[105.10534161732186,-4.642129422964214],[105.0792068788944,-4.63846465325471],[105.07929421925286,-4.6188836082458],[105.09315967158165,-4.611672741565205]]]}},{"type":"Feature","properties":{"code":"1812022007","desa":"Murni Jaya","kecamatan":"Tumijajar","kecCode":"181202"},"geometry":{"type":"Polygon","coordinates":[[[105.10809217941062,-4.622402697676631],[105.1215052196902,-4.623217156995622],[105.12114785429007,-4.619071517090567],[105.12631548736988,-4.618233601653973],[105.13076064378872,-4.628080350671998],[105.12222181658365,-4.637968418142064],[105.10534161732186,-4.642129422964214],[105.09662088244784,-4.6161086718345],[105.10809217941062,-4.622402697676631]],[[105.12702404522355,-4.623972208898931],[105.12536223388001,-4.626095320289219],[105.12686499562311,-4.625652234210138],[105.12702404522355,-4.623972208898931]],[[105.11396152380536,-4.6250527937989006],[105.11432998773881,-4.624503399760174],[105.11383621766736,-4.62463273486077],[105.11396152380536,-4.6250527937989006]],[[105.11162197167671,-4.625742687122105],[105.11239475281566,-4.625055596985694],[105.11150978934535,-4.625316642296425],[105.11162197167671,-4.625742687122105]]]}},{"type":"Feature","properties":{"code":"1812022008","desa":"Sumber Rejo","kecamatan":"Tumijajar","kecCode":"181202"},"geometry":{"type":"Polygon","coordinates":[[[105.08585706864886,-4.702164756066095],[105.07405624210196,-4.7070352756197975],[105.06732211232566,-4.695642845615031],[105.08644684224805,-4.679548475772429],[105.09035811793284,-4.663747599679273],[105.10511106442414,-4.667994672319131],[105.11131362022745,-4.68627577968736],[105.10306582892491,-4.6874426509403015],[105.10312516079762,-4.69937287462879],[105.0887822440054,-4.6943671788777035],[105.08349897789559,-4.696275997113087],[105.08585706864886,-4.702164756066095]]]}},{"type":"Feature","properties":{"code":"1812022009","desa":"Margo Dadi","kecamatan":"Tumijajar","kecCode":"181202"},"geometry":{"type":"Polygon","coordinates":[[[105.07474500497807,-4.658008355714312],[105.0890606300441,-4.647544837248518],[105.08460877457537,-4.641177363775009],[105.10683128673458,-4.641947412772799],[105.14290966534882,-4.6801757052348885],[105.13597684565495,-4.687258938332235],[105.1121529017351,-4.687221380844953],[105.10511106442414,-4.667994672319131],[105.07474500497807,-4.658008355714312]]]}},{"type":"Feature","properties":{"code":"1812022010","desa":"Gunung Timbul","kecamatan":"Tumijajar","kecCode":"181202"},"geometry":{"type":"Polygon","coordinates":[[[105.04272416239023,-4.624475704238481],[105.05806011598162,-4.64436376070639],[105.04140687232933,-4.655045113857249],[105.0326857642367,-4.651506437192342],[105.03369269825947,-4.630213735917331],[105.04272416239023,-4.624475704238481]]]}},{"type":"Feature","properties":{"code":"1812022010","desa":"Gunung Timbul","kecamatan":"Tumijajar","kecCode":"181202"},"geometry":{"type":"Polygon","coordinates":[[[105.02707498392346,-4.630476374826691],[105.02608658942461,-4.631705103248504],[105.02767773833699,-4.628351965714725],[105.02707498392346,-4.630476374826691]]]}},{"type":"Feature","properties":{"code":"1812032001","desa":"Karta","kecamatan":"Tulang Bawang Udik","kecCode":"181203"},"geometry":{"type":"Polygon","coordinates":[[[104.99921550768958,-4.6108532469420425],[104.98802183503972,-4.588529884831849],[104.9944378539239,-4.584505504115455],[104.98867296398618,-4.58469474665475],[104.99406863905648,-4.582285613082581],[104.98828381744424,-4.5825361282314905],[104.99153326764622,-4.576817679290154],[104.98453438915078,-4.556488417225569],[105.00465125924823,-4.542068752304952],[105.04056818257563,-4.5490484032878005],[105.04206630111895,-4.560682587246117],[105.05619132297124,-4.563266537332652],[105.04859425502094,-4.581944798805795],[105.063531881791,-4.591847141214652],[105.05483273424335,-4.598675543316606],[105.04091250870539,-4.595537263711975],[105.03188750890149,-4.585450622337074],[105.02600113314583,-4.60439471081623],[105.01545293630402,-4.6095787933902175],[105.01511972129816,-4.626921370970035],[104.9954919753744,-4.636472177384733],[104.98063094296373,-4.6296275748953954],[104.98583655441354,-4.615279625511958],[104.99921550768958,-4.6108532469420425]],[[105.01109305629954,-4.570700905326587],[105.00507559985907,-4.579571337741907],[105.00561063262465,-4.601069212146873],[105.02256604039053,-4.600287614055398],[105.0262412503335,-4.572773196927386],[105.01109305629954,-4.570700905326587]]]}},{"type":"Feature","properties":{"code":"1812032002","desa":"Karta Sari","kecamatan":"Tulang Bawang Udik","kecCode":"181203"},"geometry":{"type":"Polygon","coordinates":[[[105.07152331684766,-4.626230368782789],[105.06061368967012,-4.621943242137679],[105.0629574803035,-4.618152463020462],[105.07152331684766,-4.626230368782789]]]}},{"type":"Feature","properties":{"code":"1812032002","desa":"Karta Sari","kecamatan":"Tulang Bawang Udik","kecCode":"181203"},"geometry":{"type":"Polygon","coordinates":[[[105.0068466176773,-4.570821828168779],[105.0262412503335,-4.572773196927386],[105.02256604039053,-4.600287614055398],[105.00530599897274,-4.600274705186729],[105.0068466176773,-4.570821828168779]]]}},{"type":"Feature","properties":{"code":"1812032003","desa":"Karta Raharja","kecamatan":"Tulang Bawang Udik","kecCode":"181203"},"geometry":{"type":"Polygon","coordinates":[[[105.05828599869994,-4.602348238751312],[105.05209408277574,-4.626036971375593],[105.04272416239023,-4.624475704238481],[105.02789871075697,-4.63946699084149],[105.03065408511797,-4.624849170200772],[105.0257852850629,-4.61902327385879],[105.04120192133166,-4.611423298408209],[105.04386963427622,-4.596016564590482],[105.05828599869994,-4.602348238751312]]]}},{"type":"Feature","properties":{"code":"1812032004","desa":"Gunung Katun Tanjungan","kecamatan":"Tulang Bawang Udik","kecCode":"181203"},"geometry":{"type":"Polygon","coordinates":[[[104.98453438915078,-4.556488417225569],[104.9807227277717,-4.5350083826719825],[104.95115759914391,-4.516899100673106],[104.92631519908724,-4.515440381430126],[104.9261944444181,-4.507722217076368],[104.9334444442058,-4.488444438749684],[104.94455555639388,-4.480333328218886],[104.95044444395597,-4.488194438912366],[104.95752777778476,-4.483694439141853],[104.96738888898606,-4.475305551413683],[104.96558333270468,-4.45969443946673],[104.98561111056438,-4.446138884535986],[105.00952777818445,-4.449416662479629],[104.98965824862934,-4.45940747389606],[104.98892316167462,-4.4764682003495135],[104.99760178939111,-4.4996426979303275],[105.01882844177923,-4.515249136100609],[105.04578390959982,-4.517753575326494],[105.0394843816989,-4.523097428756992],[105.02333691406739,-4.521411157654276],[105.03476470362824,-4.532823184785702],[105.0492164680656,-4.532255115425366],[105.05814139670815,-4.546759104378189],[105.05514661472455,-4.5625675338771305],[105.04206630111895,-4.560682587246117],[105.04056818257563,-4.5490484032878005],[105.00465125924823,-4.542068752304952],[104.98453438915078,-4.556488417225569]]]}},{"type":"Feature","properties":{"code":"1812032005","desa":"Gunung Katun Malai","kecamatan":"Tulang Bawang Udik","kecCode":"181203"},"geometry":{"type":"Polygon","coordinates":[[[105.03476470362824,-4.532823184785702],[105.02333691406739,-4.521411157654276],[105.04663874128492,-4.520782375962004],[105.0492164680656,-4.532255115425366],[105.03476470362824,-4.532823184785702]]]}},{"type":"Feature","properties":{"code":"1812032005","desa":"Gunung Katun Malai","kecamatan":"Tulang Bawang Udik","kecCode":"181203"},"geometry":{"type":"Polygon","coordinates":[[[105.04578390959982,-4.517753575326494],[105.01882844177923,-4.515249136100609],[105.00640293984384,-4.506847781970197],[105.02334522829972,-4.503133465011906],[105.04090009985975,-4.5111222722412645],[105.04226231285553,-4.505833439333463],[105.04578390959982,-4.517753575326494]]]}},{"type":"Feature","properties":{"code":"1812032006","desa":"Gedung Ratu","kecamatan":"Tulang Bawang Udik","kecCode":"181203"},"geometry":{"type":"Polygon","coordinates":[[[105.00836111107645,-4.464444439074552],[105.03890023965442,-4.479274229921216],[105.0579296018697,-4.505276528761115],[105.0637715987803,-4.546837032432055],[105.05619132297124,-4.563266537332652],[105.05814139670815,-4.546759104378189],[105.04562262968068,-4.529200175994665],[105.04226231285553,-4.505833439333463],[105.04090009985975,-4.5111222722412645],[105.02334522829972,-4.503133465011906],[105.00631394922942,-4.507650010509418],[104.99126306723683,-4.486404788042568],[104.98965824862934,-4.45940747389606],[105.00888403267203,-4.449480909147247],[105.00836111107645,-4.464444439074552]]]}},{"type":"Feature","properties":{"code":"1812032007","desa":"Kagungan Ratu","kecamatan":"Tulang Bawang Udik","kecCode":"181203"},"geometry":{"type":"Polygon","coordinates":[[[105.08563148270683,-4.5407207288138975],[105.09323040595852,-4.5764206106207785],[105.08739562970459,-4.5876081516813425],[105.0824900383846,-4.577159768805621],[105.06354095055451,-4.591258259743572],[105.04859425502094,-4.581944798805795],[105.04865572278345,-4.571631889802934],[105.06259116125311,-4.552826073886874],[105.062716182306,-4.539047881891284],[105.08563148270683,-4.5407207288138975]]]}},{"type":"Feature","properties":{"code":"1812032008","desa":"Marga Kencana","kecamatan":"Tulang Bawang Udik","kecCode":"181203"},"geometry":{"type":"Polygon","coordinates":[[[105.0824900383846,-4.577159768805621],[105.09624983206413,-4.6080329082573055],[105.07315562593145,-4.630391691065654],[105.05626154833186,-4.617568005314487],[105.05483273424335,-4.598675543316606],[105.0824900383846,-4.577159768805621]]]}},{"type":"Feature","properties":{"code":"1812032009","desa":"Way Sido","kecamatan":"Tulang Bawang Udik","kecCode":"181203"},"geometry":{"type":"Polygon","coordinates":[[[105.03639632293202,-4.669779355334008],[105.01637350123615,-4.651474138940424],[105.00181226592338,-4.651492418560266],[105.0109812292004,-4.638687278628295],[105.00700470500315,-4.630940183084331],[105.01511972129816,-4.626921370970035],[105.01545293630402,-4.6095787933902175],[105.02600113314583,-4.60439471081623],[105.03188750890149,-4.585450622337074],[105.04416719026369,-4.5967312378332945],[105.04120192133166,-4.611423298408209],[105.0257852850629,-4.61902327385879],[105.03362236857748,-4.659046285769677],[105.02919148080223,-4.662580260778924],[105.03639632293202,-4.669779355334008]]]}},{"type":"Feature","properties":{"code":"1812042002","desa":"Toto Mulyo","kecamatan":"Gunung Terang","kecCode":"181204"},"geometry":{"type":"Polygon","coordinates":[[[105.06949698689645,-4.297942815298126],[105.0640197945779,-4.327128533413841],[105.04816782528495,-4.329913692418814],[105.04776447395136,-4.31679507760036],[105.03755002541338,-4.316435963918622],[105.03684656131982,-4.311000838293732],[105.04783696290559,-4.305122096889159],[105.0478897081436,-4.298886792280055],[105.06949698689645,-4.297942815298126]]]}},{"type":"Feature","properties":{"code":"1812042006","desa":"Setia Bumi","kecamatan":"Gunung Terang","kecCode":"181204"},"geometry":{"type":"Polygon","coordinates":[[[105.06655510933085,-4.344860817812697],[105.06949487438902,-4.313813358272592],[105.10645827582879,-4.3195717083344],[105.10742503443781,-4.34465057520428],[105.06655510933085,-4.344860817812697]]]}},{"type":"Feature","properties":{"code":"1812042007","desa":"Gunung Terang","kecamatan":"Gunung Terang","kecCode":"181204"},"geometry":{"type":"Polygon","coordinates":[[[105.09187147189094,-4.3582092831580725],[105.09219360275262,-4.371390753392912],[105.10745061925076,-4.378928064982624],[105.10832321074764,-4.394376921246168],[105.0894994803168,-4.3923881622741865],[105.08540937534245,-4.408283815219578],[105.07883430955582,-4.405586099095726],[105.07841431267047,-4.377325693432172],[105.08472337068707,-4.374477841788084],[105.0854305561753,-4.357728907589699],[105.09187147189094,-4.3582092831580725]]]}},{"type":"Feature","properties":{"code":"1812042008","desa":"Gunung Agung","kecamatan":"Gunung Terang","kecCode":"181204"},"geometry":{"type":"Polygon","coordinates":[[[105.10832321074764,-4.394376921246168],[105.10878892287052,-4.402957250356088],[105.10150963306319,-4.404796738056375],[105.09694855043536,-4.396057508633623],[105.10832321074764,-4.394376921246168]]]}},{"type":"Feature","properties":{"code":"1812042008","desa":"Gunung Agung","kecamatan":"Gunung Terang","kecCode":"181204"},"geometry":{"type":"Polygon","coordinates":[[[105.12805885822979,-4.280599159431336],[105.12390150285215,-4.299549543164658],[105.11300694831208,-4.3045880398886025],[105.11307920614053,-4.295039466490607],[105.1062584482688,-4.301442943422836],[105.08930324285045,-4.301188862462039],[105.0866498552067,-4.296742196086139],[105.09213936643869,-4.294610943133452],[105.0851255816803,-4.28695837892699],[105.09503642898805,-4.272193240342237],[105.09883329022419,-4.280423652237588],[105.12805885822979,-4.280599159431336]]]}},{"type":"Feature","properties":{"code":"1812042011","desa":"Kagungan Jaya","kecamatan":"Gunung Terang","kecCode":"181204"},"geometry":{"type":"Polygon","coordinates":[[[105.06888892378485,-4.216954898224564],[105.08762940307456,-4.217348866930897],[105.07823255788627,-4.226316052008958],[105.07719662972073,-4.237263096368008],[105.06597459874875,-4.235867716376677],[105.06226822100166,-4.206030598619293],[105.06888892378485,-4.216954898224564]]]}},{"type":"Feature","properties":{"code":"1812042011","desa":"Kagungan Jaya","kecamatan":"Gunung Terang","kecCode":"181204"},"geometry":{"type":"Polygon","coordinates":[[[105.03207514615114,-4.197842632026564],[105.03637035770589,-4.217660727534407],[105.03407927633758,-4.2267071150056665],[105.02828244787672,-4.222847837226325],[105.03207514615114,-4.197842632026564]]]}},{"type":"Feature","properties":{"code":"1812042012","desa":"Terang Mulya","kecamatan":"Gunung Terang","kecCode":"181204"},"geometry":{"type":"Polygon","coordinates":[[[105.05491030976303,-4.4183424193303225],[105.05702659799914,-4.4066490707734145],[105.04849115044628,-4.407599588524604],[105.04856281112488,-4.400751175607874],[105.04155078184318,-4.404252702178356],[105.04110179441231,-4.383894400105728],[105.04687727656511,-4.378163498252085],[105.07841431267047,-4.377325693432172],[105.07883430955582,-4.405586099095726],[105.07366669266378,-4.40352695558325],[105.05491030976303,-4.4183424193303225]]]}},{"type":"Feature","properties":{"code":"1812042013","desa":"Terang Bumi Agung","kecamatan":"Gunung Terang","kecCode":"181204"},"geometry":{"type":"Polygon","coordinates":[[[105.06949487438902,-4.313813358272592],[105.06949698689645,-4.297942815298126],[105.09749013476198,-4.303049079535458],[105.09846328665141,-4.319514601384515],[105.06949487438902,-4.313813358272592]]]}},{"type":"Feature","properties":{"code":"1812042015","desa":"Setia Agung","kecamatan":"Gunung Terang","kecCode":"181204"},"geometry":{"type":"Polygon","coordinates":[[[105.10742503443781,-4.34465057520428],[105.10645827582879,-4.3195717083344],[105.09846328665141,-4.319514601384515],[105.09749013476198,-4.303049079535458],[105.11307920614053,-4.295039466490607],[105.11575054335293,-4.314068618244621],[105.11039866166895,-4.319057743986954],[105.11226021693551,-4.344654391927034],[105.10742503443781,-4.34465057520428]]]}},{"type":"Feature","properties":{"code":"1812042017","desa":"Mulyo Jadi","kecamatan":"Gunung Terang","kecCode":"181204"},"geometry":{"type":"Polygon","coordinates":[[[105.03755002541338,-4.316435963918622],[105.04776447395136,-4.31679507760036],[105.04816782528495,-4.329913692418814],[105.06626728490734,-4.3251881831489465],[105.06655112623355,-4.345453258800384],[105.03982157260752,-4.343954913629464],[105.03755002541338,-4.316435963918622]]]}},{"type":"Feature","properties":{"code":"1812042020","desa":"Terang Makmur","kecamatan":"Gunung Terang","kecCode":"181204"},"geometry":{"type":"Polygon","coordinates":[[[105.08482991067187,-4.348219636363742],[105.09188496981555,-4.343399467153417],[105.10175895121466,-4.3461220549277595],[105.09318693632811,-4.350475663955027],[105.0932562111053,-4.358273166499527],[105.0854305561753,-4.357728907589699],[105.08482991067187,-4.348219636363742]]]}},{"type":"Feature","properties":{"code":"1812052001","desa":"Tunas Jaya","kecamatan":"Gunung Agung","kecCode":"181205"},"geometry":{"type":"Polygon","coordinates":[[[105.04523985573479,-4.237914987039571],[105.07719662972073,-4.237263096368008],[105.07695718792394,-4.249394211514142],[105.0423851683409,-4.254415629213133],[105.03996031191893,-4.244186295107379],[105.04523985573479,-4.237914987039571]]]}},{"type":"Feature","properties":{"code":"1812052002","desa":"Mekar Jaya","kecamatan":"Gunung Agung","kecCode":"181205"},"geometry":{"type":"Polygon","coordinates":[[[105.01477656518637,-4.172359089122282],[105.03288115634035,-4.140588736536064],[105.04936938968562,-4.14168551912537],[105.02828232466958,-4.219204714198428],[105.03407927633758,-4.2267071150056665],[105.0363116238824,-4.217892640206777],[105.04294477058475,-4.219354130260973],[105.0462963154227,-4.237727695129742],[105.03996031191893,-4.244186295107379],[105.0423851683409,-4.254415629213133],[105.04735368972108,-4.2538834239165855],[105.04757604260031,-4.2884648512712795],[105.01936950270043,-4.288099066418532],[105.00826010282155,-4.308699715997192],[104.9981909316662,-4.308714080868243],[104.9855555558443,-4.257027773045708],[104.95444444405592,-4.248833328636275],[104.94191666672083,-4.231999995761958],[104.9525555556944,-4.223749995733189],[104.94385916187088,-4.207668099487612],[104.94560023856023,-4.191048024648542],[104.95317284764889,-4.178199153383698],[104.96758846023931,-4.171057815988412],[105.00031042328747,-4.177662348054912],[105.01477656518637,-4.172359089122282]]]}},{"type":"Feature","properties":{"code":"1812052003","desa":"Marga Jaya","kecamatan":"Gunung Agung","kecCode":"181205"},"geometry":{"type":"Polygon","coordinates":[[[105.08930324285045,-4.301188862462039],[105.0478897081436,-4.298886792280055],[105.04783696290559,-4.305122096889159],[105.03880991984198,-4.30639020392532],[105.03701057427867,-4.301403417319669],[105.04013072895003,-4.288646699584674],[105.0476123140571,-4.286961841316869],[105.0851255816803,-4.28695837892699],[105.09213936643869,-4.294610943133452],[105.0866498552067,-4.296742196086139],[105.08930324285045,-4.301188862462039]]]}},{"type":"Feature","properties":{"code":"1812052004","desa":"Jaya Murni","kecamatan":"Gunung Agung","kecCode":"181205"},"geometry":{"type":"Polygon","coordinates":[[[105.06021969578238,-4.181396902457141],[105.06339120533994,-4.217762500212956],[105.03572978590095,-4.217614812647413],[105.03639313393604,-4.185251640458882],[105.06021969578238,-4.181396902457141]]]}},{"type":"Feature","properties":{"code":"1812052005","desa":"Suka Jaya","kecamatan":"Gunung Agung","kecCode":"181205"},"geometry":{"type":"Polygon","coordinates":[[[105.09503642898805,-4.272193240342237],[105.0851255816803,-4.28695837892699],[105.06328069304958,-4.276353276594588],[105.04544009158701,-4.284631007218613],[105.0445899435711,-4.261871954154712],[105.04735368972108,-4.2538834239165855],[105.07604123741321,-4.249709059665474],[105.08889302879031,-4.254983896424259],[105.09503642898805,-4.272193240342237]]]}},{"type":"Feature","properties":{"code":"1812052006","desa":"Mulya Jaya","kecamatan":"Gunung Agung","kecCode":"181205"},"geometry":{"type":"Polygon","coordinates":[[[105.12805885822979,-4.280599159431336],[105.09883329022419,-4.280423652237588],[105.08959153492144,-4.257019470504574],[105.10366718399342,-4.245018441393009],[105.12732421643949,-4.2447146926743216],[105.12805885822979,-4.280599159431336]]]}},{"type":"Feature","properties":{"code":"1812052007","desa":"Bangun Jaya","kecamatan":"Gunung Agung","kecCode":"181205"},"geometry":{"type":"Polygon","coordinates":[[[105.0985416607691,-4.219141950512878],[105.10356758587544,-4.245261690019779],[105.08959153492144,-4.257019470504574],[105.081472278323,-4.255576426444897],[105.07604123741321,-4.249709059665474],[105.07823255788627,-4.226316052008958],[105.0985416607691,-4.219141950512878]]]}},{"type":"Feature","properties":{"code":"1812052008","desa":"Sumber Jaya","kecamatan":"Gunung Agung","kecCode":"181205"},"geometry":{"type":"Polygon","coordinates":[[[105.12779102933257,-4.216699503354301],[105.12797241359607,-4.228158648665502],[105.11696415597105,-4.234632785330715],[105.12009414922566,-4.244807524293092],[105.10366718399342,-4.245018441393009],[105.10062257507182,-4.225335031951944],[105.12779102933257,-4.216699503354301]]]}},{"type":"Feature","properties":{"code":"1812052008","desa":"Sumber Jaya","kecamatan":"Gunung Agung","kecCode":"181205"},"geometry":{"type":"Polygon","coordinates":[[[105.08762940307456,-4.217348866930897],[105.0985416607691,-4.219141950512878],[105.08768012573726,-4.221222428642278],[105.08762940307456,-4.217348866930897]]]}},{"type":"Feature","properties":{"code":"1812052009","desa":"Wono Rejo","kecamatan":"Gunung Agung","kecCode":"181205"},"geometry":{"type":"Polygon","coordinates":[[[105.12861877973295,-4.216286329625713],[105.14521391728852,-4.203553811747758],[105.15513767526357,-4.216010001236112],[105.15973003631217,-4.214272993980885],[105.15138484573411,-4.241188130776722],[105.14466473369055,-4.2415046606603175],[105.14450943426304,-4.222356396399461],[105.12861877973295,-4.216286329625713]]]}},{"type":"Feature","properties":{"code":"1812052010","desa":"Tri Tunggal Jaya","kecamatan":"Gunung Agung","kecCode":"181205"},"geometry":{"type":"Polygon","coordinates":[[[105.04936938968562,-4.14168551912537],[105.06021969578238,-4.181396902457141],[105.03639313393604,-4.185251640458882],[105.04390318978044,-4.150791707015967],[105.04936938968562,-4.14168551912537]]]}},{"type":"Feature","properties":{"code":"1812052011","desa":"Mulya Sari","kecamatan":"Gunung Agung","kecCode":"181205"},"geometry":{"type":"Polygon","coordinates":[[[105.12779102933257,-4.216699503354301],[105.14450943426304,-4.222356396399461],[105.13856990857448,-4.25400986409953],[105.12747265943572,-4.252900491900958],[105.11696415597105,-4.234632785330715],[105.12797241359607,-4.228158648665502],[105.12779102933257,-4.216699503354301]]]}},{"type":"Feature","properties":{"code":"1812052012","desa":"Dwikora Jaya","kecamatan":"Gunung Agung","kecCode":"181205"},"geometry":{"type":"Polygon","coordinates":[[[105.06339120533994,-4.217762500212956],[105.06554701428335,-4.237616116243582],[105.0462963154227,-4.237727695129742],[105.04294477058475,-4.219354130260973],[105.06339120533994,-4.217762500212956]]]}},{"type":"Feature","properties":{"code":"1812052013","desa":"Sumber Rejeki","kecamatan":"Gunung Agung","kecCode":"181205"},"geometry":{"type":"Polygon","coordinates":[[[105.0476123140571,-4.286961841316869],[105.06328069304958,-4.276353276594588],[105.0851255816803,-4.28695837892699],[105.0685368922638,-4.290933682740065],[105.0476123140571,-4.286961841316869]]]}},{"type":"Feature","properties":{"code":"1812062001","desa":"Agung Jaya","kecamatan":"Way Kenanga","kecCode":"181206"},"geometry":{"type":"Polygon","coordinates":[[[105.15631295607811,-4.268554717346667],[105.15626227388492,-4.295472958602177],[105.14450455184362,-4.293913821958944],[105.13430970672766,-4.301687594092699],[105.12695197265548,-4.294112010953961],[105.12747265943572,-4.252900491900958],[105.13856990857448,-4.25400986409953],[105.13418478280153,-4.264207294755684],[105.15631295607811,-4.268554717346667]]]}},{"type":"Feature","properties":{"code":"1812062002","desa":"Mercu Buana","kecamatan":"Way Kenanga","kecCode":"181206"},"geometry":{"type":"Polygon","coordinates":[[[105.18913888884866,-4.268638883098179],[105.14427131896628,-4.268794895687929],[105.14427131896628,-4.263940794157449],[105.13418478280153,-4.264207294755684],[105.13388497131443,-4.255755448189147],[105.16715023369636,-4.254524759245315],[105.17901284726514,-4.261155377047133],[105.18887536680477,-4.252634187354881],[105.18913888884866,-4.268638883098179]]]}},{"type":"Feature","properties":{"code":"1812062003","desa":"Balam Jaya","kecamatan":"Way Kenanga","kecCode":"181206"},"geometry":{"type":"Polygon","coordinates":[[[105.18890650403199,-4.241840780476088],[105.18887536680477,-4.252634187354881],[105.17901284726514,-4.261155377047133],[105.16715023369636,-4.254524759245315],[105.1386202274416,-4.255575541511957],[105.13803012199257,-4.24160453756798],[105.18890650403199,-4.241840780476088]]]}},{"type":"Feature","properties":{"code":"1812062004","desa":"Pagar Buana","kecamatan":"Way Kenanga","kecCode":"181206"},"geometry":{"type":"Polygon","coordinates":[[[105.19369684093651,-4.2001984834654404],[105.19560221117318,-4.234949594004204],[105.1790398584028,-4.233389546347812],[105.17008069167065,-4.216819019656767],[105.1860720792631,-4.211191473288523],[105.18420279342422,-4.203731982733362],[105.19369684093651,-4.2001984834654404]]]}},{"type":"Feature","properties":{"code":"1812062005","desa":"Indraloka I","kecamatan":"Way Kenanga","kecCode":"181206"},"geometry":{"type":"Polygon","coordinates":[[[105.14421827605263,-4.200461702437585],[105.18912130530407,-4.183637729707145],[105.19537436073823,-4.1994846420955785],[105.18420279342422,-4.203731982733362],[105.1860720792631,-4.211191473288523],[105.17008069167065,-4.216819019656767],[105.1598490094243,-4.201185959755449],[105.15513767526357,-4.216010001236112],[105.14566742201396,-4.205207248602602],[105.14421827605263,-4.200461702437585]]]}},{"type":"Feature","properties":{"code":"1812062006","desa":"Indraloka II","kecamatan":"Way Kenanga","kecCode":"181206"},"geometry":{"type":"Polygon","coordinates":[[[105.18888724774837,-4.183280684466103],[105.19893574079184,-4.179703215544815],[105.20980918284755,-4.2135138006995385],[105.19467105222735,-4.219515990242646],[105.18888724774837,-4.183280684466103]]]}},{"type":"Feature","properties":{"code":"1812062007","desa":"Balam Asri","kecamatan":"Way Kenanga","kecCode":"181206"},"geometry":{"type":"Polygon","coordinates":[[[105.1956134760811,-4.234960176326672],[105.18890650403199,-4.241840780476088],[105.15262189198675,-4.239517846022621],[105.15983141418847,-4.21610230135565],[105.15663673629636,-4.202351895713421],[105.16199052364378,-4.2008528346821175],[105.17505307114236,-4.23133131115053],[105.1956134760811,-4.234960176326672]]]}},{"type":"Feature","properties":{"code":"1812062008","desa":"Indraloka Jaya","kecamatan":"Way Kenanga","kecCode":"181206"},"geometry":{"type":"Polygon","coordinates":[[[105.23216296904582,-4.19066117137821],[105.22162751020146,-4.195729757619213],[105.22664591517692,-4.20992557768526],[105.21548741860954,-4.214612068968883],[105.21961918018108,-4.2248008256639205],[105.21267079502121,-4.229150642250132],[105.21060060873117,-4.20425482698666],[105.19627052796254,-4.178703366382167],[105.21267889431556,-4.1757111366776645],[105.23216296904582,-4.19066117137821]]]}},{"type":"Feature","properties":{"code":"1812062009","desa":"Indraloka Mukti","kecamatan":"Way Kenanga","kecCode":"181206"},"geometry":{"type":"Polygon","coordinates":[[[105.21267079502121,-4.229150642250132],[105.1956134760811,-4.234960176326672],[105.19261894500835,-4.2265274205685],[105.20965511279326,-4.208483061527591],[105.21267079502121,-4.229150642250132]]]}},{"type":"Feature","properties":{"code":"1812072001","desa":"Kibang Budi Jaya","kecamatan":"Lambu Kibang","kecCode":"181207"},"geometry":{"type":"Polygon","coordinates":[[[105.1937566863221,-4.3217641529577],[105.18498316484123,-4.327163782341434],[105.1903499455936,-4.346726844506501],[105.1315712576075,-4.347854785007368],[105.143718386994,-4.3228215236576695],[105.1937566863221,-4.3217641529577]]]}},{"type":"Feature","properties":{"code":"1812072002","desa":"Lesung Bhakti Jaya","kecamatan":"Lambu Kibang","kecCode":"181207"},"geometry":{"type":"Polygon","coordinates":[[[105.21833363259111,-4.392467906059268],[105.24534104974968,-4.385504804400717],[105.25527871933747,-4.401622676226199],[105.24424531486942,-4.39730206062681],[105.22998666815027,-4.414073726089217],[105.22516884886333,-4.410977649869533],[105.22497241894206,-4.417156610153841],[105.21304746436901,-4.415785033418415],[105.21396960761136,-4.422867742210945],[105.20498292971848,-4.422675173079374],[105.20008126933516,-4.405142162257989],[105.21393999293639,-4.4078912368652],[105.21833363259111,-4.392467906059268]]]}},{"type":"Feature","properties":{"code":"1812072003","desa":"Mekar Sari Jaya","kecamatan":"Lambu Kibang","kecCode":"181207"},"geometry":{"type":"Polygon","coordinates":[[[105.18376823291764,-4.359666121918656],[105.20099973255167,-4.359608225364015],[105.20236485935084,-4.364950964534494],[105.16614244801563,-4.36918010918936],[105.16510584176125,-4.346007640479156],[105.18556428156641,-4.348262779540235],[105.18376823291764,-4.359666121918656]]]}},{"type":"Feature","properties":{"code":"1812072004","desa":"Pagar Jaya","kecamatan":"Lambu Kibang","kecCode":"181207"},"geometry":{"type":"Polygon","coordinates":[[[105.1659906406556,-4.365484295782136],[105.16202292441847,-4.383065410440431],[105.13256096871378,-4.375930237897693],[105.1318436685505,-4.357322816022253],[105.1659906406556,-4.365484295782136]]]}},{"type":"Feature","properties":{"code":"1812072005","desa":"Gunung Sari","kecamatan":"Lambu Kibang","kecCode":"181207"},"geometry":{"type":"Polygon","coordinates":[[[105.1315712576075,-4.347854785007368],[105.16510584176125,-4.346007640479156],[105.1659906406556,-4.365484295782136],[105.14611100631795,-4.364223473254546],[105.1315712576075,-4.347854785007368]]]}},{"type":"Feature","properties":{"code":"1812072006","desa":"Sumber Rejo","kecamatan":"Lambu Kibang","kecCode":"181207"},"geometry":{"type":"Polygon","coordinates":[[[105.09318693632811,-4.350475663955027],[105.13104355971257,-4.341659234929296],[105.13256096871378,-4.375930237897693],[105.10745061925076,-4.378928064982624],[105.09359174096612,-4.3729942571898945],[105.09318693632811,-4.350475663955027]]]}},{"type":"Feature","properties":{"code":"1812072007","desa":"Kibang Yekti Jaya","kecamatan":"Lambu Kibang","kecCode":"181207"},"geometry":{"type":"Polygon","coordinates":[[[105.11300694831208,-4.3045880398886025],[105.12695879221457,-4.294076398700345],[105.1346386670409,-4.301818715246854],[105.14215370872671,-4.296864239483626],[105.14391581786077,-4.31216790290089],[105.13363944740262,-4.314248939509255],[105.131521607836,-4.325226478080287],[105.1262391448207,-4.321707499266173],[105.11917224700164,-4.326532635432142],[105.11459409434205,-4.344672915263179],[105.10971338006851,-4.334647974575205],[105.11300694831208,-4.3045880398886025]]]}},{"type":"Feature","properties":{"code":"1812072008","desa":"Kibang Tri Jaya","kecamatan":"Lambu Kibang","kecCode":"181207"},"geometry":{"type":"Polygon","coordinates":[[[105.17819217902593,-4.296811427695831],[105.1937566863221,-4.3217641529577],[105.143718386994,-4.3228215236576695],[105.14404769624423,-4.294132732233227],[105.15571657336125,-4.294722838580926],[105.16164956367646,-4.301602026298083],[105.17819217902593,-4.296811427695831]]]}},{"type":"Feature","properties":{"code":"1812072009","desa":"Gilang Tunggal Makarta","kecamatan":"Lambu Kibang","kecCode":"181207"},"geometry":{"type":"Polygon","coordinates":[[[105.21294341280833,-4.385764680592778],[105.2193963713455,-4.398995339246884],[105.21393999293639,-4.4078912368652],[105.20416174167109,-4.408250980072426],[105.19183234668549,-4.385296811896135],[105.19771329773056,-4.380460327185169],[105.21294341280833,-4.385764680592778]]]}},{"type":"Feature","properties":{"code":"1812072010","desa":"Kibang Mulya Jaya","kecamatan":"Lambu Kibang","kecCode":"181207"},"geometry":{"type":"Polygon","coordinates":[[[105.143718386994,-4.3228215236576695],[105.13104355971257,-4.341659234929296],[105.11923783275984,-4.342062569175326],[105.11917224700164,-4.326532635432142],[105.1262391448207,-4.321707499266173],[105.131521607836,-4.325226478080287],[105.13363944740262,-4.314248939509255],[105.14391581786077,-4.31216790290089],[105.143718386994,-4.3228215236576695]]]}},{"type":"Feature","properties":{"code":"1812082001","desa":"Pagar Dewa","kecamatan":"Pagar Dewa","kecCode":"181208"},"geometry":{"type":"Polygon","coordinates":[[[105.20510104217942,-4.461625578875279],[105.20062771719546,-4.4672223702282645],[105.19046299487138,-4.466132880241434],[105.14855722973243,-4.4543866164746655],[105.13380917285507,-4.434734625748348],[105.12718098231652,-4.451389372150379],[105.12194304473574,-4.436621917811268],[105.11245082104864,-4.435921945785922],[105.11939532563383,-4.448753274875071],[105.11341612365526,-4.456580765313234],[105.09815718080932,-4.445842200891241],[105.06933435979295,-4.455149809940419],[105.06391008987877,-4.465085365211713],[105.04544695611219,-4.451252612247002],[105.07013888879874,-4.436361106324298],[105.06713888894865,-4.426388883894631],[105.05677777807205,-4.4228055513935365],[105.05856032969552,-4.4151999551802446],[105.07461384425358,-4.40310451524034],[105.08615745929939,-4.408157073763809],[105.09019345296554,-4.392134769294775],[105.10150963306319,-4.404796738056375],[105.10878892287052,-4.402957250356088],[105.10742871896024,-4.378930679311846],[105.13393306256084,-4.3757664155953915],[105.15250553859975,-4.38061543955359],[105.15166735516436,-4.4303872975862575],[105.20185451387475,-4.434843378964694],[105.20510104217942,-4.461625578875279]]]}},{"type":"Feature","properties":{"code":"1812082002","desa":"Pagar Dewa Suka Mulya","kecamatan":"Pagar Dewa","kecCode":"181208"},"geometry":{"type":"Polygon","coordinates":[[[105.19518235907866,-4.324275632975842],[105.20303775189079,-4.3302962532249145],[105.19355256090205,-4.3487812360012805],[105.19947805356935,-4.359829106952199],[105.18376823291764,-4.359666121918656],[105.1903499455936,-4.346726844506501],[105.18498316484123,-4.327163782341434],[105.19518235907866,-4.324275632975842]]]}},{"type":"Feature","properties":{"code":"1812082003","desa":"Cahyou Randu","kecamatan":"Pagar Dewa","kecCode":"181208"},"geometry":{"type":"Polygon","coordinates":[[[105.21847715179916,-4.330376939499512],[105.23539104865802,-4.328242313189788],[105.22550729162828,-4.3371292094936456],[105.2253843489086,-4.348012454148326],[105.23285180206909,-4.3512997918853324],[105.23622367068589,-4.368418513818791],[105.2293471728338,-4.35969555582985],[105.20968776357948,-4.359216841309314],[105.20722547377665,-4.352441523489757],[105.19538389085392,-4.356306279938984],[105.22437316109256,-4.341942404461633],[105.21847715179916,-4.330376939499512]]]}},{"type":"Feature","properties":{"code":"1812082004","desa":"Bujung Dewa","kecamatan":"Pagar Dewa","kecCode":"181208"},"geometry":{"type":"Polygon","coordinates":[[[105.21396960761136,-4.422867742210945],[105.20185451387475,-4.434843378964694],[105.15166735516436,-4.4303872975862575],[105.15044044696913,-4.424464820351917],[105.19825395215821,-4.4021193583018725],[105.20498292971848,-4.422675173079374],[105.21396960761136,-4.422867742210945]]]}},{"type":"Feature","properties":{"code":"1812082005","desa":"Bujung Sari Marga","kecamatan":"Pagar Dewa","kecCode":"181208"},"geometry":{"type":"Polygon","coordinates":[[[105.15250553859975,-4.38061543955359],[105.1665177333068,-4.380976693621799],[105.16614244801563,-4.36918010918936],[105.16917336026245,-4.380512229758389],[105.18618488842189,-4.381693396634514],[105.1938128435879,-4.391314905949643],[105.18430485838257,-4.3971330942022995],[105.19661174873329,-4.403343249270412],[105.15044044696913,-4.424464820351917],[105.15250553859975,-4.38061543955359]]]}},{"type":"Feature","properties":{"code":"1812082006","desa":"Marga Jaya Indah","kecamatan":"Pagar Dewa","kecCode":"181208"},"geometry":{"type":"Polygon","coordinates":[[[105.20236485935084,-4.364950964534494],[105.20696500762902,-4.380744574105355],[105.19121820865347,-4.387147708395855],[105.19775130128157,-4.395878968925957],[105.19661174873329,-4.403343249270412],[105.18430485838257,-4.3971330942022995],[105.1938128435879,-4.391314905949643],[105.18618488842189,-4.381693396634514],[105.16917336026245,-4.380512229758389],[105.16614244801563,-4.36918010918936],[105.20236485935084,-4.364950964534494]]]}},{"type":"Feature","properties":{"code":"1812092001","desa":"Panca Marga","kecamatan":"Batu Putih","kecCode":"181209"},"geometry":{"type":"Polygon","coordinates":[[[105.04523413874455,-4.346587258033907],[105.08482991067187,-4.348219636363742],[105.0847661640273,-4.372709582192436],[105.063128079897,-4.368738873915059],[105.06301395503003,-4.363255871082451],[105.04519290123147,-4.363780826943937],[105.04523413874455,-4.346587258033907]]]}},{"type":"Feature","properties":{"code":"1812092002","desa":"Sido Makmur","kecamatan":"Batu Putih","kecCode":"181209"},"geometry":{"type":"Polygon","coordinates":[[[105.0847661640273,-4.372709582192436],[105.0833779507319,-4.377301088880283],[105.04687727656511,-4.378163498252085],[105.04193118427679,-4.382868315021073],[105.03881629243801,-4.377093695324155],[105.04515623497235,-4.374906132220881],[105.04519290123147,-4.363780826943937],[105.0556977129791,-4.362038740317787],[105.0847661640273,-4.372709582192436]]]}},{"type":"Feature","properties":{"code":"1812092003","desa":"Sakti Jaya","kecamatan":"Batu Putih","kecCode":"181209"},"geometry":{"type":"Polygon","coordinates":[[[105.03880991984198,-4.30639020392532],[105.03264375690388,-4.311581534135618],[105.00826010282155,-4.308699715997192],[105.01936950270043,-4.288099066418532],[105.04013072895003,-4.288646699584674],[105.03880991984198,-4.30639020392532]]]}},{"type":"Feature","properties":{"code":"1812092004","desa":"Margo Mulya","kecamatan":"Batu Putih","kecCode":"181209"},"geometry":{"type":"Polygon","coordinates":[[[104.99524005278623,-4.322388203316641],[104.9981909316662,-4.308714080868243],[105.00826010282155,-4.308699715997192],[105.03684656131982,-4.311000838293732],[105.0387351268247,-4.325592295308531],[105.02911112278012,-4.333869757035355],[104.99524005278623,-4.322388203316641]]]}},{"type":"Feature","properties":{"code":"1812092005","desa":"Margo Dadi","kecamatan":"Batu Putih","kecCode":"181209"},"geometry":{"type":"Polygon","coordinates":[[[104.99967827093552,-4.343440030174914],[104.99622152969988,-4.33218096063633],[104.98896637859553,-4.334358750806926],[104.99339185515004,-4.322294457986669],[105.02918266474825,-4.3339990111969815],[105.02038998500983,-4.343035971974624],[104.99967827093552,-4.343440030174914]]]}},{"type":"Feature","properties":{"code":"1812092006","desa":"Marga Sari","kecamatan":"Batu Putih","kecCode":"181209"},"geometry":{"type":"Polygon","coordinates":[[[105.01375895800959,-4.368826893261544],[104.99967827093552,-4.343440030174914],[105.02038998500983,-4.343035971974624],[105.0152474367199,-4.392661451854558],[105.00152962699075,-4.386267460971263],[105.00757171136546,-4.384709718277243],[105.01375895800959,-4.368826893261544]]]}},{"type":"Feature","properties":{"code":"1812092007","desa":"Mulyo Sari","kecamatan":"Batu Putih","kecCode":"181209"},"geometry":{"type":"Polygon","coordinates":[[[104.9804970123273,-4.383551190934325],[104.98166666698313,-4.3511666625449905],[105.00836652409589,-4.35581339659965],[105.01375895800959,-4.368826893261544],[105.00757171136546,-4.384709718277243],[104.9804970123273,-4.383551190934325]]]}},{"type":"Feature","properties":{"code":"1812092008","desa":"Toto Katon","kecamatan":"Batu Putih","kecCode":"181209"},"geometry":{"type":"Polygon","coordinates":[[[105.04522412209565,-4.350764251003349],[105.04515623497235,-4.374906132220881],[105.01985878065824,-4.368114713838775],[105.01894065378819,-4.350025281676153],[105.03343786096855,-4.356525822436697],[105.04522412209565,-4.350764251003349]]]}},{"type":"Feature","properties":{"code":"1812092009","desa":"Toto Makmur","kecamatan":"Batu Putih","kecCode":"181209"},"geometry":{"type":"Polygon","coordinates":[[[105.0387351268247,-4.325592295308531],[105.04522412209565,-4.350764251003349],[105.02659192927415,-4.35509990056937],[105.01894065378819,-4.350025281676153],[105.02048535901217,-4.342739157028835],[105.0387351268247,-4.325592295308531]]]}},{"type":"Feature","properties":{"code":"1812092010","desa":"Toto Wonodadi","kecamatan":"Batu Putih","kecCode":"181209"},"geometry":{"type":"Polygon","coordinates":[[[105.02570577690015,-4.4092743797814515],[105.0151857099526,-4.39251873933858],[105.01985878065824,-4.368114713838775],[105.0344266718535,-4.371837256895803],[105.0421608153694,-4.381228465123616],[105.03741403443017,-4.410323308545379],[105.02644456816233,-4.400933226268749],[105.02570577690015,-4.4092743797814515]]]}}]}