{"type":"FeatureCollection","features":[{"type":"Feature","properties":{"code":"1872011001","desa":"Metro","kecamatan":"Metro Pusat","kecCode":"187201","kabCode":"1872","province":"Lampung"},"geometry":{"type":"Polygon","coordinates":[[[105.31168265842801,-5.114101311569377],[105.30877475994726,-5.130920784992158],[105.30014302827816,-5.129966308425238],[105.29761463830499,-5.114956621692943],[105.31168265842801,-5.114101311569377]]]}},{"type":"Feature","properties":{"code":"1872011002","desa":"Hadimulyo Timur","kecamatan":"Metro Pusat","kecCode":"187201","kabCode":"1872","province":"Lampung"},"geometry":{"type":"Polygon","coordinates":[[[105.32088304581595,-5.087179808472022],[105.32157677384907,-5.093459495523494],[105.31873608620145,-5.094201730289047],[105.31907970996069,-5.100899170416998],[105.31524207616093,-5.102525065534325],[105.31448956394229,-5.106489406611667],[105.30758251971758,-5.108033841138141],[105.3045911569564,-5.102108421321924],[105.29831970588975,-5.100234364581545],[105.29980211057897,-5.092472287231495],[105.30390253077722,-5.09028455775357],[105.32088304581595,-5.087179808472022]]]}},{"type":"Feature","properties":{"code":"1872011003","desa":"Imopuro","kecamatan":"Metro Pusat","kecCode":"187201","kabCode":"1872","province":"Lampung"},"geometry":{"type":"Polygon","coordinates":[[[105.31168265842801,-5.114101311569377],[105.29909894506034,-5.114149963093373],[105.2956795328842,-5.1162514349966],[105.29819852134477,-5.1110912555032355],[105.30407580405516,-5.110964740676516],[105.31425384623803,-5.106325904467954],[105.31012452632585,-5.11183618553694],[105.31168265842801,-5.114101311569377]]]}},{"type":"Feature","properties":{"code":"1872011004","desa":"Hadimulyo Barat","kecamatan":"Metro Pusat","kecCode":"187201","kabCode":"1872","province":"Lampung"},"geometry":{"type":"Polygon","coordinates":[[[105.29064512357365,-5.1089901235436965],[105.28793938729297,-5.105423447386183],[105.30069404739241,-5.099842524570517],[105.30522339204595,-5.102766331155901],[105.30758251971758,-5.108033841138141],[105.30407580405516,-5.110964740676516],[105.29806136394086,-5.111171046052997],[105.29708184934793,-5.114313846549658],[105.29517175856982,-5.1096765922485385],[105.29064512357365,-5.1089901235436965]]]}},{"type":"Feature","properties":{"code":"1872011005","desa":"Yosomulyo","kecamatan":"Metro Pusat","kecCode":"187201","kabCode":"1872","province":"Lampung"},"geometry":{"type":"Polygon","coordinates":[[[105.33494331198432,-5.090860880192355],[105.33640848386449,-5.0989418904145],[105.32959845940142,-5.105609303078648],[105.3193740427779,-5.108900644597463],[105.31802562987899,-5.1061373094405225],[105.31448956394229,-5.106489406611667],[105.31524207616093,-5.102525065534325],[105.31907970996069,-5.100899170416998],[105.31873608620145,-5.094201730289047],[105.32385776482401,-5.089046241659446],[105.32586310369936,-5.088777690606911],[105.32524932899337,-5.092164556314742],[105.33494331198432,-5.090860880192355]]]}},{"type":"Feature","properties":{"code":"1872021001","desa":"Banjarsari","kecamatan":"Metro Utara","kecCode":"187202","kabCode":"1872","province":"Lampung"},"geometry":{"type":"Polygon","coordinates":[[[105.28779910204696,-5.105605444087755],[105.28183016762817,-5.103120154126112],[105.27728643562055,-5.107032412765937],[105.2716539411765,-5.105313056504418],[105.26870289861995,-5.102567113336519],[105.26878352374068,-5.095674290098336],[105.27904573617184,-5.09174127420637],[105.28118042813429,-5.089549376370817],[105.27810122139431,-5.086169730420384],[105.27938113563094,-5.083179328138162],[105.28328831130658,-5.082527289078555],[105.29555878990628,-5.072490583459321],[105.30233474085566,-5.062485705746677],[105.3070634247373,-5.060774003615054],[105.30186569404663,-5.070521604176363],[105.28466990469241,-5.0889806568006835],[105.28378573082688,-5.094200182555802],[105.29291963403391,-5.089412919538935],[105.2993010802807,-5.093771134893848],[105.2984099312734,-5.100167659167481],[105.28779910204696,-5.105605444087755]]]}},{"type":"Feature","properties":{"code":"1872021002","desa":"Purwosari","kecamatan":"Metro Utara","kecCode":"187202","kabCode":"1872","province":"Lampung"},"geometry":{"type":"Polygon","coordinates":[[[105.31179529131968,-5.087516473276887],[105.2993010802807,-5.093771134893848],[105.29291963403391,-5.089412919538935],[105.28376446455842,-5.094157111325088],[105.28466990469241,-5.0889806568006835],[105.29888571130658,-5.073937810265922],[105.30009117067105,-5.079242065647568],[105.30435841690745,-5.082646341330863],[105.3116775376883,-5.083621012174254],[105.31179529131968,-5.087516473276887]]]}},{"type":"Feature","properties":{"code":"1872021003","desa":"Karangrejo","kecamatan":"Metro Utara","kecCode":"187202","kabCode":"1872","province":"Lampung"},"geometry":{"type":"Polygon","coordinates":[[[105.35923374414203,-5.069213180532846],[105.35426472543679,-5.072330011306782],[105.34876877415968,-5.083056673201728],[105.33968712336211,-5.090103506239461],[105.32524932899337,-5.092164556314742],[105.32530155622192,-5.088301795460944],[105.32266433658991,-5.090142868666018],[105.32088304581595,-5.087179808472022],[105.31475680288423,-5.089449353772966],[105.31179529131968,-5.087516473276887],[105.3116775376883,-5.083621012174254],[105.32248324730409,-5.072482303401269],[105.342400947246,-5.0710091932068835],[105.34289344567604,-5.066795795680871],[105.34894732735732,-5.062448747207875],[105.35498375229838,-5.063766390701021],[105.3578159584398,-5.067110210359128],[105.35676053926755,-5.068589794772913],[105.35923374414203,-5.069213180532846]]]}},{"type":"Feature","properties":{"code":"1872021004","desa":"Purwoasri","kecamatan":"Metro Utara","kecCode":"187202","kabCode":"1872","province":"Lampung"},"geometry":{"type":"Polygon","coordinates":[[[105.3070634247373,-5.060774003615054],[105.31661378779614,-5.054534021631854],[105.31796752827886,-5.059275604484753],[105.31528146107064,-5.065893424934043],[105.30901039131658,-5.068786562839051],[105.3088247289781,-5.072080527680275],[105.3150855977222,-5.07256870127014],[105.3131344304097,-5.075363371505099],[105.31824602673282,-5.076303107284306],[105.30984353585058,-5.084372102563957],[105.30009117067105,-5.079242065647568],[105.29888571130658,-5.073937810265922],[105.3070634247373,-5.060774003615054]]]}},{"type":"Feature","properties":{"code":"1872031001","desa":"Mulyojati","kecamatan":"Metro Barat","kecCode":"187203","kabCode":"1872","province":"Lampung"},"geometry":{"type":"Polygon","coordinates":[[[105.3012034962444,-5.129554385653694],[105.31315486840253,-5.130787672738925],[105.31247088722169,-5.137218069977369],[105.29681353481685,-5.138060551272004],[105.29051059398874,-5.148804732859792],[105.28783391390408,-5.147050959543558],[105.28935245874902,-5.1443470938554405],[105.28392268498395,-5.141394950531689],[105.2852213752663,-5.13678618855165],[105.2885024159538,-5.1359571026588835],[105.29056471069286,-5.131778157261181],[105.29939524199688,-5.13280326927941],[105.3012034962444,-5.129554385653694]]]}},{"type":"Feature","properties":{"code":"1872031002","desa":"Ganjar Agung","kecamatan":"Metro Barat","kecCode":"187203","kabCode":"1872","province":"Lampung"},"geometry":{"type":"Polygon","coordinates":[[[105.28345605825052,-5.143903627363158],[105.27223447334234,-5.142382957421726],[105.275012611343,-5.138022003631231],[105.27445221499778,-5.131883716984821],[105.27826814276061,-5.130888055065631],[105.28387960386065,-5.120368415306758],[105.29021023931112,-5.12694563676167],[105.29115179262116,-5.131917163671073],[105.2852213752663,-5.13678618855165],[105.28345605825052,-5.143903627363158]]]}},{"type":"Feature","properties":{"code":"1872031003","desa":"Mulyosari","kecamatan":"Metro Barat","kecCode":"187203","kabCode":"1872","province":"Lampung"},"geometry":{"type":"Polygon","coordinates":[[[105.27475556891443,-5.158760796271138],[105.2697633162241,-5.157759970444764],[105.26320873609431,-5.162188649480527],[105.26220232277905,-5.158565045338203],[105.27056529295396,-5.147158283737131],[105.27514189428308,-5.147179066170233],[105.27680275504315,-5.143190586389813],[105.28345605825052,-5.143903627363158],[105.28399365678187,-5.141389880154051],[105.28935245874902,-5.1443470938554405],[105.28137167975927,-5.156172418822197],[105.27475556891443,-5.158760796271138]]]}},{"type":"Feature","properties":{"code":"1872031004","desa":"Ganjar Asri","kecamatan":"Metro Barat","kecCode":"187203","kabCode":"1872","province":"Lampung"},"geometry":{"type":"Polygon","coordinates":[[[105.28422378160228,-5.120594109167235],[105.29077464663271,-5.108847411027663],[105.29550882627137,-5.110003514697723],[105.2956795328842,-5.1162514349966],[105.29881530698087,-5.118267977623881],[105.29846058468831,-5.127956475639732],[105.3012034962444,-5.129554385653694],[105.30012159023924,-5.132494343163681],[105.29116192887999,-5.1320916906037075],[105.29021023931112,-5.12694563676167],[105.28422378160228,-5.120594109167235]]]}},{"type":"Feature","properties":{"code":"1872041001","desa":"Yosodadi","kecamatan":"Metro Timur","kecCode":"187204","kabCode":"1872","province":"Lampung"},"geometry":{"type":"Polygon","coordinates":[[[105.33652904068276,-5.098006573903804],[105.34440805059114,-5.099449115242571],[105.34905020440345,-5.108491140102846],[105.34346081266641,-5.110093311104631],[105.34168888113703,-5.113963752168644],[105.33639682595282,-5.112150279157114],[105.33136290857142,-5.1189405545011555],[105.32846571022439,-5.116540440229682],[105.32389697796322,-5.117707765640304],[105.31946577272731,-5.10875557945498],[105.32959845940142,-5.105609303078648],[105.33652904068276,-5.098006573903804]]]}},{"type":"Feature","properties":{"code":"1872041002","desa":"Tejosari","kecamatan":"Metro Timur","kecCode":"187204","kabCode":"1872","province":"Lampung"},"geometry":{"type":"Polygon","coordinates":[[[105.33366165935813,-5.152641540178628],[105.32989419965763,-5.152660812650028],[105.32747499727338,-5.156213223761288],[105.3184445376853,-5.150529820500683],[105.31629898191255,-5.151419288674226],[105.31159916536926,-5.142840793281687],[105.31252937912762,-5.138101836449158],[105.32218838928281,-5.140884325367058],[105.32547460197132,-5.135585937162375],[105.3301714318661,-5.134706526107311],[105.33511741623583,-5.149692754024075],[105.33366165935813,-5.152641540178628]]]}},{"type":"Feature","properties":{"code":"1872041003","desa":"Iring Mulyo","kecamatan":"Metro Timur","kecCode":"187204","kabCode":"1872","province":"Lampung"},"geometry":{"type":"Polygon","coordinates":[[[105.3283630679013,-5.116530722155726],[105.33134620006712,-5.121237309689866],[105.32761329861488,-5.120970713763447],[105.3229956216507,-5.128126618377452],[105.30877475994726,-5.130920784992158],[105.3115968792926,-5.117166698424324],[105.3283630679013,-5.116530722155726]]]}},{"type":"Feature","properties":{"code":"1872041004","desa":"Yosorejo","kecamatan":"Metro Timur","kecCode":"187204","kabCode":"1872","province":"Lampung"},"geometry":{"type":"Polygon","coordinates":[[[105.3115968792926,-5.117166698424324],[105.3101737848923,-5.111738893280781],[105.3146256007909,-5.10659212357838],[105.31802562987899,-5.1061373094405225],[105.32389697796322,-5.117707765640304],[105.3115968792926,-5.117166698424324]]]}},{"type":"Feature","properties":{"code":"1872041005","desa":"Tejo Agung","kecamatan":"Metro Timur","kecCode":"187204","kabCode":"1872","province":"Lampung"},"geometry":{"type":"Polygon","coordinates":[[[105.32483335657423,-5.1265024031937445],[105.3223156964123,-5.132207189634684],[105.32547460197132,-5.135585937162375],[105.32291542370791,-5.140485872641035],[105.31498134741132,-5.140284334570676],[105.31225123140928,-5.137770328356849],[105.31315486840253,-5.130787672738925],[105.32483335657423,-5.1265024031937445]]]}},{"type":"Feature","properties":{"code":"1872051001","desa":"Rejomulyo","kecamatan":"Metro Selatan","kecCode":"187205","kabCode":"1872","province":"Lampung"},"geometry":{"type":"Polygon","coordinates":[[[105.32747499727338,-5.156213223761288],[105.32904355611528,-5.161055690762617],[105.32718766477899,-5.165775358036627],[105.32992893597167,-5.167608862547358],[105.32240445680031,-5.164628510189024],[105.31663406391094,-5.172393575086928],[105.30742810072631,-5.1703080985255765],[105.30701180275251,-5.166677563308245],[105.30076470622629,-5.168469605475455],[105.29729069441008,-5.166488704779459],[105.29943761985031,-5.164192854308724],[105.29758756871138,-5.160540955696215],[105.30165740386614,-5.154520672692678],[105.30815369173956,-5.1529744970787075],[105.31543429095984,-5.154780127102705],[105.3184445376853,-5.150529820500683],[105.32747499727338,-5.156213223761288]]]}},{"type":"Feature","properties":{"code":"1872051002","desa":"Margorejo","kecamatan":"Metro Selatan","kecCode":"187205","kabCode":"1872","province":"Lampung"},"geometry":{"type":"Polygon","coordinates":[[[105.28783391390408,-5.147050959543558],[105.2908190740411,-5.1488829702804075],[105.29681353481685,-5.138060551272004],[105.31232033261733,-5.13732116555871],[105.31127463871366,-5.141661219104897],[105.3024260966871,-5.1451086451591985],[105.29397810100862,-5.153295307735294],[105.28868023890199,-5.153825629851408],[105.28865557499483,-5.156554562342909],[105.28137167975927,-5.156172418822197],[105.28319245526768,-5.1509937915356065],[105.28680104972868,-5.149992243553567],[105.28783391390408,-5.147050959543558]]]}},{"type":"Feature","properties":{"code":"1872051003","desa":"Sumbersari Bantul","kecamatan":"Metro Selatan","kecCode":"187205","kabCode":"1872","province":"Lampung"},"geometry":{"type":"Polygon","coordinates":[[[105.29068722623458,-5.169192893324151],[105.27911602988091,-5.169620063201713],[105.27856550899111,-5.164096240141395],[105.2755755275886,-5.162875375391489],[105.27475556891443,-5.158760796271138],[105.28075482217734,-5.1561165142658405],[105.2922741483333,-5.156690377958149],[105.29432899488727,-5.161325850702244],[105.29758756871138,-5.160540955696215],[105.29923458890521,-5.163471984736959],[105.29729069441008,-5.166488704779459],[105.30076470622629,-5.168469605475455],[105.3066079756776,-5.166571361468595],[105.30804351489637,-5.169155779202649],[105.30526343166211,-5.170978717578723],[105.30639216086955,-5.1737245474320925],[105.30255724392173,-5.17446225501048],[105.30026637389408,-5.178746821285838],[105.29940175488713,-5.172268152037221],[105.29565655610524,-5.1742553722692675],[105.2904939682221,-5.17170519352412],[105.29068722623458,-5.169192893324151]]]}},{"type":"Feature","properties":{"code":"1872051004","desa":"Margodadi","kecamatan":"Metro Selatan","kecCode":"187205","kabCode":"1872","province":"Lampung"},"geometry":{"type":"Polygon","coordinates":[[[105.31137196334551,-5.1415708929973105],[105.31654956900746,-5.150274553334063],[105.31552867121125,-5.1547287884044],[105.30815369173956,-5.1529744970787075],[105.30165740386614,-5.154520672692678],[105.29530693566657,-5.161631168737948],[105.29258483172464,-5.156863348164379],[105.28865557499483,-5.156554562342909],[105.28868023890199,-5.153825629851408],[105.29397810100862,-5.153295307735294],[105.3024260966871,-5.1451086451591985],[105.31137196334551,-5.1415708929973105]]]}}]}