{"type":"FeatureCollection","features":[{"type":"Feature","properties":{"code":"1903011001","desa":"Toboali","kecamatan":"Toboali","kecCode":"190301"},"geometry":{"type":"Polygon","coordinates":[[[106.51619946773131,-3.134462804246098],[106.51604599302823,-3.1348054486432275],[106.51536427813896,-3.1352016287824234],[106.51619946773131,-3.134462804246098]]]}},{"type":"Feature","properties":{"code":"1903011001","desa":"Toboali","kecamatan":"Toboali","kecCode":"190301"},"geometry":{"type":"Polygon","coordinates":[[[106.51683976614235,-3.1354038368476673],[106.516635745943,-3.1347702761580756],[106.51672286416891,-3.134582597539783],[106.51683976614235,-3.1354038368476673]]]}},{"type":"Feature","properties":{"code":"1903011001","desa":"Toboali","kecamatan":"Toboali","kecCode":"190301"},"geometry":{"type":"Polygon","coordinates":[[[106.51520247391511,-3.1317680666768966],[106.51520247391511,-3.1337335008322804],[106.51483365744741,-3.135690607265425],[106.51520247391511,-3.1317680666768966]]]}},{"type":"Feature","properties":{"code":"1903011001","desa":"Toboali","kecamatan":"Toboali","kecCode":"190301"},"geometry":{"type":"Polygon","coordinates":[[[106.51452146499366,-3.130877845770901],[106.51486946485396,-3.1294898456163422],[106.51497046501498,-3.130843845102332],[106.51452146499366,-3.130877845770901]]]}},{"type":"Feature","properties":{"code":"1903011001","desa":"Toboali","kecamatan":"Toboali","kecCode":"190301"},"geometry":{"type":"Polygon","coordinates":[[[106.51429274671294,-3.116902728328325],[106.5143700794157,-3.117176366845602],[106.5142332601569,-3.1171882648763276],[106.51429274671294,-3.116902728328325]]]}},{"type":"Feature","properties":{"code":"1903011001","desa":"Toboali","kecamatan":"Toboali","kecCode":"190301"},"geometry":{"type":"Polygon","coordinates":[[[106.51371572819835,-3.1167778079996813],[106.51343614066542,-3.116867036934359],[106.51348967910546,-3.116682628251008],[106.51371572819835,-3.1167778079996813]]]}},{"type":"Feature","properties":{"code":"1903011001","desa":"Toboali","kecamatan":"Toboali","kecCode":"190301"},"geometry":{"type":"Polygon","coordinates":[[[106.51441409943116,-3.11663028051341],[106.51463776891796,-3.1164256469766],[106.514556866806,-3.1167159418375303],[106.51441409943116,-3.11663028051341]]]}},{"type":"Feature","properties":{"code":"1903011001","desa":"Toboali","kecamatan":"Toboali","kecCode":"190301"},"geometry":{"type":"Polygon","coordinates":[[[106.51490545931954,-3.116468476289672],[106.51491140743558,-3.1161056097370263],[106.51502443063305,-3.1160699174437028],[106.51490545931954,-3.116468476289672]]]}},{"type":"Feature","properties":{"code":"1903011001","desa":"Toboali","kecamatan":"Toboali","kecCode":"190301"},"geometry":{"type":"Polygon","coordinates":[[[106.51322198870388,-3.116278120389697],[106.51343614066542,-3.1161769934243795],[106.51336475697804,-3.1164387339110102],[106.51322198870388,-3.116278120389697]]]}},{"type":"Feature","properties":{"code":"1903011001","desa":"Toboali","kecamatan":"Toboali","kecCode":"190301"},"geometry":{"type":"Polygon","coordinates":[[[106.51244941261035,-3.1157297965442097],[106.51195567491453,-3.115747642690886],[106.51149762861273,-3.1154918494209296],[106.51230069711954,-3.1151646733629232],[106.51244941261035,-3.1157297965442097]]]}},{"type":"Feature","properties":{"code":"1903011001","desa":"Toboali","kecamatan":"Toboali","kecCode":"190301"},"geometry":{"type":"Polygon","coordinates":[[[106.51011459181501,-3.111659119628405],[106.50995278938979,-3.1114306918289745],[106.51014790360297,-3.1114592435052573],[106.51011459181501,-3.111659119628405]]]}},{"type":"Feature","properties":{"code":"1903011001","desa":"Toboali","kecamatan":"Toboali","kecCode":"190301"},"geometry":{"type":"Polygon","coordinates":[[[106.4998495177411,-3.1016779948101574],[106.50006961781865,-3.101416253424221],[106.50017074478409,-3.1016244554708488],[106.4998495177411,-3.1016779948101574]]]}},{"type":"Feature","properties":{"code":"1903011001","desa":"Toboali","kecamatan":"Toboali","kecCode":"190301"},"geometry":{"type":"Polygon","coordinates":[[[106.49753549196942,-3.099655452805621],[106.49775559204699,-3.09947104322303],[106.49783887286577,-3.0996019143656905],[106.49753549196942,-3.099655452805621]]]}},{"type":"Feature","properties":{"code":"1903011001","desa":"Toboali","kecamatan":"Toboali","kecCode":"190301"},"geometry":{"type":"Polygon","coordinates":[[[106.49575684520231,-3.097941645361239],[106.49521432827868,-3.097606141581168],[106.49558552525183,-3.097606141581168],[106.49575684520231,-3.097941645361239]]]}},{"type":"Feature","properties":{"code":"1903011001","desa":"Toboali","kecamatan":"Toboali","kecCode":"190301"},"geometry":{"type":"Polygon","coordinates":[[[106.51897433579698,-3.1137380455278887],[106.51866500678472,-3.112970669315283],[106.51889105497825,-3.112845747187951],[106.51897433579698,-3.1137380455278887]]]}},{"type":"Feature","properties":{"code":"1903011001","desa":"Toboali","kecamatan":"Toboali","kecCode":"190301"},"geometry":{"type":"Polygon","coordinates":[[[106.51771322188773,-3.113113437589262],[106.5171124082111,-3.112845746288628],[106.51746337943148,-3.1126553903886327],[106.51771322188773,-3.113113437589262]]]}},{"type":"Feature","properties":{"code":"1903011001","desa":"Toboali","kecamatan":"Toboali","kecCode":"190301"},"geometry":{"type":"Polygon","coordinates":[[[106.52506575697919,-3.1099832554804396],[106.5248040155929,-3.1097357926305658],[106.52526087209162,-3.1096263379431153],[106.52506575697919,-3.1099832554804396]]]}},{"type":"Feature","properties":{"code":"1903011001","desa":"Toboali","kecamatan":"Toboali","kecCode":"190301"},"geometry":{"type":"Polygon","coordinates":[[[106.54175561293124,-3.1022063842832224],[106.54164258883446,-3.1016234167538927],[106.5419340725994,-3.1022123332985343],[106.54175561293124,-3.1022063842832224]]]}},{"type":"Feature","properties":{"code":"1903011001","desa":"Toboali","kecamatan":"Toboali","kecCode":"190301"},"geometry":{"type":"Polygon","coordinates":[[[106.66325709883608,-3.1018989663305296],[106.66350813289408,-3.1012551983357657],[106.66374389556437,-3.1021204081963667],[106.66325709883608,-3.1018989663305296]]]}},{"type":"Feature","properties":{"code":"1903011001","desa":"Toboali","kecamatan":"Toboali","kecCode":"190301"},"geometry":{"type":"Polygon","coordinates":[[[106.66499172558775,-3.1015491867123046],[106.66517732407429,-3.100407045916356],[106.66517732407429,-3.1016134315812542],[106.66499172558775,-3.1015491867123046]]]}},{"type":"Feature","properties":{"code":"1903011001","desa":"Toboali","kecamatan":"Toboali","kecCode":"190301"},"geometry":{"type":"Polygon","coordinates":[[[106.65533926969158,-3.100967075337575],[106.65554257672858,-3.1000963427402852],[106.65580813933421,-3.100789091410949],[106.65533926969158,-3.100967075337575]]]}},{"type":"Feature","properties":{"code":"1903011001","desa":"Toboali","kecamatan":"Toboali","kecCode":"190301"},"geometry":{"type":"Polygon","coordinates":[[[106.55145511865885,-3.099007149529775],[106.55160502485204,-3.098029191664341],[106.55159074901394,-3.0990713943987402],[106.55145511865885,-3.099007149529775]]]}},{"type":"Feature","properties":{"code":"1903011001","desa":"Toboali","kecamatan":"Toboali","kecCode":"190301"},"geometry":{"type":"Polygon","coordinates":[[[106.6107174287664,-3.0929840147764462],[106.61092942865025,-3.093137014637333],[106.6107304293659,-3.0931160145682863],[106.6107174287664,-3.0929840147764462]]]}},{"type":"Feature","properties":{"code":"1903011001","desa":"Toboali","kecamatan":"Toboali","kecCode":"190301"},"geometry":{"type":"Polygon","coordinates":[[[106.60904299993456,-3.0909689965001514],[106.60809049018405,-3.090615034135067],[106.60898700005009,-3.0904299968256486],[106.60904299993456,-3.0909689965001514]]]}},{"type":"Feature","properties":{"code":"1903011001","desa":"Toboali","kecamatan":"Toboali","kecCode":"190301"},"geometry":{"type":"Polygon","coordinates":[[[106.61140547218486,-3.091145389526059],[106.61117704258652,-3.090383962328827],[106.61156147128492,-3.090926244528746],[106.61140547218486,-3.091145389526059]]]}},{"type":"Feature","properties":{"code":"1903011001","desa":"Toboali","kecamatan":"Toboali","kecCode":"190301"},"geometry":{"type":"Polygon","coordinates":[[[106.62159686660215,-3.089581777856438],[106.6216842843023,-3.0884977899219233],[106.622395495156,-3.0894313356674084],[106.62159686660215,-3.089581777856438]]]}},{"type":"Feature","properties":{"code":"1903011001","desa":"Toboali","kecamatan":"Toboali","kecCode":"190301"},"geometry":{"type":"Polygon","coordinates":[[[106.6206250484073,-3.088536038987771],[106.62100460637754,-3.0878911126662407],[106.62132506090289,-3.088315210459617],[106.6206250484073,-3.088536038987771]]]}},{"type":"Feature","properties":{"code":"1903011001","desa":"Toboali","kecamatan":"Toboali","kecCode":"190301"},"geometry":{"type":"Polygon","coordinates":[[[106.51713168607853,-3.040369017549129],[106.58285480760333,-3.0464717575919615],[106.63579781731544,-3.036656481248626],[106.65394120432317,-3.0604510919555596],[106.67467480789612,-3.0697078965034694],[106.67679422217566,-3.0918659155567076],[106.6581739183917,-3.1019568323082267],[106.65666540098754,-3.091735075890366],[106.64523667613172,-3.0829949345553804],[106.62883610240425,-3.081254101584231],[106.60824189015119,-3.0885138014516085],[106.59992345620257,-3.077990502352046],[106.58434125834248,-3.076949341032587],[106.55151897322206,-3.0940457687720406],[106.5498128990461,-3.0969082595802573],[106.55263969936271,-3.1085224084415475],[106.54440799962951,-3.101678996654911],[106.53819756126846,-3.100998553407844],[106.51460163505747,-3.1126709999213946],[106.51402505811,-3.1165696041543476],[106.50934421636254,-3.1071958598616263],[106.49129719441004,-3.0909364077671806],[106.49918399964194,-3.068953996631618],[106.49313056942032,-3.052717028487697],[106.4506734946861,-3.00825029278463],[106.45871248769122,-3.009722884070071],[106.47461193669157,-2.9983580875342812],[106.47452936094128,-3.004175546436608],[106.48360387381979,-3.005978558533953],[106.490687172575,-3.029228309583903],[106.51713168607853,-3.040369017549129]]]}},{"type":"Feature","properties":{"code":"1903011002","desa":"Teladan","kecamatan":"Toboali","kecCode":"190301"},"geometry":{"type":"Polygon","coordinates":[[[106.47461193669157,-2.9983580875342812],[106.4544909180215,-3.011373822608301],[106.44870973596562,-3.000682793652087],[106.45234616894061,-2.9892375482627274],[106.44566164396973,-2.980689200843722],[106.44863432871136,-2.971328175662729],[106.4777212707201,-2.989243862402789],[106.47461193669157,-2.9983580875342812]]]}},{"type":"Feature","properties":{"code":"1903011003","desa":"Tanjungketapang","kecamatan":"Toboali","kecCode":"190301"},"geometry":{"type":"Polygon","coordinates":[[[106.45234616894061,-2.9892375482627274],[106.45227072841145,-3.0148984275809965],[106.45955791426638,-3.0172116799332165],[106.47276815472662,-3.02869989223187],[106.44166877639299,-3.011439091805064],[106.44377127262617,-3.002244014024438],[106.43453511740181,-2.9820615473987564],[106.44566164396973,-2.980689200843722],[106.45234616894061,-2.9892375482627274]]]}},{"type":"Feature","properties":{"code":"1903012004","desa":"Serdang","kecamatan":"Toboali","kecCode":"190301"},"geometry":{"type":"Polygon","coordinates":[[[106.43529105244015,-2.853590594566235],[106.40296323166785,-2.914946395029252],[106.38392510465991,-2.916154774491111],[106.3582257730011,-2.9356666625331456],[106.35320878265924,-2.970166069018071],[106.33036676621332,-2.963752320929009],[106.32827284141852,-2.9444501323049077],[106.31218298076003,-2.9252277324319405],[106.33062233825035,-2.907783404657351],[106.35085323339005,-2.907706338154079],[106.35598287730801,-2.873273316924543],[106.3697962400045,-2.8564461291183756],[106.40183942265128,-2.8247811456007077],[106.42668340731348,-2.816820183180872],[106.43715587224581,-2.8045648608689517],[106.44642425827294,-2.809774770173188],[106.47456077066312,-2.801470649843331],[106.43529105244015,-2.853590594566235]]]}},{"type":"Feature","properties":{"code":"1903012005","desa":"Jeriji","kecamatan":"Toboali","kecCode":"190301"},"geometry":{"type":"Polygon","coordinates":[[[106.42223309867865,-2.8867665902058106],[106.43529105244015,-2.853590594566235],[106.47490220996906,-2.801119307203331],[106.50862349337956,-2.7980030322106653],[106.5060885086778,-2.829869345155922],[106.53569490179835,-2.8533329082233654],[106.5369185868234,-2.8633832619532367],[106.52537564806778,-2.8735683359241646],[106.52439855534912,-2.882842984819992],[106.50755779855365,-2.877623018397363],[106.5104122530231,-2.8645484550711715],[106.50252924832618,-2.8627674610754617],[106.45483684044792,-2.9025233869274505],[106.43623594583231,-2.9008733980733554],[106.42223309867865,-2.8867665902058106]]]}},{"type":"Feature","properties":{"code":"1903012006","desa":"Bikang","kecamatan":"Toboali","kecCode":"190301"},"geometry":{"type":"Polygon","coordinates":[[[106.40530360757548,-2.9127218949710576],[106.42223309867865,-2.8867665902058106],[106.43623594583231,-2.9008733980733554],[106.45483684044792,-2.9025233869274505],[106.50231251441107,-2.862779956255918],[106.5104122530231,-2.8645484550711715],[106.50755779855365,-2.877623018397363],[106.52201738169684,-2.8827514788019006],[106.51934443379865,-2.8914613840303427],[106.50921245758889,-2.896116723697484],[106.5138990163266,-2.9111021467200775],[106.49493173431215,-2.9165958793637303],[106.45166537585646,-2.9471344314430667],[106.44304172189798,-2.947235346168375],[106.41557035978434,-2.9112269600293907],[106.40530360757548,-2.9127218949710576]]]}},{"type":"Feature","properties":{"code":"1903012007","desa":"Gadung","kecamatan":"Toboali","kecCode":"190301"},"geometry":{"type":"Polygon","coordinates":[[[106.5139034499843,-3.0369276286438867],[106.490687172575,-3.029228309583903],[106.48360387381979,-3.005978558533953],[106.47445512190643,-3.0039499730853025],[106.4777212707201,-2.989243862402789],[106.44433035506187,-2.9701197944022564],[106.44304172189798,-2.947235346168375],[106.45885132682736,-2.9452274433281405],[106.49493173431215,-2.9165958793637303],[106.51208348926166,-2.9127347624708975],[106.50921245758889,-2.896116723697484],[106.51934443379865,-2.8914613840303427],[106.52557539378944,-2.87327556972631],[106.53208308956299,-2.8674790452425523],[106.5378123222809,-2.8722222504721726],[106.54696742430724,-2.868135714012077],[106.54978981075124,-2.8836989460526783],[106.53693268369646,-2.895434811857526],[106.54265705198145,-2.9027701968694903],[106.5401160759962,-2.9133843688644356],[106.52354039077647,-2.928454778719569],[106.51422501067577,-2.927768446711676],[106.51002342034462,-2.941034930758289],[106.49608407432059,-2.9470322414791057],[106.49553599868744,-2.965407467395099],[106.51449732269332,-2.9905768339407373],[106.51136453974175,-3.0104472493065417],[106.52079534333045,-3.0328604285071368],[106.5139034499843,-3.0369276286438867]]]}},{"type":"Feature","properties":{"code":"1903012008","desa":"Rias","kecamatan":"Toboali","kecCode":"190301"},"geometry":{"type":"Polygon","coordinates":[[[106.35320800024908,-2.976352996396142],[106.3525990000439,-2.976141996558622],[106.35288199960466,-2.9757179967912806],[106.35320800024908,-2.976352996396142]]]}},{"type":"Feature","properties":{"code":"1903012008","desa":"Rias","kecamatan":"Toboali","kecCode":"190301"},"geometry":{"type":"Polygon","coordinates":[[[106.44874466383521,-2.971732757268394],[106.44666499509349,-2.9805240205650443],[106.43453511740181,-2.9820615473987564],[106.41373652701918,-2.966903068734409],[106.38642626316158,-2.9662665627650524],[106.38445130968022,-2.972149780994638],[106.35065430335345,-2.967082586904458],[106.36351510773606,-2.9303325703442846],[106.38392510465991,-2.916154774491111],[106.41181063065612,-2.90864199011179],[106.44170031291917,-2.9403256633403316],[106.44406387065118,-2.969270170691996],[106.44874466383521,-2.971732757268394]]]}},{"type":"Feature","properties":{"code":"1903012010","desa":"Kepoh","kecamatan":"Toboali","kecCode":"190301"},"geometry":{"type":"Polygon","coordinates":[[[106.60229556199069,-2.875980495714883],[106.60161235602548,-2.8754750218668557],[106.60230260727955,-2.8756145849571197],[106.60229556199069,-2.875980495714883]]]}},{"type":"Feature","properties":{"code":"1903012010","desa":"Kepoh","kecamatan":"Toboali","kecCode":"190301"},"geometry":{"type":"Polygon","coordinates":[[[106.5365170116508,-2.8720355727993003],[106.53479668861632,-2.85055544651589],[106.5056172657243,-2.8286954376074034],[106.50883226379801,-2.8008541016288886],[106.50289199886669,-2.7742841920841452],[106.47650962941594,-2.7593280869602683],[106.48595172669086,-2.7332094068557744],[106.5133395885512,-2.7248036496449823],[106.53786677173416,-2.7339293141529106],[106.55883549766014,-2.720628621694358],[106.5705914498356,-2.7303779012893683],[106.59780074500844,-2.7301962661151924],[106.61983923968921,-2.7522477451836207],[106.6263697971285,-2.7483679826468803],[106.62857860132145,-2.754876211711306],[106.6355250493416,-2.7504623606976843],[106.64580576622319,-2.7553957167818166],[106.59484244042636,-2.890590870867647],[106.59078178285306,-2.9301428466677324],[106.59990179782977,-2.955903200896664],[106.58475531790367,-2.969149919643408],[106.58747521041266,-2.9781424386231805],[106.57139635655665,-2.975954310745759],[106.56529075756247,-2.9680269730778677],[106.55703940134735,-2.9859023324188168],[106.54191333063572,-2.9809901041074793],[106.5175522198591,-2.944343648977444],[106.51394507870248,-2.928145482083181],[106.52354039077647,-2.928454778719569],[106.5401160759962,-2.9133843688644356],[106.54269856468703,-2.9030116333623748],[106.53702154031193,-2.8950051229789473],[106.54978981075124,-2.8836989460526783],[106.55061771583496,-2.871951912466746],[106.5365170116508,-2.8720355727993003]]]}},{"type":"Feature","properties":{"code":"1903012010","desa":"Kepoh","kecamatan":"Toboali","kecCode":"190301"},"geometry":{"type":"Polygon","coordinates":[[[106.64712290609731,-2.7544110832488764],[106.64598076530012,-2.75506067615254],[106.64589510397592,-2.7548251077361243],[106.64712290609731,-2.7544110832488764]]]}},{"type":"Feature","properties":{"code":"1903012012","desa":"Keposang","kecamatan":"Toboali","kecCode":"190301"},"geometry":{"type":"Polygon","coordinates":[[[106.60334500157062,-3.0442525662317266],[106.51770801301444,-3.0414407180465752],[106.5139034499843,-3.0369276286438867],[106.52079534333045,-3.0328604285071368],[106.51136453974175,-3.0104472493065417],[106.51449732269332,-2.9905768339407373],[106.50894061142013,-2.9846318763535087],[106.52678898032723,-2.976417967017989],[106.55703940134735,-2.9859023324188168],[106.56529075756247,-2.9680269730778677],[106.57139635655665,-2.975954310745759],[106.59364554980232,-2.980368550266473],[106.58907586336045,-2.995761577516221],[106.59784704480533,-3.01808489376001],[106.5955623513215,-3.0369097708060466],[106.60334500157062,-3.0442525662317266]]]}},{"type":"Feature","properties":{"code":"1903012013","desa":"Rindik","kecamatan":"Toboali","kecCode":"190301"},"geometry":{"type":"Polygon","coordinates":[[[106.50894061142013,-2.9846318763535087],[106.49553599868744,-2.965407467395099],[106.49608407432059,-2.9470322414791057],[106.51701019576399,-2.9325137680460616],[106.5175522198591,-2.944343648977444],[106.5260549770556,-2.950615665710845],[106.53699255066572,-2.977306057430005],[106.50894061142013,-2.9846318763535087]]]}},{"type":"Feature","properties":{"code":"1903022001","desa":"Tanjunglabu","kecamatan":"Lepar Pongok","kecCode":"190302"},"geometry":{"type":"Polygon","coordinates":[[[106.85516977316655,-3.046103536475821],[106.85521977277436,-3.0452775370564007],[106.85581877341768,-3.045902536200075],[106.85516977316655,-3.046103536475821]]]}},{"type":"Feature","properties":{"code":"1903022001","desa":"Tanjunglabu","kecamatan":"Lepar Pongok","kecCode":"190302"},"geometry":{"type":"Polygon","coordinates":[[[106.85504964172765,-3.042192187950125],[106.8548507548585,-3.0419410918392495],[106.85503555564644,-3.041902505527507],[106.85504964172765,-3.042192187950125]]]}},{"type":"Feature","properties":{"code":"1903022001","desa":"Tanjunglabu","kecamatan":"Lepar Pongok","kecCode":"190302"},"geometry":{"type":"Polygon","coordinates":[[[106.84926126599468,-3.0355608650800905],[106.84928256373938,-3.03529572425678],[106.8493292187685,-3.035555285686125],[106.84926126599468,-3.0355608650800905]]]}},{"type":"Feature","properties":{"code":"1903022001","desa":"Tanjunglabu","kecamatan":"Lepar Pongok","kecCode":"190302"},"geometry":{"type":"Polygon","coordinates":[[[106.85000169132506,-3.0345292347756607],[106.85015039782267,-3.0340479625832923],[106.85026788615409,-3.0343921295326286],[106.85000169132506,-3.0345292347756607]]]}},{"type":"Feature","properties":{"code":"1903022001","desa":"Tanjunglabu","kecamatan":"Lepar Pongok","kecCode":"190302"},"geometry":{"type":"Polygon","coordinates":[[[106.8456885436914,-3.0320878245354526],[106.84580247520414,-3.031937308602072],[106.84581908838025,-3.0321176667388947],[106.8456885436914,-3.0320878245354526]]]}},{"type":"Feature","properties":{"code":"1903022001","desa":"Tanjunglabu","kecamatan":"Lepar Pongok","kecCode":"190302"},"geometry":{"type":"Polygon","coordinates":[[[106.84571092691782,-3.0292508807686085],[106.84579474822907,-3.0289856248320643],[106.84597725214853,-3.029195764018384],[106.84571092691782,-3.0292508807686085]]]}},{"type":"Feature","properties":{"code":"1903022001","desa":"Tanjunglabu","kecamatan":"Lepar Pongok","kecCode":"190302"},"geometry":{"type":"Polygon","coordinates":[[[106.85805410311445,-3.040252871905652],[106.85787755810287,-3.0399354957600067],[106.85814516396822,-3.039942409747886],[106.85805410311445,-3.040252871905652]]]}},{"type":"Feature","properties":{"code":"1903022001","desa":"Tanjunglabu","kecamatan":"Lepar Pongok","kecCode":"190302"},"geometry":{"type":"Polygon","coordinates":[[[106.85787892417305,-3.038849014904735],[106.85757901465983,-3.0381004776903886],[106.85802222484584,-3.038759003559924],[106.85787892417305,-3.038849014904735]]]}},{"type":"Feature","properties":{"code":"1903022001","desa":"Tanjunglabu","kecamatan":"Lepar Pongok","kecCode":"190302"},"geometry":{"type":"Polygon","coordinates":[[[106.89544803609805,-3.031671832331632],[106.89517085964752,-3.0313735874638637],[106.89555175131231,-3.0315436222829253],[106.89544803609805,-3.031671832331632]]]}},{"type":"Feature","properties":{"code":"1903022001","desa":"Tanjunglabu","kecamatan":"Lepar Pongok","kecCode":"190302"},"geometry":{"type":"Polygon","coordinates":[[[106.88545160121049,-3.030450717570294],[106.8854600539384,-3.030018252484568],[106.88574571998906,-3.0302652009222752],[106.88545160121049,-3.030450717570294]]]}},{"type":"Feature","properties":{"code":"1903022001","desa":"Tanjunglabu","kecamatan":"Lepar Pongok","kecCode":"190302"},"geometry":{"type":"Polygon","coordinates":[[[106.83757799972494,-3.0299519967315405],[106.8357836516942,-3.015648684299134],[106.81769507206998,-3.00221113481041],[106.82430634276358,-2.979870195451794],[106.83206933473207,-2.9743082069628737],[106.82357465884348,-2.9600677274637914],[106.8189633868509,-2.9210872438437465],[106.83176872644559,-2.9252899007662614],[106.84337006357767,-2.9164569125240623],[106.87664463394276,-2.9303278084340274],[106.89393217393074,-2.930407401133043],[106.91062200020518,-2.947220996585811],[106.90592037062866,-2.9661955289140627],[106.8794996612804,-3.0079838515416673],[106.88124109589988,-3.022931548004467],[106.8956538216666,-3.030555418441443],[106.88365419998136,-3.0293918629889625],[106.8712746309195,-3.0327579192837777],[106.86820673944952,-3.031019413758072],[106.8609255880455,-3.034824171936976],[106.85471867682553,-3.040066251789459],[106.84909506678393,-3.030241530766019],[106.84537224133594,-3.0285923638922543],[106.83757799972494,-3.0299519967315405]]]}},{"type":"Feature","properties":{"code":"1903022002","desa":"Tanjungsangkar","kecamatan":"Lepar Pongok","kecCode":"190302"},"geometry":{"type":"Polygon","coordinates":[[[106.76596456701122,-2.9009702343732164],[106.77066513718638,-2.903911774689801],[106.76622868710429,-2.903261655682756],[106.76596456701122,-2.9009702343732164]]]}},{"type":"Feature","properties":{"code":"1903022002","desa":"Tanjungsangkar","kecamatan":"Lepar Pongok","kecCode":"190302"},"geometry":{"type":"Polygon","coordinates":[[[106.76006709362154,-2.89756108886126],[106.76023841537062,-2.8973540757183387],[106.76029552232058,-2.8975396742047734],[106.76006709362154,-2.89756108886126]]]}},{"type":"Feature","properties":{"code":"1903022002","desa":"Tanjungsangkar","kecamatan":"Lepar Pongok","kecCode":"190302"},"geometry":{"type":"Polygon","coordinates":[[[106.7173647332959,-2.89302798504649],[106.71698960538606,-2.892261219473539],[106.71765335541807,-2.8924551771583302],[106.7173647332959,-2.89302798504649]]]}},{"type":"Feature","properties":{"code":"1903022002","desa":"Tanjungsangkar","kecamatan":"Lepar Pongok","kecCode":"190302"},"geometry":{"type":"Polygon","coordinates":[[[106.77140547977912,-2.8831132598728586],[106.77736744894865,-2.8879479261543874],[106.76186038404956,-2.896867632424122],[106.7599038630729,-2.8861133100817207],[106.77140547977912,-2.8831132598728586]]]}},{"type":"Feature","properties":{"code":"1903022002","desa":"Tanjungsangkar","kecamatan":"Lepar Pongok","kecCode":"190302"},"geometry":{"type":"Polygon","coordinates":[[[106.71387676669944,-2.8855207000214698],[106.71205916309997,-2.8843452879071596],[106.71270918498094,-2.8836995180214964],[106.71387676669944,-2.8855207000214698]]]}},{"type":"Feature","properties":{"code":"1903022002","desa":"Tanjungsangkar","kecamatan":"Lepar Pongok","kecCode":"190302"},"geometry":{"type":"Polygon","coordinates":[[[106.7372903400772,-2.867315240926619],[106.74011652076088,-2.8760906842491325],[106.74820840019758,-2.8780178927209343],[106.74812708709543,-2.886450219502211],[106.7343009468313,-2.9046283679851714],[106.72256551628561,-2.9030385680575983],[106.71848196377168,-2.890915067471717],[106.73466330886468,-2.8800046704863145],[106.7372903400772,-2.867315240926619]]]}},{"type":"Feature","properties":{"code":"1903022002","desa":"Tanjungsangkar","kecamatan":"Lepar Pongok","kecCode":"190302"},"geometry":{"type":"Polygon","coordinates":[[[106.84270477840283,-2.917628273192514],[106.83176872644559,-2.9252899007662614],[106.8189633868509,-2.9210872438437465],[106.82573997631891,-2.9458332950061368],[106.81840463536571,-2.9506992648895074],[106.7923187616016,-2.9360620566648272],[106.80047083985744,-2.9129818089347],[106.79087425614205,-2.8974888220396546],[106.80773453721918,-2.8867178550448434],[106.83277200022768,-2.900470996424261],[106.83296604424758,-2.906702187534088],[106.84270477840283,-2.917628273192514]]]}},{"type":"Feature","properties":{"code":"1903022002","desa":"Tanjungsangkar","kecamatan":"Lepar Pongok","kecCode":"190302"},"geometry":{"type":"Polygon","coordinates":[[[106.83783875905151,-2.9105600237000657],[106.83689451676861,-2.9095667314944764],[106.8377901129234,-2.9094445846750543],[106.83783875905151,-2.9105600237000657]]]}},{"type":"Feature","properties":{"code":"1903022002","desa":"Tanjungsangkar","kecamatan":"Lepar Pongok","kecCode":"190302"},"geometry":{"type":"Polygon","coordinates":[[[106.78183864523737,-2.9084526477477657],[106.78146387975431,-2.907551426334457],[106.78182079909067,-2.9071885588825332],[106.78183864523737,-2.9084526477477657]]]}},{"type":"Feature","properties":{"code":"1903022002","desa":"Tanjungsangkar","kecamatan":"Lepar Pongok","kecCode":"190302"},"geometry":{"type":"Polygon","coordinates":[[[106.83573969822856,-2.906575350750122],[106.8342746009921,-2.9075326341010177],[106.83416773904997,-2.9073940530705173],[106.83573969822856,-2.906575350750122]]]}},{"type":"Feature","properties":{"code":"1903022002","desa":"Tanjungsangkar","kecamatan":"Lepar Pongok","kecCode":"190302"},"geometry":{"type":"Polygon","coordinates":[[[106.83369102462113,-2.9062762173521697],[106.8335090791807,-2.905559584486653],[106.83400116572129,-2.9056550924877937],[106.83369102462113,-2.9062762173521697]]]}},{"type":"Feature","properties":{"code":"1903022002","desa":"Tanjungsangkar","kecamatan":"Lepar Pongok","kecCode":"190302"},"geometry":{"type":"Polygon","coordinates":[[[106.78746308265524,-2.832873795747576],[106.80325664727648,-2.8403760400724747],[106.78114331011572,-2.8436310327927345],[106.78746308265524,-2.832873795747576]]]}},{"type":"Feature","properties":{"code":"1903022004","desa":"Kumbung","kecamatan":"Lepar Pongok","kecCode":"190302"},"geometry":{"type":"Polygon","coordinates":[[[106.79249027040969,-2.8991981004982357],[106.80015690181959,-2.9093018217969666],[106.79415668178551,-2.9211513484184404],[106.79711016330346,-2.928138024904751],[106.782530179824,-2.9371499971197483],[106.7781101126916,-2.9538086861488972],[106.76901316172807,-2.9475210203126148],[106.7551913687867,-2.9471366644597077],[106.74676708733124,-2.955514300769502],[106.7279834756569,-2.9496357383300964],[106.73208555240636,-2.9254543795737242],[106.76190283115079,-2.917996330631992],[106.77035096082824,-2.908097188011456],[106.78178806736547,-2.9109803659246536],[106.79249027040969,-2.8991981004982357]]]}},{"type":"Feature","properties":{"code":"1903022004","desa":"Kumbung","kecamatan":"Lepar Pongok","kecCode":"190302"},"geometry":{"type":"Polygon","coordinates":[[[106.84292990928793,-2.8427716145660527],[106.85371812079472,-2.8443072950916473],[106.85435512229111,-2.8582183268451864],[106.82887415411896,-2.8513324382797887],[106.84292990928793,-2.8427716145660527]]]}},{"type":"Feature","properties":{"code":"1903022005","desa":"Penutuk","kecamatan":"Lepar Pongok","kecCode":"190302"},"geometry":{"type":"Polygon","coordinates":[[[106.8291108808625,-3.0389329693156433],[106.82871827013211,-3.0381334702189076],[106.82903335840284,-3.0382180325714745],[106.8291108808625,-3.0389329693156433]]]}},{"type":"Feature","properties":{"code":"1903022005","desa":"Penutuk","kecamatan":"Lepar Pongok","kecCode":"190302"},"geometry":{"type":"Polygon","coordinates":[[[106.83146110794382,-3.0294071478664675],[106.83146622058966,-3.0289656427955074],[106.83159147096967,-3.02945254564332],[106.83146110794382,-3.0294071478664675]]]}},{"type":"Feature","properties":{"code":"1903022005","desa":"Penutuk","kecamatan":"Lepar Pongok","kecCode":"190302"},"geometry":{"type":"Polygon","coordinates":[[[106.79857466608803,-3.020603916392075],[106.79818763025497,-3.0205152108628406],[106.79845214604977,-3.020285251517971],[106.79857466608803,-3.020603916392075]]]}},{"type":"Feature","properties":{"code":"1903022005","desa":"Penutuk","kecamatan":"Lepar Pongok","kecCode":"190302"},"geometry":{"type":"Polygon","coordinates":[[[106.69505172775506,-2.976608727612861],[106.71350208665206,-2.981797472272111],[106.70969207462963,-2.992552230785732],[106.69689706015127,-2.9931515362985848],[106.69505172775506,-2.976608727612861]]]}},{"type":"Feature","properties":{"code":"1903022005","desa":"Penutuk","kecamatan":"Lepar Pongok","kecCode":"190302"},"geometry":{"type":"Polygon","coordinates":[[[106.82372640325097,-2.955488336442665],[106.83206933473207,-2.9743082069628737],[106.82430634276358,-2.979870195451794],[106.81769507206998,-3.00221113481041],[106.8357836516942,-3.015648684299134],[106.83774072755261,-3.028301454794425],[106.83104000039576,-3.0282459963018673],[106.82444964073841,-3.0318403275113606],[106.81528499960314,-3.0235689964632892],[106.79074026794905,-3.018056235963766],[106.7717817597205,-2.996679604560549],[106.70925882533457,-2.9672658651399018],[106.72732519710023,-2.9463691083827137],[106.73658528598223,-2.954437832066541],[106.74676708733124,-2.955514300769502],[106.75654625320709,-2.947008370774034],[106.77776787208965,-2.953994674041695],[106.78055512471929,-2.9401713747509204],[106.78846098029008,-2.9353201051857387],[106.80740213879771,-2.940312594392318],[106.82372640325097,-2.955488336442665]]]}},{"type":"Feature","properties":{"code":"1903022005","desa":"Penutuk","kecamatan":"Lepar Pongok","kecCode":"190302"},"geometry":{"type":"Polygon","coordinates":[[[106.69479641742076,-2.972284726965454],[106.69686960294989,-2.9739591477015335],[106.69600714231579,-2.974300789354624],[106.69479641742076,-2.972284726965454]]]}},{"type":"Feature","properties":{"code":"1903022005","desa":"Penutuk","kecamatan":"Lepar Pongok","kecCode":"190302"},"geometry":{"type":"Polygon","coordinates":[[[106.69791071930432,-2.9706274104353376],[106.69782771907404,-2.970315410436879],[106.69799071939623,-2.9703624108056017],[106.69791071930432,-2.9706274104353376]]]}},{"type":"Feature","properties":{"code":"1903022005","desa":"Penutuk","kecamatan":"Lepar Pongok","kecCode":"190302"},"geometry":{"type":"Polygon","coordinates":[[[106.70506132691878,-2.9663619187808634],[106.70320756967367,-2.9646366575708907],[106.70399662494434,-2.964308802524791],[106.70506132691878,-2.9663619187808634]]]}},{"type":"Feature","properties":{"code":"1903022005","desa":"Penutuk","kecamatan":"Lepar Pongok","kecCode":"190302"},"geometry":{"type":"Polygon","coordinates":[[[106.66590932995165,-2.960502017273964],[106.67885045728285,-2.962030925904514],[106.67677475275268,-2.9686092715115677],[106.66590932995165,-2.960502017273964]]]}},{"type":"Feature","properties":{"code":"1903022005","desa":"Penutuk","kecamatan":"Lepar Pongok","kecCode":"190302"},"geometry":{"type":"Polygon","coordinates":[[[106.69161971697639,-2.959245894603392],[106.69624653644853,-2.9639870538753366],[106.69073347467018,-2.9662346413291054],[106.69161971697639,-2.959245894603392]]]}},{"type":"Feature","properties":{"code":"1903032001","desa":"Airgegas","kecamatan":"Air Gegas","kecCode":"190303"},"geometry":{"type":"Polygon","coordinates":[[[106.44464218868615,-2.6651039003662174],[106.4598980135825,-2.7054344012740286],[106.45038965156122,-2.7022726754445014],[106.4441020387781,-2.7318921131990357],[106.4108969266519,-2.7240317273595216],[106.33172343398934,-2.7400464541402076],[106.34015351966922,-2.728875375170299],[106.35904045984938,-2.7277542533292185],[106.35977554680409,-2.7115148228416253],[106.35363961097931,-2.705778427029843],[106.36144401672804,-2.691946576985108],[106.35677568724822,-2.6805636366271033],[106.38469294942013,-2.6816064580950028],[106.40349650266154,-2.6711620933907696],[106.44464218868615,-2.6651039003662174]]]}},{"type":"Feature","properties":{"code":"1903032002","desa":"Delas","kecamatan":"Air Gegas","kecCode":"190303"},"geometry":{"type":"Polygon","coordinates":[[[106.34985076629988,-2.6730793976288396],[106.36144401672804,-2.691946576985108],[106.35363961097931,-2.705778427029843],[106.35977554680409,-2.7115148228416253],[106.35904045984938,-2.7277542533292185],[106.34015351966922,-2.728875375170299],[106.33166664539942,-2.7391212487073555],[106.3462772525932,-2.776060090521166],[106.27808374287048,-2.8311701137701073],[106.25459365337446,-2.8237977585280833],[106.21515088580479,-2.84143112379647],[106.26422414063165,-2.814861094641915],[106.29726303106412,-2.7844169219147075],[106.30592835960618,-2.753145570756884],[106.30001530276407,-2.7472654542890727],[106.30999319363104,-2.7292967929839738],[106.29388313599797,-2.676024002835041],[106.30462724744955,-2.6727580365872123],[106.31920721923785,-2.6824996620522423],[106.34985076629988,-2.6730793976288396]]]}},{"type":"Feature","properties":{"code":"1903032003","desa":"Pergam","kecamatan":"Air Gegas","kecCode":"190303"},"geometry":{"type":"Polygon","coordinates":[[[106.43715587224581,-2.8045648608689517],[106.42668340731348,-2.816820183180872],[106.40038336629935,-2.8259213051901146],[106.35740955280868,-2.87090061308991],[106.34898071628707,-2.9091253298456126],[106.33062233825035,-2.907783404657351],[106.31218298076003,-2.9252277324319405],[106.27721290685025,-2.901692754200822],[106.23066821466642,-2.896579590364973],[106.27418104132204,-2.8345317588902534],[106.3462772525932,-2.776060090521166],[106.4269999353988,-2.7898377950835807],[106.43715587224581,-2.8045648608689517]]]}},{"type":"Feature","properties":{"code":"1903032004","desa":"Bencah","kecamatan":"Air Gegas","kecCode":"190303"},"geometry":{"type":"Polygon","coordinates":[[[106.50862349337956,-2.7980030322106653],[106.44642425827294,-2.809774770173188],[106.4269999353988,-2.7898377950835807],[106.3462772525932,-2.776060090521166],[106.33383356726539,-2.742012391016588],[106.4108969266519,-2.7240317273595216],[106.4441020387781,-2.7318921131990357],[106.45038965156122,-2.7022726754445014],[106.45713853921227,-2.7083171771902514],[106.45887278465135,-2.6922120649467036],[106.47011556478155,-2.6902429669533734],[106.49518946742005,-2.70282779186936],[106.5133395885512,-2.7248036496449823],[106.48618622131708,-2.733009694409159],[106.47579926122698,-2.7558525867699],[106.4999414680244,-2.77009633980114],[106.50862349337956,-2.7980030322106653]]]}},{"type":"Feature","properties":{"code":"1903032005","desa":"Nyelanding","kecamatan":"Air Gegas","kecCode":"190303"},"geometry":{"type":"Polygon","coordinates":[[[106.29058877365304,-2.662461407112631],[106.30999319363104,-2.7292967929839738],[106.30001530276407,-2.7472654542890727],[106.30592835960618,-2.753145570756884],[106.29726303106412,-2.7844169219147075],[106.26422414063165,-2.814861094641915],[106.2349205402508,-2.8274989291966004],[106.26889053387112,-2.7728464288434864],[106.22975757375309,-2.7590955069909593],[106.21144422656987,-2.7189720902724335],[106.21873333877261,-2.6796859135996116],[106.23911596033336,-2.6711331046439595],[106.27089494104875,-2.670642521770402],[106.28037975342295,-2.660921368472387],[106.29058877365304,-2.662461407112631]]]}},{"type":"Feature","properties":{"code":"1903032006","desa":"Nangka","kecamatan":"Air Gegas","kecCode":"190303"},"geometry":{"type":"Polygon","coordinates":[[[106.48556447142327,-2.661700513213354],[106.40349650266154,-2.6711620933907696],[106.38469294942013,-2.6816064580950028],[106.35677568724822,-2.6805636366271033],[106.34985076629988,-2.6730793976288396],[106.33124628069133,-2.6770948462785347],[106.32465210431121,-2.6350567297585696],[106.35917449840444,-2.6179949726827965],[106.4149739878593,-2.6288371830706487],[106.44382473462389,-2.6166966879961264],[106.46083483286128,-2.6177263227049257],[106.4654075716022,-2.6245749730423413],[106.47968099058528,-2.613911091920779],[106.4883794159773,-2.6195764583781016],[106.49108513157363,-2.6460323824507577],[106.48556447142327,-2.661700513213354]]]}},{"type":"Feature","properties":{"code":"1903032007","desa":"Ranggas","kecamatan":"Air Gegas","kecCode":"190303"},"geometry":{"type":"Polygon","coordinates":[[[106.33124628069133,-2.6770948462785347],[106.31920721923785,-2.6824996620522423],[106.30462724744955,-2.6727580365872123],[106.29225819505972,-2.676586475714267],[106.29058877365304,-2.662461407112631],[106.28095445708259,-2.6609004160674137],[106.27089494104875,-2.670642521770402],[106.24167402433682,-2.672914771332581],[106.26039539033506,-2.6483792883332407],[106.25477450433999,-2.6391961796297942],[106.2397636880438,-2.637621249092859],[106.223715521754,-2.6176304468809906],[106.26591326258705,-2.60352177921555],[106.26435979257042,-2.5969522136896726],[106.25482788180135,-2.595438138476929],[106.26814712728816,-2.5925130863306984],[106.2827589170904,-2.5994480428062143],[106.29344020640046,-2.5918937115470735],[106.3213421522186,-2.5957313660270134],[106.3738104493928,-2.5838403950485076],[106.40941696542068,-2.6003172537505663],[106.43342014332501,-2.60148119231423],[106.44757618639191,-2.5841233298578428],[106.4521227710491,-2.5899116956918293],[106.46083483286128,-2.6177263227049257],[106.44382473462389,-2.6166966879961264],[106.41856754655508,-2.6288330830614686],[106.35917449840444,-2.6179949726827965],[106.3250974216088,-2.6336430386711953],[106.33124628069133,-2.6770948462785347]]]}},{"type":"Feature","properties":{"code":"1903032008","desa":"Airbara","kecamatan":"Air Gegas","kecCode":"190303"},"geometry":{"type":"Polygon","coordinates":[[[106.4577867876302,-2.573115119908898],[106.43442595589323,-2.6014546110525028],[106.40941696542068,-2.6003172537505663],[106.3738104493928,-2.5838403950485076],[106.3213421522186,-2.5957313660270134],[106.29344020640046,-2.5918937115470735],[106.2827589170904,-2.5994480428062143],[106.25296130741845,-2.591647369252499],[106.25731539668827,-2.576636402785947],[106.28946408959608,-2.5697296247681436],[106.30106506520063,-2.5513142899884196],[106.30786084260386,-2.5528301089866234],[106.31114413429441,-2.5471272785715113],[106.32792111027105,-2.554854385783295],[106.33587646182927,-2.5476672468159127],[106.37149824474822,-2.553981649496516],[106.37869302166568,-2.5644590310109905],[106.39081298523114,-2.5669692393876358],[106.40056777768085,-2.563739161485405],[106.42061048518582,-2.569459663578675],[106.4299274597845,-2.5621401560973935],[106.44886786735826,-2.5692972577084525],[106.4576460491259,-2.5635006945539844],[106.4577867876302,-2.573115119908898]]]}},{"type":"Feature","properties":{"code":"1903032009","desa":"Sidoharjo","kecamatan":"Air Gegas","kecCode":"190303"},"geometry":{"type":"Polygon","coordinates":[[[106.2349205402508,-2.8274989291966004],[106.214876808418,-2.841118626472971],[106.20051835044158,-2.831147116306738],[106.2159068748025,-2.81064398021823],[106.22098496868142,-2.767151610488511],[106.22975757375309,-2.7590955069909593],[106.26889053387112,-2.7728464288434864],[106.2349205402508,-2.8274989291966004]]]}},{"type":"Feature","properties":{"code":"1903032010","desa":"Tepus","kecamatan":"Air Gegas","kecCode":"190303"},"geometry":{"type":"Polygon","coordinates":[[[106.6446422035749,-2.7556806651731476],[106.63914138067025,-2.755886004677783],[106.6355250493416,-2.7504623606976843],[106.62857860132145,-2.754876211711306],[106.6263697971285,-2.7483679826468803],[106.61983923968921,-2.7522477451836207],[106.59780074500844,-2.7301962661151924],[106.5705914498356,-2.7303779012893683],[106.55883549766014,-2.720628621694358],[106.53786677173416,-2.7339293141529106],[106.51870648621542,-2.7283172091443317],[106.49450086822053,-2.7023484046559707],[106.45201559344497,-2.687013638186416],[106.44464218868615,-2.6651039003662174],[106.47983153979379,-2.6595692926362586],[106.4932414567279,-2.67582998039906],[106.50927344511346,-2.6509334933429582],[106.5331960608496,-2.648930518787522],[106.54668623598103,-2.655908574372719],[106.56821754360482,-2.652019841098547],[106.56126732562666,-2.663548563358658],[106.5795509088474,-2.6839915527888074],[106.6334800872363,-2.6949453636464815],[106.64241764056173,-2.717316266616856],[106.65613098425757,-2.7212022317778386],[106.6625579586829,-2.7160543091449134],[106.6446422035749,-2.7556806651731476]]]}},{"type":"Feature","properties":{"code":"1903052001","desa":"Payung","kecamatan":"Payung","kecCode":"190305"},"geometry":{"type":"Polygon","coordinates":[[[106.19093947707529,-2.5608636224137045],[106.2123443867841,-2.572561855188114],[106.2122092375663,-2.6224057453170104],[106.19416487311047,-2.62805409929921],[106.1848486872172,-2.6173899798573284],[106.17373411443788,-2.626956402099437],[106.1597263237109,-2.624751779756378],[106.14761733367305,-2.635647434155444],[106.133922143692,-2.6146841851235876],[106.12861780556732,-2.5875010395676115],[106.1146807923847,-2.5751334234086376],[106.10931602701311,-2.559661296288608],[106.13732034535768,-2.5507332182299547],[106.1575801635937,-2.5651600174715514],[106.19093947707529,-2.5608636224137045]]]}},{"type":"Feature","properties":{"code":"1903052002","desa":"Malik","kecamatan":"Payung","kecCode":"190305"},"geometry":{"type":"Polygon","coordinates":[[[106.15037168010899,-2.521136314788025],[106.16360513027264,-2.528591233189687],[106.10600495256658,-2.523449194820868],[106.09916400221698,-2.5401054224054733],[106.07670234683587,-2.545722087876091],[106.02577216465374,-2.5380245440778864],[106.03574210731246,-2.526008266062208],[106.03240213584995,-2.516958878453007],[106.05433997301138,-2.51315492606665],[106.05098744791246,-2.501852462441237],[106.05907650077995,-2.4994815500561436],[106.06047945216505,-2.491452738284668],[106.0702927149369,-2.500313266465811],[106.10320577762462,-2.489446429043144],[106.1209667809922,-2.5014160376405803],[106.1467993813864,-2.5060687530859327],[106.15037168010899,-2.521136314788025]]]}},{"type":"Feature","properties":{"code":"1903052003","desa":"Sengir","kecamatan":"Payung","kecCode":"190305"},"geometry":{"type":"Polygon","coordinates":[[[106.23945166825995,-2.67108417433015],[106.21873333877261,-2.6796859135996116],[106.1970302300611,-2.660638560467508],[106.14289137383787,-2.642964071000736],[106.16037851205874,-2.624445677511915],[106.17373411443788,-2.626956402099437],[106.1848486872172,-2.6173899798573284],[106.19350301884928,-2.6279222856670224],[106.2032102146797,-2.627474994358116],[106.223715521754,-2.6176304468809906],[106.2397636880438,-2.637621249092859],[106.25477450433999,-2.6391961796297942],[106.26039539033506,-2.6483792883332407],[106.23945166825995,-2.67108417433015]]]}},{"type":"Feature","properties":{"code":"1903052004","desa":"Pangkal Buluh","kecamatan":"Payung","kecCode":"190305"},"geometry":{"type":"Polygon","coordinates":[[[106.19093947707529,-2.5608636224137045],[106.1575801635937,-2.5651600174715514],[106.13662782961067,-2.55074179326571],[106.11452715940094,-2.559778561587975],[106.07430502135969,-2.563742539339],[106.06912990142388,-2.5946344521367477],[106.05938277029865,-2.5869890330443313],[106.02096540073272,-2.582118140272153],[106.02768791666409,-2.5716997578811016],[106.0226895413893,-2.5557121087878607],[106.02658102929114,-2.539951424297204],[106.05051664832472,-2.537920534785425],[106.07145822461744,-2.545943049503927],[106.09714146200895,-2.5416223304826855],[106.10600495256658,-2.523449194820868],[106.16360513027264,-2.528591233189687],[106.19093947707529,-2.5608636224137045]]]}},{"type":"Feature","properties":{"code":"1903052005","desa":"Irat","kecamatan":"Payung","kecCode":"190305"},"geometry":{"type":"Polygon","coordinates":[[[106.14289137383787,-2.642964071000736],[106.1970302300611,-2.660638560467508],[106.20547009137168,-2.671105988285634],[106.12557519044276,-2.7019550555825567],[106.09953908336206,-2.702937098168716],[106.05644218955547,-2.6785299520224943],[106.06684265656344,-2.672285218022029],[106.11388400114576,-2.679199698733188],[106.11492093025679,-2.660960022233265],[106.12646957431143,-2.648722039749732],[106.13537410003475,-2.649844374776228],[106.14289137383787,-2.642964071000736]]]}},{"type":"Feature","properties":{"code":"1903052006","desa":"Bedengung","kecamatan":"Payung","kecCode":"190305"},"geometry":{"type":"Polygon","coordinates":[[[106.21873333877261,-2.6796859135996116],[106.21144422656987,-2.7189720902724335],[106.22978491943854,-2.7529601818125253],[106.20415642377998,-2.753989475678191],[106.19873157200453,-2.7608749712399163],[106.20044288832865,-2.7848691630921896],[106.18804988609344,-2.771097680939029],[106.17912394031764,-2.7804347841535786],[106.17609912367566,-2.7595702429107805],[106.16578737568688,-2.7555337932926447],[106.17363527804571,-2.7345575526545836],[106.17157648886392,-2.7180965606913086],[106.15548583680197,-2.727827933885034],[106.13568356574403,-2.7213213146070845],[106.08636160790195,-2.7328474081488867],[106.04766673183427,-2.7057559781529767],[106.04902044983396,-2.684803808768698],[106.05644218955547,-2.6785299520224943],[106.09953908336206,-2.702937098168716],[106.14144278006027,-2.6983334362442424],[106.16356144120759,-2.683723859689482],[106.1805077676194,-2.684285992625019],[106.20547009137168,-2.671105988285634],[106.21873333877261,-2.6796859135996116]]]}},{"type":"Feature","properties":{"code":"1903052008","desa":"Nadung","kecamatan":"Payung","kecCode":"190305"},"geometry":{"type":"Polygon","coordinates":[[[106.10931602701311,-2.559661296288608],[106.1146807923847,-2.5751334234086376],[106.12861780556732,-2.5875010395676115],[106.133922143692,-2.6146841851235876],[106.14761733367305,-2.635647434155444],[106.15514606933566,-2.632347185751291],[106.13537410003475,-2.649844374776228],[106.12623934067305,-2.6489422423497753],[106.10974533727754,-2.6149618157315],[106.09006043584048,-2.59768683029819],[106.084618482557,-2.578855752426826],[106.07307445921897,-2.5758190350594945],[106.07430502135969,-2.563742539339],[106.10931602701311,-2.559661296288608]]]}},{"type":"Feature","properties":{"code":"1903052009","desa":"Ranggung","kecamatan":"Payung","kecCode":"190305"},"geometry":{"type":"Polygon","coordinates":[[[106.06386993944619,-2.6294409851937655],[106.07307445921897,-2.5758190350594945],[106.08420833234874,-2.5784704945538657],[106.09070690809737,-2.5987437423438755],[106.10974533727754,-2.6149618157315],[106.12613640876833,-2.6431312306872377],[106.11472356234258,-2.6613096093966266],[106.11388400114576,-2.679199698733188],[106.06684265656344,-2.672285218022029],[106.06386993944619,-2.6294409851937655]]]}},{"type":"Feature","properties":{"code":"1903052012","desa":"Paku","kecamatan":"Payung","kecCode":"190305"},"geometry":{"type":"Polygon","coordinates":[[[106.25482788180135,-2.595438138476929],[106.26435979257042,-2.5969522136896726],[106.26591326258705,-2.60352177921555],[106.2122092375663,-2.6224057453170104],[106.2123443867841,-2.572561855188114],[106.23875344541523,-2.5833264585800504],[106.2564252738074,-2.577538675506665],[106.25482788180135,-2.595438138476929]]]}},{"type":"Feature","properties":{"code":"1903062001","desa":"Sadai","kecamatan":"Tukak Sadai","kecCode":"190306"},"geometry":{"type":"Polygon","coordinates":[[[106.7290999453063,-3.0311108649175225],[106.68681171199096,-3.0188710577094393],[106.68597885973661,-3.01831597096221],[106.69702478276758,-3.003068038532611],[106.73974869444675,-3.0049334662778935],[106.74381965375409,-3.0139092236934273],[106.7290999453063,-3.0311108649175225]]]}},{"type":"Feature","properties":{"code":"1903062002","desa":"Tukak","kecamatan":"Tukak Sadai","kecCode":"190306"},"geometry":{"type":"Polygon","coordinates":[[[106.68287635156241,-2.9916104319617944],[106.66828638470894,-3.0121407779381584],[106.6542493956931,-2.9967440580721516],[106.62322229497299,-2.9832481488779217],[106.62496011072061,-2.9709637200080055],[106.67520516868363,-2.9750420996170903],[106.68287635156241,-2.9916104319617944]]]}},{"type":"Feature","properties":{"code":"1903062003","desa":"Pasir Putih","kecamatan":"Tukak Sadai","kecCode":"190306"},"geometry":{"type":"Polygon","coordinates":[[[106.7055479788562,-3.099651724216428],[106.70506816536363,-3.099880148418616],[106.70505864783836,-3.09981352394359],[106.7055479788562,-3.099651724216428]]]}},{"type":"Feature","properties":{"code":"1903062003","desa":"Pasir Putih","kecamatan":"Tukak Sadai","kecCode":"190306"},"geometry":{"type":"Polygon","coordinates":[[[106.69830633377033,-3.0973318726390846],[106.69845064078453,-3.0975658555508425],[106.69827020440647,-3.097609198376748],[106.69830633377033,-3.0973318726390846]]]}},{"type":"Feature","properties":{"code":"1903062003","desa":"Pasir Putih","kecamatan":"Tukak Sadai","kecCode":"190306"},"geometry":{"type":"Polygon","coordinates":[[[106.69878721116095,-3.0970710404676747],[106.6988728706865,-3.0966070451510896],[106.69899422430403,-3.0970424878921134],[106.69878721116095,-3.0970710404676747]]]}},{"type":"Feature","properties":{"code":"1903062003","desa":"Pasir Putih","kecamatan":"Tukak Sadai","kecCode":"190306"},"geometry":{"type":"Polygon","coordinates":[[[106.70026485573855,-3.0959360375908296],[106.69991507522059,-3.095143677312509],[106.70023630226358,-3.095022324594384],[106.70026485573855,-3.0959360375908296]]]}},{"type":"Feature","properties":{"code":"1903062003","desa":"Pasir Putih","kecamatan":"Tukak Sadai","kecCode":"190306"},"geometry":{"type":"Polygon","coordinates":[[[106.7105072552057,-3.093689991575071],[106.71077128806456,-3.094535989218841],[106.71014065736551,-3.093957354623134],[106.7105072552057,-3.093689991575071]]]}},{"type":"Feature","properties":{"code":"1903062003","desa":"Pasir Putih","kecamatan":"Tukak Sadai","kecCode":"190306"},"geometry":{"type":"Polygon","coordinates":[[[106.68824619810361,-3.0925643416474946],[106.68884582287647,-3.0918885748749823],[106.6883223410033,-3.0927071099214674],[106.68824619810361,-3.0925643416474946]]]}},{"type":"Feature","properties":{"code":"1903062003","desa":"Pasir Putih","kecamatan":"Tukak Sadai","kecCode":"190306"},"geometry":{"type":"Polygon","coordinates":[[[106.67492402982019,-3.0906860428050766],[106.67714357731431,-3.0639087109257503],[106.66810230607659,-3.0472545355938983],[106.66554392281387,-3.0191455757637584],[106.68287635156241,-2.9916104319617944],[106.69702478276758,-3.003068038532611],[106.68597885973661,-3.01831597096221],[106.7290999453063,-3.0311108649175225],[106.74311939214631,-3.056627564925568],[106.7324526286859,-3.072218610299063],[106.73823448073678,-3.0862848056824976],[106.72022489935965,-3.0822629889333504],[106.70469999370982,-3.0979198808684205],[106.70006282394023,-3.094085874937974],[106.69044839317888,-3.0931517878005352],[106.6871623900323,-3.089282968214389],[106.67492402982019,-3.0906860428050766]]]}},{"type":"Feature","properties":{"code":"1903062003","desa":"Pasir Putih","kecamatan":"Tukak Sadai","kecCode":"190306"},"geometry":{"type":"Polygon","coordinates":[[[106.71275486874224,-3.095385755021946],[106.71243231969582,-3.095634056939263],[106.71228334879754,-3.0952969937347143],[106.71275486874224,-3.095385755021946]]]}},{"type":"Feature","properties":{"code":"1903062003","desa":"Pasir Putih","kecamatan":"Tukak Sadai","kecCode":"190306"},"geometry":{"type":"Polygon","coordinates":[[[106.73828930880461,-3.0865296038411],[106.73852516500442,-3.086220401633499],[106.73854161630258,-3.086379528575496],[106.73828930880461,-3.0865296038411]]]}},{"type":"Feature","properties":{"code":"1903062003","desa":"Pasir Putih","kecamatan":"Tukak Sadai","kecCode":"190306"},"geometry":{"type":"Polygon","coordinates":[[[106.72908569105186,-3.0847354194889625],[106.72947208117164,-3.0854790329151536],[106.72895291694361,-3.0850338037516574],[106.72908569105186,-3.0847354194889625]]]}},{"type":"Feature","properties":{"code":"1903062003","desa":"Pasir Putih","kecamatan":"Tukak Sadai","kecCode":"190306"},"geometry":{"type":"Polygon","coordinates":[[[106.74502364812292,-3.057356894419741],[106.74486660311129,-3.0567358558903295],[106.74505934041628,-3.05629327523019],[106.74502364812292,-3.057356894419741]]]}},{"type":"Feature","properties":{"code":"1903062003","desa":"Pasir Putih","kecamatan":"Tukak Sadai","kecCode":"190306"},"geometry":{"type":"Polygon","coordinates":[[[106.74405996609458,-3.056057708612354],[106.74393147455793,-3.0551297197777108],[106.74425270160094,-3.0551868267276285],[106.74405996609458,-3.056057708612354]]]}},{"type":"Feature","properties":{"code":"1903062003","desa":"Pasir Putih","kecamatan":"Tukak Sadai","kecCode":"190306"},"geometry":{"type":"Polygon","coordinates":[[[106.74320336004706,-3.0548655987856406],[106.74341751200865,-3.054251698175281],[106.7435317259085,-3.0548299073916345],[106.74320336004706,-3.0548655987856406]]]}},{"type":"Feature","properties":{"code":"1903062004","desa":"Tiram","kecamatan":"Tukak Sadai","kecCode":"190306"},"geometry":{"type":"Polygon","coordinates":[[[106.67467480789612,-3.0697078965034694],[106.65394120432317,-3.0604510919555596],[106.63579781731544,-3.036656481248626],[106.60334500157062,-3.0442525662317266],[106.5955623513215,-3.0369097708060466],[106.59670178066273,-3.015533753639804],[106.61023334079613,-3.006335794431328],[106.62322229497299,-2.9832481488779217],[106.666322582821,-3.0070151189217658],[106.67467480789612,-3.0697078965034694]]]}},{"type":"Feature","properties":{"code":"1903062005","desa":"Bukit Terap","kecamatan":"Tukak Sadai","kecCode":"190306"},"geometry":{"type":"Polygon","coordinates":[[[106.59364554980232,-2.980368550266473],[106.58475531790367,-2.969149919643408],[106.59990179782977,-2.955903200896664],[106.61402466490641,-2.9650696379681585],[106.62847307487253,-2.963545537113213],[106.61852988344741,-2.994158256281663],[106.59700651324003,-3.015089749352917],[106.58907586336045,-2.995761577516221],[106.59364554980232,-2.980368550266473]]]}},{"type":"Feature","properties":{"code":"1903072001","desa":"Batu Betumpang","kecamatan":"Pulaubesar","kecCode":"190307"},"geometry":{"type":"Polygon","coordinates":[[[106.14257537365461,-2.8778300926941647],[106.14181637372673,-2.8773610926503386],[106.14260737423096,-2.8772230925818603],[106.14257537365461,-2.8778300926941647]]]}},{"type":"Feature","properties":{"code":"1903072001","desa":"Batu Betumpang","kecamatan":"Pulaubesar","kecCode":"190307"},"geometry":{"type":"Polygon","coordinates":[[[106.2197086697194,-2.839796565510007],[106.25459365337446,-2.8237977585280833],[106.27806961542046,-2.831061461277915],[106.23066821466642,-2.896579590364973],[106.18247850597832,-2.87144826873911],[106.14237777461464,-2.8754928059603473],[106.12879786602879,-2.8551394438644535],[106.0936413293839,-2.837174512947224],[106.05689099981987,-2.8302749969548757],[106.03309772008377,-2.832742445266272],[106.02911984600418,-2.7763212401532376],[106.0727306960648,-2.7794750951161777],[106.15764418722948,-2.7997808003381808],[106.14863610367331,-2.8464812271705404],[106.21269938966516,-2.8524799489276043],[106.2197086697194,-2.839796565510007]]]}},{"type":"Feature","properties":{"code":"1903072002","desa":"Suka Jaya","kecamatan":"Pulaubesar","kecCode":"190307"},"geometry":{"type":"Polygon","coordinates":[[[106.04974514422308,-2.7071243461073258],[106.08636160790195,-2.7328474081488867],[106.13568356574403,-2.7213213146070845],[106.15548583680197,-2.727827933885034],[106.17157648886392,-2.7180965606913086],[106.17363527804571,-2.7345575526545836],[106.16578737568688,-2.7555337932926447],[106.17609912367566,-2.7595702429107805],[106.1781026333299,-2.7933597776331576],[106.15688566574094,-2.8100043239238093],[106.15764418722948,-2.7997808003381808],[106.13355425442533,-2.7924138805986716],[106.02939485958518,-2.7758600246410707],[106.035553152556,-2.7583830532749767],[106.0472747308442,-2.748634956288479],[106.05057369142276,-2.7322505218122908],[106.04025015961723,-2.7186423565425235],[106.04974514422308,-2.7071243461073258]]]}},{"type":"Feature","properties":{"code":"1903072003","desa":"Panca Tunggal","kecamatan":"Pulaubesar","kecCode":"190307"},"geometry":{"type":"Polygon","coordinates":[[[106.214876808418,-2.841118626472971],[106.21269938966516,-2.8524799489276043],[106.14863610367331,-2.8464812271705404],[106.14871462707845,-2.8393277741089227],[106.165443886826,-2.839130648112625],[106.16582120278635,-2.8099807131228602],[106.21135385279814,-2.810741957757724],[106.20051835044158,-2.831147116306738],[106.214876808418,-2.841118626472971]]]}},{"type":"Feature","properties":{"code":"1903072004","desa":"Sumber Jaya Permai","kecamatan":"Pulaubesar","kecCode":"190307"},"geometry":{"type":"Polygon","coordinates":[[[106.22978491943854,-2.7529601818125253],[106.22098496868142,-2.767151610488511],[106.2159068748025,-2.81064398021823],[106.20097762521725,-2.8107074921396586],[106.19896716020634,-2.7602400840502703],[106.20415642377998,-2.753989475678191],[106.22978491943854,-2.7529601818125253]]]}},{"type":"Feature","properties":{"code":"1903072005","desa":"Fajar Indah","kecamatan":"Pulaubesar","kecCode":"190307"},"geometry":{"type":"Polygon","coordinates":[[[106.17912394031764,-2.7804347841535786],[106.18804988609344,-2.771097680939029],[106.20044288832865,-2.7848691630921896],[106.20097762521725,-2.8107074921396586],[106.16582120278635,-2.8099807131228602],[106.165443886826,-2.839130648112625],[106.14871462707845,-2.8393277741089227],[106.15688566574094,-2.8100043239238093],[106.1781026333299,-2.7933597776331576],[106.17912394031764,-2.7804347841535786]]]}},{"type":"Feature","properties":{"code":"1903082001","desa":"Pongok","kecamatan":"Kepulauan Pongok","kecCode":"190308"},"geometry":{"type":"Polygon","coordinates":[[[107.05605021084862,-2.8191390014372044],[107.06210376607599,-2.826455246178149],[107.05915929126832,-2.8403803900932774],[107.0675050070505,-2.848524856478365],[107.0709025540097,-2.839680074526889],[107.07526021538666,-2.8415674664144337],[107.08543718467837,-2.852095919528638],[107.08453201164309,-2.860366097645868],[107.08771414129467,-2.8554570826122108],[107.09270087484553,-2.861206884617704],[107.08883926332142,-2.86490407039018],[107.09477415660211,-2.8753979499676285],[107.08451869358287,-2.91201084419744],[107.0774410983281,-2.9063931678889157],[107.05287011006759,-2.9085316154178664],[107.01941432091421,-2.878226175706573],[107.02788861816526,-2.870028527912285],[107.03078464019903,-2.85399115979969],[107.03523838334479,-2.862623179242429],[107.03680586030224,-2.8642261272583114],[107.03891361936809,-2.8640033498992934],[107.0345561612379,-2.85104126478126],[107.04074412823898,-2.8385416749106875],[107.04722928790136,-2.8429929386206663],[107.04808207992409,-2.8275723822239294],[107.05605021084862,-2.8191390014372044]]]}},{"type":"Feature","properties":{"code":"1903082001","desa":"Pongok","kecamatan":"Kepulauan Pongok","kecCode":"190308"},"geometry":{"type":"Polygon","coordinates":[[[107.08885209035174,-2.8531833545645915],[107.09502013107425,-2.8541580847631294],[107.09316006238701,-2.8565643998598382],[107.08885209035174,-2.8531833545645915]]]}},{"type":"Feature","properties":{"code":"1903082001","desa":"Pongok","kecamatan":"Kepulauan Pongok","kecCode":"190308"},"geometry":{"type":"Polygon","coordinates":[[[107.0666718085572,-2.8417827578168295],[107.06691702669946,-2.8438895752901687],[107.06371773618463,-2.8431659492964285],[107.0666718085572,-2.8417827578168295]]]}},{"type":"Feature","properties":{"code":"1903082001","desa":"Pongok","kecamatan":"Kepulauan Pongok","kecCode":"190308"},"geometry":{"type":"Polygon","coordinates":[[[107.07807969971844,-2.8399546411445833],[107.08173468840522,-2.8417048702324506],[107.0825074560543,-2.8439534199607874],[107.07962311171728,-2.8432028107084144],[107.07807969971844,-2.8399546411445833]]]}},{"type":"Feature","properties":{"code":"1903082001","desa":"Pongok","kecamatan":"Kepulauan Pongok","kecCode":"190308"},"geometry":{"type":"Polygon","coordinates":[[[107.10179099995474,-2.83996199669959],[107.1014620000713,-2.8389449965662665],[107.10240899967566,-2.839851997022931],[107.10179099995474,-2.83996199669959]]]}},{"type":"Feature","properties":{"code":"1903082002","desa":"Celagen","kecamatan":"Kepulauan Pongok","kecCode":"190308"},"geometry":{"type":"Polygon","coordinates":[[[107.02334129426536,-2.8725092771967273],[107.02295050196413,-2.874096301816468],[107.02049360989226,-2.8739976021213876],[107.02334129426536,-2.8725092771967273]]]}},{"type":"Feature","properties":{"code":"1903082002","desa":"Celagen","kecamatan":"Kepulauan Pongok","kecCode":"190308"},"geometry":{"type":"Polygon","coordinates":[[[107.01539727506423,-2.871808353688685],[107.01608386158102,-2.8756609755855056],[107.01242296614703,-2.8722302544383234],[107.0151234234073,-2.8707119272309827],[107.01539727506423,-2.871808353688685]]]}},{"type":"Feature","properties":{"code":"1903082002","desa":"Celagen","kecamatan":"Kepulauan Pongok","kecCode":"190308"},"geometry":{"type":"Polygon","coordinates":[[[107.02490009816107,-2.873008300207718],[107.02399055621923,-2.8727725825037105],[107.02470092890478,-2.872504143866473],[107.02490009816107,-2.873008300207718]]]}},{"type":"Feature","properties":{"code":"1903082002","desa":"Celagen","kecamatan":"Kepulauan Pongok","kecCode":"190308"},"geometry":{"type":"Polygon","coordinates":[[[107.0164660086994,-2.8721961827233087],[107.01570856639727,-2.8710094760235063],[107.01643706222069,-2.8710732829225667],[107.0164660086994,-2.8721961827233087]]]}},{"type":"Feature","properties":{"code":"1903082002","desa":"Celagen","kecamatan":"Kepulauan Pongok","kecCode":"190308"},"geometry":{"type":"Polygon","coordinates":[[[107.01382993390438,-2.8704269158870988],[107.01373652132345,-2.8694614496048954],[107.01406017024073,-2.8694174781528226],[107.01382993390438,-2.8704269158870988]]]}},{"type":"Feature","properties":{"code":"1903042004","desa":"Rajik","kecamatan":"Simpang Rimba","kecCode":"190304"},"geometry":{"type":"Polygon","coordinates":[[[105.93518498469932,-2.6010280167410595],[105.9242897331847,-2.611107198239084],[105.9099542277055,-2.6085743431346495],[105.89893504781428,-2.6146650925165984],[105.89090876312893,-2.5886692939777953],[105.8985500876165,-2.5888238937325823],[105.90584499505053,-2.578156123942519],[105.93518498469932,-2.6010280167410595]]]}},{"type":"Feature","properties":{"code":"1903042004","desa":"Rajik","kecamatan":"Simpang Rimba","kecCode":"190304"},"geometry":{"type":"Polygon","coordinates":[[[105.8902490447577,-2.5879454980121954],[105.88998483473239,-2.5876158272348033],[105.89044404475692,-2.587585496699533],[105.8902490447577,-2.5879454980121954]]]}},{"type":"Feature","properties":{"code":"1903042004","desa":"Rajik","kecamatan":"Simpang Rimba","kecCode":"190304"},"geometry":{"type":"Polygon","coordinates":[[[105.8931062592465,-2.585153532938057],[105.89274907281151,-2.5849198557958295],[105.8931589909947,-2.584815170213189],[105.8931062592465,-2.585153532938057]]]}},{"type":"Feature","properties":{"code":"1903042005","desa":"Sebagin","kecamatan":"Simpang Rimba","kecCode":"190304"},"geometry":{"type":"Polygon","coordinates":[[[106.02900859357182,-2.776678896933269],[106.03309772008377,-2.832742445266272],[105.9742419539031,-2.8148985568010416],[105.95024508923954,-2.8196098900572997],[105.95342999959483,-2.7825349970058646],[105.91950295040088,-2.743450154257166],[105.9184130512214,-2.717413724348268],[105.90735208612995,-2.6975456607096806],[105.9016765105626,-2.6624997488086883],[105.88656578678172,-2.644275861705867],[105.8974414798405,-2.613492783063395],[105.9242897331847,-2.611107198239084],[105.94169623099634,-2.594408918355675],[105.95519384172245,-2.594841817813948],[105.97474546633025,-2.583403572747452],[105.98138426976827,-2.6092810357936806],[105.96197722736717,-2.6464205037651016],[106.00926749529872,-2.684461804688893],[106.05057369142276,-2.7322505218122908],[106.0472747308442,-2.748634956288479],[106.035553152556,-2.7583830532749767],[106.02900859357182,-2.776678896933269]]]}},{"type":"Feature","properties":{"code":"1903042005","desa":"Sebagin","kecamatan":"Simpang Rimba","kecCode":"190304"},"geometry":{"type":"Polygon","coordinates":[[[105.87744375912223,-2.6911231811030016],[105.8792188904395,-2.691651926707493],[105.87729188880968,-2.691237928300708],[105.87744375912223,-2.6911231811030016]]]}},{"type":"Feature","properties":{"code":"1903042007","desa":"Permis","kecamatan":"Simpang Rimba","kecCode":"190304"},"geometry":{"type":"Polygon","coordinates":[[[105.93594303314448,-2.6001026863024714],[105.90584499505053,-2.578156123942519],[105.91620791266509,-2.544857798921253],[105.9367816185769,-2.5306203636274622],[105.95258003683927,-2.5348960508959486],[105.96157049728065,-2.522125433239996],[105.9698737749548,-2.529732004318062],[105.98009778328611,-2.524288043753716],[105.98462544620742,-2.5457867032656902],[105.9810162545965,-2.5649907974382775],[105.99639390975119,-2.5786753673103426],[105.93594303314448,-2.6001026863024714]]]}},{"type":"Feature","properties":{"code":"1903042001","desa":"Jelutung II","kecamatan":"Simpang Rimba","kecCode":"190304"},"geometry":{"type":"Polygon","coordinates":[[[106.02096540073272,-2.582118140272153],[106.04380953598138,-2.583025174003792],[106.07147674075907,-2.593824508313785],[106.06327008084963,-2.6417474231720117],[106.06788257142358,-2.670782671218552],[106.0494250800035,-2.6839250946882633],[106.05148508776665,-2.7015488578951827],[106.04221078959631,-2.7161809750576755],[106.02741941867129,-2.703511809022308],[106.03104832072346,-2.6927568472619483],[106.02142252612873,-2.6884764403514496],[106.02038187382446,-2.6698500580700477],[106.00420068431418,-2.658755692169833],[106.01328330727885,-2.641653862203093],[106.01192133799941,-2.6176672093674984],[106.01871661897684,-2.612719766302903],[106.0155506924106,-2.5990776660151407],[106.02096540073272,-2.582118140272153]]]}},{"type":"Feature","properties":{"code":"1903042002","desa":"Gudang","kecamatan":"Simpang Rimba","kecCode":"190304"},"geometry":{"type":"Polygon","coordinates":[[[105.9129326105516,-2.7260124014261677],[105.91168716732896,-2.725527943835025],[105.91256546592358,-2.724915605347082],[105.9129326105516,-2.7260124014261677]]]}},{"type":"Feature","properties":{"code":"1903042002","desa":"Gudang","kecamatan":"Simpang Rimba","kecCode":"190304"},"geometry":{"type":"Polygon","coordinates":[[[106.02096540073272,-2.582118140272153],[106.0155506924106,-2.5990776660151407],[106.01871661897684,-2.612719766302903],[106.01192133799941,-2.6176672093674984],[106.01328330727885,-2.641653862203093],[106.00417029981952,-2.6585551172734667],[106.02038187382446,-2.6698500580700477],[106.02142252612873,-2.6884764403514496],[106.03104832072346,-2.6927568472619483],[106.02655514320536,-2.695867843234246],[106.0299594620596,-2.7081030162357322],[105.96197722736717,-2.6464205037651016],[105.98138426976827,-2.6092810357936806],[105.97474546633025,-2.583403572747452],[106.00823134140336,-2.578333560181976],[106.02096540073272,-2.582118140272153]]]}},{"type":"Feature","properties":{"code":"1903042003","desa":"Bangka Kota","kecamatan":"Simpang Rimba","kecCode":"190304"},"geometry":{"type":"Polygon","coordinates":[[[106.03706819364226,-2.514129229986589],[106.02584741632529,-2.5376328047910155],[106.01279385485257,-2.536497421500909],[106.00261472898661,-2.524821852541405],[105.97895459387944,-2.5267752492710986],[105.99608154822494,-2.5004470622037522],[105.98538252698211,-2.502369654455496],[105.98461249776864,-2.488253757140131],[105.99296447283221,-2.480819058196087],[105.99804555066167,-2.454560689995761],[106.02030806916213,-2.4401268634517193],[106.03320571517166,-2.4453881726080526],[106.03132037733359,-2.462478935517669],[106.02264932190872,-2.4697320361598063],[106.02915091578221,-2.5087741728023167],[106.03706819364226,-2.514129229986589]]]}},{"type":"Feature","properties":{"code":"1903042006","desa":"Simpang Rimba","kecamatan":"Simpang Rimba","kecCode":"190304"},"geometry":{"type":"Polygon","coordinates":[[[106.02584741632529,-2.5376328047910155],[106.0226895413893,-2.5557121087878607],[106.02768791666409,-2.5716997578811016],[106.02118486588893,-2.5818018451116136],[105.99275438220904,-2.5777413862929275],[105.9810162545965,-2.5649907974382775],[105.98462544620742,-2.5457867032656902],[105.97895459387944,-2.5267752492710986],[106.00261472898661,-2.524821852541405],[106.01279385485257,-2.536497421500909],[106.02584741632529,-2.5376328047910155]]]}}]}