{"type":"FeatureCollection","features":[{"type":"Feature","properties":{"code":"1904021001","desa":"Dul","kecamatan":"Pangkalan Baru","kecCode":"190402"},"geometry":{"type":"Polygon","coordinates":[[[106.13325828664067,-2.146286596260151],[106.13680973997758,-2.1660212059029362],[106.1324333556149,-2.164170976700188],[106.12723828421952,-2.194568400868529],[106.12238691932093,-2.2023877344553178],[106.11345555333116,-2.2015739442319715],[106.10378054333744,-2.187139533128675],[106.1115918306985,-2.1738067402692196],[106.09839459983095,-2.1648979472726717],[106.10348340823275,-2.1503224154533753],[106.11781594415055,-2.154467409644989],[106.13325828664067,-2.146286596260151]]]}},{"type":"Feature","properties":{"code":"1904022004","desa":"Air Mesu","kecamatan":"Pangkalan Baru","kecCode":"190402"},"geometry":{"type":"Polygon","coordinates":[[[106.10431758788644,-2.1950919115194405],[106.12238691932093,-2.2023877344553178],[106.12766033065981,-2.1945993582313292],[106.1456231562837,-2.204083873818761],[106.14855103770032,-2.231737560856394],[106.12087478304487,-2.2550087715286478],[106.09791775140313,-2.2508489682009554],[106.1011399503485,-2.2188978617776574],[106.08444632533768,-2.2125711212979686],[106.09474281273064,-2.1981560968799574],[106.10431758788644,-2.1950919115194405]]]}},{"type":"Feature","properties":{"code":"1904022006","desa":"Mangkol","kecamatan":"Pangkalan Baru","kecCode":"190402"},"geometry":{"type":"Polygon","coordinates":[[[106.10348340823275,-2.1503224154533753],[106.09839459983095,-2.1648979472726717],[106.09721606167199,-2.158537817663364],[106.07938337334406,-2.153571054463324],[106.08892402282542,-2.1445374625465274],[106.10348340823275,-2.1503224154533753]]]}},{"type":"Feature","properties":{"code":"1904022007","desa":"Tanjung Gunung","kecamatan":"Pangkalan Baru","kecCode":"190402"},"geometry":{"type":"Polygon","coordinates":[[[106.20554369638454,-2.2065162278860164],[106.18333066487831,-2.215266633183359],[106.17537869656962,-2.214240910525499],[106.16835436186437,-2.2032219878525003],[106.17026213778752,-2.1959632961252353],[106.19915743606684,-2.1855390096850313],[106.20554369638454,-2.2065162278860164]]]}},{"type":"Feature","properties":{"code":"1904022010","desa":"Benteng","kecamatan":"Pangkalan Baru","kecCode":"190402"},"geometry":{"type":"Polygon","coordinates":[[[106.18307414855315,-2.166412000002365],[106.17970617759806,-2.177577625483296],[106.1555807944182,-2.185938058661507],[106.15909447802777,-2.174149186815567],[106.18307414855315,-2.166412000002365]]]}},{"type":"Feature","properties":{"code":"1904022012","desa":"Padang Baru","kecamatan":"Pangkalan Baru","kecCode":"190402"},"geometry":{"type":"Polygon","coordinates":[[[106.17944100260023,-2.1669026809019756],[106.15139705832762,-2.1753958755978124],[106.14831163007773,-2.1558150824003603],[106.15675525684969,-2.160725069601117],[106.16256620556601,-2.1554552762406165],[106.17944100260023,-2.1669026809019756]]]}},{"type":"Feature","properties":{"code":"1904022013","desa":"Jeruk","kecamatan":"Pangkalan Baru","kecCode":"190402"},"geometry":{"type":"Polygon","coordinates":[[[106.1456231562837,-2.204083873818761],[106.12827445700066,-2.194863524189511],[106.15199737467918,-2.183097517606552],[106.17056503484854,-2.1939845654934715],[106.16364844072302,-2.212889760091722],[106.15591881270308,-2.1963915775648073],[106.1456231562837,-2.204083873818761]]]}},{"type":"Feature","properties":{"code":"1904022014","desa":"Beluluk","kecamatan":"Pangkalan Baru","kecCode":"190402"},"geometry":{"type":"Polygon","coordinates":[[[106.12723828421952,-2.194568400868529],[106.1324333556149,-2.164170976700188],[106.13680973997758,-2.1660212059029362],[106.13294816172834,-2.146185582609409],[106.14831163007773,-2.1558150824003603],[106.15051815269067,-2.1750497849986643],[106.15919341334539,-2.175334973508942],[106.1555807944182,-2.185938058661507],[106.12723828421952,-2.194568400868529]]]}},{"type":"Feature","properties":{"code":"1904022016","desa":"Pedindang","kecamatan":"Pangkalan Baru","kecCode":"190402"},"geometry":{"type":"Polygon","coordinates":[[[106.09721606167199,-2.158537817663364],[106.1101608708276,-2.171387655698804],[106.11006691505617,-2.178093493695482],[106.09359886069892,-2.1777569871712705],[106.08410261074692,-2.1687943436699504],[106.06863493795208,-2.1740190468217353],[106.06344412484657,-2.167665308694189],[106.07938337334406,-2.153571054463324],[106.09721606167199,-2.158537817663364]]]}},{"type":"Feature","properties":{"code":"1904022018","desa":"Batu Belubang","kecamatan":"Pangkalan Baru","kecCode":"190402"},"geometry":{"type":"Polygon","coordinates":[[[106.20255970086959,-2.183303537897872],[106.20224919734267,-2.183230885267194],[106.20229510503513,-2.182838115357209],[106.20255970086959,-2.183303537897872]]]}},{"type":"Feature","properties":{"code":"1904022018","desa":"Batu Belubang","kecamatan":"Pangkalan Baru","kecCode":"190402"},"geometry":{"type":"Polygon","coordinates":[[[106.20188298171428,-2.182325698743021],[106.20196250066891,-2.1826781898172722],[106.20174592503444,-2.182494164245162],[106.20188298171428,-2.182325698743021]]]}},{"type":"Feature","properties":{"code":"1904022018","desa":"Batu Belubang","kecamatan":"Pangkalan Baru","kecCode":"190402"},"geometry":{"type":"Polygon","coordinates":[[[106.20146401005609,-2.1823349716526375],[106.2011102599306,-2.1824523178910433],[106.20122104831277,-2.1818869572887456],[106.20146401005609,-2.1823349716526375]]]}},{"type":"Feature","properties":{"code":"1904022018","desa":"Batu Belubang","kecamatan":"Pangkalan Baru","kecCode":"190402"},"geometry":{"type":"Polygon","coordinates":[[[106.19915743606684,-2.1855390096850313],[106.17026213778752,-2.1959632961252353],[106.15887736100149,-2.1854716702489556],[106.17970617759806,-2.177577625483296],[106.18846773000178,-2.1634036004876918],[106.19915743606684,-2.1855390096850313]]]}},{"type":"Feature","properties":{"code":"1904022020","desa":"Air Mesu Timur","kecamatan":"Pangkalan Baru","kecCode":"190402"},"geometry":{"type":"Polygon","coordinates":[[[106.1495894327062,-2.2271706901968296],[106.1456231562837,-2.204083873818761],[106.15591881270308,-2.1963915775648073],[106.16364844072302,-2.212889760091722],[106.16835436186437,-2.2032219878525003],[106.17537869656962,-2.214240910525499],[106.16513366928346,-2.2241486056985917],[106.1495894327062,-2.2271706901968296]]]}},{"type":"Feature","properties":{"code":"1904022021","desa":"Kebintik","kecamatan":"Pangkalan Baru","kecCode":"190402"},"geometry":{"type":"Polygon","coordinates":[[[106.2574318094305,-2.1617828692776486],[106.25787438919177,-2.1622647107409474],[106.25722836479723,-2.1619006534859024],[106.2574318094305,-2.1617828692776486]]]}},{"type":"Feature","properties":{"code":"1904022021","desa":"Kebintik","kecamatan":"Pangkalan Baru","kecCode":"190402"},"geometry":{"type":"Polygon","coordinates":[[[106.1876795362816,-2.1633497499829435],[106.17118600592947,-2.1656366108303726],[106.16256620556601,-2.1554552762406165],[106.17468638406945,-2.154490522221491],[106.17806384467075,-2.1480421097643165],[106.1876795362816,-2.1633497499829435]]]}},{"type":"Feature","properties":{"code":"1904022021","desa":"Kebintik","kecamatan":"Pangkalan Baru","kecCode":"190402"},"geometry":{"type":"Polygon","coordinates":[[[106.2963107992041,-2.1545301544446738],[106.29752662685242,-2.1567339413175093],[106.29341226986043,-2.15726535431129],[106.2963107992041,-2.1545301544446738]]]}},{"type":"Feature","properties":{"code":"1904022021","desa":"Kebintik","kecamatan":"Pangkalan Baru","kecCode":"190402"},"geometry":{"type":"Polygon","coordinates":[[[106.27669579487507,-2.1493750309402313],[106.2749948774117,-2.158148103649685],[106.26751062761342,-2.1572264586328025],[106.26707690257706,-2.152877121385492],[106.27669579487507,-2.1493750309402313]]]}},{"type":"Feature","properties":{"code":"1904042001","desa":"Simpang Katis","kecamatan":"Simpang Katis","kecCode":"190404"},"geometry":{"type":"Polygon","coordinates":[[[106.08434308136816,-2.277629107763263],[106.07948985487297,-2.290008335069188],[106.0644660298834,-2.285425020306033],[106.055321502985,-2.2959518861167],[106.03547339168374,-2.2632354998004534],[106.04438692771457,-2.257996598152225],[106.0590109330082,-2.2732072905550447],[106.07224348924571,-2.271278957031394],[106.08434308136816,-2.277629107763263]]]}},{"type":"Feature","properties":{"code":"1904042002","desa":"Celuak","kecamatan":"Simpang Katis","kecCode":"190404"},"geometry":{"type":"Polygon","coordinates":[[[106.15801211966361,-2.264237803212906],[106.13920316329539,-2.289726510023295],[106.14965334032945,-2.3265642023883983],[106.13897248089533,-2.3385173345065997],[106.14792904498948,-2.395504196997809],[106.11484124942416,-2.3795080160363775],[106.12319660503935,-2.3549148667090103],[106.1172490484049,-2.3411287328011645],[106.13826238969756,-2.3174765890956803],[106.13304823558762,-2.2985707928509647],[106.12168527275719,-2.306830049601156],[106.11685295100294,-2.2996752628449797],[106.12239420023224,-2.274047157520355],[106.14468430723501,-2.2588864818124557],[106.15801211966361,-2.264237803212906]]]}},{"type":"Feature","properties":{"code":"1904042003","desa":"Sungkap","kecamatan":"Simpang Katis","kecCode":"190404"},"geometry":{"type":"Polygon","coordinates":[[[106.14792904498948,-2.395504196997809],[106.13897248089533,-2.3385173345065997],[106.14965334032945,-2.3265642023883983],[106.13931037957042,-2.2922986825881964],[106.14427215783388,-2.279300204605122],[106.1480309210902,-2.2899392338611877],[106.176593432441,-2.302622668540013],[106.17328039657308,-2.312963487102601],[106.17887763039839,-2.327992204387557],[106.16753708766653,-2.3438044497090234],[106.17184806703472,-2.36094297741112],[106.17992703130749,-2.3646169705673463],[106.17105660068165,-2.3955905804775015],[106.14792904498948,-2.395504196997809]]]}},{"type":"Feature","properties":{"code":"1904042004","desa":"Beruas","kecamatan":"Simpang Katis","kecCode":"190404"},"geometry":{"type":"Polygon","coordinates":[[[106.07040556906185,-2.241947555940359],[106.12087478304487,-2.2550087715286478],[106.09665211840057,-2.2758657800497852],[106.0590109330082,-2.2732072905550447],[106.04438692771457,-2.257996598152225],[106.07040556906185,-2.241947555940359]]]}},{"type":"Feature","properties":{"code":"1904042005","desa":"Puput","kecamatan":"Simpang Katis","kecCode":"190404"},"geometry":{"type":"Polygon","coordinates":[[[106.08143132569518,-2.3006750463571315],[106.08602555733363,-2.2769783988009147],[106.12239420023224,-2.274047157520355],[106.11685295100294,-2.2996752628449797],[106.12168527275719,-2.306830049601156],[106.11335202877319,-2.31441996253698],[106.10567136973799,-2.355347839012352],[106.07615941532481,-2.358690124426803],[106.06559989332048,-2.305345116019978],[106.08143132569518,-2.3006750463571315]]]}},{"type":"Feature","properties":{"code":"1904042006","desa":"Teru","kecamatan":"Simpang Katis","kecCode":"190404"},"geometry":{"type":"Polygon","coordinates":[[[106.06846170874091,-2.2044136956822706],[106.1011399503485,-2.2188978617776574],[106.09567763371587,-2.247683407662212],[106.07013925462296,-2.2420064246620943],[106.03547339168374,-2.2632354998004534],[106.01223578775146,-2.258974260140655],[105.97905773712493,-2.2425188556654474],[105.97965016822074,-2.228325077960383],[105.99849100285756,-2.23780973024486],[106.02049443207244,-2.236027977221278],[106.02071625255307,-2.212595120606039],[106.03958235813938,-2.205709527917691],[106.06846170874091,-2.2044136956822706]]]}},{"type":"Feature","properties":{"code":"1904042007","desa":"Terak","kecamatan":"Simpang Katis","kecCode":"190404"},"geometry":{"type":"Polygon","coordinates":[[[106.10719609382471,-2.179094308729983],[106.10431758788644,-2.1950919115194405],[106.08560230040592,-2.21079049962158],[106.077054451202,-2.2084660767902835],[106.07563448734179,-2.1944563930058125],[106.06602666659747,-2.187940508912202],[106.04668594829792,-2.1898064519689346],[106.03324717122001,-2.182670418775446],[106.04881433601287,-2.1600564677273892],[106.06827153540307,-2.161517345343164],[106.06344412484657,-2.167665308694189],[106.06863493795208,-2.1740190468217353],[106.08410261074692,-2.1687943436699504],[106.09347413282501,-2.177706144898812],[106.10719609382471,-2.179094308729983]]]}},{"type":"Feature","properties":{"code":"1904042008","desa":"Pasir Garam","kecamatan":"Simpang Katis","kecCode":"190404"},"geometry":{"type":"Polygon","coordinates":[[[106.077054451202,-2.2084660767902835],[106.0589365455852,-2.2037340915026142],[106.02071625255307,-2.212595120606039],[106.03916668069779,-2.187657365460203],[106.06602666659747,-2.187940508912202],[106.07563448734179,-2.1944563930058125],[106.077054451202,-2.2084660767902835]]]}},{"type":"Feature","properties":{"code":"1904042009","desa":"Katis","kecamatan":"Simpang Katis","kecCode":"190404"},"geometry":{"type":"Polygon","coordinates":[[[106.05917940660441,-2.2964779274598457],[106.06491812896854,-2.2853655346494004],[106.07948985487297,-2.290008335069188],[106.08143132569518,-2.3006750463571315],[106.06559989332048,-2.305345116019978],[106.05917940660441,-2.2964779274598457]]]}},{"type":"Feature","properties":{"code":"1904042010","desa":"Pinang Sebatang","kecamatan":"Simpang Katis","kecCode":"190404"},"geometry":{"type":"Polygon","coordinates":[[[106.11335202877319,-2.31441996253698],[106.13229043985199,-2.298004746065923],[106.13819553679461,-2.3188313035426957],[106.1172490484049,-2.3411287328011645],[106.12319660503935,-2.3549148667090103],[106.11592042778555,-2.3693936206843658],[106.10581005868731,-2.353549463819444],[106.11335202877319,-2.31441996253698]]]}},{"type":"Feature","properties":{"code":"1904052001","desa":"Namang","kecamatan":"Namang","kecCode":"190405"},"geometry":{"type":"Polygon","coordinates":[[[106.17105660068165,-2.3955905804775015],[106.17992703130749,-2.3646169705673463],[106.17184806703472,-2.36094297741112],[106.16742416968975,-2.348974005533676],[106.1787824533476,-2.3295269586113907],[106.17328039657308,-2.312963487102601],[106.176593432441,-2.302622668540013],[106.2020354986394,-2.285766602603846],[106.22606091228137,-2.2865762640396907],[106.22633544742303,-2.294515351349989],[106.20624167101634,-2.2964777287096605],[106.20520158438569,-2.3156097790924357],[106.19905268933019,-2.3171675334776443],[106.19686284734257,-2.3499690109477616],[106.20529219108181,-2.3547153656031137],[106.20615832634574,-2.3674637789976707],[106.190885265043,-2.4045362636644114],[106.17105660068165,-2.3955905804775015]]]}},{"type":"Feature","properties":{"code":"1904052002","desa":"Cambai","kecamatan":"Namang","kecCode":"190405"},"geometry":{"type":"Polygon","coordinates":[[[106.10128585275993,-2.2736059078569313],[106.161037412047,-2.222871046787804],[106.16513575930792,-2.235871132758663],[106.18250924300723,-2.2392859871669106],[106.18421513731879,-2.2464541117683163],[106.1733127200061,-2.250648449062558],[106.16395915828859,-2.243461643743648],[106.14340972328017,-2.244917560698985],[106.10759383159012,-2.278718970069393],[106.10128585275993,-2.2736059078569313]]]}},{"type":"Feature","properties":{"code":"1904052003","desa":"Kayu Besi","kecamatan":"Namang","kecCode":"190405"},"geometry":{"type":"Polygon","coordinates":[[[106.16930428786263,-2.2190476645486923],[106.20641323018644,-2.2066631896986997],[106.21050370568155,-2.229580912847873],[106.19869841669862,-2.2369901438909006],[106.19357888925441,-2.2288218895383936],[106.18309069967609,-2.2292189977779358],[106.16930428786263,-2.2190476645486923]]]}},{"type":"Feature","properties":{"code":"1904052004","desa":"Jelutung","kecamatan":"Namang","kecCode":"190405"},"geometry":{"type":"Polygon","coordinates":[[[106.14427215783388,-2.279300204605122],[106.15768459736631,-2.2643089018151885],[106.17914371730876,-2.2684841303145675],[106.18811803941604,-2.2554830505928263],[106.20476931535165,-2.2617693845330917],[106.21389954482815,-2.278415323873439],[106.22561830284246,-2.276344975707644],[106.22606091228137,-2.2865762640396907],[106.2020354986394,-2.285766602603846],[106.1797064114218,-2.3025820875320178],[106.16982735155106,-2.3028077175405723],[106.14729946110128,-2.289342571455834],[106.14427215783388,-2.279300204605122]]]}},{"type":"Feature","properties":{"code":"1904052005","desa":"Belilik","kecamatan":"Namang","kecCode":"190405"},"geometry":{"type":"Polygon","coordinates":[[[106.190885265043,-2.4045362636644114],[106.20615832634574,-2.3674637789976707],[106.20529219108181,-2.3547153656031137],[106.19686284734257,-2.3499690109477616],[106.19905268933019,-2.3171675334776443],[106.20520158438569,-2.3156097790924357],[106.20624167101634,-2.2964777287096605],[106.22633544742303,-2.294515351349989],[106.23399834664643,-2.314918992742511],[106.2183899686222,-2.326097154772763],[106.2130648129908,-2.351689828607496],[106.23980880433292,-2.358927162335475],[106.2444781806236,-2.3665728287414507],[106.23423728032627,-2.3703648390303815],[106.23758890970048,-2.379334901938641],[106.24532958769038,-2.3811494910086375],[106.24895358933672,-2.373318872728847],[106.25446228040998,-2.3922864119285805],[106.27008647031442,-2.3933023652510337],[106.27729901963407,-2.4057164080113074],[106.26338032474223,-2.41415533221904],[106.26517927730184,-2.423208438524922],[106.29072506500977,-2.4366437828758136],[106.26816193372633,-2.460796429876402],[106.26125128681747,-2.4457846576173505],[106.24782584668554,-2.4515455086934637],[106.23995155372131,-2.4457634399123873],[106.22787245265164,-2.4536872459425427],[106.190885265043,-2.4045362636644114]]]}},{"type":"Feature","properties":{"code":"1904052006","desa":"Bhaskara Bhakti","kecamatan":"Namang","kecCode":"190405"},"geometry":{"type":"Polygon","coordinates":[[[106.22761082008333,-2.256275139275882],[106.22813763214606,-2.2572749884384953],[106.22741094485929,-2.2569594720908714],[106.22761082008333,-2.256275139275882]]]}},{"type":"Feature","properties":{"code":"1904052006","desa":"Bhaskara Bhakti","kecamatan":"Namang","kecCode":"190405"},"geometry":{"type":"Polygon","coordinates":[[[106.20019447399585,-2.236595954850694],[106.2151217207908,-2.2299169957913914],[106.21339517264913,-2.2402808792663924],[106.2283640463637,-2.2608245765775563],[106.22366170002748,-2.275249555591276],[106.21389954482815,-2.278415323873439],[106.21207054232173,-2.269307021677022],[106.19943483644862,-2.2595980478975726],[106.19489434200032,-2.2465553619407266],[106.20019447399585,-2.236595954850694]]]}},{"type":"Feature","properties":{"code":"1904052008","desa":"Bukit Kijang","kecamatan":"Namang","kecCode":"190405"},"geometry":{"type":"Polygon","coordinates":[[[106.16584009844182,-2.236578515197622],[106.16930428786263,-2.2190476645486923],[106.1965192586569,-2.231196481949305],[106.1976018913143,-2.25399429938959],[106.18250924300723,-2.2392859871669106],[106.16584009844182,-2.236578515197622]]]}},{"type":"Feature","properties":{"code":"1904052009","desa":"Cambai Selatan","kecamatan":"Namang","kecCode":"190405"},"geometry":{"type":"Polygon","coordinates":[[[106.17914371730876,-2.2684841303145675],[106.14570112930375,-2.2586715618301247],[106.12977717557622,-2.272759074743029],[106.11576167855867,-2.2706531781754826],[106.14340972328017,-2.244917560698985],[106.16395915828859,-2.243461643743648],[106.1733127200061,-2.250648449062558],[106.18421513731879,-2.2464541117683163],[106.19938380621772,-2.2587858692593374],[106.18594448594934,-2.256026052250449],[106.17914371730876,-2.2684841303145675]]]}},{"type":"Feature","properties":{"code":"1904031001","desa":"Sungai Selan","kecamatan":"Sungai Selan","kecCode":"190403"},"geometry":{"type":"Polygon","coordinates":[[[105.87448577020217,-2.5599847482539113],[105.87360054233126,-2.5601445838617005],[105.8738958041481,-2.5597692041421407],[105.87448577020217,-2.5599847482539113]]]}},{"type":"Feature","properties":{"code":"1904031001","desa":"Sungai Selan","kecamatan":"Sungai Selan","kecCode":"190403"},"geometry":{"type":"Polygon","coordinates":[[[105.99246334360849,-2.512803027645676],[105.9698737749548,-2.529732004318062],[105.96157049728065,-2.522125433239996],[105.95258003683927,-2.5348960508959486],[105.9354476110185,-2.5286530543856856],[105.93745595722669,-2.496376127182606],[105.92617945341907,-2.4592301139454062],[105.87818030297865,-2.425955286410616],[105.88996903004676,-2.4218050212925526],[105.8818233306822,-2.4000292150079563],[105.91697650566131,-2.3729133927004042],[105.91195573367025,-2.3524763639769684],[105.90056410135223,-2.338393695711882],[105.87461080114763,-2.3307591251413022],[105.90129888973206,-2.2783996172138767],[105.91120109005834,-2.273851558572924],[105.92261241842839,-2.2941463181460726],[105.91348832232823,-2.3115191057510325],[105.92333715958233,-2.3203464714317388],[105.92531702965725,-2.332571080996346],[105.94181916832001,-2.3493108097334945],[105.94864677632773,-2.3441282829869508],[105.98349759473824,-2.352818298809008],[105.98475912683227,-2.362345609535301],[105.97471115089894,-2.3643340006845133],[105.97370492644124,-2.3702710469356667],[105.98554083644052,-2.373103635285801],[105.98665317640301,-2.3873028916607892],[105.97818999387316,-2.397263371642024],[105.98220090274953,-2.403454607671987],[105.9681556417695,-2.417410499407654],[105.96547009167148,-2.4574866909267277],[105.97551099803415,-2.4740508639067835],[105.990297045872,-2.4816418488345073],[105.98461249776864,-2.488253757140131],[105.98538252698211,-2.502369654455496],[105.9961263137784,-2.5000366215148984],[105.99246334360849,-2.512803027645676]]]}},{"type":"Feature","properties":{"code":"1904011001","desa":"Koba","kecamatan":"Koba","kecCode":"190401"},"geometry":{"type":"Polygon","coordinates":[[[106.41335466858315,-2.520281085603493],[106.40522221443369,-2.5015465616449],[106.39775095804032,-2.5003265188755046],[106.40920999724362,-2.484901864268249],[106.41821385308691,-2.4906226514465613],[106.41335466858315,-2.520281085603493]]]}},{"type":"Feature","properties":{"code":"1904011002","desa":"Arung Dalam","kecamatan":"Koba","kecCode":"190401"},"geometry":{"type":"Polygon","coordinates":[[[106.39979161059443,-2.478244798304773],[106.38848434097963,-2.5055880924325],[106.35876275369816,-2.517713634479337],[106.34231935065758,-2.504552706559288],[106.3606309567533,-2.4677033418932126],[106.39979161059443,-2.478244798304773]]]}},{"type":"Feature","properties":{"code":"1904011017","desa":"Berok","kecamatan":"Koba","kecCode":"190401"},"geometry":{"type":"Polygon","coordinates":[[[106.40930059134928,-2.4848979288349837],[106.398192125866,-2.4984802835619826],[106.39428416867952,-2.5129830494360736],[106.38816835878276,-2.503644651197807],[106.39979161059443,-2.478244798304773],[106.40930059134928,-2.4848979288349837]]]}},{"type":"Feature","properties":{"code":"1904011018","desa":"Padang Mulia","kecamatan":"Koba","kecCode":"190401"},"geometry":{"type":"Polygon","coordinates":[[[106.41310256702991,-2.5275173788159098],[106.41821385308691,-2.4906226514465613],[106.4047345363698,-2.477431451447168],[106.4231588877725,-2.480150278256583],[106.4463188793129,-2.4722612400167114],[106.46582279488615,-2.4856984405683336],[106.46849626169319,-2.5105576408330035],[106.45294317129037,-2.5180094637680823],[106.44863724341411,-2.5444470398723884],[106.41310256702991,-2.5275173788159098]]]}},{"type":"Feature","properties":{"code":"1904011018","desa":"Padang Mulia","kecamatan":"Koba","kecCode":"190401"},"geometry":{"type":"Polygon","coordinates":[[[106.47281030595093,-2.4536613625547443],[106.47449377386862,-2.4540480251686967],[106.4753146876228,-2.454232432952683],[106.47470197681484,-2.4543097656553297],[106.47281030595093,-2.4536613625547443]]]}},{"type":"Feature","properties":{"code":"1904011019","desa":"Simpang Perlang","kecamatan":"Koba","kecCode":"190401"},"geometry":{"type":"Polygon","coordinates":[[[106.39775095804032,-2.5003265188755046],[106.4060336907023,-2.502934271318448],[106.41265598078893,-2.527093250445568],[106.43399759441347,-2.5401169741971743],[106.42915509503166,-2.5512594268470656],[106.40941449498303,-2.5414953183309548],[106.40329394565913,-2.512952512956026],[106.3995124727225,-2.5085519323385213],[106.3945252508397,-2.512964063848327],[106.39775095804032,-2.5003265188755046]]]}},{"type":"Feature","properties":{"code":"1904012003","desa":"Nibung","kecamatan":"Koba","kecCode":"190401"},"geometry":{"type":"Polygon","coordinates":[[[106.42845643691508,-2.5621992109787994],[106.42061048518582,-2.569459663578675],[106.40056777768085,-2.563739161485405],[106.38973084270428,-2.566839924072128],[106.37869302166568,-2.5644590310109905],[106.37149824474822,-2.553981649496516],[106.33587646182927,-2.5476672468159127],[106.32792111027105,-2.554854385783295],[106.31114413429441,-2.5471272785715113],[106.30786084260386,-2.5528301089866234],[106.30106506520063,-2.5513142899884196],[106.28946408959608,-2.5697296247681436],[106.28206150543416,-2.5677793405919505],[106.27557713177923,-2.574877668809469],[106.27354625305718,-2.5674819231004817],[106.27976349209153,-2.547785431222413],[106.29900051406251,-2.548117897992027],[106.3055775637536,-2.5342967867518293],[106.33551058434603,-2.521066232419737],[106.34219308044634,-2.504186529602141],[106.35876275369816,-2.517713634479337],[106.37499999885091,-2.5074947181206357],[106.38848434097963,-2.5055880924325],[106.39428416867952,-2.5129830494360736],[106.3995124727225,-2.5085519323385213],[106.40941449498303,-2.5414953183309548],[106.42891997537663,-2.551351739556991],[106.42845643691508,-2.5621992109787994]]]}},{"type":"Feature","properties":{"code":"1904012006","desa":"Guntung","kecamatan":"Koba","kecCode":"190401"},"geometry":{"type":"Polygon","coordinates":[[[106.27557713177923,-2.574877668809469],[106.23875344541523,-2.5833264585800504],[106.20710018722394,-2.571256687090515],[106.17984545830132,-2.5517592871268295],[106.16329387131515,-2.5253061572477136],[106.15037168010899,-2.521136314788025],[106.19623939323348,-2.4960005091426334],[106.20791967465333,-2.51718386364763],[106.19928797266186,-2.525410252875121],[106.22091806901373,-2.5200646520621675],[106.25116152568393,-2.52754075399452],[106.26102269444185,-2.5184846925163837],[106.28529319672373,-2.5195316535636962],[106.2919016732237,-2.513650815839627],[106.28865846881335,-2.4957394224631675],[106.31767599485136,-2.4985590848575683],[106.34343092889429,-2.472350562480845],[106.34493095310108,-2.4592673575692174],[106.36018483995842,-2.4668892189207305],[106.33551058434603,-2.521066232419737],[106.3055775637536,-2.5342967867518293],[106.29900051406251,-2.548117897992027],[106.27976349209153,-2.547785431222413],[106.27557713177923,-2.574877668809469]]]}},{"type":"Feature","properties":{"code":"1904012007","desa":"Penyak","kecamatan":"Koba","kecCode":"190401"},"geometry":{"type":"Polygon","coordinates":[[[106.22927475922285,-2.4536065479767615],[106.23995155372131,-2.4457634399123873],[106.24782584668554,-2.4515455086934637],[106.26125128681747,-2.4457846576173505],[106.26816193372633,-2.460796429876402],[106.29072506500977,-2.4366437828758136],[106.26370748641142,-2.4201879494239322],[106.26555929122837,-2.411486715458707],[106.27736287599599,-2.406170666368131],[106.27079974421287,-2.393727494566839],[106.25493723486555,-2.3927120547572573],[106.2502321096242,-2.3830707999278284],[106.26306438121628,-2.361558582236708],[106.29950498786495,-2.420785037208637],[106.32117194383021,-2.4370069776810066],[106.31224136474725,-2.444989930323446],[106.3135948777015,-2.462677333155416],[106.2942633028092,-2.487125675445794],[106.2830943246434,-2.4806555902265925],[106.26789643856982,-2.4823130749299476],[106.26674915904651,-2.4664837775631248],[106.24992971978082,-2.470598245167148],[106.23828597421839,-2.481168359375071],[106.23159708933429,-2.501220511538154],[106.19917918077465,-2.495838739093234],[106.22467070788689,-2.472732717692764],[106.24039689440121,-2.46675786484209],[106.22927475922285,-2.4536065479767615]]]}},{"type":"Feature","properties":{"code":"1904012008","desa":"Terentang III","kecamatan":"Koba","kecCode":"190401"},"geometry":{"type":"Polygon","coordinates":[[[106.34493095310108,-2.4592673575692174],[106.34343092889429,-2.472350562480845],[106.31767599485136,-2.4985590848575683],[106.28865846881335,-2.4957394224631675],[106.2919016732237,-2.513650815839627],[106.28529319672373,-2.5195316535636962],[106.26102269444185,-2.5184846925163837],[106.25116152568393,-2.52754075399452],[106.22091806901373,-2.5200646520621675],[106.19928797266186,-2.525410252875121],[106.20791967465333,-2.51718386364763],[106.19623939323348,-2.4960005091426334],[106.23159708933429,-2.501220511538154],[106.23828597421839,-2.481168359375071],[106.24992971978082,-2.470598245167148],[106.26674915904651,-2.4664837775631248],[106.26789643856982,-2.4823130749299476],[106.2830943246434,-2.4806555902265925],[106.2942633028092,-2.487125675445794],[106.31236854956897,-2.4658418073131156],[106.31224136474725,-2.444989930323446],[106.32117194383021,-2.4370069776810066],[106.34493095310108,-2.4592673575692174]]]}},{"type":"Feature","properties":{"code":"1904032004","desa":"Lampur","kecamatan":"Sungai Selan","kecCode":"190403"},"geometry":{"type":"Polygon","coordinates":[[[106.10231208263656,-2.4894226725519957],[106.0702927149369,-2.500313266465811],[106.06047945216505,-2.491452738284668],[106.05907650077995,-2.4994815500561436],[106.05098744791246,-2.501852462441237],[106.05608875059544,-2.5088942889525896],[106.0501013261154,-2.5161746669316853],[106.03011266516745,-2.510704152984667],[106.02264932190872,-2.4697320361598063],[106.03132037733359,-2.462478935517669],[106.03350020087362,-2.4484419294301016],[106.02335201168603,-2.4393290056177324],[106.04579969609917,-2.4099053178969423],[106.03673540221712,-2.4047267454695085],[106.01641873243865,-2.415842815607771],[106.00724707029609,-2.400946695264453],[106.02117389236128,-2.394891609397576],[106.03174802385227,-2.372055483536152],[106.05127164806815,-2.3733454009305364],[106.07044816724918,-2.365528595337988],[106.07509213769208,-2.3710088534393945],[106.07814092036723,-2.396185503594036],[106.08993671970393,-2.412256477572678],[106.0845981848584,-2.432169929994733],[106.09465035073316,-2.4404989183777315],[106.09452210830868,-2.453394200954823],[106.10210663881035,-2.4558645136068686],[106.10231208263656,-2.4894226725519957]]]}},{"type":"Feature","properties":{"code":"1904032006","desa":"Munggu","kecamatan":"Sungai Selan","kecCode":"190403"},"geometry":{"type":"Polygon","coordinates":[[[105.9909088393715,-2.483382988474443],[105.97551099803415,-2.4740508639067835],[105.96547009167148,-2.4574866909267277],[105.9681556417695,-2.417410499407654],[105.98220090274953,-2.403454607671987],[105.97818999387316,-2.397263371642024],[105.9976351639317,-2.407382689882879],[106.01315940857988,-2.4075489403548036],[106.01641873243865,-2.415842815607771],[106.04186134632413,-2.40563919941505],[106.04467989176366,-2.4167175528861633],[106.03362193670307,-2.421529758599587],[106.02981003340635,-2.4366386333577954],[105.99804555066167,-2.454560689995761],[105.9909088393715,-2.483382988474443]]]}},{"type":"Feature","properties":{"code":"1904032007","desa":"Kemingking","kecamatan":"Sungai Selan","kecCode":"190403"},"geometry":{"type":"Polygon","coordinates":[[[106.15037168010899,-2.521136314788025],[106.1467993813864,-2.5060687530859327],[106.1209667809922,-2.5014160376405803],[106.10231208263656,-2.4894226725519957],[106.10210663881035,-2.4558645136068686],[106.11804503834793,-2.43605513432919],[106.14529152318532,-2.4283200627213892],[106.15926619457929,-2.43353514672459],[106.15755523258798,-2.4143630953965256],[106.16596476875912,-2.392574239049812],[106.19317653976553,-2.406421421636049],[106.24077784542129,-2.465625500576178],[106.19903303284825,-2.4959653942140747],[106.15037168010899,-2.521136314788025]]]}},{"type":"Feature","properties":{"code":"1904062001","desa":"Perlang","kecamatan":"Lubuk Besar","kecCode":"190406"},"geometry":{"type":"Polygon","coordinates":[[[106.48556447142327,-2.661700513213354],[106.49108513157363,-2.6460323824507577],[106.4883794159773,-2.6195764583781016],[106.47979766503026,-2.6139500190754874],[106.48633909437376,-2.613707707542314],[106.51289140601364,-2.506911762282537],[106.59123835786397,-2.5252493128999123],[106.59418832483139,-2.5372460018827616],[106.56762279855337,-2.567747565745533],[106.56220735908244,-2.5955230911352727],[106.52686529859471,-2.6245024652024425],[106.52657013480392,-2.6434515053478522],[106.53810220435331,-2.652084475373964],[106.50816989062797,-2.6513047487717105],[106.4932414567279,-2.67582998039906],[106.48556447142327,-2.661700513213354]]]}},{"type":"Feature","properties":{"code":"1904062002","desa":"Batu Beriga","kecamatan":"Lubuk Besar","kecCode":"190406"},"geometry":{"type":"Polygon","coordinates":[[[106.7302224880774,-2.6279163384503614],[106.7304223642008,-2.628558793435017],[106.7299940602777,-2.6282232887555383],[106.7302224880774,-2.6279163384503614]]]}},{"type":"Feature","properties":{"code":"1904062002","desa":"Batu Beriga","kecamatan":"Lubuk Besar","kecCode":"190406"},"geometry":{"type":"Polygon","coordinates":[[[106.77252930498348,-2.6081906069146377],[106.77261258580228,-2.6079526597913856],[106.77270776375235,-2.608256042485955],[106.77252930498348,-2.6081906069146377]]]}},{"type":"Feature","properties":{"code":"1904062002","desa":"Batu Beriga","kecamatan":"Lubuk Besar","kecCode":"190406"},"geometry":{"type":"Polygon","coordinates":[[[106.77368929192733,-2.6059122734388898],[106.7738618025802,-2.6057278647555164],[106.77396293134426,-2.605924169670854],[106.77368929192733,-2.6059122734388898]]]}},{"type":"Feature","properties":{"code":"1904062002","desa":"Batu Beriga","kecamatan":"Lubuk Besar","kecCode":"190406"},"geometry":{"type":"Polygon","coordinates":[[[106.70624365122359,-2.6430782426323196],[106.6914443248957,-2.6341013322859985],[106.68690388530608,-2.6175718362646556],[106.69160012164838,-2.5895944148743464],[106.68231973956436,-2.575795723732793],[106.68795479168034,-2.5684593638556885],[106.68874397465474,-2.5447366368593953],[106.69416521475291,-2.5414233968490016],[106.84877589199384,-2.5714861014462507],[106.83193730796044,-2.5888860404831977],[106.80619153980778,-2.5939876039639294],[106.82352353418382,-2.588162683386692],[106.81569034833096,-2.577803700317383],[106.79265121668037,-2.58424609091424],[106.78393882032037,-2.5898735158737423],[106.77223924484531,-2.6078303412013493],[106.76505779677996,-2.598583533517436],[106.75818710405166,-2.599898184066656],[106.70624365122359,-2.6430782426323196]]]}},{"type":"Feature","properties":{"code":"1904062002","desa":"Batu Beriga","kecamatan":"Lubuk Besar","kecCode":"190406"},"geometry":{"type":"Polygon","coordinates":[[[106.84580956455981,-2.5786377010051145],[106.84575959732761,-2.5795014449707527],[106.84552402981016,-2.5792872939087736],[106.84580956455981,-2.5786377010051145]]]}},{"type":"Feature","properties":{"code":"1904062002","desa":"Batu Beriga","kecamatan":"Lubuk Besar","kecCode":"190406"},"geometry":{"type":"Polygon","coordinates":[[[106.84962622077352,-2.57359919259018],[106.84979873322504,-2.5730876078488976],[106.85006047281263,-2.5732184789915276],[106.84962622077352,-2.57359919259018]]]}},{"type":"Feature","properties":{"code":"1904062002","desa":"Batu Beriga","kecamatan":"Lubuk Besar","kecCode":"190406"},"geometry":{"type":"Polygon","coordinates":[[[106.97181757931787,-2.467818361585454],[106.97185327071196,-2.467554241492706],[106.97196748461181,-2.4677898072112296],[106.97181757931787,-2.467818361585454]]]}},{"type":"Feature","properties":{"code":"1904062002","desa":"Batu Beriga","kecamatan":"Lubuk Besar","kecCode":"190406"},"geometry":{"type":"Polygon","coordinates":[[[106.97004440492542,-2.4658453119711012],[106.9697829162486,-2.4651037148249024],[106.9699908673847,-2.4650029835613125],[106.97004440492542,-2.4658453119711012]]]}},{"type":"Feature","properties":{"code":"1904062002","desa":"Batu Beriga","kecamatan":"Lubuk Besar","kecCode":"190406"},"geometry":{"type":"Polygon","coordinates":[[[107.07748000030182,-2.4071819971752912],[107.08612899985353,-2.417547997654448],[107.07841700034436,-2.421191997521137],[107.06195900040763,-2.4112979972241666],[107.07748000030182,-2.4071819971752912]]]}},{"type":"Feature","properties":{"code":"1904062002","desa":"Batu Beriga","kecamatan":"Lubuk Besar","kecCode":"190406"},"geometry":{"type":"Polygon","coordinates":[[[107.04678700041977,-2.412320997634139],[107.04737000032532,-2.4117589968990316],[107.04708399972685,-2.4124949975640733],[107.04678700041977,-2.412320997634139]]]}},{"type":"Feature","properties":{"code":"1904062003","desa":"Lubuk Besar","kecamatan":"Lubuk Besar","kecCode":"190406"},"geometry":{"type":"Polygon","coordinates":[[[106.70843699966785,-2.645052997361327],[106.65613098425757,-2.7212022317778386],[106.64464097060436,-2.7188468237047636],[106.6334800872363,-2.6949453636464815],[106.608595822839,-2.691334480414819],[106.61237491706885,-2.6428662490439065],[106.64874504384875,-2.606736179236563],[106.64353268208765,-2.5955442782633322],[106.65374563055644,-2.5852579064559422],[106.65490941443801,-2.570004642845447],[106.64937339026983,-2.5690377223595218],[106.65872059827706,-2.5521781418727523],[106.64930308037293,-2.5419172172819535],[106.65088453369435,-2.5357202948386743],[106.69416521475291,-2.5414233968490016],[106.68874397465474,-2.5447366368593953],[106.68795479168034,-2.5684593638556885],[106.68231973956436,-2.575795723732793],[106.69160012164838,-2.5895944148743464],[106.68690388530608,-2.6175718362646556],[106.6914443248957,-2.6341013322859985],[106.70843699966785,-2.645052997361327]]]}},{"type":"Feature","properties":{"code":"1904062004","desa":"Kulur","kecamatan":"Lubuk Besar","kecCode":"190406"},"geometry":{"type":"Polygon","coordinates":[[[106.4576460491259,-2.5635006945539844],[106.44739638043866,-2.569298935843417],[106.42630626222426,-2.5608168252917576],[106.43066492005009,-2.5438311328746006],[106.44863724341411,-2.5444470398723884],[106.44783563720496,-2.534425951880598],[106.46665604104349,-2.533495720136788],[106.47134950567522,-2.5408930027871652],[106.46646344133482,-2.5631431259075024],[106.46356126973689,-2.5681022502661537],[106.4576460491259,-2.5635006945539844]]]}},{"type":"Feature","properties":{"code":"1904062005","desa":"Lubuk Lingkuk","kecamatan":"Lubuk Besar","kecCode":"190406"},"geometry":{"type":"Polygon","coordinates":[[[106.55674656230406,-2.640235809403739],[106.52657013480392,-2.6434515053478522],[106.52686529859471,-2.6245024652024425],[106.56220735908244,-2.5955230911352727],[106.56762279855337,-2.567747565745533],[106.59418832483139,-2.5372460018827616],[106.59123835786397,-2.5252493128999123],[106.65088453369435,-2.5357202948386743],[106.64930308037293,-2.5419172172819535],[106.65872059827706,-2.5521781418727523],[106.64937339026983,-2.5690377223595218],[106.6426490936808,-2.566728549332151],[106.64004438544009,-2.574604784823386],[106.62521870358034,-2.5792454700377343],[106.60522440568182,-2.6066196882534207],[106.55959815962738,-2.6317854314303886],[106.55674656230406,-2.640235809403739]]]}},{"type":"Feature","properties":{"code":"1904062006","desa":"Lubuk Pabrik","kecamatan":"Lubuk Besar","kecCode":"190406"},"geometry":{"type":"Polygon","coordinates":[[[106.608595822839,-2.691334480414819],[106.59766202818014,-2.6841114504038504],[106.5795509088474,-2.6839915527888074],[106.56126732562666,-2.663548563358658],[106.56821754360482,-2.652019841098547],[106.54486009601668,-2.655699288642998],[106.53509055198742,-2.6463478673221634],[106.55502009959798,-2.6412955156430358],[106.55959815962738,-2.6317854314303886],[106.60522440568182,-2.6066196882534207],[106.62008048822399,-2.5838040525453168],[106.64597465530612,-2.5658423232146883],[106.65586136301158,-2.5746574401290925],[106.64353268208765,-2.5955442782633322],[106.64874504384875,-2.606736179236563],[106.61237491706885,-2.6428662490439065],[106.608595822839,-2.691334480414819]]]}},{"type":"Feature","properties":{"code":"1904062007","desa":"Trubus","kecamatan":"Lubuk Besar","kecCode":"190406"},"geometry":{"type":"Polygon","coordinates":[[[106.51289140601364,-2.506911762282537],[106.50000000039978,-2.5663223993087603],[106.48700663684689,-2.573121636396431],[106.46356126973689,-2.5681022502661537],[106.47134950567522,-2.5408930027871652],[106.46708719761614,-2.5250615488460095],[106.48502760763802,-2.5016485213824846],[106.47848186244806,-2.4957317926149076],[106.51289140601364,-2.506911762282537]]]}},{"type":"Feature","properties":{"code":"1904062008","desa":"Kulur Ilir","kecamatan":"Lubuk Besar","kecCode":"190406"},"geometry":{"type":"Polygon","coordinates":[[[106.44783563720496,-2.534425951880598],[106.45294317129037,-2.5180094637680823],[106.46833495479439,-2.5110552501096923],[106.46582279488615,-2.4856984405683336],[106.48502760763802,-2.5016485213824846],[106.46328808627622,-2.537275494249971],[106.44783563720496,-2.534425951880598]]]}},{"type":"Feature","properties":{"code":"1904062009","desa":"Belimbing","kecamatan":"Lubuk Besar","kecCode":"190406"},"geometry":{"type":"Polygon","coordinates":[[[106.48633909437376,-2.613707707542314],[106.47162616861281,-2.6245703900972304],[106.4608416047563,-2.6235723467732432],[106.44757618639191,-2.5841233298578428],[106.4577867876302,-2.573115119908898],[106.4576460491259,-2.5635006945539844],[106.494789736757,-2.5730491807172013],[106.48633909437376,-2.613707707542314]]]}},{"type":"Feature","properties":{"code":"1904032009","desa":"Tanjung Pura","kecamatan":"Sungai Selan","kecCode":"190403"},"geometry":{"type":"Polygon","coordinates":[[[105.7828018463282,-2.4010740230782655],[105.80336296712726,-2.407766495350692],[105.80192655017021,-2.415924541498666],[105.79140271686197,-2.417620113389952],[105.79118849475327,-2.4227419664754124],[105.7828018463282,-2.4010740230782655]]]}},{"type":"Feature","properties":{"code":"1904032009","desa":"Tanjung Pura","kecamatan":"Sungai Selan","kecCode":"190403"},"geometry":{"type":"Polygon","coordinates":[[[105.77124536378254,-2.3984515352435993],[105.77054731180901,-2.398187447526413],[105.7711851559702,-2.3979697414443972],[105.77124536378254,-2.3984515352435993]]]}},{"type":"Feature","properties":{"code":"1904032009","desa":"Tanjung Pura","kecamatan":"Sungai Selan","kecCode":"190403"},"geometry":{"type":"Polygon","coordinates":[[[105.76038350229685,-2.3913758402640397],[105.76403305188386,-2.3960589069291225],[105.76292157257257,-2.3963291109355045],[105.76038350229685,-2.3913758402640397]]]}},{"type":"Feature","properties":{"code":"1904032009","desa":"Tanjung Pura","kecamatan":"Sungai Selan","kecCode":"190403"},"geometry":{"type":"Polygon","coordinates":[[[105.74736806488436,-2.3886968156496815],[105.74641522688125,-2.3880221010840184],[105.7465717718698,-2.387433486711573],[105.74736806488436,-2.3886968156496815]]]}},{"type":"Feature","properties":{"code":"1904032009","desa":"Tanjung Pura","kecamatan":"Sungai Selan","kecCode":"190403"},"geometry":{"type":"Polygon","coordinates":[[[105.74963952394495,-2.387860233907775],[105.75407985190371,-2.387685138603509],[105.75434254387335,-2.3889272165617212],[105.74963952394495,-2.387860233907775]]]}},{"type":"Feature","properties":{"code":"1904032009","desa":"Tanjung Pura","kecamatan":"Sungai Selan","kecCode":"190403"},"geometry":{"type":"Polygon","coordinates":[[[105.76227450316583,-2.3873737339562204],[105.76140644605071,-2.386923882277424],[105.76145428638625,-2.386484221716042],[105.76227450316583,-2.3873737339562204]]]}},{"type":"Feature","properties":{"code":"1904032009","desa":"Tanjung Pura","kecamatan":"Sungai Selan","kecCode":"190403"},"geometry":{"type":"Polygon","coordinates":[[[105.87744944643487,-2.3312665568133646],[105.90056410135223,-2.338393695711882],[105.91195573367025,-2.3524763639769684],[105.91701406764514,-2.3725931360262265],[105.8818233306822,-2.4000292150079563],[105.88996903004676,-2.4218050212925526],[105.87489531156943,-2.4296896150828657],[105.83484878414411,-2.412881044142484],[105.82418077782069,-2.38869348276213],[105.80151072703846,-2.366303880188648],[105.81731539828705,-2.337725685592023],[105.81922588656545,-2.34682155106386],[105.83456236176362,-2.348582865195291],[105.87744944643487,-2.3312665568133646]]]}},{"type":"Feature","properties":{"code":"1904012005","desa":"Kurau (Timur)","kecamatan":"Koba","kecCode":"190401"},"geometry":{"type":"Polygon","coordinates":[[[106.26306438121628,-2.361558582236708],[106.24532958769038,-2.3811494910086375],[106.23835946681601,-2.3800159594226455],[106.23407633225696,-2.3707380217061926],[106.24346101321525,-2.3644128307583605],[106.23875404526302,-2.35834492145848],[106.22501019116741,-2.357590586314813],[106.2293210050604,-2.334938682077726],[106.23777771876678,-2.328642434011236],[106.26306438121628,-2.361558582236708]]]}},{"type":"Feature","properties":{"code":"1904012005","desa":"Kurau (Timur)","kecamatan":"Koba","kecCode":"190401"},"geometry":{"type":"Polygon","coordinates":[[[106.44460140263271,-2.287355379102953],[106.44567687129063,-2.2821333082667814],[106.44837908942351,-2.2802147530717485],[106.44798608389073,-2.2845879025681755],[106.44460140263271,-2.287355379102953]]]}},{"type":"Feature","properties":{"code":"1904012005","desa":"Kurau (Timur)","kecamatan":"Koba","kecCode":"190401"},"geometry":{"type":"Polygon","coordinates":[[[106.3293566926573,-2.2673437413980007],[106.325542606706,-2.263937065424453],[106.32824722872668,-2.262399612335193],[106.3293566926573,-2.2673437413980007]]]}},{"type":"Feature","properties":{"code":"1904012005","desa":"Kurau (Timur)","kecamatan":"Koba","kecCode":"190401"},"geometry":{"type":"Polygon","coordinates":[[[106.35279794536892,-2.2585889186307617],[106.35452543420149,-2.258974391441695],[106.35170815230947,-2.259269444615519],[106.35279794536892,-2.2585889186307617]]]}},{"type":"Feature","properties":{"code":"1904012005","desa":"Kurau (Timur)","kecamatan":"Koba","kecCode":"190401"},"geometry":{"type":"Polygon","coordinates":[[[106.38548389416644,-2.2496127691110015],[106.3847694790283,-2.2512805825280267],[106.38386290394993,-2.25200155911901],[106.38548389416644,-2.2496127691110015]]]}},{"type":"Feature","properties":{"code":"1904012010","desa":"Kurau Barat","kecamatan":"Koba","kecCode":"190401"},"geometry":{"type":"Polygon","coordinates":[[[106.22512650858157,-2.357877860352937],[106.21377328181153,-2.3529041435947824],[106.21226239829109,-2.341768318948452],[106.21946786544969,-2.3245409876910506],[106.23439490090401,-2.315981508463873],[106.23777771876678,-2.328642434011236],[106.2293210050604,-2.334938682077726],[106.22512650858157,-2.357877860352937]]]}},{"type":"Feature","properties":{"code":"1904032002","desa":"Kerantai","kecamatan":"Sungai Selan","kecCode":"190403"},"geometry":{"type":"Polygon","coordinates":[[[106.11592042778555,-2.3693936206843658],[106.11486582969434,-2.379558792658298],[106.13989674923567,-2.3920967844794245],[106.13483752493187,-2.40310514371576],[106.1155707605822,-2.3950361853089057],[106.08993671970393,-2.412256477572678],[106.07814092036723,-2.396185503594036],[106.07050184238618,-2.365400586737419],[106.07615941532481,-2.358690124426803],[106.10272797861336,-2.3542689250528395],[106.11592042778555,-2.3693936206843658]]]}},{"type":"Feature","properties":{"code":"1904032003","desa":"Keretak","kecamatan":"Sungai Selan","kecCode":"190403"},"geometry":{"type":"Polygon","coordinates":[[[106.05217265904105,-2.2936314607718944],[106.0649051850263,-2.302837237786752],[106.0761600862191,-2.3595659507841695],[106.05127164806815,-2.3733454009305364],[106.04106147041057,-2.369864907704152],[106.03423868186974,-2.354994424334357],[106.0375139740907,-2.338497824614192],[106.02918195858057,-2.318084495724587],[106.05217265904105,-2.2936314607718944]]]}},{"type":"Feature","properties":{"code":"1904032005","desa":"Sarang Mandi","kecamatan":"Sungai Selan","kecCode":"190403"},"geometry":{"type":"Polygon","coordinates":[[[106.02824863316793,-2.307675884467657],[106.0375139740907,-2.338497824614192],[106.0332140231087,-2.3493537046970374],[105.98461863744022,-2.3219865299717686],[106.01267900333339,-2.300021433483901],[106.02824863316793,-2.307675884467657]]]}},{"type":"Feature","properties":{"code":"1904032008","desa":"Sungai Selan Atas","kecamatan":"Sungai Selan","kecCode":"190403"},"geometry":{"type":"Polygon","coordinates":[[[105.97924299386916,-2.396476529603766],[105.98665317640301,-2.3873028916607892],[105.98592502771793,-2.373670488762645],[105.97370492644124,-2.3702710469356667],[105.97471115089894,-2.3643340006845133],[105.98475912683227,-2.362345609535301],[105.98349759473824,-2.352818298809008],[106.0213477870708,-2.356996495970462],[106.0332140231087,-2.3493537046970374],[106.04103221366579,-2.3699958696783208],[106.03143657873515,-2.3723057999348303],[106.02117389236128,-2.394891609397576],[105.99807968982587,-2.4073860830249876],[105.97924299386916,-2.396476529603766]]]}},{"type":"Feature","properties":{"code":"1904032010","desa":"Romadhon","kecamatan":"Sungai Selan","kecCode":"190403"},"geometry":{"type":"Polygon","coordinates":[[[105.97777987244318,-2.230273306286285],[105.97905773712493,-2.2425188556654474],[106.00333866344862,-2.255403786146451],[106.01383178670766,-2.2887503795802564],[106.01089216284312,-2.3042346007831163],[105.98461863744022,-2.3219865299717686],[105.95875205166588,-2.3122894883972718],[105.95000559528205,-2.3006908456468476],[105.93462780612838,-2.296921778861961],[105.92015183374019,-2.304183334030634],[105.92197491331167,-2.2911994934131346],[105.91120109005834,-2.273851558572924],[105.91597464741211,-2.2672398723997635],[105.91187808440611,-2.2499024281511697],[105.92607754674144,-2.227300079256764],[105.92427142478645,-2.2102408753564333],[105.94756334777037,-2.227909110937571],[105.95887079095428,-2.24538929108458],[105.9682209964019,-2.2440637056785437],[105.97777987244318,-2.230273306286285]]]}},{"type":"Feature","properties":{"code":"1904032011","desa":"Kerakas","kecamatan":"Sungai Selan","kecCode":"190403"},"geometry":{"type":"Polygon","coordinates":[[[106.13989674923567,-2.3920967844794245],[106.16133873529446,-2.3974632783421286],[106.15926619457929,-2.43353514672459],[106.14529152318532,-2.4283200627213892],[106.11804503834793,-2.43605513432919],[106.10303856397861,-2.455849818684641],[106.09563330433359,-2.4543978623435296],[106.09465035073316,-2.4404989183777315],[106.084447418014,-2.431202349406411],[106.09298276124548,-2.4059615838851687],[106.10883162607875,-2.4034508655929243],[106.1155707605822,-2.3950361853089057],[106.13483752493187,-2.40310514371576],[106.13989674923567,-2.3920967844794245]]]}},{"type":"Feature","properties":{"code":"1904032012","desa":"Melabun","kecamatan":"Sungai Selan","kecCode":"190403"},"geometry":{"type":"Polygon","coordinates":[[[106.0213477870708,-2.356996495970462],[105.94864677632773,-2.3441282829869508],[105.94181916832001,-2.3493108097334945],[105.91348832232823,-2.3115191057510325],[105.93462780612838,-2.296921778861961],[105.95000559528205,-2.3006908456468476],[105.95875205166588,-2.3122894883972718],[105.97071895241777,-2.3136021667332156],[106.0332140231087,-2.3493537046970374],[106.0213477870708,-2.356996495970462]]]}},{"type":"Feature","properties":{"code":"1904032013","desa":"Keretak Atas","kecamatan":"Sungai Selan","kecCode":"190403"},"geometry":{"type":"Polygon","coordinates":[[[106.03547339168374,-2.2632354998004534],[106.05217265904105,-2.2936314607718944],[106.02918195858057,-2.318084495724587],[106.02824863316793,-2.307675884467657],[106.01267900333339,-2.300021433483901],[106.00333866344862,-2.255403786146451],[106.03547339168374,-2.2632354998004534]]]}}]}