{"type":"FeatureCollection","features":[{"type":"Feature","properties":{"code":"1971011004","desa":"Semabung Lama","kecamatan":"Bukitintan","kecCode":"197101"},"geometry":{"type":"Polygon","coordinates":[[[106.13483244466164,-2.131511960835305],[106.13055038209448,-2.142627954531221],[106.12121454871249,-2.1383330586432368],[106.12895223825524,-2.1235326108771138],[106.13483244466164,-2.131511960835305]]]}},{"type":"Feature","properties":{"code":"1971011006","desa":"Bacang","kecamatan":"Bukitintan","kecCode":"197101"},"geometry":{"type":"Polygon","coordinates":[[[106.13325828664067,-2.146286596260151],[106.13483244466164,-2.131511960835305],[106.15197810400632,-2.122840207546092],[106.14547546332204,-2.1540173969874625],[106.13325828664067,-2.146286596260151]]]}},{"type":"Feature","properties":{"code":"1971011007","desa":"Air Itam","kecamatan":"Bukitintan","kecCode":"197101"},"geometry":{"type":"Polygon","coordinates":[[[106.16256620556601,-2.1554552762406165],[106.15675525684969,-2.160725069601117],[106.14547546332204,-2.1540173969874625],[106.15044293879066,-2.1299850882698625],[106.15338416075049,-2.139304137594318],[106.15873139833542,-2.1349651029802916],[106.1548995984378,-2.1473917479403006],[106.16256620556601,-2.1554552762406165]]]}},{"type":"Feature","properties":{"code":"1971011008","desa":"Pasir Putih","kecamatan":"Bukitintan","kecCode":"197101"},"geometry":{"type":"Polygon","coordinates":[[[106.13107241605923,-2.112547468538717],[106.12264616598783,-2.1320441355548314],[106.11779450341366,-2.1210267426285867],[106.12670074504341,-2.1087857267319188],[106.13107241605923,-2.112547468538717]]]}},{"type":"Feature","properties":{"code":"1971011009","desa":"Temberan","kecamatan":"Bukitintan","kecCode":"197101"},"geometry":{"type":"Polygon","coordinates":[[[106.13598669932678,-2.097094500575682],[106.15227102938455,-2.082953278351638],[106.18167407140135,-2.1304884577042604],[106.16230748230453,-2.144567447742159],[106.15873139833542,-2.1349651029802916],[106.15338416075049,-2.139304137594318],[106.15197810400632,-2.122840207546092],[106.14528044173902,-2.1213323520446234],[106.14424541289553,-2.106404372318626],[106.13598669932678,-2.097094500575682]]]}},{"type":"Feature","properties":{"code":"1971011010","desa":"Sinar Bulan","kecamatan":"Bukitintan","kecCode":"197101"},"geometry":{"type":"Polygon","coordinates":[[[106.17620553325882,-2.136912580372369],[106.17468638406945,-2.154490522221491],[106.16256620556601,-2.1554552762406165],[106.1548995984378,-2.1473917479403006],[106.157302204733,-2.1425706991932043],[106.16230748230453,-2.144567447742159],[106.17810174659837,-2.1302564002410374],[106.18167407140135,-2.1304884577042604],[106.17620553325882,-2.136912580372369]]]}},{"type":"Feature","properties":{"code":"1971011011","desa":"Air Mawar","kecamatan":"Bukitintan","kecCode":"197101"},"geometry":{"type":"Polygon","coordinates":[[[106.13483244466164,-2.131511960835305],[106.12561172270289,-2.119636929440853],[106.13982759766554,-2.0997027035789877],[106.14796789839983,-2.1224246155405564],[106.13483244466164,-2.131511960835305]]]}},{"type":"Feature","properties":{"code":"1971021001","desa":"Opas Indah","kecamatan":"Taman Sari","kecCode":"197102"},"geometry":{"type":"Polygon","coordinates":[[[106.1227705862936,-2.1150972659711518],[106.11783113459927,-2.12060062495792],[106.11400377285587,-2.122419481311024],[106.11259048556252,-2.1122344118368743],[106.1227705862936,-2.1150972659711518]]]}},{"type":"Feature","properties":{"code":"1971021002","desa":"Gedung Nasional","kecamatan":"Taman Sari","kecCode":"197102"},"geometry":{"type":"Polygon","coordinates":[[[106.11783113459927,-2.12060062495792],[106.11869854959842,-2.1246481578208174],[106.11124875642501,-2.1291889796172554],[106.11087148093416,-2.124594897271349],[106.11783113459927,-2.12060062495792]]]}},{"type":"Feature","properties":{"code":"1971021003","desa":"Batin Tikal","kecamatan":"Taman Sari","kecCode":"197102"},"geometry":{"type":"Polygon","coordinates":[[[106.10883631694252,-2.115169473437484],[106.11417960470503,-2.1238746455338897],[106.10729741594305,-2.1259722899223776],[106.10883631694252,-2.115169473437484]]]}},{"type":"Feature","properties":{"code":"1971021004","desa":"Rawa Bangun","kecamatan":"Taman Sari","kecCode":"197102"},"geometry":{"type":"Polygon","coordinates":[[[106.10753341873236,-2.125149796959553],[106.11124875642501,-2.1291889796172554],[106.10784368034165,-2.1304948995481245],[106.10753341873236,-2.125149796959553]]]}},{"type":"Feature","properties":{"code":"1971021005","desa":"Kejaksaan","kecamatan":"Taman Sari","kecCode":"197102"},"geometry":{"type":"Polygon","coordinates":[[[106.10471904165053,-2.1206495858486503],[106.10784368034165,-2.1304948995481245],[106.09411048231293,-2.1263365863970565],[106.10471904165053,-2.1206495858486503]]]}},{"type":"Feature","properties":{"code":"1971031004","desa":"Pasir Garam","kecamatan":"Pangkal Balam","kecCode":"197103"},"geometry":{"type":"Polygon","coordinates":[[[106.11946741059255,-2.095241891766862],[106.12720216384882,-2.104875943925988],[106.1181468083286,-2.106877195380392],[106.11946741059255,-2.095241891766862]]]}},{"type":"Feature","properties":{"code":"1971031005","desa":"Lontong Pancur","kecamatan":"Pangkal Balam","kecCode":"197103"},"geometry":{"type":"Polygon","coordinates":[[[106.13108112329525,-2.0875973180371945],[106.12937375679347,-2.1010275776212146],[106.11732030079132,-2.096107527006753],[106.11973456140093,-2.0878835983244945],[106.13108112329525,-2.0875973180371945]]]}},{"type":"Feature","properties":{"code":"1971031006","desa":"Ketapang","kecamatan":"Pangkal Balam","kecCode":"197103"},"geometry":{"type":"Polygon","coordinates":[[[106.13067067181413,-2.0969343538025162],[106.1392052443266,-2.0993126415276584],[106.13255381980298,-2.1101743375261597],[106.1273753840668,-2.1044744460956175],[106.13067067181413,-2.0969343538025162]]]}},{"type":"Feature","properties":{"code":"1971031007","desa":"Ampui","kecamatan":"Pangkal Balam","kecCode":"197103"},"geometry":{"type":"Polygon","coordinates":[[[106.13107241605923,-2.112547468538717],[106.12599190120532,-2.108877186884593],[106.12377301920952,-2.1139637568682006],[106.12128498001788,-2.1041310129930375],[106.12893132272244,-2.103908232036705],[106.13107241605923,-2.112547468538717]]]}},{"type":"Feature","properties":{"code":"1971031008","desa":"Rejo Sari","kecamatan":"Pangkal Balam","kecCode":"197103"},"geometry":{"type":"Polygon","coordinates":[[[106.12377301920952,-2.1139637568682006],[106.11259048556252,-2.1122344118368743],[106.11248663365124,-2.1095689076301607],[106.1202967204174,-2.1067024022483785],[106.12377301920952,-2.1139637568682006]]]}},{"type":"Feature","properties":{"code":"1971041001","desa":"Pintu Air","kecamatan":"Rangkui","kecCode":"197104"},"geometry":{"type":"Polygon","coordinates":[[[106.09775275728396,-2.1304395372829648],[106.10784368034165,-2.1304948995481245],[106.1083357677815,-2.1321475656838706],[106.10014125861228,-2.13690821596245],[106.09775275728396,-2.1304395372829648]]]}},{"type":"Feature","properties":{"code":"1971041002","desa":"Bintang","kecamatan":"Rangkui","kecCode":"197104"},"geometry":{"type":"Polygon","coordinates":[[[106.11740936784808,-2.133399820370347],[106.11285278362912,-2.138560786770148],[106.10948377035976,-2.1378525634650787],[106.11343196141593,-2.1309809102683626],[106.11740936784808,-2.133399820370347]]]}},{"type":"Feature","properties":{"code":"1971041005","desa":"Masjid Jamik","kecamatan":"Rangkui","kecCode":"197104"},"geometry":{"type":"Polygon","coordinates":[[[106.10784368034165,-2.1304948995481245],[106.11533763292549,-2.1306135138305757],[106.1098376463903,-2.1351471815202134],[106.10784368034165,-2.1304948995481245]]]}},{"type":"Feature","properties":{"code":"1971041006","desa":"Asam","kecamatan":"Rangkui","kecCode":"197104"},"geometry":{"type":"Polygon","coordinates":[[[106.10348340823275,-2.1503224154533753],[106.09692554467819,-2.14601744625918],[106.10183139140564,-2.1359056994106966],[106.10584035055177,-2.1423861223366907],[106.10348340823275,-2.1503224154533753]]]}},{"type":"Feature","properties":{"code":"1971041007","desa":"Melintang","kecamatan":"Rangkui","kecCode":"197104"},"geometry":{"type":"Polygon","coordinates":[[[106.10183139140564,-2.1359056994106966],[106.1083357677815,-2.1321475656838706],[106.1098376463903,-2.1351471815202134],[106.10508999580672,-2.1401158449878004],[106.10183139140564,-2.1359056994106966]]]}},{"type":"Feature","properties":{"code":"1971041008","desa":"Parit Lalang","kecamatan":"Rangkui","kecCode":"197104"},"geometry":{"type":"Polygon","coordinates":[[[106.10931404310867,-2.135829821811098],[106.1135387361238,-2.142130058370752],[106.1037465237831,-2.1495008694767326],[106.10211054006942,-2.1450307946475435],[106.10931404310867,-2.135829821811098]]]}},{"type":"Feature","properties":{"code":"1971041009","desa":"Keramat","kecamatan":"Rangkui","kecCode":"197104"},"geometry":{"type":"Polygon","coordinates":[[[106.09692554467819,-2.14601744625918],[106.0886451367637,-2.144320568552309],[106.08740743760323,-2.1316604622873565],[106.09775275728396,-2.1304395372829648],[106.09692554467819,-2.14601744625918]]]}},{"type":"Feature","properties":{"code":"1971041010","desa":"Gajah Mada","kecamatan":"Rangkui","kecCode":"197104"},"geometry":{"type":"Polygon","coordinates":[[[106.09837794888328,-2.133037821663473],[106.10177633580928,-2.1410046728439247],[106.09704863488666,-2.145891224611441],[106.09446348959841,-2.1400260395876685],[106.09837794888328,-2.133037821663473]]]}},{"type":"Feature","properties":{"code":"1971051001","desa":"Taman Bunga","kecamatan":"Gerunggang","kecCode":"197105"},"geometry":{"type":"Polygon","coordinates":[[[106.11259048556252,-2.1122344118368743],[106.10848007659433,-2.1178457919917517],[106.0936644095849,-2.1142878239698555],[106.09040282393123,-2.10312722929647],[106.11259048556252,-2.1122344118368743]]]}},{"type":"Feature","properties":{"code":"1971051002","desa":"Bukitmerapin","kecamatan":"Gerunggang","kecCode":"197105"},"geometry":{"type":"Polygon","coordinates":[[[106.09040282393123,-2.10312722929647],[106.0936644095849,-2.1142878239698555],[106.10293804855216,-2.117873077422589],[106.09362058292362,-2.1206612986189968],[106.08721259498532,-2.115120651941571],[106.08555043920148,-2.103492611252872],[106.09040282393123,-2.10312722929647]]]}},{"type":"Feature","properties":{"code":"1971051004","desa":"Bukitsari","kecamatan":"Gerunggang","kecCode":"197105"},"geometry":{"type":"Polygon","coordinates":[[[106.10526709390132,-2.114657859917876],[106.10749984524169,-2.122347929450473],[106.09789432676183,-2.118965768995851],[106.10526709390132,-2.114657859917876]]]}},{"type":"Feature","properties":{"code":"1971051005","desa":"Tua Tunu","kecamatan":"Gerunggang","kecCode":"197105"},"geometry":{"type":"Polygon","coordinates":[[[106.04073514511094,-2.079560326032452],[106.05979130082794,-2.0670312195132645],[106.07048096372556,-2.075347022935682],[106.09561337895435,-2.0800861110688773],[106.09226908175276,-2.0877012095185075],[106.08691237970258,-2.0829527900197533],[106.08408626287081,-2.09127772605755],[106.07874847266396,-2.089158075258696],[106.08721259498532,-2.115120651941571],[106.07738557708281,-2.111498138677195],[106.0731861109503,-2.116356168446122],[106.06500431639614,-2.10914494473507],[106.05923643531331,-2.12076756520982],[106.0401738971077,-2.1132719650762164],[106.04855002166623,-2.098756687833973],[106.04115550082575,-2.0926046505540516],[106.04073514511094,-2.079560326032452]]]}},{"type":"Feature","properties":{"code":"1971051006","desa":"Kacang Pedang","kecamatan":"Gerunggang","kecCode":"197105"},"geometry":{"type":"Polygon","coordinates":[[[106.10418406194496,-2.1212744950602143],[106.09411601134491,-2.1254744423252823],[106.09775275728396,-2.1304395372829648],[106.08388147824769,-2.1292363990700527],[106.09039766631928,-2.117078959869027],[106.10418406194496,-2.1212744950602143]]]}},{"type":"Feature","properties":{"code":"1971051007","desa":"Air Kepala Tujuh","kecamatan":"Gerunggang","kecCode":"197105"},"geometry":{"type":"Polygon","coordinates":[[[106.08721259498532,-2.115120651941571],[106.08410676471549,-2.12921148874874],[106.05923643531331,-2.12076756520982],[106.06500431639614,-2.10914494473507],[106.0731861109503,-2.116356168446122],[106.07738557708281,-2.111498138677195],[106.08721259498532,-2.115120651941571]]]}},{"type":"Feature","properties":{"code":"1971061001","desa":"Selindung","kecamatan":"Gabek","kecCode":"197106"},"geometry":{"type":"Polygon","coordinates":[[[106.09972536983003,-2.0815483304731868],[106.10817989188854,-2.077222039252552],[106.10322899362318,-2.0730707632965184],[106.10652104920712,-2.0658119861336917],[106.11119170073646,-2.0706622997193995],[106.1291663677337,-2.057445823374715],[106.14095167917672,-2.0717969815383013],[106.14134951316953,-2.079227781921257],[106.13108112329525,-2.0875973180371945],[106.10718540628153,-2.0910242242601726],[106.09972536983003,-2.0815483304731868]]]}},{"type":"Feature","properties":{"code":"1971061002","desa":"Selindung Baru","kecamatan":"Gabek","kecCode":"197106"},"geometry":{"type":"Polygon","coordinates":[[[106.11973456140093,-2.0878835983244945],[106.11611999634083,-2.098523500822247],[106.10545609991912,-2.098399198327826],[106.10742013023486,-2.0903251128860467],[106.11973456140093,-2.0878835983244945]]]}},{"type":"Feature","properties":{"code":"1971061003","desa":"Gabek Satu","kecamatan":"Gabek","kecCode":"197106"},"geometry":{"type":"Polygon","coordinates":[[[106.09937059357809,-2.103672657324951],[106.11151900629716,-2.0985503186056396],[106.11228301994548,-2.108064904824379],[106.09937059357809,-2.103672657324951]]]}},{"type":"Feature","properties":{"code":"1971061004","desa":"Gabek Dua","kecamatan":"Gabek","kecCode":"197106"},"geometry":{"type":"Polygon","coordinates":[[[106.11862660743202,-2.096771991099827],[106.12029627705158,-2.1030394051028716],[106.11248663365124,-2.1095689076301607],[106.11152569995112,-2.100416162736989],[106.11862660743202,-2.096771991099827]]]}},{"type":"Feature","properties":{"code":"1971061005","desa":"Air Salemba","kecamatan":"Gabek","kecCode":"197106"},"geometry":{"type":"Polygon","coordinates":[[[106.11248663365124,-2.1095689076301607],[106.10300812642394,-2.112244861959042],[106.09494467006054,-2.1038791425658228],[106.10661118825577,-2.1019184370458186],[106.10444870364483,-2.1058588462640406],[106.11248663365124,-2.1095689076301607]]]}},{"type":"Feature","properties":{"code":"1971061006","desa":"Jerambah Gantung","kecamatan":"Gabek","kecCode":"197106"},"geometry":{"type":"Polygon","coordinates":[[[106.09079907961386,-2.0790426834579128],[106.09811751241335,-2.0754326950516884],[106.09954910091032,-2.0875289227970204],[106.10718540628153,-2.0910242242601726],[106.09602434304905,-2.1043837989300713],[106.08033864131528,-2.0994033777261203],[106.07884155969025,-2.088914851812934],[106.08408626287081,-2.09127772605755],[106.08691237970258,-2.0829527900197533],[106.0926019712041,-2.0874788800218314],[106.09573123330983,-2.080233215873778],[106.09079907961386,-2.0790426834579128]]]}},{"type":"Feature","properties":{"code":"1971071001","desa":"Pasar Padi","kecamatan":"Girimaya","kecCode":"197107"},"geometry":{"type":"Polygon","coordinates":[[[106.11869854959842,-2.1246481578208174],[106.12121967394886,-2.130941002852642],[106.11740936784808,-2.133399820370347],[106.11427584565382,-2.1275426483059574],[106.11869854959842,-2.1246481578208174]]]}},{"type":"Feature","properties":{"code":"1971071002","desa":"Bukitintan","kecamatan":"Girimaya","kecCode":"197107"},"geometry":{"type":"Polygon","coordinates":[[[106.11604699567238,-2.1429501609355737],[106.11740936784808,-2.133399820370347],[106.11991267123284,-2.1377677960670614],[106.11604699567238,-2.1429501609355737]]]}},{"type":"Feature","properties":{"code":"1971071003","desa":"Bukitbesar","kecamatan":"Girimaya","kecCode":"197107"},"geometry":{"type":"Polygon","coordinates":[[[106.12845030503763,-2.148787798825852],[106.11764220502378,-2.154471692216535],[106.11949723391028,-2.138013815505009],[106.1229918024298,-2.143351014851391],[106.12845030503763,-2.148787798825852]]]}},{"type":"Feature","properties":{"code":"1971071004","desa":"Sriwi Jaya","kecamatan":"Girimaya","kecCode":"197107"},"geometry":{"type":"Polygon","coordinates":[[[106.11764220502378,-2.154471692216535],[106.11239937243317,-2.154600942780849],[106.11119351466901,-2.153567300693065],[106.10348340823275,-2.1503224154533753],[106.10330561226425,-2.1500042865752182],[106.1171860850698,-2.1414728751890406],[106.11764220502378,-2.154471692216535]]]}},{"type":"Feature","properties":{"code":"1971071005","desa":"Semabung Baru","kecamatan":"Girimaya","kecCode":"197107"},"geometry":{"type":"Polygon","coordinates":[[[106.13268074202266,-2.1460069349830726],[106.1264787006316,-2.1473667485861525],[106.11740936784808,-2.133399820370347],[106.12239529470713,-2.131400137333604],[106.12121454871249,-2.1383330586432368],[106.13238883467706,-2.139811900216828],[106.13268074202266,-2.1460069349830726]]]}}]}