{"type":"FeatureCollection","features":[{"type":"Feature","properties":{"code":"2172011001","desa":"Tanjung Pinang Barat","kecamatan":"Tanjung Pinang Barat","kecCode":"217201"},"geometry":{"type":"Polygon","coordinates":[[[104.4439888172302,0.9257725993910968],[104.4475651449156,0.913353346858467],[104.44038735439294,0.9052457256977182],[104.43853928176253,0.9235285642594704],[104.4439888172302,0.9257725993910968]]]}},{"type":"Feature","properties":{"code":"2172011002","desa":"Kemboja","kecamatan":"Tanjung Pinang Barat","kecCode":"217201"},"geometry":{"type":"Polygon","coordinates":[[[104.45244859492675,0.91853610203274],[104.44456668200684,0.9296119787706794],[104.45542902462984,0.9308167726354268],[104.45244859492675,0.91853610203274]]]}},{"type":"Feature","properties":{"code":"2172011002","desa":"Kemboja","kecamatan":"Tanjung Pinang Barat","kecCode":"217201"},"geometry":{"type":"Polygon","coordinates":[[[104.45360306812715,0.9332026020753202],[104.45494549423921,0.9337512793542975],[104.45554665235618,0.9329936967587807],[104.45360306812715,0.9332026020753202]]]}},{"type":"Feature","properties":{"code":"2172011003","desa":"Kampung Baru","kecamatan":"Tanjung Pinang Barat","kecCode":"217201"},"geometry":{"type":"Polygon","coordinates":[[[104.44249366015434,0.9060517880467411],[104.447173795934,0.917852621775069],[104.44960547641165,0.9188662719337616],[104.45407546670945,0.8983676810193836],[104.44249366015434,0.9060517880467411]]]}},{"type":"Feature","properties":{"code":"2172011004","desa":"Bukit Cermin","kecamatan":"Tanjung Pinang Barat","kecCode":"217201"},"geometry":{"type":"Polygon","coordinates":[[[104.45326842859515,0.9193176416681585],[104.44379376956687,0.9235561896340198],[104.4439888172302,0.9257725993910968],[104.45326842859515,0.9193176416681585]]]}},{"type":"Feature","properties":{"code":"2172021001","desa":"Melayu Kota Piring","kecamatan":"Tanjung Pinang Timur","kecCode":"217202"},"geometry":{"type":"Polygon","coordinates":[[[104.4907611988703,0.9277165136691399],[104.49210743540988,0.9091687393295098],[104.48058394539282,0.9059406534256836],[104.47535199459894,0.9122165246532034],[104.47824114491293,0.9264805537989067],[104.4907611988703,0.9277165136691399]]]}},{"type":"Feature","properties":{"code":"2172021002","desa":"Kampung Bulang","kecamatan":"Tanjung Pinang Timur","kecCode":"217202"},"geometry":{"type":"Polygon","coordinates":[[[104.47630863133833,0.9278005499183181],[104.47630445578606,0.9124632887298061],[104.46458198357173,0.91387307406153],[104.46981161321543,0.9244129161897849],[104.47000855305237,0.9303270836880364],[104.47630863133833,0.9278005499183181]]]}},{"type":"Feature","properties":{"code":"2172021002","desa":"Kampung Bulang","kecamatan":"Tanjung Pinang Timur","kecCode":"217202"},"geometry":{"type":"Polygon","coordinates":[[[104.467605527673,0.9221835831749439],[104.46738638627278,0.9226641655874016],[104.4679930500393,0.9226190232179828],[104.467605527673,0.9221835831749439]]]}},{"type":"Feature","properties":{"code":"2172021002","desa":"Kampung Bulang","kecamatan":"Tanjung Pinang Timur","kecCode":"217202"},"geometry":{"type":"Polygon","coordinates":[[[104.4683130414138,0.9243954540536613],[104.4681433222566,0.9244111751023176],[104.46832498980649,0.924422529043115],[104.4683130414138,0.9243954540536613]]]}},{"type":"Feature","properties":{"code":"2172021003","desa":"Air Raja","kecamatan":"Tanjung Pinang Timur","kecCode":"217202"},"geometry":{"type":"Polygon","coordinates":[[[104.48870422541972,0.9807057439787654],[104.51092709640841,0.9714019750353722],[104.52162303657393,0.977332109097189],[104.5176066858999,0.9729833483153493],[104.52169527281865,0.9714792879529687],[104.52230854660218,0.9680532675622174],[104.51066317506552,0.9378235471706354],[104.51093264882273,0.9177992721927097],[104.49522913871384,0.9143131779886803],[104.48858194999707,0.9289201150329279],[104.49774938982256,0.9345649023037351],[104.48982188037552,0.9404247372606487],[104.49190186477932,0.9537344346304065],[104.48301457726097,0.9579728485973003],[104.48128530507283,0.9733203728490079],[104.48870422541972,0.9807057439787654]]]}},{"type":"Feature","properties":{"code":"2172021004","desa":"Batu IX","kecamatan":"Tanjung Pinang Timur","kecCode":"217202"},"geometry":{"type":"Polygon","coordinates":[[[104.54697891534471,0.9073176440797457],[104.52177761744315,0.8832158537412721],[104.49642031324692,0.8895655961808662],[104.48573394096864,0.8849650423135231],[104.47975327399443,0.8949721008812607],[104.48620194456414,0.9023479985525278],[104.48025938456298,0.905780562410465],[104.51258321864071,0.9199986083207017],[104.54697891534471,0.9073176440797457]]]}},{"type":"Feature","properties":{"code":"2172021005","desa":"Pinang Kencana","kecamatan":"Tanjung Pinang Timur","kecCode":"217202"},"geometry":{"type":"Polygon","coordinates":[[[104.54551345388285,0.9415366608357856],[104.55201356567356,0.9154978360328817],[104.54697891534471,0.9073176440797457],[104.51144825083615,0.9191063189739908],[104.51066317506552,0.9378235471706354],[104.51968940424268,0.9601871440481998],[104.52803739890692,0.945052255500816],[104.54551345388285,0.9415366608357856]]]}},{"type":"Feature","properties":{"code":"2172031001","desa":"Tanjung Pinang Kota","kecamatan":"Tanjung Pinang Kota","kecCode":"217203"},"geometry":{"type":"Polygon","coordinates":[[[104.44404800431202,0.9345666056196936],[104.43854211102968,0.923398515996473],[104.43635562081533,0.9255910946186371],[104.44404800431202,0.9345666056196936]]]}},{"type":"Feature","properties":{"code":"2172031003","desa":"Senggarang","kecamatan":"Tanjung Pinang Kota","kecCode":"217203"},"geometry":{"type":"Polygon","coordinates":[[[104.42183619318581,0.9463740520629903],[104.42215655777898,0.9459267121906876],[104.42155740604947,0.9460432301534353],[104.42183619318581,0.9463740520629903]]]}},{"type":"Feature","properties":{"code":"2172031003","desa":"Senggarang","kecamatan":"Tanjung Pinang Kota","kecCode":"217203"},"geometry":{"type":"Polygon","coordinates":[[[104.42245796376407,0.946191806249187],[104.42246359621805,0.9463105455374538],[104.42258230313087,0.9462469562743036],[104.42245796376407,0.946191806249187]]]}},{"type":"Feature","properties":{"code":"2172031003","desa":"Senggarang","kecamatan":"Tanjung Pinang Kota","kecCode":"217203"},"geometry":{"type":"Polygon","coordinates":[[[104.34652106459548,0.9522521216736579],[104.33794398292854,0.9509245703497111],[104.33650524392192,0.9548935222508951],[104.34652106459548,0.9522521216736579]]]}},{"type":"Feature","properties":{"code":"2172031003","desa":"Senggarang","kecamatan":"Tanjung Pinang Kota","kecCode":"217203"},"geometry":{"type":"Polygon","coordinates":[[[104.40974554841836,0.959552272147107],[104.40425839071224,0.954660390997158],[104.40162911659051,0.9571534528996768],[104.40386142996105,0.9601562496379906],[104.40974554841836,0.959552272147107]]]}},{"type":"Feature","properties":{"code":"2172031003","desa":"Senggarang","kecamatan":"Tanjung Pinang Kota","kecCode":"217203"},"geometry":{"type":"Polygon","coordinates":[[[104.46168354236164,0.9781511306768652],[104.45923403642172,0.9657673447077338],[104.45017638043566,0.9643512398399758],[104.4400802565986,0.942498412018592],[104.40897504975878,0.9635671587203848],[104.41573280022862,0.9784786125042924],[104.46168354236164,0.9781511306768652]]]}},{"type":"Feature","properties":{"code":"2172031004","desa":"Penyengat","kecamatan":"Tanjung Pinang Kota","kecCode":"217203"},"geometry":{"type":"Polygon","coordinates":[[[104.41005640807685,0.9300602377501486],[104.42700387572836,0.9270012612629729],[104.40883245505381,0.926531778283261],[104.41005640807685,0.9300602377501486]]]}},{"type":"Feature","properties":{"code":"2172031005","desa":"Kampung Bugis","kecamatan":"Tanjung Pinang Kota","kecCode":"217203"},"geometry":{"type":"Polygon","coordinates":[[[104.46611424127927,0.9845828211397974],[104.47338722234252,0.9774622212120162],[104.47642635169484,0.9891080441953529],[104.50000010332217,0.9910833178331341],[104.49775583256569,0.9784974263214897],[104.48870422541972,0.9807057439787654],[104.48128530507283,0.9733203728490079],[104.48301457726097,0.9579728485973003],[104.49190186477932,0.9537344346304065],[104.48982188037552,0.9404247372606487],[104.49774938982256,0.9345649023037351],[104.48398958984774,0.9250415926613198],[104.47070112725527,0.938022709232077],[104.4495567385527,0.9367226708674686],[104.44064411083713,0.9437867564986532],[104.45017638043566,0.9643512398399758],[104.45923403642172,0.9657673447077338],[104.45876275479735,0.9767710427576802],[104.46611424127927,0.9845828211397974]]]}},{"type":"Feature","properties":{"code":"2172041001","desa":"Tanjung Pinang Timur","kecamatan":"Bukit Bestari","kecCode":"217204"},"geometry":{"type":"Polygon","coordinates":[[[104.45326842859515,0.9193176416681585],[104.46468325532805,0.9192216228520882],[104.46664887834311,0.9106955732240676],[104.45423434723739,0.9071341293225972],[104.45326842859515,0.9193176416681585]]]}},{"type":"Feature","properties":{"code":"2172041002","desa":"Dompak","kecamatan":"Bukit Bestari","kecCode":"217204"},"geometry":{"type":"Polygon","coordinates":[[[104.4945757938379,0.8290599878012496],[104.49423325735899,0.8292266051965935],[104.4948487398775,0.8294484760389712],[104.4945757938379,0.8290599878012496]]]}},{"type":"Feature","properties":{"code":"2172041002","desa":"Dompak","kecamatan":"Bukit Bestari","kecCode":"217204"},"geometry":{"type":"Polygon","coordinates":[[[104.4553272726356,0.8590071457028404],[104.45481685881106,0.8537655361960487],[104.4507977472183,0.8544123771742641],[104.4553272726356,0.8590071457028404]]]}},{"type":"Feature","properties":{"code":"2172041002","desa":"Dompak","kecamatan":"Bukit Bestari","kecCode":"217204"},"geometry":{"type":"Polygon","coordinates":[[[104.42524742063199,0.8618015758185952],[104.42469195437023,0.8576427752350233],[104.41981032998278,0.8603165010438628],[104.42524742063199,0.8618015758185952]]]}},{"type":"Feature","properties":{"code":"2172041002","desa":"Dompak","kecamatan":"Bukit Bestari","kecCode":"217204"},"geometry":{"type":"Polygon","coordinates":[[[104.43158078642419,0.860977008119894],[104.43111454909722,0.8611182952104619],[104.43143178494897,0.8619834466151086],[104.43158078642419,0.860977008119894]]]}},{"type":"Feature","properties":{"code":"2172041002","desa":"Dompak","kecamatan":"Bukit Bestari","kecCode":"217204"},"geometry":{"type":"Polygon","coordinates":[[[104.53809057112299,0.8943054712207645],[104.54400407043158,0.8759694026864795],[104.52709161968254,0.8564627936654751],[104.51528311022741,0.8531274896881],[104.51454789197169,0.8441516090657586],[104.49845598355688,0.838561119262721],[104.48990725571535,0.8507764136494114],[104.47559496263749,0.8501638161567425],[104.47827791369478,0.8650887660665247],[104.49088146340887,0.8746236949497592],[104.48169978281878,0.878009370854225],[104.48180000956285,0.8868884448543712],[104.51028382663736,0.888346162252506],[104.52177761744315,0.8832158537412721],[104.53809057112299,0.8943054712207645]]]}},{"type":"Feature","properties":{"code":"2172041002","desa":"Dompak","kecamatan":"Bukit Bestari","kecCode":"217204"},"geometry":{"type":"Polygon","coordinates":[[[104.43653601132792,0.869351836745989],[104.43604401382026,0.8695871128827941],[104.43633636003506,0.8699649801271101],[104.43653601132792,0.869351836745989]]]}},{"type":"Feature","properties":{"code":"2172041002","desa":"Dompak","kecamatan":"Bukit Bestari","kecCode":"217204"},"geometry":{"type":"Polygon","coordinates":[[[104.45468848328693,0.8875274473416127],[104.48516528255179,0.8704569209769912],[104.46877964206686,0.8673199094166494],[104.46191307542813,0.8584079301222034],[104.44753107499918,0.8692948008425163],[104.43549046221511,0.8704762932731644],[104.42902770826218,0.8667067660354986],[104.4167420428111,0.8761605715736059],[104.45468848328693,0.8875274473416127]]]}},{"type":"Feature","properties":{"code":"2172041003","desa":"Tanjung Ayun Sakti","kecamatan":"Bukit Bestari","kecCode":"217204"},"geometry":{"type":"Polygon","coordinates":[[[104.4697866426395,0.8950952873170254],[104.45423434723739,0.9071341293225972],[104.4630059675514,0.9116946849426116],[104.4697866426395,0.8950952873170254]]]}},{"type":"Feature","properties":{"code":"2172041004","desa":"Sei Jang","kecamatan":"Bukit Bestari","kecCode":"217204"},"geometry":{"type":"Polygon","coordinates":[[[104.47535199459894,0.9122165246532034],[104.48620194456414,0.9023479985525278],[104.47970865862776,0.896209421425806],[104.48247696703845,0.881255070879631],[104.46371683306545,0.9009157256730916],[104.46413875090268,0.9101784621488695],[104.47535199459894,0.9122165246532034]]]}},{"type":"Feature","properties":{"code":"2172041005","desa":"Tanjung Unggat","kecamatan":"Bukit Bestari","kecCode":"217204"},"geometry":{"type":"Polygon","coordinates":[[[104.45311019557916,0.9232022110812237],[104.45981044429664,0.9307976611426523],[104.4605779760928,0.9256240907444886],[104.46804537799186,0.930061033650164],[104.4646638092874,0.9137827803295674],[104.4650401746644,0.9189860571335378],[104.45311019557916,0.9232022110812237]]]}}]}